{"type": "FeatureCollection", "features": [{"type": "Feature", "id": "way/497617944", "properties": {"tags": {"building": "residential"}, "heightStatus": "unknown", "source": "OpenStreetMap", "license": "ODbL-1.0"}, "geometry": {"type": "MultiPolygon", "coordinates": [[[[114.1232472, 22.5643296], [114.1232577, 22.5641822], [114.123855, 22.5642184], [114.1238445, 22.5643659], [114.1232472, 22.5643296]]]]}}, {"type": "Feature", "id": "way/497617946", "properties": {"tags": {"building": "residential"}, "heightStatus": "unknown", "source": "OpenStreetMap", "license": "ODbL-1.0"}, "geometry": {"type": "MultiPolygon", "coordinates": [[[[114.1232238, 22.564535], [114.1232324, 22.5644103], [114.1238441, 22.5644463], [114.1238354, 22.5645712], [114.1232238, 22.564535]]]]}}, {"type": "Feature", "id": "way/497617948", "properties": {"tags": {"building": "yes"}, "heightStatus": "unknown", "source": "OpenStreetMap", "license": "ODbL-1.0"}, "geometry": {"type": "MultiPolygon", "coordinates": [[[[114.1232268, 22.5647742], [114.1232344, 22.5646436], [114.1237932, 22.5646713], [114.1237856, 22.5648019], [114.1232268, 22.5647742]]]]}}, {"type": "Feature", "id": "way/497617950", "properties": {"tags": {"building": "commercial"}, "heightStatus": "unknown", "source": "OpenStreetMap", "license": "ODbL-1.0"}, "geometry": {"type": "MultiPolygon", "coordinates": [[[[114.1222702, 22.5642533], [114.1222808, 22.564134], [114.1231337, 22.5641863], [114.1231231, 22.5643072], [114.1222702, 22.5642533]]]]}}, {"type": "Feature", "id": "way/497617952", "properties": {"tags": {"building": "yes"}, "heightStatus": "unknown", "source": "OpenStreetMap", "license": "ODbL-1.0"}, "geometry": {"type": "MultiPolygon", "coordinates": [[[[114.122804, 22.5644845], [114.1228093, 22.5644028], [114.1231296, 22.5644126], [114.1231208, 22.5644992], [114.1230889, 22.5644927], [114.1230836, 22.5645106], [114.1230376, 22.5645057], [114.1230429, 22.5644878], [114.1229403, 22.5644812], [114.1229403, 22.5644992], [114.1228394, 22.5644943], [114.122804, 22.5644845]]]]}}, {"type": "Feature", "id": "way/647431559", "properties": {"tags": {"building": "school"}, "heightStatus": "unknown", "source": "OpenStreetMap", "license": "ODbL-1.0"}, "geometry": {"type": "MultiPolygon", "coordinates": [[[[114.1237838, 22.569118], [114.1237932, 22.5689973], [114.1248252, 22.5690404], [114.1248159, 22.5691569], [114.1237838, 22.569118]]]]}}, {"type": "Feature", "id": "way/647431560", "properties": {"tags": {"building": "school"}, "heightStatus": "unknown", "source": "OpenStreetMap", "license": "ODbL-1.0"}, "geometry": {"type": "MultiPolygon", "coordinates": [[[[114.1237371, 22.5693207], [114.1237418, 22.5691525], [114.1238585, 22.5691525], [114.1238632, 22.5692], [114.1240734, 22.5692129], [114.1240687, 22.5693293], [114.1244049, 22.5693466], [114.1244049, 22.569463], [114.1239519, 22.5694415], [114.1239566, 22.569325], [114.1237371, 22.5693207]]]]}}, {"type": "Feature", "id": "way/1241339609", "properties": {"tags": {"building": "commercial", "name": "水贝万山"}, "heightStatus": "unknown", "source": "OpenStreetMap", "license": "ODbL-1.0"}, "geometry": {"type": "MultiPolygon", "coordinates": [[[[114.1222693, 22.571608], [114.1223266, 22.571395], [114.1222711, 22.5713834], [114.1224035, 22.5706206], [114.1226019, 22.570647], [114.1225197, 22.5711869], [114.1227414, 22.5712447], [114.1229399, 22.5706866], [114.1234102, 22.5708237], [114.1231259, 22.5718226], [114.1222693, 22.571608]]]]}}, {"type": "Feature", "id": "way/1241339611", "properties": {"tags": {"building": "commercial", "name": "水贝万山-E座"}, "heightStatus": "unknown", "source": "OpenStreetMap", "license": "ODbL-1.0"}, "geometry": {"type": "MultiPolygon", "coordinates": [[[[114.1229381, 22.5705743], [114.1230293, 22.5702821], [114.1231473, 22.5703151], [114.1230597, 22.5706107], [114.1229381, 22.5705743]]]]}}, {"type": "Feature", "id": "way/1241339612", "properties": {"tags": {"building": "commercial", "name": "水贝万山-D座"}, "heightStatus": "unknown", "source": "OpenStreetMap", "license": "ODbL-1.0"}, "geometry": {"type": "MultiPolygon", "coordinates": [[[[114.1231037, 22.5706259], [114.1232051, 22.5703201], [114.1235566, 22.5704195], [114.1234552, 22.5707254], [114.1231037, 22.5706259]]]]}}, {"type": "Feature", "id": "way/1241339614", "properties": {"tags": {"building": "commercial", "name": "化工大厦"}, "heightStatus": "unknown", "source": "OpenStreetMap", "license": "ODbL-1.0"}, "geometry": {"type": "MultiPolygon", "coordinates": [[[[114.1237487, 22.5701915], [114.1238166, 22.5699867], [114.1246642, 22.570208], [114.1245676, 22.5706241], [114.1242189, 22.5705547], [114.1242511, 22.5703979], [114.1244371, 22.5704243], [114.1244496, 22.5703649], [114.1237487, 22.5701915]]]]}}, {"type": "Feature", "id": "way/1241339615", "properties": {"tags": {"building": "residential", "name": "金贝苑"}, "heightStatus": "unknown", "source": "OpenStreetMap", "license": "ODbL-1.0"}, "geometry": {"type": "MultiPolygon", "coordinates": [[[[114.1236337, 22.5706949], [114.1236614, 22.5705575], [114.1236899, 22.5705624], [114.1237072, 22.5704763], [114.123898, 22.5705092], [114.1238811, 22.5705927], [114.1239254, 22.5706003], [114.1239435, 22.5705111], [114.1241227, 22.570542], [114.1241022, 22.5706438], [114.1241326, 22.5706491], [114.1241044, 22.5707885], [114.124068, 22.5707822], [114.1240498, 22.5708725], [114.1238739, 22.5708423], [114.1238905, 22.5707602], [114.1238397, 22.5707515], [114.1238241, 22.570829], [114.1236401, 22.5707974], [114.1236599, 22.5706994], [114.1236337, 22.5706949]]]]}}, {"type": "Feature", "id": "way/1241339619", "properties": {"tags": {"building": "commercial", "name": "水贝万山综合楼"}, "heightStatus": "unknown", "source": "OpenStreetMap", "license": "ODbL-1.0"}, "geometry": {"type": "MultiPolygon", "coordinates": [[[[114.1231207, 22.5702049], [114.1231547, 22.5700942], [114.1234975, 22.5701842], [114.1235665, 22.5699601], [114.123214, 22.5698676], [114.1232462, 22.569763], [114.1237755, 22.5699019], [114.1236404, 22.5703412], [114.1231207, 22.5702049]]]]}}, {"type": "Feature", "id": "way/1241339621", "properties": {"tags": {"building": "commercial", "name": "水贝珠宝交易中心"}, "heightStatus": "unknown", "source": "OpenStreetMap", "license": "ODbL-1.0"}, "geometry": {"type": "MultiPolygon", "coordinates": [[[[114.1225072, 22.5703936], [114.1226464, 22.5696703], [114.1230582, 22.5697868], [114.1228411, 22.5704884], [114.1225072, 22.5703936]]]]}}, {"type": "Feature", "id": "way/1241339634", "properties": {"tags": {"building": "yes", "ref": "中国电信机房大楼", "telecom": "exchange"}, "heightStatus": "unknown", "source": "OpenStreetMap", "license": "ODbL-1.0"}, "geometry": {"type": "MultiPolygon", "coordinates": [[[[114.1236999, 22.5688336], [114.123708, 22.5686585], [114.1242198, 22.5686788], [114.1242116, 22.5688538], [114.1236999, 22.5688336]]]]}}, {"type": "Feature", "id": "way/1241339636", "properties": {"tags": {"building": "yes", "name": "深圳市盐务局", "office": "government"}, "heightStatus": "unknown", "source": "OpenStreetMap", "license": "ODbL-1.0"}, "geometry": {"type": "MultiPolygon", "coordinates": [[[[114.1241959, 22.5680912], [114.124209, 22.5678485], [114.1245729, 22.5678653], [114.1245598, 22.5681079], [114.1241959, 22.5680912]]]]}}, {"type": "Feature", "id": "way/1241339638", "properties": {"tags": {"building": "office", "name": "盐业综合大楼"}, "heightStatus": "unknown", "source": "OpenStreetMap", "license": "ODbL-1.0"}, "geometry": {"type": "MultiPolygon", "coordinates": [[[[114.1246975, 22.5681188], [114.1247143, 22.567854], [114.1248858, 22.5678633], [114.1248689, 22.5681281], [114.1246975, 22.5681188]]]]}}, {"type": "Feature", "id": "way/1241339639", "properties": {"tags": {"building": "commercial", "name": "华盐大厦"}, "heightStatus": "unknown", "source": "OpenStreetMap", "license": "ODbL-1.0"}, "geometry": {"type": "MultiPolygon", "coordinates": [[[[114.1242599, 22.5676526], [114.12427, 22.5674058], [114.1248031, 22.5674434], [114.1248452, 22.5674541], [114.1248917, 22.5674943], [114.1249076, 22.5675238], [114.1249134, 22.5675534], [114.1249033, 22.5677827], [114.1243296, 22.5677465], [114.1243005, 22.5677291], [114.1242802, 22.5677089], [114.1242671, 22.5676794], [114.1242599, 22.5676526]]]]}}, {"type": "Feature", "id": "way/1241339643", "properties": {"tags": {"building": "commercial", "name": "船舶大厦"}, "heightStatus": "unknown", "source": "OpenStreetMap", "license": "ODbL-1.0"}, "geometry": {"type": "MultiPolygon", "coordinates": [[[[114.1227999, 22.5674485], [114.1228306, 22.5672219], [114.1236381, 22.5673151], [114.1236075, 22.5675415], [114.1227999, 22.5674485]]]]}}, {"type": "Feature", "id": "way/1241339644", "properties": {"tags": {"building": "yes", "name": "明阳酒店", "tourism": "hotel"}, "heightStatus": "unknown", "source": "OpenStreetMap", "license": "ODbL-1.0"}, "geometry": {"type": "MultiPolygon", "coordinates": [[[[114.1219345, 22.5673641], [114.1219632, 22.5671278], [114.1227184, 22.567206], [114.1226897, 22.5674422], [114.1219345, 22.5673641]]]]}}, {"type": "Feature", "id": "way/1244836627", "properties": {"tags": {"building": "yes"}, "heightStatus": "unknown", "source": "OpenStreetMap", "license": "ODbL-1.0"}, "geometry": {"type": "MultiPolygon", "coordinates": [[[[114.1222886, 22.5644092], [114.1222976, 22.564344], [114.1226304, 22.5643831], [114.1226214, 22.5644483], [114.1222886, 22.5644092]]]]}}, {"type": "Feature", "id": "way/1264730600", "properties": {"tags": {"building": "apartments", "building:levels": "25", "layer": "2", "name": "2栋", "name:en": "Block 2", "name:zh": "2栋"}, "heightStatus": "levels_only_unverified", "source": "OpenStreetMap", "license": "ODbL-1.0"}, "geometry": {"type": "MultiPolygon", "coordinates": [[[[114.1272533, 22.569193], [114.1272557, 22.5691225], [114.1273134, 22.5691242], [114.1273156, 22.5690574], [114.1273506, 22.5690584], [114.127351, 22.5690454], [114.1273928, 22.5690467], [114.1273926, 22.5690523], [114.1274496, 22.569054], [114.1274499, 22.5690445], [114.1274946, 22.5690459], [114.1274941, 22.5690593], [114.1275279, 22.5690603], [114.1275255, 22.5691286], [114.1275734, 22.56913], [114.127571, 22.5691985], [114.1275222, 22.569197], [114.1275196, 22.5692696], [114.1274902, 22.5692687], [114.1274898, 22.5692793], [114.1273385, 22.5692748], [114.1273389, 22.5692647], [114.1273063, 22.5692637], [114.1273087, 22.5691946], [114.1272533, 22.569193]]]]}}, {"type": "Feature", "id": "way/1264730601", "properties": {"tags": {"building": "apartments", "building:levels": "25", "layer": "2", "name": "1栋", "name:en": "Block 1", "name:zh": "1栋"}, "heightStatus": "levels_only_unverified", "source": "OpenStreetMap", "license": "ODbL-1.0"}, "geometry": {"type": "MultiPolygon", "coordinates": [[[[114.1276983, 22.569202], [114.1277007, 22.5691315], [114.1277584, 22.5691332], [114.1277607, 22.5690664], [114.1277956, 22.5690674], [114.1277961, 22.5690544], [114.1278379, 22.5690556], [114.1278377, 22.5690612], [114.1278946, 22.5690629], [114.127895, 22.5690535], [114.1279397, 22.5690549], [114.1279392, 22.5690683], [114.127973, 22.5690693], [114.1279706, 22.5691376], [114.1280184, 22.569139], [114.128016, 22.5692075], [114.1279672, 22.569206], [114.1279647, 22.5692785], [114.1279352, 22.5692777], [114.1279349, 22.5692883], [114.1277836, 22.5692838], [114.1277839, 22.5692737], [114.1277514, 22.5692727], [114.1277537, 22.5692036], [114.1276983, 22.569202]]]]}}, {"type": "Feature", "id": "way/1264730602", "properties": {"tags": {"building": "retail", "layer": "1"}, "heightStatus": "unknown", "source": "OpenStreetMap", "license": "ODbL-1.0"}, "geometry": {"type": "MultiPolygon", "coordinates": [[[[114.1272403, 22.5692891], [114.1272423, 22.5690443], [114.1280288, 22.5690498], [114.1280268, 22.5692948], [114.1272403, 22.5692891]]]]}}, {"type": "Feature", "id": "way/1264730604", "properties": {"tags": {"building": "apartments", "building:levels": "32", "name": "善水居"}, "heightStatus": "levels_only_unverified", "source": "OpenStreetMap", "license": "ODbL-1.0"}, "geometry": {"type": "MultiPolygon", "coordinates": [[[[114.1265733, 22.569104], [114.12659, 22.568637], [114.1266901, 22.5686401], [114.1266768, 22.5690101], [114.1268437, 22.5690152], [114.1268431, 22.5690313], [114.126884, 22.5690326], [114.1268834, 22.5690493], [114.1269245, 22.5690507], [114.1269238, 22.5690692], [114.1269938, 22.5690715], [114.1269865, 22.5692594], [114.1268929, 22.5692563], [114.1268934, 22.5692445], [114.1268157, 22.569242], [114.1268186, 22.5691659], [114.1267218, 22.5691628], [114.1267246, 22.5690898], [114.1266838, 22.5690885], [114.1266831, 22.5691074], [114.1265733, 22.569104]]]]}}, {"type": "Feature", "id": "way/1264730609", "properties": {"tags": {"building": "commercial", "building:levels": "20", "layer": "2", "name": "逸翠大厦"}, "heightStatus": "levels_only_unverified", "source": "OpenStreetMap", "license": "ODbL-1.0"}, "geometry": {"type": "MultiPolygon", "coordinates": [[[[114.1250811, 22.5646671], [114.1251126, 22.5646197], [114.1251324, 22.5646046], [114.1254325, 22.5645367], [114.1254955, 22.5645561], [114.1255119, 22.5645809], [114.1255177, 22.5646186], [114.125499, 22.5646639], [114.125478, 22.5646887], [114.1251686, 22.5647642], [114.1251219, 22.5647448], [114.1250927, 22.5647135], [114.1250811, 22.5646671]]]]}}, {"type": "Feature", "id": "way/1264730612", "properties": {"tags": {"building": "commercial", "building:levels": "3", "layer": "1"}, "heightStatus": "levels_only_unverified", "source": "OpenStreetMap", "license": "ODbL-1.0"}, "geometry": {"type": "MultiPolygon", "coordinates": [[[[114.1248055, 22.5637825], [114.1248076, 22.5635734], [114.1248363, 22.5633118], [114.1249685, 22.5630359], [114.1254116, 22.5632405], [114.1252673, 22.5634169], [114.1251941, 22.5633831], [114.1251448, 22.5634932], [114.1252095, 22.5638403], [114.1251356, 22.5638602], [114.1252865, 22.5645288], [114.1255073, 22.5644823], [114.1255659, 22.5646949], [114.1250766, 22.5647839], [114.1248055, 22.5637825]]]]}}, {"type": "Feature", "id": "way/1264730613", "properties": {"tags": {"building": "apartments", "building:levels": "12", "layer": "2"}, "heightStatus": "levels_only_unverified", "source": "OpenStreetMap", "license": "ODbL-1.0"}, "geometry": {"type": "MultiPolygon", "coordinates": [[[[114.1249399, 22.5641802], [114.1249857, 22.5641698], [114.1249582, 22.5640666], [114.1251151, 22.5640309], [114.1251386, 22.5641188], [114.1250951, 22.5641287], [114.1251027, 22.5641573], [114.1250151, 22.5641772], [114.1250393, 22.5642679], [114.1250713, 22.5642606], [114.125088, 22.5643234], [114.1252179, 22.5642939], [114.1252555, 22.5644351], [114.1250592, 22.5644797], [114.1250314, 22.5643755], [114.1249943, 22.564384], [114.1249399, 22.5641802]]]]}}, {"type": "Feature", "id": "way/1264730614", "properties": {"tags": {"building": "apartments", "building:levels": "12", "layer": "2"}, "heightStatus": "levels_only_unverified", "source": "OpenStreetMap", "license": "ODbL-1.0"}, "geometry": {"type": "MultiPolygon", "coordinates": [[[[114.1248231, 22.5636002], [114.1250466, 22.563547], [114.1250518, 22.5635656], [114.1251144, 22.5635507], [114.1251766, 22.5637736], [114.1251322, 22.5637841], [114.1251498, 22.5638474], [114.1249638, 22.5638916], [114.1249446, 22.5638226], [114.1248889, 22.5638358], [114.1248231, 22.5636002]]]]}}, {"type": "Feature", "id": "way/1264730615", "properties": {"tags": {"building": "apartments", "building:levels": "12", "layer": "2"}, "heightStatus": "levels_only_unverified", "source": "OpenStreetMap", "license": "ODbL-1.0"}, "geometry": {"type": "MultiPolygon", "coordinates": [[[[114.1248464, 22.5633872], [114.1248991, 22.5632867], [114.1249896, 22.5633271], [114.1250001, 22.563307], [114.1249753, 22.5632959], [114.1249862, 22.5632751], [114.1249419, 22.5632554], [114.1249759, 22.5631905], [114.1250112, 22.5632062], [114.1249972, 22.563233], [114.1250244, 22.5632452], [114.1250384, 22.5632184], [114.1250725, 22.5632336], [114.1250996, 22.5631819], [114.124989, 22.5631325], [114.1250185, 22.563076], [114.1250752, 22.5631013], [114.1250696, 22.563112], [114.1252678, 22.5632008], [114.1252148, 22.5633016], [114.1251039, 22.5632518], [114.1250883, 22.5632815], [114.1251847, 22.5633247], [114.1251737, 22.5633457], [114.1251942, 22.5633549], [114.1251595, 22.563421], [114.1250792, 22.5633851], [114.1250488, 22.563443], [114.1249757, 22.5634103], [114.1249609, 22.5634384], [114.1248464, 22.5633872]]]]}}, {"type": "Feature", "id": "way/1301053558", "properties": {"tags": {"building": "train_station", "building:levels": "0", "building:levels:underground": "3", "layer": "-1", "location": "underground", "name": "田贝站", "name:en": "Tianbei Station", "name:zh": "田贝站", "public_transport": "station", "start_date": "2011-06-28", "wikidata": "Q5939796", "wikipedia": "zh:田贝站"}, "heightStatus": "levels_only_unverified", "source": "OpenStreetMap", "license": "ODbL-1.0"}, "geometry": {"type": "MultiPolygon", "coordinates": [[[[114.1231197, 22.5694417], [114.1231348, 22.569395], [114.1246609, 22.5698191], [114.1246864, 22.5697436], [114.1248326, 22.5697826], [114.1248487, 22.5696346], [114.1247642, 22.5696256], [114.1248564, 22.5688485], [114.1249335, 22.5688559], [114.1248849, 22.56919], [114.1251585, 22.569216], [114.1251739, 22.5689169], [114.1252249, 22.5689194], [114.1252078, 22.5691872], [114.1252299, 22.5692176], [114.1252051, 22.5694377], [114.1250854, 22.5694265], [114.125081, 22.5694885], [114.1252148, 22.5695018], [114.1252091, 22.5698448], [114.1251374, 22.5698439], [114.1251457, 22.5695696], [114.1250703, 22.5695621], [114.1250002, 22.570156], [114.1251773, 22.5701745], [114.1251022, 22.5705052], [114.1250344, 22.5704934], [114.1250955, 22.5702309], [114.1249902, 22.5702142], [114.1249285, 22.5707238], [114.1247213, 22.5707077], [114.1247877, 22.5701733], [114.1245074, 22.5700959], [114.1245248, 22.5700457], [114.1247917, 22.5701176], [114.1248064, 22.5700584], [114.1244628, 22.5699662], [114.1244581, 22.5699801], [114.1245121, 22.5699925], [114.124499, 22.5700343], [114.1242774, 22.5699786], [114.1242734, 22.5699897], [114.1235958, 22.5698154], [114.1236092, 22.5697662], [114.1236628, 22.5697786], [114.1236672, 22.5697677], [114.1235009, 22.5697262], [114.1234918, 22.5697618], [114.1235425, 22.5697751], [114.1235337, 22.5698064], [114.1232568, 22.5697386], [114.1232779, 22.5696699], [114.1232605, 22.5696643], [114.1232749, 22.5696142], [114.1232957, 22.5696188], [114.1233356, 22.5694987], [114.1231197, 22.5694417]]]]}}]}