{"type": "FeatureCollection", "features": [{"type": "Feature", "id": "way/1132011561", "properties": {"tags": {"building": "yes"}, "heightStatus": "unknown", "source": "OpenStreetMap", "license": "ODbL-1.0"}, "geometry": {"type": "MultiPolygon", "coordinates": [[[[114.1301138, 22.5820555], [114.130114, 22.5819503], [114.1303882, 22.5819507], [114.130388, 22.582056], [114.1301138, 22.5820555]]]]}}, {"type": "Feature", "id": "way/1132011562", "properties": {"tags": {"building": "yes"}, "heightStatus": "unknown", "source": "OpenStreetMap", "license": "ODbL-1.0"}, "geometry": {"type": "MultiPolygon", "coordinates": [[[[114.1301665, 22.5811454], [114.1301699, 22.5809899], [114.1303905, 22.5809942], [114.130387, 22.5811496], [114.1301665, 22.5811454]]]]}}, {"type": "Feature", "id": "way/1132011563", "properties": {"tags": {"building": "yes"}, "heightStatus": "unknown", "source": "OpenStreetMap", "license": "ODbL-1.0"}, "geometry": {"type": "MultiPolygon", "coordinates": [[[[114.1303254, 22.5812081], [114.1303302, 22.5811945], [114.1303428, 22.5811861], [114.1303583, 22.5811861], [114.1303709, 22.5811945], [114.1303757, 22.5812081], [114.1303709, 22.5812218], [114.1303583, 22.5812302], [114.1303428, 22.5812302], [114.1303302, 22.5812218], [114.1303254, 22.5812081]]]]}}, {"type": "Feature", "id": "way/1132011564", "properties": {"tags": {"building": "yes"}, "heightStatus": "unknown", "source": "OpenStreetMap", "license": "ODbL-1.0"}, "geometry": {"type": "MultiPolygon", "coordinates": [[[[114.1302698, 22.5812075], [114.1302746, 22.5811939], [114.1302871, 22.5811854], [114.1303027, 22.5811854], [114.1303153, 22.5811939], [114.1303201, 22.5812075], [114.1303153, 22.5812212], [114.1303027, 22.5812296], [114.1302871, 22.5812296], [114.1302746, 22.5812212], [114.1302698, 22.5812075]]]]}}, {"type": "Feature", "id": "way/1132011565", "properties": {"tags": {"building": "yes"}, "heightStatus": "unknown", "source": "OpenStreetMap", "license": "ODbL-1.0"}, "geometry": {"type": "MultiPolygon", "coordinates": [[[[114.1302141, 22.5812044], [114.1302189, 22.5811908], [114.1302315, 22.5811823], [114.130247, 22.5811823], [114.1302596, 22.5811908], [114.1302644, 22.5812044], [114.1302596, 22.5812181], [114.130247, 22.5812265], [114.1302315, 22.5812265], [114.1302189, 22.5812181], [114.1302141, 22.5812044]]]]}}, {"type": "Feature", "id": "way/1132011566", "properties": {"tags": {"building": "yes"}, "heightStatus": "unknown", "source": "OpenStreetMap", "license": "ODbL-1.0"}, "geometry": {"type": "MultiPolygon", "coordinates": [[[[114.1303221, 22.5812595], [114.1303269, 22.5812459], [114.1303395, 22.5812374], [114.130355, 22.5812374], [114.1303676, 22.5812459], [114.1303724, 22.5812595], [114.1303676, 22.5812732], [114.130355, 22.5812816], [114.1303395, 22.5812816], [114.1303269, 22.5812732], [114.1303221, 22.5812595]]]]}}, {"type": "Feature", "id": "way/1132011567", "properties": {"tags": {"building": "yes"}, "heightStatus": "unknown", "source": "OpenStreetMap", "license": "ODbL-1.0"}, "geometry": {"type": "MultiPolygon", "coordinates": [[[[114.1302651, 22.5812595], [114.1302699, 22.5812459], [114.1302825, 22.5812374], [114.130298, 22.5812374], [114.1303106, 22.5812459], [114.1303154, 22.5812595], [114.1303106, 22.5812732], [114.130298, 22.5812816], [114.1302825, 22.5812816], [114.1302699, 22.5812732], [114.1302651, 22.5812595]]]]}}, {"type": "Feature", "id": "way/1132011568", "properties": {"tags": {"building": "yes"}, "heightStatus": "unknown", "source": "OpenStreetMap", "license": "ODbL-1.0"}, "geometry": {"type": "MultiPolygon", "coordinates": [[[[114.1302084, 22.5812583], [114.1302132, 22.5812446], [114.1302258, 22.5812362], [114.1302413, 22.5812362], [114.1302539, 22.5812446], [114.1302587, 22.5812583], [114.1302539, 22.5812719], [114.1302413, 22.5812804], [114.1302258, 22.5812804], [114.1302132, 22.5812719], [114.1302084, 22.5812583]]]]}}, {"type": "Feature", "id": "way/1132011569", "properties": {"tags": {"building": "yes"}, "heightStatus": "unknown", "source": "OpenStreetMap", "license": "ODbL-1.0"}, "geometry": {"type": "MultiPolygon", "coordinates": [[[[114.1303258, 22.5813428], [114.1303307, 22.5813282], [114.130344, 22.581319], [114.1303606, 22.5813188], [114.1303741, 22.5813277], [114.1303794, 22.5813422], [114.1303745, 22.5813568], [114.1303612, 22.5813659], [114.1303446, 22.5813661], [114.1303311, 22.5813573], [114.1303258, 22.5813428]]]]}}, {"type": "Feature", "id": "way/1132011570", "properties": {"tags": {"building": "yes"}, "heightStatus": "unknown", "source": "OpenStreetMap", "license": "ODbL-1.0"}, "geometry": {"type": "MultiPolygon", "coordinates": [[[[114.1303217, 22.581396], [114.1303267, 22.5813814], [114.13034, 22.5813723], [114.1303565, 22.5813721], [114.1303701, 22.5813809], [114.1303754, 22.5813954], [114.1303705, 22.58141], [114.1303572, 22.5814192], [114.1303406, 22.5814194], [114.1303271, 22.5814105], [114.1303217, 22.581396]]]]}}, {"type": "Feature", "id": "way/1132011571", "properties": {"tags": {"building": "yes"}, "heightStatus": "unknown", "source": "OpenStreetMap", "license": "ODbL-1.0"}, "geometry": {"type": "MultiPolygon", "coordinates": [[[[114.1302654, 22.5813397], [114.1302703, 22.5813251], [114.1302836, 22.5813159], [114.1303002, 22.5813157], [114.1303137, 22.5813246], [114.1303191, 22.5813391], [114.1303141, 22.5813537], [114.1303008, 22.5813629], [114.1302843, 22.581363], [114.1302707, 22.5813542], [114.1302654, 22.5813397]]]]}}, {"type": "Feature", "id": "way/1132011572", "properties": {"tags": {"building": "yes"}, "heightStatus": "unknown", "source": "OpenStreetMap", "license": "ODbL-1.0"}, "geometry": {"type": "MultiPolygon", "coordinates": [[[[114.1302064, 22.5813397], [114.1302113, 22.5813251], [114.1302246, 22.5813159], [114.1302412, 22.5813157], [114.1302547, 22.5813246], [114.13026, 22.5813391], [114.1302551, 22.5813537], [114.1302418, 22.5813629], [114.1302253, 22.581363], [114.1302117, 22.5813542], [114.1302064, 22.5813397]]]]}}, {"type": "Feature", "id": "way/1132011573", "properties": {"tags": {"building": "yes"}, "heightStatus": "unknown", "source": "OpenStreetMap", "license": "ODbL-1.0"}, "geometry": {"type": "MultiPolygon", "coordinates": [[[[114.1302051, 22.5813942], [114.13021, 22.5813796], [114.1302233, 22.5813704], [114.1302399, 22.5813702], [114.1302534, 22.5813791], [114.1302587, 22.5813936], [114.1302538, 22.5814082], [114.1302405, 22.5814173], [114.1302239, 22.5814175], [114.1302104, 22.5814087], [114.1302051, 22.5813942]]]]}}, {"type": "Feature", "id": "way/1132011574", "properties": {"tags": {"building": "yes"}, "heightStatus": "unknown", "source": "OpenStreetMap", "license": "ODbL-1.0"}, "geometry": {"type": "MultiPolygon", "coordinates": [[[[114.1303211, 22.5814493], [114.130326, 22.5814347], [114.1303393, 22.5814255], [114.1303559, 22.5814253], [114.1303694, 22.5814342], [114.1303747, 22.5814487], [114.1303698, 22.5814633], [114.1303565, 22.5814724], [114.1303399, 22.5814726], [114.1303264, 22.5814638], [114.1303211, 22.5814493]]]]}}, {"type": "Feature", "id": "way/1132011575", "properties": {"tags": {"building": "yes"}, "heightStatus": "unknown", "source": "OpenStreetMap", "license": "ODbL-1.0"}, "geometry": {"type": "MultiPolygon", "coordinates": [[[[114.1302641, 22.5814487], [114.130269, 22.5814341], [114.1302823, 22.5814249], [114.1302989, 22.5814247], [114.1303124, 22.5814336], [114.1303177, 22.5814481], [114.1303128, 22.5814627], [114.1302995, 22.5814718], [114.1302829, 22.581472], [114.1302694, 22.5814632], [114.1302641, 22.5814487]]]]}}, {"type": "Feature", "id": "way/1132011576", "properties": {"tags": {"building": "yes"}, "heightStatus": "unknown", "source": "OpenStreetMap", "license": "ODbL-1.0"}, "geometry": {"type": "MultiPolygon", "coordinates": [[[[114.1302051, 22.5814496], [114.13021, 22.581435], [114.1302233, 22.5814258], [114.1302399, 22.5814256], [114.1302534, 22.5814345], [114.1302587, 22.581449], [114.1302538, 22.5814636], [114.1302405, 22.5814728], [114.1302239, 22.5814729], [114.1302104, 22.5814641], [114.1302051, 22.5814496]]]]}}, {"type": "Feature", "id": "way/1132011577", "properties": {"tags": {"building": "yes"}, "heightStatus": "unknown", "source": "OpenStreetMap", "license": "ODbL-1.0"}, "geometry": {"type": "MultiPolygon", "coordinates": [[[[114.1303168, 22.5815493], [114.1303173, 22.5815314], [114.1303274, 22.5815162], [114.1303445, 22.5815076], [114.1303639, 22.5815081], [114.1303804, 22.5815174], [114.1303897, 22.5815331], [114.1303892, 22.581551], [114.1303791, 22.5815663], [114.130362, 22.5815749], [114.1303426, 22.5815744], [114.1303261, 22.5815651], [114.1303168, 22.5815493]]]]}}, {"type": "Feature", "id": "way/1132011578", "properties": {"tags": {"building": "yes"}, "heightStatus": "unknown", "source": "OpenStreetMap", "license": "ODbL-1.0"}, "geometry": {"type": "MultiPolygon", "coordinates": [[[[114.130235, 22.5815469], [114.1302355, 22.581529], [114.1302456, 22.5815137], [114.1302627, 22.5815051], [114.1302821, 22.5815056], [114.1302986, 22.5815149], [114.1303079, 22.5815307], [114.1303074, 22.5815486], [114.1302973, 22.5815638], [114.1302802, 22.5815724], [114.1302608, 22.5815719], [114.1302443, 22.5815626], [114.130235, 22.5815469]]]]}}, {"type": "Feature", "id": "way/1132011579", "properties": {"tags": {"building": "yes"}, "heightStatus": "unknown", "source": "OpenStreetMap", "license": "ODbL-1.0"}, "geometry": {"type": "MultiPolygon", "coordinates": [[[[114.1301552, 22.5815469], [114.1301557, 22.581529], [114.1301658, 22.5815137], [114.1301829, 22.5815051], [114.1302023, 22.5815056], [114.1302188, 22.5815149], [114.1302281, 22.5815307], [114.1302276, 22.5815486], [114.1302175, 22.5815638], [114.1302004, 22.5815724], [114.130181, 22.5815719], [114.1301645, 22.5815626], [114.1301552, 22.5815469]]]]}}, {"type": "Feature", "id": "way/1132011580", "properties": {"tags": {"building": "yes"}, "heightStatus": "unknown", "source": "OpenStreetMap", "license": "ODbL-1.0"}, "geometry": {"type": "MultiPolygon", "coordinates": [[[[114.1303101, 22.5818459], [114.1303106, 22.581828], [114.1303207, 22.5818127], [114.1303378, 22.5818042], [114.1303572, 22.5818046], [114.1303737, 22.581814], [114.130383, 22.5818297], [114.1303825, 22.5818476], [114.1303724, 22.5818629], [114.1303553, 22.5818714], [114.1303359, 22.581871], [114.1303194, 22.5818616], [114.1303101, 22.5818459]]]]}}, {"type": "Feature", "id": "way/1132011581", "properties": {"tags": {"building": "yes"}, "heightStatus": "unknown", "source": "OpenStreetMap", "license": "ODbL-1.0"}, "geometry": {"type": "MultiPolygon", "coordinates": [[[[114.1303141, 22.5817716], [114.1303146, 22.5817537], [114.1303248, 22.5817384], [114.1303418, 22.5817299], [114.1303612, 22.5817303], [114.1303777, 22.5817397], [114.130387, 22.5817554], [114.1303865, 22.5817733], [114.1303764, 22.5817886], [114.1303594, 22.5817971], [114.13034, 22.5817967], [114.1303234, 22.5817873], [114.1303141, 22.5817716]]]]}}, {"type": "Feature", "id": "way/1132011582", "properties": {"tags": {"building": "yes"}, "heightStatus": "unknown", "source": "OpenStreetMap", "license": "ODbL-1.0"}, "geometry": {"type": "MultiPolygon", "coordinates": [[[[114.1303115, 22.5816973], [114.130312, 22.5816794], [114.1303221, 22.5816641], [114.1303391, 22.5816556], [114.1303585, 22.581656], [114.130375, 22.5816654], [114.1303843, 22.5816811], [114.1303838, 22.581699], [114.1303737, 22.5817143], [114.1303567, 22.5817228], [114.1303373, 22.5817224], [114.1303207, 22.581713], [114.1303115, 22.5816973]]]]}}, {"type": "Feature", "id": "way/1132011583", "properties": {"tags": {"building": "yes"}, "heightStatus": "unknown", "source": "OpenStreetMap", "license": "ODbL-1.0"}, "geometry": {"type": "MultiPolygon", "coordinates": [[[[114.1303121, 22.5816261], [114.1303126, 22.5816082], [114.1303227, 22.5815929], [114.1303398, 22.5815844], [114.1303592, 22.5815848], [114.1303757, 22.5815942], [114.130385, 22.5816099], [114.1303845, 22.5816278], [114.1303744, 22.5816431], [114.1303573, 22.5816516], [114.130338, 22.5816512], [114.1303214, 22.5816418], [114.1303121, 22.5816261]]]]}}, {"type": "Feature", "id": "way/1132011584", "properties": {"tags": {"building": "yes"}, "heightStatus": "unknown", "source": "OpenStreetMap", "license": "ODbL-1.0"}, "geometry": {"type": "MultiPolygon", "coordinates": [[[[114.1302323, 22.5816224], [114.1302328, 22.5816045], [114.130243, 22.5815892], [114.13026, 22.5815807], [114.1302794, 22.5815811], [114.1302959, 22.5815905], [114.1303052, 22.5816062], [114.1303047, 22.5816241], [114.1302946, 22.5816394], [114.1302775, 22.5816479], [114.1302582, 22.5816475], [114.1302416, 22.5816381], [114.1302323, 22.5816224]]]]}}, {"type": "Feature", "id": "way/1132011585", "properties": {"tags": {"building": "yes"}, "heightStatus": "unknown", "source": "OpenStreetMap", "license": "ODbL-1.0"}, "geometry": {"type": "MultiPolygon", "coordinates": [[[[114.1301552, 22.5816205], [114.1301557, 22.5816026], [114.1301658, 22.5815874], [114.1301829, 22.5815788], [114.1302023, 22.5815793], [114.1302188, 22.5815886], [114.1302281, 22.5816043], [114.1302276, 22.5816222], [114.1302175, 22.5816375], [114.1302004, 22.5816461], [114.130181, 22.5816456], [114.1301645, 22.5816363], [114.1301552, 22.5816205]]]]}}, {"type": "Feature", "id": "way/1132011586", "properties": {"tags": {"building": "yes"}, "heightStatus": "unknown", "source": "OpenStreetMap", "license": "ODbL-1.0"}, "geometry": {"type": "MultiPolygon", "coordinates": [[[[114.1301546, 22.5816961], [114.130155, 22.5816782], [114.1301652, 22.5816629], [114.1301822, 22.5816543], [114.1302016, 22.5816548], [114.1302181, 22.5816641], [114.1302274, 22.5816799], [114.1302269, 22.5816978], [114.1302168, 22.581713], [114.1301998, 22.5817216], [114.1301804, 22.5817212], [114.1301638, 22.5817118], [114.1301546, 22.5816961]]]]}}, {"type": "Feature", "id": "way/1132011587", "properties": {"tags": {"building": "yes"}, "heightStatus": "unknown", "source": "OpenStreetMap", "license": "ODbL-1.0"}, "geometry": {"type": "MultiPolygon", "coordinates": [[[[114.1301505, 22.5817704], [114.130151, 22.5817525], [114.1301611, 22.5817372], [114.1301782, 22.5817286], [114.1301976, 22.5817291], [114.1302141, 22.5817384], [114.1302234, 22.5817542], [114.1302229, 22.5817721], [114.1302128, 22.5817873], [114.1301957, 22.5817959], [114.1301763, 22.5817955], [114.1301598, 22.5817861], [114.1301505, 22.5817704]]]]}}, {"type": "Feature", "id": "way/1132011588", "properties": {"tags": {"building": "yes"}, "heightStatus": "unknown", "source": "OpenStreetMap", "license": "ODbL-1.0"}, "geometry": {"type": "MultiPolygon", "coordinates": [[[[114.1301512, 22.5818447], [114.1301517, 22.5818268], [114.1301618, 22.5818115], [114.1301789, 22.5818029], [114.1301982, 22.5818034], [114.1302148, 22.5818127], [114.1302241, 22.5818285], [114.1302236, 22.5818464], [114.1302134, 22.5818616], [114.1301964, 22.5818702], [114.130177, 22.5818697], [114.1301605, 22.5818604], [114.1301512, 22.5818447]]]]}}, {"type": "Feature", "id": "way/1132011589", "properties": {"tags": {"building": "yes"}, "heightStatus": "unknown", "source": "OpenStreetMap", "license": "ODbL-1.0"}, "geometry": {"type": "MultiPolygon", "coordinates": [[[[114.1303088, 22.5819214], [114.1303093, 22.5819035], [114.1303194, 22.5818883], [114.1303364, 22.5818797], [114.1303558, 22.5818802], [114.1303724, 22.5818895], [114.1303816, 22.5819052], [114.1303811, 22.5819231], [114.130371, 22.5819384], [114.130354, 22.581947], [114.1303346, 22.5819465], [114.1303181, 22.5819372], [114.1303088, 22.5819214]]]]}}, {"type": "Feature", "id": "way/1132011590", "properties": {"tags": {"building": "yes"}, "heightStatus": "unknown", "source": "OpenStreetMap", "license": "ODbL-1.0"}, "geometry": {"type": "MultiPolygon", "coordinates": [[[[114.1302317, 22.5819202], [114.1302322, 22.5819023], [114.1302423, 22.581887], [114.1302593, 22.5818785], [114.1302787, 22.5818789], [114.1302953, 22.5818883], [114.1303045, 22.581904], [114.130304, 22.5819219], [114.1302939, 22.5819372], [114.1302769, 22.5819457], [114.1302575, 22.5819453], [114.1302409, 22.5819359], [114.1302317, 22.5819202]]]]}}, {"type": "Feature", "id": "way/1132011591", "properties": {"tags": {"building": "yes"}, "heightStatus": "unknown", "source": "OpenStreetMap", "license": "ODbL-1.0"}, "geometry": {"type": "MultiPolygon", "coordinates": [[[[114.1301509, 22.5819187], [114.1301514, 22.5819008], [114.1301615, 22.5818855], [114.1301785, 22.5818769], [114.1301979, 22.5818774], [114.1302145, 22.5818867], [114.1302237, 22.5819024], [114.1302232, 22.5819204], [114.1302131, 22.5819356], [114.1301961, 22.5819442], [114.1301767, 22.5819437], [114.1301601, 22.5819344], [114.1301509, 22.5819187]]]]}}, {"type": "Feature", "id": "way/1132011592", "properties": {"tags": {"building": "yes"}, "heightStatus": "unknown", "source": "OpenStreetMap", "license": "ODbL-1.0"}, "geometry": {"type": "MultiPolygon", "coordinates": [[[[114.1298229, 22.5818895], [114.1298277, 22.5815484], [114.1298323, 22.5813979], [114.130022, 22.581401], [114.1300126, 22.5818926], [114.1298229, 22.5818895]]]]}}, {"type": "Feature", "id": "way/1132012419", "properties": {"tags": {"building": "yes"}, "heightStatus": "unknown", "source": "OpenStreetMap", "license": "ODbL-1.0"}, "geometry": {"type": "MultiPolygon", "coordinates": [[[[114.1286649, 22.5814455], [114.1286716, 22.5810735], [114.1287524, 22.5810747], [114.1287518, 22.581105], [114.1288384, 22.5811063], [114.1288388, 22.5810841], [114.1289049, 22.5810851], [114.1288983, 22.5814548], [114.1288263, 22.5814537], [114.1288268, 22.5814245], [114.1287476, 22.5814233], [114.1287472, 22.5814468], [114.1286649, 22.5814455]]]]}}, {"type": "Feature", "id": "way/1132012420", "properties": {"tags": {"building": "yes"}, "heightStatus": "unknown", "source": "OpenStreetMap", "license": "ODbL-1.0"}, "geometry": {"type": "MultiPolygon", "coordinates": [[[[114.1286534, 22.581982], [114.1286601, 22.58161], [114.1287409, 22.5816112], [114.1287403, 22.5816415], [114.1288269, 22.5816428], [114.1288273, 22.5816206], [114.1288934, 22.5816216], [114.1288868, 22.5819913], [114.1288148, 22.5819902], [114.1288153, 22.581961], [114.1287361, 22.5819598], [114.1287357, 22.5819833], [114.1286534, 22.581982]]]]}}, {"type": "Feature", "id": "way/1132012423", "properties": {"tags": {"building": "yes"}, "heightStatus": "unknown", "source": "OpenStreetMap", "license": "ODbL-1.0"}, "geometry": {"type": "MultiPolygon", "coordinates": [[[[114.1290957, 22.5819763], [114.1291346, 22.5804889], [114.1292295, 22.5803536], [114.1292352, 22.5799647], [114.1292848, 22.5799641], [114.1293438, 22.5799492], [114.1294202, 22.5799492], [114.1294819, 22.5799702], [114.1295584, 22.5799876], [114.1296482, 22.5799851], [114.1297233, 22.5800037], [114.1297904, 22.5800662], [114.1297998, 22.5800346], [114.1298682, 22.5800619], [114.1299231, 22.5801238], [114.1299433, 22.5802068], [114.1299191, 22.5803009], [114.129895, 22.5803591], [114.1299003, 22.5806773], [114.1299285, 22.5807392], [114.1299298, 22.5808061], [114.1299124, 22.5808457], [114.1298614, 22.5808953], [114.1297877, 22.5809175], [114.1297153, 22.5809151], [114.1296482, 22.5809027], [114.1296107, 22.5809126], [114.1295972, 22.5809361], [114.1295865, 22.581024], [114.1295691, 22.5810921], [114.1295342, 22.5811912], [114.1295382, 22.5812965], [114.1295382, 22.581403], [114.1295342, 22.581476], [114.1295275, 22.5815652], [114.1295248, 22.5819812], [114.1290957, 22.5819763]]]]}}, {"type": "Feature", "id": "way/1216264474", "properties": {"tags": {"building": "yes"}, "heightStatus": "unknown", "source": "OpenStreetMap", "license": "ODbL-1.0"}, "geometry": {"type": "MultiPolygon", "coordinates": [[[[114.130639, 22.5841331], [114.1306396, 22.5839722], [114.1308385, 22.5839672], [114.1310095, 22.5838286], [114.1308371, 22.5836951], [114.1306884, 22.5836843], [114.1306896, 22.5835452], [114.130885, 22.5835546], [114.1311015, 22.5837201], [114.1311714, 22.5837263], [114.1313396, 22.583545], [114.1315888, 22.5835399], [114.1315819, 22.5837196], [114.1313877, 22.5837196], [114.1312381, 22.5838642], [114.1314009, 22.5839779], [114.131544, 22.583972], [114.131537, 22.5841415], [114.1312908, 22.5841367], [114.1310928, 22.5839638], [114.1309098, 22.584133], [114.130639, 22.5841331]]]]}}, {"type": "Feature", "id": "way/1216264477", "properties": {"tags": {"building": "yes"}, "heightStatus": "unknown", "source": "OpenStreetMap", "license": "ODbL-1.0"}, "geometry": {"type": "MultiPolygon", "coordinates": [[[[114.1317628, 22.5839959], [114.1321868, 22.5839954], [114.1321872, 22.5842201], [114.1317632, 22.5842207], [114.1317628, 22.5839959]]]]}}, {"type": "Feature", "id": "way/1216264483", "properties": {"tags": {"building": "yes"}, "heightStatus": "unknown", "source": "OpenStreetMap", "license": "ODbL-1.0"}, "geometry": {"type": "MultiPolygon", "coordinates": [[[[114.1311666, 22.583014], [114.1315906, 22.5830135], [114.131591, 22.5832382], [114.131167, 22.5832388], [114.1311666, 22.583014]]]]}}, {"type": "Feature", "id": "way/1216264484", "properties": {"tags": {"building": "yes"}, "heightStatus": "unknown", "source": "OpenStreetMap", "license": "ODbL-1.0"}, "geometry": {"type": "MultiPolygon", "coordinates": [[[[114.1311667, 22.5832763], [114.1315907, 22.5832758], [114.131591, 22.5835004], [114.131167, 22.583501], [114.1311667, 22.5832763]]]]}}, {"type": "Feature", "id": "way/1216783738", "properties": {"tags": {"building": "yes"}, "heightStatus": "unknown", "source": "OpenStreetMap", "license": "ODbL-1.0"}, "geometry": {"type": "MultiPolygon", "coordinates": [[[[114.1314135, 22.5856626], [114.1314149, 22.5855596], [114.1319021, 22.5855652], [114.1319007, 22.5856682], [114.1314135, 22.5856626]]]]}}, {"type": "Feature", "id": "way/1216783739", "properties": {"tags": {"building": "yes"}, "heightStatus": "unknown", "source": "OpenStreetMap", "license": "ODbL-1.0"}, "geometry": {"type": "MultiPolygon", "coordinates": [[[[114.1314073, 22.585902], [114.1314087, 22.5857989], [114.1318959, 22.5858046], [114.1318945, 22.5859076], [114.1314073, 22.585902]]]]}}, {"type": "Feature", "id": "way/1216783740", "properties": {"tags": {"building": "yes"}, "heightStatus": "unknown", "source": "OpenStreetMap", "license": "ODbL-1.0"}, "geometry": {"type": "MultiPolygon", "coordinates": [[[[114.1313857, 22.5861496], [114.1313871, 22.5860465], [114.1318743, 22.5860522], [114.1318729, 22.5861552], [114.1313857, 22.5861496]]]]}}, {"type": "Feature", "id": "way/1216783744", "properties": {"tags": {"building": "yes"}, "heightStatus": "unknown", "source": "OpenStreetMap", "license": "ODbL-1.0"}, "geometry": {"type": "MultiPolygon", "coordinates": [[[[114.1314103, 22.5854777], [114.1314124, 22.5853599], [114.1319844, 22.5853687], [114.1319823, 22.5854865], [114.1314103, 22.5854777]]]]}}, {"type": "Feature", "id": "way/1216783747", "properties": {"tags": {"building": "yes"}, "heightStatus": "unknown", "source": "OpenStreetMap", "license": "ODbL-1.0"}, "geometry": {"type": "MultiPolygon", "coordinates": [[[[114.1314526, 22.586414], [114.131454, 22.5862994], [114.1321599, 22.5863067], [114.1321585, 22.5864211], [114.1314526, 22.586414]]]]}}, {"type": "Feature", "id": "way/1216783750", "properties": {"tags": {"building": "yes"}, "heightStatus": "unknown", "source": "OpenStreetMap", "license": "ODbL-1.0"}, "geometry": {"type": "MultiPolygon", "coordinates": [[[[114.1317546, 22.5849182], [114.1317574, 22.5848062], [114.1321871, 22.5848153], [114.1321843, 22.5849273], [114.1317546, 22.5849182]]]]}}, {"type": "Feature", "id": "way/1216783756", "properties": {"tags": {"building": "yes"}, "heightStatus": "unknown", "source": "OpenStreetMap", "license": "ODbL-1.0"}, "geometry": {"type": "MultiPolygon", "coordinates": [[[[114.1299341, 22.5825397], [114.1299517, 22.5824045], [114.1303124, 22.5824291], [114.1303001, 22.5825682], [114.1299341, 22.5825397]]]]}}, {"type": "Feature", "id": "way/1293015943", "properties": {"tags": {"building": "industrial"}, "heightStatus": "unknown", "source": "OpenStreetMap", "license": "ODbL-1.0"}, "geometry": {"type": "MultiPolygon", "coordinates": [[[[114.1317434, 22.5827428], [114.1317458, 22.5825528], [114.131915, 22.5825546], [114.1319126, 22.5827446], [114.1317434, 22.5827428]]]]}}, {"type": "Feature", "id": "way/1293015948", "properties": {"tags": {"building": "industrial"}, "heightStatus": "unknown", "source": "OpenStreetMap", "license": "ODbL-1.0"}, "geometry": {"type": "MultiPolygon", "coordinates": [[[[114.1306726, 22.5821045], [114.1306798, 22.5816862], [114.1308513, 22.5816887], [114.1308468, 22.5819491], [114.1313305, 22.5819563], [114.1313351, 22.5816943], [114.1315157, 22.581697], [114.1315084, 22.5821168], [114.1306726, 22.5821045]]]]}}, {"type": "Feature", "id": "way/1293015949", "properties": {"tags": {"building": "industrial"}, "heightStatus": "unknown", "source": "OpenStreetMap", "license": "ODbL-1.0"}, "geometry": {"type": "MultiPolygon", "coordinates": [[[[114.1306692, 22.5814904], [114.1306764, 22.5810705], [114.1315123, 22.5810828], [114.131505, 22.5815012], [114.1313335, 22.5814986], [114.1313381, 22.5812383], [114.1308544, 22.581231], [114.1308498, 22.581493], [114.1306692, 22.5814904]]]]}}, {"type": "Feature", "id": "way/1293015987", "properties": {"tags": {"building": "apartments", "building:levels": "29", "name": "A座", "name:en": "Block A", "name:zh": "A座"}, "heightStatus": "levels_only_unverified", "source": "OpenStreetMap", "license": "ODbL-1.0"}, "geometry": {"type": "MultiPolygon", "coordinates": [[[[114.1273489, 22.5811353], [114.127351, 22.5810703], [114.1274015, 22.5810717], [114.1274027, 22.5810356], [114.1273555, 22.5810343], [114.1273569, 22.5809895], [114.1274401, 22.5809918], [114.1274428, 22.5809086], [114.1275644, 22.5809119], [114.1275619, 22.5809897], [114.1276034, 22.5809908], [114.1276057, 22.5809205], [114.1276984, 22.580923], [114.1276937, 22.581071], [114.1274835, 22.5810653], [114.1274829, 22.581083], [114.1275345, 22.5810844], [114.1275327, 22.5811402], [114.1273489, 22.5811353]]]]}}, {"type": "Feature", "id": "way/1293015988", "properties": {"tags": {"building": "apartments", "building:levels": "29", "name": "B座", "name:en": "Block B", "name:zh": "B座"}, "heightStatus": "levels_only_unverified", "source": "OpenStreetMap", "license": "ODbL-1.0"}, "geometry": {"type": "MultiPolygon", "coordinates": [[[[114.127885, 22.5810728], [114.127887, 22.5810082], [114.1279375, 22.5810095], [114.1279386, 22.5809732], [114.1278914, 22.5809719], [114.1278928, 22.5809273], [114.127976, 22.5809296], [114.1279786, 22.5808463], [114.1281002, 22.5808496], [114.1280978, 22.5809273], [114.1281391, 22.5809284], [114.1281413, 22.580858], [114.1282344, 22.5808605], [114.1282292, 22.5810299], [114.1281549, 22.5810279], [114.1281556, 22.5810062], [114.1280189, 22.5810026], [114.1280183, 22.5810211], [114.1280699, 22.5810225], [114.1280682, 22.5810776], [114.127885, 22.5810728]]]]}}, {"type": "Feature", "id": "way/1293015990", "properties": {"tags": {"building": "apartments", "building:levels": "18", "name": "C栋", "name:en": "Block C", "name:zh": "C栋"}, "heightStatus": "levels_only_unverified", "source": "OpenStreetMap", "license": "ODbL-1.0"}, "geometry": {"type": "MultiPolygon", "coordinates": [[[[114.1279303, 22.5819902], [114.1279446, 22.5819595], [114.1280599, 22.5820051], [114.1281102, 22.5818966], [114.128151, 22.5819128], [114.1281456, 22.5819243], [114.1281751, 22.5819359], [114.1281325, 22.5820277], [114.1282372, 22.582069], [114.1282183, 22.5821096], [114.1282061, 22.5821048], [114.1281972, 22.5821241], [114.1281114, 22.5820903], [114.1280752, 22.5821685], [114.1280439, 22.5821561], [114.1280372, 22.5821707], [114.1279988, 22.5821556], [114.1280432, 22.5820597], [114.1279326, 22.582016], [114.1279424, 22.581995], [114.1279303, 22.5819902]]]]}}, {"type": "Feature", "id": "way/1293015991", "properties": {"tags": {"building": "apartments", "building:levels": "18", "name": "B栋", "name:en": "Block B", "name:zh": "B栋"}, "heightStatus": "levels_only_unverified", "source": "OpenStreetMap", "license": "ODbL-1.0"}, "geometry": {"type": "MultiPolygon", "coordinates": [[[[114.1276732, 22.5818828], [114.1277675, 22.5818253], [114.1277012, 22.5817327], [114.1277219, 22.5817201], [114.1277147, 22.58171], [114.1277449, 22.5816916], [114.127814, 22.5817882], [114.1279206, 22.5817233], [114.1279451, 22.5817575], [114.1279338, 22.5817644], [114.1279514, 22.581789], [114.1278612, 22.5818441], [114.1279239, 22.5819317], [114.127884, 22.5819561], [114.1278766, 22.5819458], [114.1278577, 22.5819574], [114.1278063, 22.5818856], [114.1277294, 22.5819325], [114.1277106, 22.5819062], [114.1276963, 22.581915], [114.1276732, 22.5818828]]]]}}, {"type": "Feature", "id": "way/1293015992", "properties": {"tags": {"building": "apartments", "building:levels": "18", "name": "A栋", "name:en": "Block A", "name:zh": "A栋"}, "heightStatus": "levels_only_unverified", "source": "OpenStreetMap", "license": "ODbL-1.0"}, "geometry": {"type": "MultiPolygon", "coordinates": [[[[114.1274988, 22.5816326], [114.1275931, 22.5815751], [114.1275268, 22.5814825], [114.1275475, 22.5814699], [114.1275403, 22.5814598], [114.1275705, 22.5814414], [114.1276396, 22.581538], [114.1277462, 22.5814731], [114.1277707, 22.5815072], [114.1277594, 22.5815141], [114.127777, 22.5815388], [114.1276868, 22.5815938], [114.1277495, 22.5816815], [114.1277096, 22.5817058], [114.1277022, 22.5816956], [114.1276833, 22.5817072], [114.1276319, 22.5816353], [114.127555, 22.5816822], [114.1275362, 22.581656], [114.1275218, 22.5816648], [114.1274988, 22.5816326]]]]}}, {"type": "Feature", "id": "way/1413584436", "properties": {"tags": {"building": "yes"}, "heightStatus": "unknown", "source": "OpenStreetMap", "license": "ODbL-1.0"}, "geometry": {"type": "MultiPolygon", "coordinates": [[[[114.1282516, 22.5818286], [114.1282612, 22.5811652], [114.1283883, 22.5811667], [114.1283832, 22.5815322], [114.1283789, 22.5818301], [114.1282516, 22.5818286]]]]}}, {"type": "Feature", "id": "way/1451675389", "properties": {"tags": {"building": "kindergarten"}, "heightStatus": "unknown", "source": "OpenStreetMap", "license": "ODbL-1.0"}, "geometry": {"type": "MultiPolygon", "coordinates": [[[[114.1260413, 22.5888758], [114.1260784, 22.5888602], [114.1260483, 22.5887993], [114.1263062, 22.5886906], [114.1263198, 22.5887179], [114.1264606, 22.5886585], [114.1264094, 22.5885549], [114.1263404, 22.588584], [114.1262717, 22.5884453], [114.1264025, 22.5883901], [114.1264879, 22.5885628], [114.1265607, 22.5885321], [114.1265952, 22.5886018], [114.1266867, 22.5885632], [114.126757, 22.5887055], [114.1266561, 22.588748], [114.1266331, 22.5887015], [114.1265697, 22.5887283], [114.1265844, 22.5887581], [114.1263764, 22.5888458], [114.1263617, 22.588816], [114.1260721, 22.588938], [114.1260413, 22.5888758]]]]}}, {"type": "Feature", "id": "way/1451675391", "properties": {"tags": {"addr:housename": "观山盛苑", "addr:housename:en": "Guanshan Shengyuan", "addr:housename:zh": "观山盛苑", "building": "apartments", "name": "3栋", "name:en": "Block 3", "name:zh": "3栋"}, "heightStatus": "unknown", "source": "OpenStreetMap", "license": "ODbL-1.0"}, "geometry": {"type": "MultiPolygon", "coordinates": [[[[114.1259092, 22.5891544], [114.1259341, 22.5891443], [114.1259208, 22.5891161], [114.1259703, 22.5890961], [114.1259802, 22.589117], [114.126044, 22.5890912], [114.1260341, 22.5890703], [114.1260836, 22.5890502], [114.126097, 22.5890784], [114.1261219, 22.5890683], [114.1261782, 22.5891869], [114.1261533, 22.589197], [114.1261712, 22.5892347], [114.1262202, 22.5892149], [114.1262339, 22.5892438], [114.1262105, 22.5892533], [114.1262221, 22.5892776], [114.1260081, 22.5893642], [114.1259965, 22.5893399], [114.1259731, 22.5893494], [114.1259593, 22.5893205], [114.1260084, 22.5893006], [114.1259905, 22.5892629], [114.1259655, 22.589273], [114.1259092, 22.5891544]]]]}}, {"type": "Feature", "id": "way/1451675392", "properties": {"tags": {"addr:housename": "观山盛苑", "addr:housename:en": "Guanshan Shengyuan", "addr:housename:zh": "观山盛苑", "building": "apartments", "name": "4B栋", "name:en": "Block 4B", "name:zh": "4B栋"}, "heightStatus": "unknown", "source": "OpenStreetMap", "license": "ODbL-1.0"}, "geometry": {"type": "MultiPolygon", "coordinates": [[[[114.1268308, 22.5890742], [114.1268924, 22.5890493], [114.1268638, 22.5889891], [114.1269176, 22.5889673], [114.1268745, 22.5888767], [114.1269845, 22.5888322], [114.1270275, 22.5889228], [114.12706, 22.5889097], [114.1271191, 22.5890342], [114.1271423, 22.5890247], [114.127168, 22.5890787], [114.1270624, 22.5891214], [114.1270313, 22.589056], [114.1269821, 22.5890759], [114.1269999, 22.5891135], [114.1268737, 22.5891646], [114.1268308, 22.5890742]]]]}}, {"type": "Feature", "id": "way/1451675393", "properties": {"tags": {"addr:housename": "观山盛苑", "addr:housename:en": "Guanshan Shengyuan", "addr:housename:zh": "观山盛苑", "building": "apartments", "name": "4A栋", "name:en": "Block 4A", "name:zh": "4A栋"}, "heightStatus": "unknown", "source": "OpenStreetMap", "license": "ODbL-1.0"}, "geometry": {"type": "MultiPolygon", "coordinates": [[[[114.1265339, 22.5890146], [114.1266439, 22.5889701], [114.1266869, 22.5890607], [114.1267407, 22.5890389], [114.1267693, 22.5890991], [114.1268308, 22.5890742], [114.1268737, 22.5891646], [114.1267476, 22.5892156], [114.1267297, 22.5891781], [114.1266805, 22.589198], [114.1267116, 22.5892634], [114.126606, 22.5893062], [114.1265804, 22.5892522], [114.1266037, 22.5892428], [114.1265445, 22.5891183], [114.126577, 22.5891052], [114.1265339, 22.5890146]]]]}}, {"type": "Feature", "id": "way/1451675394", "properties": {"tags": {"addr:housename": "观山盛苑", "addr:housename:en": "Guanshan Shengyuan", "addr:housename:zh": "观山盛苑", "building": "apartments", "name": "5B栋", "name:en": "Block 5B", "name:zh": "5B栋"}, "heightStatus": "unknown", "source": "OpenStreetMap", "license": "ODbL-1.0"}, "geometry": {"type": "MultiPolygon", "coordinates": [[[[114.1263923, 22.5897131], [114.1264539, 22.5896882], [114.1264253, 22.589628], [114.126479, 22.5896062], [114.126436, 22.5895156], [114.126546, 22.5894711], [114.126589, 22.5895617], [114.1266214, 22.5895486], [114.1266805, 22.5896731], [114.1267038, 22.5896637], [114.1267294, 22.5897176], [114.1266238, 22.5897604], [114.1265928, 22.5896949], [114.1265436, 22.5897148], [114.1265614, 22.5897524], [114.1264352, 22.5898035], [114.1263923, 22.5897131]]]]}}, {"type": "Feature", "id": "way/1451675395", "properties": {"tags": {"addr:housename": "观山盛苑", "addr:housename:en": "Guanshan Shengyuan", "addr:housename:zh": "观山盛苑", "building": "apartments", "name": "5A栋", "name:en": "Block 5A", "name:zh": "5A栋"}, "heightStatus": "unknown", "source": "OpenStreetMap", "license": "ODbL-1.0"}, "geometry": {"type": "MultiPolygon", "coordinates": [[[[114.1260954, 22.5896535], [114.1262054, 22.589609], [114.1262484, 22.5896996], [114.1263021, 22.5896778], [114.1263307, 22.5897381], [114.1263923, 22.5897131], [114.1264352, 22.5898035], [114.126309, 22.5898546], [114.1262912, 22.589817], [114.126242, 22.5898369], [114.1262731, 22.5899024], [114.1261675, 22.5899451], [114.1261418, 22.5898912], [114.1261651, 22.5898817], [114.126106, 22.5897572], [114.1261384, 22.5897441], [114.1260954, 22.5896535]]]]}}, {"type": "Feature", "id": "way/1451700782", "properties": {"tags": {"addr:housename": "观山祥苑", "addr:housename:en": "Guanshan Xiangyuan", "addr:housename:zh": "观山祥苑", "building": "apartments", "name": "2栋", "name:en": "Block 2", "name:zh": "2栋"}, "heightStatus": "unknown", "source": "OpenStreetMap", "license": "ODbL-1.0"}, "geometry": {"type": "MultiPolygon", "coordinates": [[[[114.1305756, 22.5895968], [114.130598, 22.5895824], [114.1305789, 22.5895571], [114.1306233, 22.5895287], [114.1306375, 22.5895474], [114.1306947, 22.5895107], [114.1306806, 22.589492], [114.1307249, 22.5894635], [114.130744, 22.5894888], [114.1307664, 22.5894744], [114.1308464, 22.5895808], [114.130824, 22.5895951], [114.1308494, 22.5896289], [114.1308934, 22.5896007], [114.1309129, 22.5896267], [114.1308919, 22.5896402], [114.1309083, 22.589662], [114.1307164, 22.589785], [114.1307, 22.5897632], [114.130679, 22.5897767], [114.1306594, 22.5897508], [114.1307034, 22.5897226], [114.130678, 22.5896888], [114.1306556, 22.5897031], [114.1305756, 22.5895968]]]]}}, {"type": "Feature", "id": "way/1451700783", "properties": {"tags": {"addr:housename": "观山祥苑", "addr:housename:en": "Guanshan Xiangyuan", "addr:housename:zh": "观山祥苑", "building": "apartments", "name": "1栋", "name:en": "Block 1", "name:zh": "1栋"}, "heightStatus": "unknown", "source": "OpenStreetMap", "license": "ODbL-1.0"}, "geometry": {"type": "MultiPolygon", "coordinates": [[[[114.1309411, 22.5892856], [114.1310395, 22.5892222], [114.1311008, 22.5893033], [114.131149, 22.5892723], [114.1311897, 22.5893263], [114.1313, 22.5892552], [114.1312592, 22.5892013], [114.1313074, 22.5891703], [114.1312461, 22.5890892], [114.1313445, 22.5890258], [114.1314058, 22.5891069], [114.1314349, 22.5890882], [114.1315191, 22.5891997], [114.13154, 22.5891862], [114.1315765, 22.5892345], [114.1314819, 22.5892955], [114.1314376, 22.5892369], [114.1313936, 22.5892652], [114.131419, 22.5892989], [114.131193, 22.5894444], [114.1311676, 22.5894108], [114.1311235, 22.5894392], [114.1311678, 22.5894978], [114.1310732, 22.5895587], [114.1310367, 22.5895104], [114.1310576, 22.589497], [114.1309733, 22.5893855], [114.1310024, 22.5893668], [114.1309411, 22.5892856]]]]}}, {"type": "Feature", "id": "way/1451700784", "properties": {"tags": {"addr:housename": "观山瑞苑", "addr:housename:en": "Guanshan Ruiyuan", "addr:housename:zh": "观山瑞苑", "building": "apartments", "name": "2栋", "name:en": "Block 2", "name:zh": "2栋"}, "heightStatus": "unknown", "source": "OpenStreetMap", "license": "ODbL-1.0"}, "geometry": {"type": "MultiPolygon", "coordinates": [[[[114.1292602, 22.5883924], [114.1293512, 22.5883203], [114.1294209, 22.5883953], [114.1294655, 22.58836], [114.1295119, 22.5884098], [114.1295627, 22.5883696], [114.1295872, 22.5883959], [114.1296167, 22.5883924], [114.1296142, 22.5883682], [114.1296638, 22.5883622], [114.129653, 22.5882863], [114.1296902, 22.5882818], [114.1296822, 22.5882257], [114.1297115, 22.5882221], [114.1297058, 22.5881817], [114.1297907, 22.5881715], [114.1297964, 22.5882119], [114.1298257, 22.5882083], [114.1298336, 22.5882645], [114.1298708, 22.58826], [114.1298815, 22.5883359], [114.1299311, 22.5883299], [114.1299375, 22.5883753], [114.1299113, 22.5883784], [114.1299139, 22.5883971], [114.1296209, 22.5884323], [114.1295166, 22.5885148], [114.1294991, 22.588496], [114.1294843, 22.5885078], [114.1295347, 22.588562], [114.1294673, 22.5886154], [114.1292602, 22.5883924]]]]}}, {"type": "Feature", "id": "way/1451700785", "properties": {"tags": {"addr:housename": "观山瑞苑", "addr:housename:en": "Guanshan Ruiyuan", "addr:housename:zh": "观山瑞苑", "building": "apartments", "name": "1栋", "name:en": "Block 1", "name:zh": "1栋"}, "heightStatus": "unknown", "source": "OpenStreetMap", "license": "ODbL-1.0"}, "geometry": {"type": "MultiPolygon", "coordinates": [[[[114.1288559, 22.5879512], [114.128947, 22.587879], [114.1290168, 22.587954], [114.1290613, 22.5879187], [114.1291077, 22.5879686], [114.1292097, 22.5878876], [114.1291633, 22.5878378], [114.1292078, 22.5878025], [114.129138, 22.5877274], [114.1292291, 22.5876552], [114.1292989, 22.5877302], [114.1293257, 22.5877089], [114.1294217, 22.587812], [114.129441, 22.5877967], [114.1294826, 22.5878414], [114.1293951, 22.5879108], [114.1293447, 22.5878566], [114.1293039, 22.5878889], [114.1293329, 22.58792], [114.1291239, 22.5880858], [114.1290949, 22.5880547], [114.1290542, 22.5880871], [114.1291046, 22.5881413], [114.1290172, 22.5882106], [114.1289756, 22.588166], [114.1289949, 22.5881507], [114.1288989, 22.5880476], [114.1289258, 22.5880263], [114.1288559, 22.5879512]]]]}}, {"type": "Feature", "id": "way/1508240431", "properties": {"tags": {"building": "yes"}, "heightStatus": "unknown", "source": "OpenStreetMap", "license": "ODbL-1.0"}, "geometry": {"type": "MultiPolygon", "coordinates": [[[[114.1223395, 22.5833673], [114.122446, 22.5832361], [114.1226251, 22.5833601], [114.1225186, 22.5834912], [114.1223395, 22.5833673]]]]}}]}