{"type": "FeatureCollection", "features": [{"type": "Feature", "id": "way/331816501", "properties": {"tags": {"building": "yes"}, "heightStatus": "unknown", "source": "OpenStreetMap", "license": "ODbL-1.0"}, "geometry": {"type": "MultiPolygon", "coordinates": [[[[114.1412572, 22.5551287], [114.1412618, 22.5549723], [114.1419523, 22.5549898], [114.1419885, 22.5549907], [114.1419839, 22.5551471], [114.1419066, 22.5551451], [114.1412572, 22.5551287]]]]}}, {"type": "Feature", "id": "way/331816502", "properties": {"tags": {"building": "yes"}, "heightStatus": "unknown", "source": "OpenStreetMap", "license": "ODbL-1.0"}, "geometry": {"type": "MultiPolygon", "coordinates": [[[[114.1412618, 22.5549723], [114.1412663, 22.5548876], [114.1412894, 22.5548534], [114.1413171, 22.5548434], [114.1413178, 22.5548171], [114.1413545, 22.5548179], [114.1413554, 22.5547806], [114.1419574, 22.5547939], [114.1419523, 22.5549898], [114.1412618, 22.5549723]]]]}}, {"type": "Feature", "id": "way/331816503", "properties": {"tags": {"building": "yes"}, "heightStatus": "unknown", "source": "OpenStreetMap", "license": "ODbL-1.0"}, "geometry": {"type": "MultiPolygon", "coordinates": [[[[114.1412509, 22.5552819], [114.1412572, 22.5551287], [114.1419066, 22.5551451], [114.1418973, 22.5553194], [114.1418526, 22.555371], [114.1412509, 22.5552819]]]]}}, {"type": "Feature", "id": "way/331816508", "properties": {"tags": {"building": "yes"}, "heightStatus": "unknown", "source": "OpenStreetMap", "license": "ODbL-1.0"}, "geometry": {"type": "MultiPolygon", "coordinates": [[[[114.1409033, 22.5546109], [114.140905, 22.5545058], [114.1413317, 22.5545117], [114.14133, 22.5546169], [114.1409033, 22.5546109]]]]}}, {"type": "Feature", "id": "way/331816509", "properties": {"tags": {"building": "yes"}, "heightStatus": "unknown", "source": "OpenStreetMap", "license": "ODbL-1.0"}, "geometry": {"type": "MultiPolygon", "coordinates": [[[[114.1413574, 22.5547277], [114.1413612, 22.5545641], [114.1414517, 22.5545659], [114.1414512, 22.5545871], [114.1417065, 22.5545921], [114.141705, 22.5546586], [114.1416868, 22.5546583], [114.1416851, 22.5547342], [114.1413574, 22.5547277]]]]}}, {"type": "Feature", "id": "way/331816510", "properties": {"tags": {"building": "yes"}, "heightStatus": "unknown", "source": "OpenStreetMap", "license": "ODbL-1.0"}, "geometry": {"type": "MultiPolygon", "coordinates": [[[[114.1406985, 22.5543243], [114.1407, 22.5542275], [114.1408226, 22.5542292], [114.1408192, 22.5544378], [114.140714, 22.5544363], [114.1407149, 22.554375], [114.1407599, 22.5543756], [114.1407608, 22.5543251], [114.1406985, 22.5543243]]]]}}, {"type": "Feature", "id": "way/331816511", "properties": {"tags": {"building": "yes"}, "heightStatus": "unknown", "source": "OpenStreetMap", "license": "ODbL-1.0"}, "geometry": {"type": "MultiPolygon", "coordinates": [[[[114.1413712, 22.554279], [114.1413748, 22.5540344], [114.1414396, 22.5540352], [114.14144, 22.5540063], [114.1413793, 22.5539902], [114.1415233, 22.553992], [114.1415191, 22.5542808], [114.1413712, 22.554279]]]]}}, {"type": "Feature", "id": "way/331824226", "properties": {"tags": {"building": "residential"}, "heightStatus": "unknown", "source": "OpenStreetMap", "license": "ODbL-1.0"}, "geometry": {"type": "MultiPolygon", "coordinates": [[[[114.1399773, 22.5543348], [114.1399796, 22.5542616], [114.1401048, 22.554265], [114.140107, 22.5541968], [114.1400739, 22.5541959], [114.1400757, 22.5541377], [114.1401884, 22.5541408], [114.1401869, 22.5541892], [114.1401657, 22.5541887], [114.1401641, 22.554242], [114.1401765, 22.5542423], [114.1401759, 22.554262], [114.1402192, 22.5542631], [114.1402202, 22.5542301], [114.1403116, 22.5542325], [114.1403096, 22.554299], [114.1402639, 22.5542979], [114.1402637, 22.5543063], [114.1403064, 22.5543074], [114.1403045, 22.5543729], [114.140214, 22.5543706], [114.1402148, 22.5543437], [114.1401907, 22.554343], [114.1401902, 22.5543576], [114.1401787, 22.5543573], [114.1401777, 22.5543925], [114.1402001, 22.5543931], [114.1401976, 22.5544741], [114.1400694, 22.5544708], [114.1400702, 22.5544439], [114.1400594, 22.5544436], [114.1400608, 22.5543994], [114.1401045, 22.5544005], [114.1401051, 22.5543784], [114.1400665, 22.5543774], [114.1400678, 22.5543372], [114.1399773, 22.5543348]]]]}}, {"type": "Feature", "id": "way/331824227", "properties": {"tags": {"building": "residential"}, "heightStatus": "unknown", "source": "OpenStreetMap", "license": "ODbL-1.0"}, "geometry": {"type": "MultiPolygon", "coordinates": [[[[114.1396807, 22.5542224], [114.1396828, 22.5541572], [114.1397775, 22.5541597], [114.1397765, 22.5541926], [114.1398082, 22.5541934], [114.1398099, 22.5541388], [114.1397796, 22.554138], [114.1397821, 22.5540598], [114.1399262, 22.5540637], [114.1399238, 22.5541397], [114.1398941, 22.5541389], [114.1398903, 22.5542587], [114.1399796, 22.5542616], [114.1399773, 22.5543348], [114.1399062, 22.5543334], [114.1399051, 22.5543681], [114.1398313, 22.5543661], [114.1398323, 22.554332], [114.1398562, 22.5543327], [114.1398575, 22.5542917], [114.139804, 22.5542903], [114.1398048, 22.5542634], [114.1397722, 22.5542626], [114.1397711, 22.5542971], [114.1396878, 22.5542948], [114.1396897, 22.5542336], [114.1397291, 22.5542346], [114.1397294, 22.5542237], [114.1396807, 22.5542224]]]]}}, {"type": "Feature", "id": "way/331824228", "properties": {"tags": {"building": "yes"}, "heightStatus": "unknown", "source": "OpenStreetMap", "license": "ODbL-1.0"}, "geometry": {"type": "MultiPolygon", "coordinates": [[[[114.1404731, 22.5547567], [114.1404846, 22.5543359], [114.1406863, 22.5543367], [114.1406836, 22.5544454], [114.1408305, 22.5544471], [114.1407969, 22.5547576], [114.1404731, 22.5547567]]]]}}, {"type": "Feature", "id": "way/577011385", "properties": {"tags": {"building": "school", "building:levels": "6", "name": "电教楼"}, "heightStatus": "levels_only_unverified", "source": "OpenStreetMap", "license": "ODbL-1.0"}, "geometry": {"type": "MultiPolygon", "coordinates": [[[[114.1375855, 22.5599711], [114.137636, 22.5599366], [114.1376648, 22.5599994], [114.1377128, 22.5601038], [114.1377666, 22.5600827], [114.1378037, 22.5601635], [114.1376278, 22.5602323], [114.1375898, 22.5601495], [114.137625, 22.5601357], [114.1375891, 22.5600574], [114.1375987, 22.5600136], [114.1375855, 22.5599711]]]]}}, {"type": "Feature", "id": "way/577011386", "properties": {"tags": {"building": "school", "building:levels": "5", "name": "教学楼"}, "heightStatus": "levels_only_unverified", "source": "OpenStreetMap", "license": "ODbL-1.0"}, "geometry": {"type": "MultiPolygon", "coordinates": [[[[114.1376648, 22.5599994], [114.1379733, 22.5598766], [114.1380543, 22.5598425], [114.1384789, 22.5596724], [114.1385695, 22.559636], [114.1386182, 22.5597394], [114.137829, 22.5600565], [114.1377666, 22.5600827], [114.1377128, 22.5601038], [114.1376648, 22.5599994]]]]}}, {"type": "Feature", "id": "way/577011387", "properties": {"tags": {"building": "school", "building:levels": "5", "name": "实验楼"}, "heightStatus": "levels_only_unverified", "source": "OpenStreetMap", "license": "ODbL-1.0"}, "geometry": {"type": "MultiPolygon", "coordinates": [[[[114.1376223, 22.5596525], [114.1382962, 22.5593693], [114.1383427, 22.5594637], [114.1379492, 22.5596291], [114.1380543, 22.5598425], [114.1379733, 22.5598766], [114.1378714, 22.5596696], [114.1376719, 22.5597533], [114.1376223, 22.5596525]]]]}}, {"type": "Feature", "id": "way/577011388", "properties": {"tags": {"building": "school", "building:levels": "6", "name": "行政楼"}, "heightStatus": "levels_only_unverified", "source": "OpenStreetMap", "license": "ODbL-1.0"}, "geometry": {"type": "MultiPolygon", "coordinates": [[[[114.1376334, 22.5593969], [114.1381896, 22.5591648], [114.1383028, 22.5592548], [114.1376942, 22.5595165], [114.1376334, 22.5593969]]]]}}, {"type": "Feature", "id": "way/577011391", "properties": {"tags": {"amenity": "restaurant", "building": "yes", "fast_food": "cafeteria", "name": "学生食堂"}, "heightStatus": "unknown", "source": "OpenStreetMap", "license": "ODbL-1.0"}, "geometry": {"type": "MultiPolygon", "coordinates": [[[[114.1376569, 22.5588312], [114.1381587, 22.5586364], [114.1382059, 22.5587686], [114.1377174, 22.5589553], [114.1376569, 22.5588312]]]]}}, {"type": "Feature", "id": "way/624067885", "properties": {"tags": {"building": "school", "building:levels": "7", "name": "4号楼", "start_date": "1988"}, "heightStatus": "levels_only_unverified", "source": "OpenStreetMap", "license": "ODbL-1.0"}, "geometry": {"type": "MultiPolygon", "coordinates": [[[[114.1338198, 22.5621331], [114.1338762, 22.5620465], [114.1339189, 22.5620702], [114.1339746, 22.5620958], [114.1340249, 22.5621095], [114.1340903, 22.5621252], [114.1340865, 22.5622079], [114.1340091, 22.5622087], [114.1339349, 22.5621985], [114.133873, 22.5621698], [114.1338198, 22.5621331]]]]}}, {"type": "Feature", "id": "way/624067886", "properties": {"tags": {"building": "school", "building:levels": "6", "name": "教学楼", "start_date": "2007"}, "heightStatus": "levels_only_unverified", "source": "OpenStreetMap", "license": "ODbL-1.0"}, "geometry": {"type": "MultiPolygon", "coordinates": [[[[114.1336883, 22.5626145], [114.1338088, 22.5622593], [114.1343917, 22.562428], [114.1342712, 22.5627833], [114.1336883, 22.5626145]]]]}}, {"type": "Feature", "id": "way/624067888", "properties": {"tags": {"building": "dormitory", "building:levels": "8", "name": "2号宿舍楼", "start_date": "1988"}, "heightStatus": "levels_only_unverified", "source": "OpenStreetMap", "license": "ODbL-1.0"}, "geometry": {"type": "MultiPolygon", "coordinates": [[[[114.1344091, 22.562699], [114.1344785, 22.5625635], [114.1346013, 22.5626172], [114.1345907, 22.5626379], [114.1347252, 22.5626967], [114.1346346, 22.5628733], [114.1344182, 22.5627786], [114.1344499, 22.5627168], [114.1344091, 22.562699]]]]}}, {"type": "Feature", "id": "way/624067889", "properties": {"tags": {"building": "dormitory", "building:levels": "8", "name": "3号宿舍楼", "start_date": "1988"}, "heightStatus": "levels_only_unverified", "source": "OpenStreetMap", "license": "ODbL-1.0"}, "geometry": {"type": "MultiPolygon", "coordinates": [[[[114.134481, 22.5624038], [114.1345495, 22.5622692], [114.1346721, 22.5623224], [114.1346616, 22.5623431], [114.1347966, 22.5624017], [114.134706, 22.5625799], [114.1344892, 22.5624858], [114.1345219, 22.5624216], [114.134481, 22.5624038]]]]}}, {"type": "Feature", "id": "way/683493431", "properties": {"tags": {"building": "yes", "name": "动漫大厦", "shop": "anime"}, "heightStatus": "unknown", "source": "OpenStreetMap", "license": "ODbL-1.0"}, "geometry": {"type": "MultiPolygon", "coordinates": [[[[114.1352295, 22.5602879], [114.1356122, 22.5598949], [114.1358348, 22.5600797], [114.1354521, 22.5604728], [114.1352295, 22.5602879]]]]}}, {"type": "Feature", "id": "way/683493448", "properties": {"tags": {"building": "yes", "name": "贝岭居宾馆", "tourism": "hotel"}, "heightStatus": "unknown", "source": "OpenStreetMap", "license": "ODbL-1.0"}, "geometry": {"type": "MultiPolygon", "coordinates": [[[[114.1357928, 22.5594791], [114.1366276, 22.5591042], [114.1373023, 22.5588138], [114.1374109, 22.5593365], [114.1368049, 22.5598857], [114.1361588, 22.5601497], [114.1357928, 22.5594791]]]]}}, {"type": "Feature", "id": "way/742388692", "properties": {"tags": {"building": "commercial"}, "heightStatus": "unknown", "source": "OpenStreetMap", "license": "ODbL-1.0"}, "geometry": {"type": "MultiPolygon", "coordinates": [[[[114.133968, 22.560222], [114.1345279, 22.5601707], [114.1344983, 22.5597552], [114.1349378, 22.5597029], [114.1352308, 22.5593879], [114.1355252, 22.5597995], [114.1349941, 22.5598416], [114.1353282, 22.5601059], [114.1351007, 22.5603511], [114.1349943, 22.5602669], [114.1348881, 22.5603815], [114.1347491, 22.5602715], [114.1345918, 22.5604411], [114.1346029, 22.5605779], [114.1341444, 22.5606214], [114.1341526, 22.5607104], [114.1340969, 22.5607147], [114.1341008, 22.5607574], [114.134019, 22.560765], [114.133968, 22.560222]]]]}}, {"type": "Feature", "id": "way/823192590", "properties": {"tags": {"building": "yes"}, "heightStatus": "unknown", "source": "OpenStreetMap", "license": "ODbL-1.0"}, "geometry": {"type": "MultiPolygon", "coordinates": [[[[114.1393301, 22.558778], [114.1396386, 22.5587087], [114.1396813, 22.5588707], [114.1393729, 22.55894], [114.1393301, 22.558778]]]]}}, {"type": "Feature", "id": "way/1202259763", "properties": {"tags": {"building": "yes"}, "heightStatus": "unknown", "source": "OpenStreetMap", "license": "ODbL-1.0"}, "geometry": {"type": "MultiPolygon", "coordinates": [[[[114.1384162, 22.5541989], [114.1385071, 22.5541719], [114.1385056, 22.5541078], [114.1384532, 22.5541007], [114.1384624, 22.5540381], [114.1385102, 22.5540452], [114.1385148, 22.5540339], [114.1385672, 22.5540367], [114.1385687, 22.5540509], [114.1386057, 22.5540424], [114.138615, 22.554105], [114.1385657, 22.5541107], [114.1385718, 22.5541747], [114.1386581, 22.5542003], [114.1386427, 22.55427], [114.1385456, 22.5542416], [114.1385087, 22.554243], [114.1384378, 22.5542658], [114.1384162, 22.5541989]]]]}}, {"type": "Feature", "id": "way/1202259764", "properties": {"tags": {"building": "yes"}, "heightStatus": "unknown", "source": "OpenStreetMap", "license": "ODbL-1.0"}, "geometry": {"type": "MultiPolygon", "coordinates": [[[[114.1381832, 22.554449], [114.1382741, 22.554422], [114.1382726, 22.554358], [114.1382202, 22.5543509], [114.1382294, 22.5542883], [114.1382772, 22.5542954], [114.1382818, 22.554284], [114.1383342, 22.5542868], [114.1383357, 22.5543011], [114.1383727, 22.5542925], [114.1383819, 22.5543551], [114.1383326, 22.5543608], [114.1383388, 22.5544248], [114.1384251, 22.5544505], [114.1384097, 22.5545202], [114.1383126, 22.5544917], [114.1382756, 22.5544931], [114.1382048, 22.5545159], [114.1381832, 22.554449]]]]}}, {"type": "Feature", "id": "way/1202259765", "properties": {"tags": {"building": "yes"}, "heightStatus": "unknown", "source": "OpenStreetMap", "license": "ODbL-1.0"}, "geometry": {"type": "MultiPolygon", "coordinates": [[[[114.137959, 22.5547013], [114.1380499, 22.5546743], [114.1380484, 22.5546103], [114.137996, 22.5546032], [114.1380053, 22.5545406], [114.138053, 22.5545477], [114.1380576, 22.5545363], [114.13811, 22.5545391], [114.1381116, 22.5545534], [114.1381485, 22.5545448], [114.1381578, 22.5546074], [114.1381085, 22.5546131], [114.1381146, 22.5546771], [114.1382009, 22.5547028], [114.1381855, 22.5547725], [114.1380884, 22.554744], [114.1380515, 22.5547454], [114.1379806, 22.5547682], [114.137959, 22.5547013]]]]}}, {"type": "Feature", "id": "way/1202259766", "properties": {"tags": {"building": "yes"}, "heightStatus": "unknown", "source": "OpenStreetMap", "license": "ODbL-1.0"}, "geometry": {"type": "MultiPolygon", "coordinates": [[[[114.1376835, 22.5549946], [114.1377744, 22.5549676], [114.1377729, 22.5549035], [114.1377205, 22.5548964], [114.1377297, 22.5548338], [114.1377775, 22.5548409], [114.1377821, 22.5548296], [114.1378345, 22.5548324], [114.137836, 22.5548466], [114.137873, 22.5548381], [114.1378822, 22.5549007], [114.1378329, 22.5549064], [114.1378391, 22.5549704], [114.1379254, 22.554996], [114.13791, 22.5550657], [114.1378129, 22.5550373], [114.1377759, 22.5550387], [114.1377051, 22.5550615], [114.1376835, 22.5549946]]]]}}, {"type": "Feature", "id": "way/1202259767", "properties": {"tags": {"building": "yes"}, "heightStatus": "unknown", "source": "OpenStreetMap", "license": "ODbL-1.0"}, "geometry": {"type": "MultiPolygon", "coordinates": [[[[114.137436, 22.5552447], [114.1375269, 22.5552177], [114.1375254, 22.5551537], [114.137473, 22.5551466], [114.1374822, 22.555084], [114.13753, 22.5550911], [114.1375346, 22.5550797], [114.137587, 22.5550826], [114.1375885, 22.5550968], [114.1376255, 22.5550882], [114.1376347, 22.5551508], [114.1375854, 22.5551565], [114.1375916, 22.5552206], [114.1376779, 22.5552462], [114.1376625, 22.5553159], [114.1375654, 22.5552874], [114.1375284, 22.5552888], [114.1374576, 22.5553116], [114.137436, 22.5552447]]]]}}, {"type": "Feature", "id": "way/1202259768", "properties": {"tags": {"building": "yes"}, "heightStatus": "unknown", "source": "OpenStreetMap", "license": "ODbL-1.0"}, "geometry": {"type": "MultiPolygon", "coordinates": [[[[114.1372002, 22.5555078], [114.1372911, 22.5554808], [114.1372895, 22.5554168], [114.1372371, 22.5554097], [114.1372464, 22.5553471], [114.1372941, 22.5553542], [114.1372988, 22.5553428], [114.1373511, 22.5553456], [114.1373527, 22.5553599], [114.1373897, 22.5553513], [114.1373989, 22.5554139], [114.1373496, 22.5554196], [114.1373558, 22.5554836], [114.137442, 22.5555092], [114.1374266, 22.555579], [114.1373296, 22.5555505], [114.1372926, 22.5555519], [114.1372217, 22.5555747], [114.1372002, 22.5555078]]]]}}, {"type": "Feature", "id": "way/1202259771", "properties": {"tags": {"building": "yes"}, "heightStatus": "unknown", "source": "OpenStreetMap", "license": "ODbL-1.0"}, "geometry": {"type": "MultiPolygon", "coordinates": [[[[114.1370293, 22.5540052], [114.1370323, 22.5539206], [114.137191, 22.5539195], [114.1371928, 22.5539368], [114.1372091, 22.5539395], [114.1372115, 22.5540074], [114.1371735, 22.5540085], [114.1371741, 22.5540198], [114.1370638, 22.5540192], [114.1370632, 22.5540058], [114.1370293, 22.5540052]]]]}}, {"type": "Feature", "id": "way/1202259772", "properties": {"tags": {"building": "yes"}, "heightStatus": "unknown", "source": "OpenStreetMap", "license": "ODbL-1.0"}, "geometry": {"type": "MultiPolygon", "coordinates": [[[[114.1368028, 22.5542435], [114.1368058, 22.5541589], [114.1369645, 22.5541578], [114.1369663, 22.554175], [114.1369826, 22.5541777], [114.136985, 22.5542457], [114.136947, 22.5542467], [114.1369476, 22.5542581], [114.1368373, 22.5542575], [114.1368367, 22.554244], [114.1368028, 22.5542435]]]]}}, {"type": "Feature", "id": "way/1202259773", "properties": {"tags": {"building": "yes"}, "heightStatus": "unknown", "source": "OpenStreetMap", "license": "ODbL-1.0"}, "geometry": {"type": "MultiPolygon", "coordinates": [[[[114.1365745, 22.5544847], [114.1365774, 22.5544001], [114.1367362, 22.554399], [114.1367379, 22.5544163], [114.1367543, 22.554419], [114.1367566, 22.5544869], [114.1367187, 22.554488], [114.1367193, 22.5544993], [114.1366089, 22.5544988], [114.1366083, 22.5544853], [114.1365745, 22.5544847]]]]}}, {"type": "Feature", "id": "way/1202259774", "properties": {"tags": {"building": "yes"}, "heightStatus": "unknown", "source": "OpenStreetMap", "license": "ODbL-1.0"}, "geometry": {"type": "MultiPolygon", "coordinates": [[[[114.1363437, 22.5547288], [114.1363484, 22.5546554], [114.1363665, 22.5546571], [114.1363706, 22.5546387], [114.1365084, 22.5546403], [114.1365089, 22.5546571], [114.1365329, 22.5546597], [114.1365329, 22.5547336], [114.1364996, 22.5547331], [114.136499, 22.5547428], [114.136384, 22.5547406], [114.1363834, 22.5547304], [114.1363437, 22.5547288]]]]}}, {"type": "Feature", "id": "way/1202259775", "properties": {"tags": {"building": "yes"}, "heightStatus": "unknown", "source": "OpenStreetMap", "license": "ODbL-1.0"}, "geometry": {"type": "MultiPolygon", "coordinates": [[[[114.1361232, 22.5549661], [114.1361279, 22.5548928], [114.136146, 22.5548944], [114.1361501, 22.5548761], [114.1362878, 22.5548777], [114.1362884, 22.5548944], [114.1363123, 22.5548971], [114.1363123, 22.554971], [114.1362791, 22.5549704], [114.1362785, 22.5549801], [114.1361635, 22.554978], [114.1361629, 22.5549677], [114.1361232, 22.5549661]]]]}}, {"type": "Feature", "id": "way/1202259776", "properties": {"tags": {"building": "yes"}, "heightStatus": "unknown", "source": "OpenStreetMap", "license": "ODbL-1.0"}, "geometry": {"type": "MultiPolygon", "coordinates": [[[[114.1358985, 22.5552047], [114.1359031, 22.5551314], [114.1359212, 22.555133], [114.1359253, 22.5551147], [114.1360631, 22.5551163], [114.1360637, 22.555133], [114.1360876, 22.5551357], [114.1360876, 22.5552096], [114.1360543, 22.555209], [114.1360538, 22.5552187], [114.1359388, 22.5552166], [114.1359382, 22.5552063], [114.1358985, 22.5552047]]]]}}, {"type": "Feature", "id": "way/1202259777", "properties": {"tags": {"building": "yes"}, "heightStatus": "unknown", "source": "OpenStreetMap", "license": "ODbL-1.0"}, "geometry": {"type": "MultiPolygon", "coordinates": [[[[114.1362891, 22.5553129], [114.1362908, 22.5552412], [114.1363124, 22.5552423], [114.1363124, 22.5552224], [114.1364467, 22.5552256], [114.1364444, 22.5552418], [114.1364946, 22.5552428], [114.1364957, 22.5552278], [114.1366326, 22.5552287], [114.1366322, 22.5552438], [114.136683, 22.5552442], [114.1366839, 22.5552311], [114.1368162, 22.5552331], [114.1368153, 22.5552454], [114.1368658, 22.5552495], [114.1368666, 22.5552364], [114.137002, 22.5552389], [114.137002, 22.5552474], [114.1370308, 22.5552495], [114.137025, 22.55533], [114.1369971, 22.5553292], [114.1369971, 22.5553406], [114.1368706, 22.5553337], [114.1368715, 22.555323], [114.1368131, 22.555321], [114.1368113, 22.5553324], [114.1366932, 22.5553271], [114.1366928, 22.5553185], [114.1366269, 22.5553153], [114.1366286, 22.5553259], [114.1365105, 22.5553239], [114.1365101, 22.5553128], [114.1364441, 22.5553136], [114.1364455, 22.5553255], [114.1363309, 22.5553218], [114.1363313, 22.5553104], [114.1362891, 22.5553129]]]]}}, {"type": "Feature", "id": "way/1202259778", "properties": {"tags": {"building": "yes"}, "heightStatus": "unknown", "source": "OpenStreetMap", "license": "ODbL-1.0"}, "geometry": {"type": "MultiPolygon", "coordinates": [[[[114.1365362, 22.5550533], [114.1365379, 22.5549816], [114.1365595, 22.5549826], [114.1365595, 22.5549627], [114.1366938, 22.5549659], [114.1366915, 22.5549821], [114.1367417, 22.5549832], [114.1367428, 22.5549681], [114.1368797, 22.554969], [114.1368793, 22.5549841], [114.1369301, 22.5549845], [114.136931, 22.5549714], [114.1370633, 22.5549735], [114.1370624, 22.5549857], [114.1371128, 22.5549898], [114.1371137, 22.5549768], [114.1372491, 22.5549792], [114.1372491, 22.5549878], [114.1372779, 22.5549898], [114.1372721, 22.5550703], [114.1372442, 22.5550695], [114.1372442, 22.5550809], [114.1371177, 22.555074], [114.1371186, 22.5550634], [114.1370602, 22.5550613], [114.1370584, 22.5550728], [114.1369403, 22.5550675], [114.1369399, 22.5550589], [114.1368739, 22.5550556], [114.1368757, 22.5550662], [114.1367576, 22.5550642], [114.1367572, 22.5550532], [114.1366912, 22.555054], [114.1366926, 22.5550658], [114.136578, 22.5550621], [114.1365784, 22.5550507], [114.1365362, 22.5550533]]]]}}, {"type": "Feature", "id": "way/1202259779", "properties": {"tags": {"building": "yes"}, "heightStatus": "unknown", "source": "OpenStreetMap", "license": "ODbL-1.0"}, "geometry": {"type": "MultiPolygon", "coordinates": [[[[114.1367823, 22.5547876], [114.1367841, 22.5547159], [114.1368057, 22.554717], [114.1368057, 22.5546971], [114.1369399, 22.5547003], [114.1369376, 22.5547165], [114.1369878, 22.5547176], [114.136989, 22.5547025], [114.1371258, 22.5547034], [114.1371254, 22.5547185], [114.1371763, 22.5547189], [114.1371771, 22.5547058], [114.1373094, 22.5547079], [114.1373085, 22.5547201], [114.137359, 22.5547242], [114.1373598, 22.5547111], [114.1374952, 22.5547136], [114.1374952, 22.5547222], [114.137524, 22.5547242], [114.1375182, 22.5548047], [114.1374904, 22.5548039], [114.1374904, 22.5548153], [114.1373638, 22.5548084], [114.1373647, 22.5547977], [114.1373063, 22.5547957], [114.1373045, 22.5548071], [114.1371864, 22.5548018], [114.137186, 22.5547932], [114.1371201, 22.55479], [114.1371218, 22.5548006], [114.1370037, 22.5547986], [114.1370033, 22.5547875], [114.1369374, 22.5547883], [114.1369387, 22.5548002], [114.1368241, 22.5547965], [114.1368245, 22.5547851], [114.1367823, 22.5547876]]]]}}, {"type": "Feature", "id": "way/1202259780", "properties": {"tags": {"building": "yes"}, "heightStatus": "unknown", "source": "OpenStreetMap", "license": "ODbL-1.0"}, "geometry": {"type": "MultiPolygon", "coordinates": [[[[114.1370197, 22.554535], [114.1370214, 22.5544633], [114.137043, 22.5544644], [114.137043, 22.5544444], [114.1371773, 22.5544476], [114.137175, 22.5544638], [114.1372252, 22.5544649], [114.1372263, 22.5544498], [114.1373632, 22.5544507], [114.1373628, 22.5544658], [114.1374136, 22.5544662], [114.1374145, 22.5544532], [114.1375468, 22.5544552], [114.1375459, 22.5544675], [114.1375963, 22.5544715], [114.1375972, 22.5544585], [114.1377326, 22.5544609], [114.1377326, 22.5544695], [114.1377614, 22.5544715], [114.1377556, 22.554552], [114.1377277, 22.5545512], [114.1377277, 22.5545627], [114.1376012, 22.5545557], [114.1376021, 22.5545451], [114.1375437, 22.554543], [114.1375419, 22.5545545], [114.1374238, 22.5545492], [114.1374234, 22.5545406], [114.1373574, 22.5545373], [114.1373592, 22.5545479], [114.1372411, 22.5545459], [114.1372407, 22.5545349], [114.1371747, 22.5545357], [114.1371761, 22.5545475], [114.1370615, 22.5545439], [114.1370619, 22.5545324], [114.1370197, 22.554535]]]]}}, {"type": "Feature", "id": "way/1202259781", "properties": {"tags": {"building": "yes"}, "heightStatus": "unknown", "source": "OpenStreetMap", "license": "ODbL-1.0"}, "geometry": {"type": "MultiPolygon", "coordinates": [[[[114.137253, 22.5542737], [114.1372548, 22.554202], [114.1372764, 22.554203], [114.1372764, 22.5541831], [114.1374106, 22.5541863], [114.1374083, 22.5542025], [114.1374585, 22.5542036], [114.1374597, 22.5541885], [114.1375965, 22.5541894], [114.1375961, 22.5542045], [114.137647, 22.5542049], [114.1376479, 22.5541918], [114.1377801, 22.5541939], [114.1377793, 22.5542061], [114.1378297, 22.5542102], [114.1378306, 22.5541971], [114.137966, 22.5541996], [114.137966, 22.5542082], [114.1379947, 22.5542102], [114.137989, 22.5542907], [114.1379611, 22.5542899], [114.1379611, 22.5543013], [114.1378346, 22.5542944], [114.1378354, 22.5542838], [114.137777, 22.5542817], [114.1377753, 22.5542932], [114.1376572, 22.5542878], [114.1376567, 22.5542793], [114.1375908, 22.554276], [114.1375926, 22.5542866], [114.1374744, 22.5542846], [114.137474, 22.5542735], [114.1374081, 22.5542744], [114.1374094, 22.5542862], [114.1372948, 22.5542825], [114.1372953, 22.5542711], [114.137253, 22.5542737]]]]}}, {"type": "Feature", "id": "way/1202259782", "properties": {"tags": {"building": "yes"}, "heightStatus": "unknown", "source": "OpenStreetMap", "license": "ODbL-1.0"}, "geometry": {"type": "MultiPolygon", "coordinates": [[[[114.1375018, 22.5539426], [114.1375192, 22.5539435], [114.1375219, 22.5539283], [114.1376671, 22.5539292], [114.1376668, 22.5539441], [114.137713, 22.553945], [114.1377137, 22.5539311], [114.1378522, 22.5539348], [114.1378508, 22.5539469], [114.1378777, 22.5539488], [114.1378773, 22.5540193], [114.1378418, 22.5540169], [114.1378418, 22.554033], [114.1377321, 22.5540293], [114.1377325, 22.5540175], [114.1376316, 22.5540147], [114.1376336, 22.554028], [114.1375447, 22.5540259], [114.1375447, 22.5540163], [114.1375035, 22.5540159], [114.1375018, 22.5539426]]]]}}, {"type": "Feature", "id": "way/1222211028", "properties": {"tags": {"amenity": "fuel", "brand": "中国石化", "brand:en": "Sinopec", "brand:wikidata": "Q831445", "brand:zh": "中国石化", "building": "roof", "compressed_air": "yes", "layer": "1", "name": "中国石化加油站（湖腾达站）", "name:en": "Sinopec", "name:zh": "中国石化加油站（湖腾达站）"}, "heightStatus": "unknown", "source": "OpenStreetMap", "license": "ODbL-1.0"}, "geometry": {"type": "MultiPolygon", "coordinates": [[[[114.1411012, 22.5605995], [114.1412597, 22.5605676], [114.1412678, 22.560607], [114.1413563, 22.5605892], [114.1414071, 22.5608192], [114.1413244, 22.5608332], [114.1413341, 22.5608797], [114.1411713, 22.5609074], [114.1411012, 22.5605995]]]]}}, {"type": "Feature", "id": "way/1244836601", "properties": {"tags": {"building": "school"}, "heightStatus": "unknown", "source": "OpenStreetMap", "license": "ODbL-1.0"}, "geometry": {"type": "MultiPolygon", "coordinates": [[[[114.1355328, 22.5562097], [114.135731, 22.5562082], [114.1357317, 22.5562824], [114.1355645, 22.5562837], [114.1355643, 22.5562569], [114.1355332, 22.5562572], [114.1355328, 22.5562097]]]]}}, {"type": "Feature", "id": "way/1301536050", "properties": {"tags": {"building": "train_station", "building:levels": "0", "building:levels:underground": "2", "layer": "-1", "location": "underground", "name": "怡景站", "name:en": "Yijing Station", "name:zh": "怡景站", "public_transport": "station", "start_date": "2011-06-22", "wikidata": "Q6119448", "wikipedia": "zh:怡景站"}, "heightStatus": "levels_only_unverified", "source": "OpenStreetMap", "license": "ODbL-1.0"}, "geometry": {"type": "MultiPolygon", "coordinates": [[[[114.1343401, 22.5592379], [114.1346998, 22.5588432], [114.1346345, 22.5587925], [114.1348348, 22.5585615], [114.1346826, 22.5583419], [114.1347267, 22.5583158], [114.134904, 22.5585751], [114.134711, 22.5587881], [114.1347237, 22.5587979], [114.1350736, 22.558414], [114.1349579, 22.558324], [114.1352628, 22.5579894], [114.1353078, 22.5580244], [114.1350541, 22.5583028], [114.1351148, 22.55835], [114.1356676, 22.5577436], [114.1358499, 22.5578853], [114.1359726, 22.5577506], [114.1360845, 22.5578376], [114.1357767, 22.5581752], [114.1357251, 22.5581351], [114.1357488, 22.558109], [114.1356711, 22.5580487], [114.1356076, 22.5581184], [114.135585, 22.5581008], [114.135256, 22.5584682], [114.1354426, 22.5586051], [114.1356466, 22.5583679], [114.1356974, 22.5584052], [114.1355314, 22.5585983], [114.1355718, 22.5586279], [114.135507, 22.558704], [114.1355068, 22.5587036], [114.1354515, 22.5586631], [114.1354155, 22.5587049], [114.1352671, 22.5585961], [114.1352878, 22.5585721], [114.1352135, 22.5585176], [114.1348656, 22.5589059], [114.1349807, 22.5589954], [114.1348228, 22.5591672], [114.1348719, 22.5592083], [114.1346821, 22.5594017], [114.1346399, 22.5593665], [114.1347972, 22.5592062], [114.1347642, 22.5591786], [114.1346083, 22.5593487], [114.1345349, 22.5592926], [114.134486, 22.5593463], [114.1344427, 22.5593126], [114.1344906, 22.5592601], [114.1344404, 22.5592211], [114.1343899, 22.5592766], [114.1343401, 22.5592379]]]]}}, {"type": "Feature", "id": "way/1338621686", "properties": {"tags": {"building": "yes"}, "heightStatus": "unknown", "source": "OpenStreetMap", "license": "ODbL-1.0"}, "geometry": {"type": "MultiPolygon", "coordinates": [[[[114.1409636, 22.5629237], [114.1409642, 22.5628805], [114.1409947, 22.5628809], [114.140995, 22.5628597], [114.1410837, 22.5628606], [114.1410843, 22.5628145], [114.1411621, 22.5628153], [114.1411619, 22.5628358], [114.1412019, 22.5628361], [114.1412022, 22.5628087], [114.1412819, 22.5628093], [114.1412816, 22.5628534], [114.1413017, 22.5628535], [114.1413017, 22.5628424], [114.1413725, 22.5628427], [114.1413724, 22.5628651], [114.1414045, 22.5628652], [114.1414046, 22.5628499], [114.1414287, 22.5628499], [114.1414287, 22.562827], [114.1414886, 22.562827], [114.1414886, 22.5628505], [114.1415245, 22.5628505], [114.1415245, 22.5628836], [114.1415027, 22.5628836], [114.1415028, 22.5629243], [114.1414353, 22.5629244], [114.1414352, 22.5629066], [114.1413876, 22.5629068], [114.1413877, 22.5629363], [114.141306, 22.5629366], [114.1413058, 22.5628928], [114.1412738, 22.5628929], [114.1412739, 22.5629154], [114.1412021, 22.5629156], [114.141202, 22.5628828], [114.1411722, 22.5628829], [114.1411723, 22.562915], [114.1411165, 22.5629152], [114.1411126, 22.5629055], [114.1410618, 22.5629048], [114.141061, 22.5629514], [114.1410065, 22.5629506], [114.1410066, 22.5629407], [114.1409912, 22.5629405], [114.1409915, 22.562924], [114.1409636, 22.5629237]]]]}}, {"type": "Feature", "id": "way/1338621687", "properties": {"tags": {"building": "yes"}, "heightStatus": "unknown", "source": "OpenStreetMap", "license": "ODbL-1.0"}, "geometry": {"type": "MultiPolygon", "coordinates": [[[[114.1410753, 22.5626092], [114.1411024, 22.5626087], [114.141102, 22.562591], [114.1411889, 22.5625893], [114.141188, 22.5625498], [114.1413414, 22.5625468], [114.1413423, 22.562587], [114.141428, 22.5625853], [114.1414285, 22.5626031], [114.1414566, 22.5626026], [114.1414584, 22.5626807], [114.1413842, 22.5626821], [114.1413838, 22.5626648], [114.1413665, 22.5626652], [114.1413656, 22.562626], [114.1413155, 22.562627], [114.1413159, 22.5626473], [114.1411806, 22.56265], [114.1411816, 22.5626929], [114.1411004, 22.5626945], [114.1410996, 22.5626568], [114.1410764, 22.5626573], [114.1410753, 22.5626092]]]]}}, {"type": "Feature", "id": "way/1338621688", "properties": {"tags": {"building": "yes"}, "heightStatus": "unknown", "source": "OpenStreetMap", "license": "ODbL-1.0"}, "geometry": {"type": "MultiPolygon", "coordinates": [[[[114.1412182, 22.5622942], [114.1412211, 22.5622839], [114.1412276, 22.5622751], [114.1412369, 22.5622688], [114.1412479, 22.5622658], [114.1412612, 22.5622688], [114.141303, 22.5621133], [114.1413505, 22.5621059], [114.1414022, 22.5623911], [114.1413388, 22.5624009], [114.1413326, 22.562367], [114.1412252, 22.5623836], [114.1412446, 22.5623258], [114.1412319, 22.5623221], [114.1412239, 22.5623145], [114.1412192, 22.5623048], [114.1412182, 22.5622942]]]]}}, {"type": "Feature", "id": "way/1362802436", "properties": {"tags": {"building": "yes"}, "heightStatus": "unknown", "source": "OpenStreetMap", "license": "ODbL-1.0"}, "geometry": {"type": "MultiPolygon", "coordinates": [[[[114.1413215, 22.5610427], [114.141408, 22.5610257], [114.1414231, 22.5610915], [114.1415588, 22.5610648], [114.1415763, 22.5611408], [114.1413541, 22.5611844], [114.1413215, 22.5610427]]]]}}, {"type": "Feature", "id": "way/1494523991", "properties": {"tags": {"amenity": "courthouse", "building": "yes", "name": "深圳市罗湖区人民检察院"}, "heightStatus": "unknown", "source": "OpenStreetMap", "license": "ODbL-1.0"}, "geometry": {"type": "MultiPolygon", "coordinates": [[[[114.1407228, 22.5580875], [114.1408527, 22.5580563], [114.1408585, 22.5580772], [114.140917, 22.5580631], [114.14091, 22.5580379], [114.1411977, 22.5579689], [114.1412166, 22.5580359], [114.1412628, 22.5580248], [114.1412711, 22.5580541], [114.1412318, 22.5580635], [114.1413415, 22.5584535], [114.1413711, 22.5584464], [114.1413827, 22.5584874], [114.1413506, 22.558495], [114.1413674, 22.5585545], [114.1408486, 22.5586792], [114.1408405, 22.5586505], [114.1408788, 22.5586413], [114.1407228, 22.5580875]]]]}}]}