{"type": "FeatureCollection", "features": [{"type": "Feature", "id": "way/542054999", "properties": {"tags": {"amenity": "marketplace", "building": "yes", "name": "布心市场", "name:en": "Buxin Market", "name:zh": "布心市场"}, "heightStatus": "unknown", "source": "OpenStreetMap", "license": "ODbL-1.0"}, "geometry": {"type": "MultiPolygon", "coordinates": [[[[114.1348739, 22.5794629], [114.134885, 22.5793351], [114.135339, 22.5793625], [114.1355507, 22.5794097], [114.1356483, 22.579432], [114.1357998, 22.5794894], [114.1363231, 22.5799356], [114.1363043, 22.57998], [114.1358327, 22.580471], [114.1353834, 22.5802706], [114.1351694, 22.5800994], [114.134918, 22.5795595], [114.1348739, 22.5794629]]]]}}, {"type": "Feature", "id": "way/647431562", "properties": {"tags": {"building": "school"}, "heightStatus": "unknown", "source": "OpenStreetMap", "license": "ODbL-1.0"}, "geometry": {"type": "MultiPolygon", "coordinates": [[[[114.1341779, 22.5723443], [114.1353934, 22.5716451], [114.1355849, 22.5719599], [114.1354682, 22.5720289], [114.1353374, 22.5718089], [114.1342453, 22.5724527], [114.1341779, 22.5723443]]]]}}, {"type": "Feature", "id": "way/810268609", "properties": {"tags": {"amenity": "fuel", "brand": "中国石化", "brand:en": "Sinopec", "brand:wikidata": "Q831445", "brand:wikipedia": "en:Sinopec", "brand:zh": "中国石化", "building": "roof", "compressed_air": "yes", "layer": "1", "name": "中国石化", "name:en": "Sinopec", "name:zh": "中国石化"}, "heightStatus": "unknown", "source": "OpenStreetMap", "license": "ODbL-1.0"}, "geometry": {"type": "MultiPolygon", "coordinates": [[[[114.1374247, 22.5759532], [114.1375849, 22.575899], [114.1376625, 22.5761006], [114.1375045, 22.5761554], [114.1374247, 22.5759532]]]]}}, {"type": "Feature", "id": "way/810268610", "properties": {"tags": {"amenity": "fuel", "brand": "中国石化", "brand:en": "Sinopec", "brand:wikidata": "Q831445", "brand:wikipedia": "en:Sinopec", "brand:zh": "中国石化", "building": "roof", "compressed_air": "yes", "layer": "1", "name": "中国石化", "name:en": "Sinopec", "name:zh": "中国石化"}, "heightStatus": "unknown", "source": "OpenStreetMap", "license": "ODbL-1.0"}, "geometry": {"type": "MultiPolygon", "coordinates": [[[[114.1377581, 22.5758291], [114.1379274, 22.5757747], [114.1379407, 22.5759193], [114.137982, 22.5759068], [114.1380121, 22.5759874], [114.1378406, 22.5760426], [114.1378096, 22.575964], [114.1378417, 22.5759535], [114.1377581, 22.5758291]]]]}}, {"type": "Feature", "id": "way/1255620161", "properties": {"tags": {"building": "yes", "name": "1栋"}, "heightStatus": "unknown", "source": "OpenStreetMap", "license": "ODbL-1.0"}, "geometry": {"type": "MultiPolygon", "coordinates": [[[[114.1370905, 22.572094], [114.1371626, 22.5720713], [114.1371823, 22.5721244], [114.1372433, 22.5721051], [114.1372816, 22.5722085], [114.137214, 22.5722299], [114.1371961, 22.5721816], [114.137131, 22.5722022], [114.1371041, 22.5721312], [114.1370905, 22.572094]]]]}}, {"type": "Feature", "id": "way/1255620162", "properties": {"tags": {"building": "yes", "name": "2栋"}, "heightStatus": "unknown", "source": "OpenStreetMap", "license": "ODbL-1.0"}, "geometry": {"type": "MultiPolygon", "coordinates": [[[[114.1367516, 22.5721498], [114.1370738, 22.5720488], [114.1370905, 22.572094], [114.1371041, 22.5721312], [114.1367819, 22.5722322], [114.1367516, 22.5721498]]]]}}, {"type": "Feature", "id": "way/1255620163", "properties": {"tags": {"building": "yes", "name": "3栋"}, "heightStatus": "unknown", "source": "OpenStreetMap", "license": "ODbL-1.0"}, "geometry": {"type": "MultiPolygon", "coordinates": [[[[114.1363553, 22.5722473], [114.1366775, 22.5721463], [114.1366941, 22.5721916], [114.1367078, 22.5722288], [114.1363856, 22.5723298], [114.136372, 22.5722928], [114.1363553, 22.5722473]]]]}}, {"type": "Feature", "id": "way/1255620164", "properties": {"tags": {"building": "yes", "name": "4栋"}, "heightStatus": "unknown", "source": "OpenStreetMap", "license": "ODbL-1.0"}, "geometry": {"type": "MultiPolygon", "coordinates": [[[[114.136259, 22.5723887], [114.13632, 22.5723694], [114.1363003, 22.5723163], [114.136372, 22.5722928], [114.1363856, 22.5723298], [114.1364121, 22.5724019], [114.136347, 22.5724225], [114.1363649, 22.5724707], [114.1362973, 22.5724921], [114.136259, 22.5723887]]]]}}, {"type": "Feature", "id": "way/1255620165", "properties": {"tags": {"building": "yes", "name": "5栋"}, "heightStatus": "unknown", "source": "OpenStreetMap", "license": "ODbL-1.0"}, "geometry": {"type": "MultiPolygon", "coordinates": [[[[114.1364109, 22.5725783], [114.1365793, 22.5725174], [114.1365932, 22.5725502], [114.1366152, 22.5726019], [114.1364468, 22.5726629], [114.1364109, 22.5725783]]]]}}, {"type": "Feature", "id": "way/1255620175", "properties": {"tags": {"building": "yes", "name": "6栋"}, "heightStatus": "unknown", "source": "OpenStreetMap", "license": "ODbL-1.0"}, "geometry": {"type": "MultiPolygon", "coordinates": [[[[114.1365932, 22.5725502], [114.1369135, 22.5724353], [114.1369479, 22.5725172], [114.136628, 22.572632], [114.1366152, 22.5726019], [114.1365932, 22.5725502]]]]}}, {"type": "Feature", "id": "way/1255620176", "properties": {"tags": {"building": "yes", "name": "7栋"}, "heightStatus": "unknown", "source": "OpenStreetMap", "license": "ODbL-1.0"}, "geometry": {"type": "MultiPolygon", "coordinates": [[[[114.1369943, 22.5724178], [114.1371687, 22.5723589], [114.1371844, 22.5723987], [114.1372058, 22.572452], [114.1370314, 22.5725113], [114.1369943, 22.5724178]]]]}}, {"type": "Feature", "id": "way/1255620177", "properties": {"tags": {"building": "yes", "name": "8栋"}, "heightStatus": "unknown", "source": "OpenStreetMap", "license": "ODbL-1.0"}, "geometry": {"type": "MultiPolygon", "coordinates": [[[[114.1371844, 22.5723987], [114.1373307, 22.5723487], [114.1373652, 22.5724346], [114.1372189, 22.5724846], [114.1372058, 22.572452], [114.1371844, 22.5723987]]]]}}, {"type": "Feature", "id": "way/1255620178", "properties": {"tags": {"building": "yes", "name": "10栋"}, "heightStatus": "unknown", "source": "OpenStreetMap", "license": "ODbL-1.0"}, "geometry": {"type": "MultiPolygon", "coordinates": [[[[114.1370921, 22.5726794], [114.1372614, 22.5726247], [114.1372753, 22.5726604], [114.1372925, 22.5727045], [114.1371225, 22.5727596], [114.1370921, 22.5726794]]]]}}, {"type": "Feature", "id": "way/1255620179", "properties": {"tags": {"building": "yes", "name": "9栋"}, "heightStatus": "unknown", "source": "OpenStreetMap", "license": "ODbL-1.0"}, "geometry": {"type": "MultiPolygon", "coordinates": [[[[114.1372753, 22.5726604], [114.1374437, 22.5726062], [114.1374753, 22.5726899], [114.1373074, 22.572744], [114.1372925, 22.5727045], [114.1372753, 22.5726604]]]]}}, {"type": "Feature", "id": "way/1255620180", "properties": {"tags": {"building": "yes", "name": "11栋"}, "heightStatus": "unknown", "source": "OpenStreetMap", "license": "ODbL-1.0"}, "geometry": {"type": "MultiPolygon", "coordinates": [[[[114.1369666, 22.5729198], [114.1370276, 22.5729005], [114.1370079, 22.5728474], [114.1370796, 22.5728239], [114.1370932, 22.5728608], [114.1371197, 22.572933], [114.1370547, 22.5729535], [114.1370725, 22.5730018], [114.1370049, 22.5730231], [114.1369666, 22.5729198]]]]}}, {"type": "Feature", "id": "way/1255620181", "properties": {"tags": {"building": "yes", "name": "13栋"}, "heightStatus": "unknown", "source": "OpenStreetMap", "license": "ODbL-1.0"}, "geometry": {"type": "MultiPolygon", "coordinates": [[[[114.1364876, 22.5730021], [114.1365486, 22.5729828], [114.1365289, 22.5729297], [114.1366006, 22.5729062], [114.1366141, 22.5729431], [114.1366407, 22.5730153], [114.1365756, 22.5730358], [114.1365935, 22.5730841], [114.1365259, 22.5731054], [114.1364876, 22.5730021]]]]}}, {"type": "Feature", "id": "way/1255620182", "properties": {"tags": {"building": "yes", "name": "12栋"}, "heightStatus": "unknown", "source": "OpenStreetMap", "license": "ODbL-1.0"}, "geometry": {"type": "MultiPolygon", "coordinates": [[[[114.1365838, 22.5728607], [114.1369061, 22.5727597], [114.1369227, 22.572805], [114.1369364, 22.5728421], [114.1366141, 22.5729431], [114.1366006, 22.5729062], [114.1365838, 22.5728607]]]]}}, {"type": "Feature", "id": "way/1255620183", "properties": {"tags": {"building": "yes", "name": "14栋"}, "heightStatus": "unknown", "source": "OpenStreetMap", "license": "ODbL-1.0"}, "geometry": {"type": "MultiPolygon", "coordinates": [[[[114.1363841, 22.5731873], [114.1364562, 22.5731646], [114.1364759, 22.5732177], [114.1365369, 22.5731984], [114.1365613, 22.5732642], [114.1365754, 22.5733018], [114.1365076, 22.5733232], [114.1364897, 22.5732749], [114.1364246, 22.5732955], [114.1363977, 22.5732245], [114.1363841, 22.5731873]]]]}}, {"type": "Feature", "id": "way/1255620184", "properties": {"tags": {"building": "yes", "name": "15栋"}, "heightStatus": "unknown", "source": "OpenStreetMap", "license": "ODbL-1.0"}, "geometry": {"type": "MultiPolygon", "coordinates": [[[[114.1365613, 22.5732642], [114.13673, 22.5732112], [114.1367573, 22.5732871], [114.1367602, 22.5732965], [114.1365931, 22.573349], [114.1365754, 22.5733018], [114.1365613, 22.5732642]]]]}}, {"type": "Feature", "id": "way/1255620185", "properties": {"tags": {"building": "yes", "name": "16栋"}, "heightStatus": "unknown", "source": "OpenStreetMap", "license": "ODbL-1.0"}, "geometry": {"type": "MultiPolygon", "coordinates": [[[[114.1367262, 22.5732005], [114.1370444, 22.5731028], [114.1370755, 22.5731893], [114.1367573, 22.5732871], [114.13673, 22.5732112], [114.1367262, 22.5732005]]]]}}, {"type": "Feature", "id": "way/1255620186", "properties": {"tags": {"building": "yes", "name": "121栋"}, "heightStatus": "unknown", "source": "OpenStreetMap", "license": "ODbL-1.0"}, "geometry": {"type": "MultiPolygon", "coordinates": [[[[114.1362554, 22.5733691], [114.1364078, 22.5733184], [114.1364489, 22.5734235], [114.1364646, 22.5734183], [114.1365075, 22.5735282], [114.1363561, 22.5735785], [114.136322, 22.5734909], [114.1363052, 22.5734965], [114.1362554, 22.5733691]]]]}}, {"type": "Feature", "id": "way/1255620187", "properties": {"tags": {"building": "yes", "name": "17栋"}, "heightStatus": "unknown", "source": "OpenStreetMap", "license": "ODbL-1.0"}, "geometry": {"type": "MultiPolygon", "coordinates": [[[[114.1371181, 22.5731234], [114.1374406, 22.5730225], [114.137454, 22.5730596], [114.1374706, 22.5731049], [114.1371484, 22.5732059], [114.1371181, 22.5731234]]]]}}, {"type": "Feature", "id": "way/1255620188", "properties": {"tags": {"building": "yes", "name": "18栋"}, "heightStatus": "unknown", "source": "OpenStreetMap", "license": "ODbL-1.0"}, "geometry": {"type": "MultiPolygon", "coordinates": [[[[114.1374166, 22.5729557], [114.1374776, 22.5729365], [114.1374579, 22.5728833], [114.13753, 22.5728605], [114.1375697, 22.5729689], [114.1375046, 22.5729895], [114.1375225, 22.5730377], [114.137454, 22.5730596], [114.1374406, 22.5730225], [114.1374166, 22.5729557]]]]}}, {"type": "Feature", "id": "way/1255620192", "properties": {"tags": {"building": "yes", "name": "21栋"}, "heightStatus": "unknown", "source": "OpenStreetMap", "license": "ODbL-1.0"}, "geometry": {"type": "MultiPolygon", "coordinates": [[[[114.1367325, 22.5735718], [114.137058, 22.5734565], [114.1370927, 22.57354], [114.1367672, 22.5736551], [114.1367368, 22.5735822], [114.1367325, 22.5735718]]]]}}, {"type": "Feature", "id": "way/1255620193", "properties": {"tags": {"building": "yes", "name": "22栋"}, "heightStatus": "unknown", "source": "OpenStreetMap", "license": "ODbL-1.0"}, "geometry": {"type": "MultiPolygon", "coordinates": [[[[114.1365827, 22.5736398], [114.1367368, 22.5735822], [114.1367672, 22.5736551], [114.1367721, 22.573667], [114.136618, 22.573724], [114.1365985, 22.5736772], [114.1365827, 22.5736398]]]]}}, {"type": "Feature", "id": "way/1255620194", "properties": {"tags": {"building": "yes", "name": "23栋"}, "heightStatus": "unknown", "source": "OpenStreetMap", "license": "ODbL-1.0"}, "geometry": {"type": "MultiPolygon", "coordinates": [[[[114.1364897, 22.5737769], [114.1365498, 22.5737555], [114.136528, 22.5737031], [114.1365985, 22.5736772], [114.136618, 22.573724], [114.1366432, 22.5737848], [114.1365791, 22.5738076], [114.1365989, 22.5738552], [114.1365322, 22.5738789], [114.1364897, 22.5737769]]]]}}, {"type": "Feature", "id": "way/1255620195", "properties": {"tags": {"building": "yes"}, "heightStatus": "unknown", "source": "OpenStreetMap", "license": "ODbL-1.0"}, "geometry": {"type": "MultiPolygon", "coordinates": [[[[114.1365728, 22.5739451], [114.1366452, 22.5739195], [114.1366893, 22.574026], [114.1366169, 22.5740516], [114.1365728, 22.5739451]]]]}}, {"type": "Feature", "id": "way/1255620196", "properties": {"tags": {"building": "yes", "name": "25栋"}, "heightStatus": "unknown", "source": "OpenStreetMap", "license": "ODbL-1.0"}, "geometry": {"type": "MultiPolygon", "coordinates": [[[[114.137084, 22.5737267], [114.1371443, 22.5737057], [114.1371229, 22.5736531], [114.1371936, 22.5736277], [114.1372375, 22.5737355], [114.1371731, 22.5737579], [114.1371926, 22.5738056], [114.1371258, 22.573829], [114.1371027, 22.5737724], [114.137084, 22.5737267]]]]}}, {"type": "Feature", "id": "way/1255620197", "properties": {"tags": {"building": "yes", "name": "24栋"}, "heightStatus": "unknown", "source": "OpenStreetMap", "license": "ODbL-1.0"}, "geometry": {"type": "MultiPolygon", "coordinates": [[[[114.1367767, 22.573888], [114.1371027, 22.5737724], [114.1371258, 22.573829], [114.1371369, 22.5738562], [114.1369453, 22.5739239], [114.1368114, 22.5739713], [114.1367811, 22.5738984], [114.1367767, 22.573888]]]]}}, {"type": "Feature", "id": "way/1255620198", "properties": {"tags": {"building": "yes", "name": "20栋"}, "heightStatus": "unknown", "source": "OpenStreetMap", "license": "ODbL-1.0"}, "geometry": {"type": "MultiPolygon", "coordinates": [[[[114.1372043, 22.5734423], [114.1375301, 22.5733384], [114.1375382, 22.5733599], [114.1375696, 22.5734428], [114.1372433, 22.5735467], [114.1372043, 22.5734423]]]]}}, {"type": "Feature", "id": "way/1255620199", "properties": {"tags": {"building": "yes", "name": "19栋"}, "heightStatus": "unknown", "source": "OpenStreetMap", "license": "ODbL-1.0"}, "geometry": {"type": "MultiPolygon", "coordinates": [[[[114.1375382, 22.5733599], [114.1377056, 22.5733068], [114.1377422, 22.573405], [114.1375753, 22.573458], [114.1375696, 22.5734428], [114.1375382, 22.5733599]]]]}}, {"type": "Feature", "id": "way/1255620200", "properties": {"tags": {"building": "yes", "name": "26栋"}, "heightStatus": "unknown", "source": "OpenStreetMap", "license": "ODbL-1.0"}, "geometry": {"type": "MultiPolygon", "coordinates": [[[[114.137239, 22.5739287], [114.1375675, 22.5738196], [114.1375894, 22.5738766], [114.1375999, 22.5739041], [114.1374067, 22.573968], [114.1372718, 22.5740128], [114.1372431, 22.5739393], [114.137239, 22.5739287]]]]}}, {"type": "Feature", "id": "way/1255620201", "properties": {"tags": {"building": "yes", "name": "27栋"}, "heightStatus": "unknown", "source": "OpenStreetMap", "license": "ODbL-1.0"}, "geometry": {"type": "MultiPolygon", "coordinates": [[[[114.1375499, 22.5737735], [114.1376107, 22.5737537], [114.1375905, 22.5737008], [114.1376618, 22.5736767], [114.1376805, 22.5737257], [114.1377032, 22.5737854], [114.1376383, 22.5738065], [114.1376567, 22.5738546], [114.1375894, 22.5738766], [114.1375675, 22.5738196], [114.1375499, 22.5737735]]]]}}, {"type": "Feature", "id": "way/1255620202", "properties": {"tags": {"building": "yes", "name": "28栋"}, "heightStatus": "unknown", "source": "OpenStreetMap", "license": "ODbL-1.0"}, "geometry": {"type": "MultiPolygon", "coordinates": [[[[114.1376473, 22.5736405], [114.1378048, 22.5735878], [114.1378323, 22.5736617], [114.1378368, 22.5736737], [114.1376805, 22.5737257], [114.1376618, 22.5736767], [114.1376473, 22.5736405]]]]}}, {"type": "Feature", "id": "way/1255620204", "properties": {"tags": {"building": "yes", "name": "30栋"}, "heightStatus": "unknown", "source": "OpenStreetMap", "license": "ODbL-1.0"}, "geometry": {"type": "MultiPolygon", "coordinates": [[[[114.1365602, 22.5742619], [114.1367155, 22.574207], [114.1367443, 22.5742805], [114.136749, 22.5742924], [114.1365938, 22.5743467], [114.1365753, 22.5742996], [114.1365602, 22.5742619]]]]}}, {"type": "Feature", "id": "way/1255620205", "properties": {"tags": {"building": "yes", "name": "29栋"}, "heightStatus": "unknown", "source": "OpenStreetMap", "license": "ODbL-1.0"}, "geometry": {"type": "MultiPolygon", "coordinates": [[[[114.1367114, 22.5741965], [114.1370392, 22.574087], [114.1370722, 22.5741711], [114.1367443, 22.5742805], [114.1367155, 22.574207], [114.1367114, 22.5741965]]]]}}, {"type": "Feature", "id": "way/1255620206", "properties": {"tags": {"building": "yes", "name": "31栋"}, "heightStatus": "unknown", "source": "OpenStreetMap", "license": "ODbL-1.0"}, "geometry": {"type": "MultiPolygon", "coordinates": [[[[114.1365841, 22.5744904], [114.1366558, 22.5744666], [114.1366763, 22.5745195], [114.136737, 22.5744994], [114.1367624, 22.5745649], [114.1367772, 22.5746023], [114.1367097, 22.5746245], [114.136691, 22.5745765], [114.1366263, 22.574598], [114.1365841, 22.5744904]]]]}}, {"type": "Feature", "id": "way/1255620207", "properties": {"tags": {"building": "yes", "name": "32栋"}, "heightStatus": "unknown", "source": "OpenStreetMap", "license": "ODbL-1.0"}, "geometry": {"type": "MultiPolygon", "coordinates": [[[[114.1367624, 22.5745649], [114.1370801, 22.5744567], [114.1370961, 22.5744966], [114.1371149, 22.5745439], [114.1367956, 22.5746492], [114.1367772, 22.5746023], [114.1367624, 22.5745649]]]]}}, {"type": "Feature", "id": "way/1255620208", "properties": {"tags": {"building": "yes", "name": "33栋"}, "heightStatus": "unknown", "source": "OpenStreetMap", "license": "ODbL-1.0"}, "geometry": {"type": "MultiPolygon", "coordinates": [[[[114.1370556, 22.5743935], [114.1371162, 22.5743734], [114.1370957, 22.5743206], [114.1371669, 22.5742961], [114.1371852, 22.5743433], [114.1372089, 22.5744046], [114.1371442, 22.574426], [114.1371628, 22.5744741], [114.1370961, 22.5744966], [114.1370801, 22.5744567], [114.1370556, 22.5743935]]]]}}, {"type": "Feature", "id": "relation/17282804", "properties": {"tags": {"building": "yes", "name": "34栋"}, "heightStatus": "unknown", "source": "OpenStreetMap", "license": "ODbL-1.0"}, "geometry": {"type": "MultiPolygon", "coordinates": [[[[114.137152, 22.5742583], [114.1373076, 22.574204], [114.1373028, 22.5741915], [114.1374583, 22.5741372], [114.1374915, 22.5742227], [114.1373355, 22.5742761], [114.1373407, 22.5742895], [114.1371852, 22.5743433], [114.1371669, 22.5742961], [114.137152, 22.5742583]]]]}}, {"type": "Feature", "id": "way/1255620211", "properties": {"tags": {"building": "yes", "name": "120栋"}, "heightStatus": "unknown", "source": "OpenStreetMap", "license": "ODbL-1.0"}, "geometry": {"type": "MultiPolygon", "coordinates": [[[[114.1363444, 22.5746703], [114.136439, 22.5746381], [114.1364328, 22.5746226], [114.1365704, 22.5745757], [114.1366265, 22.5747161], [114.1365129, 22.5747548], [114.1365187, 22.5747693], [114.1364, 22.5748097], [114.1363444, 22.5746703]]]]}}, {"type": "Feature", "id": "way/1255620222", "properties": {"tags": {"building": "roof", "layer": "1"}, "heightStatus": "unknown", "source": "OpenStreetMap", "license": "ODbL-1.0"}, "geometry": {"type": "MultiPolygon", "coordinates": [[[[114.1355371, 22.5742445], [114.1356546, 22.5741355], [114.135703, 22.57418], [114.1357227, 22.5741982], [114.1356052, 22.5743071], [114.1355836, 22.5742873], [114.1355371, 22.5742445]]]]}}, {"type": "Feature", "id": "way/1255620232", "properties": {"tags": {"building": "yes", "name": "36栋"}, "heightStatus": "unknown", "source": "OpenStreetMap", "license": "ODbL-1.0"}, "geometry": {"type": "MultiPolygon", "coordinates": [[[[114.1365024, 22.5748751], [114.1366738, 22.5748201], [114.1366894, 22.5748614], [114.136709, 22.5749134], [114.1365375, 22.5749684], [114.1365024, 22.5748751]]]]}}, {"type": "Feature", "id": "way/1255620233", "properties": {"tags": {"building": "yes", "name": "35栋"}, "heightStatus": "unknown", "source": "OpenStreetMap", "license": "ODbL-1.0"}, "geometry": {"type": "MultiPolygon", "coordinates": [[[[114.1366894, 22.5748614], [114.1370163, 22.5747607], [114.1370464, 22.574844], [114.1367208, 22.5749443], [114.136709, 22.5749134], [114.1366894, 22.5748614]]]]}}, {"type": "Feature", "id": "way/1255620234", "properties": {"tags": {"building": "yes", "name": "38栋"}, "heightStatus": "unknown", "source": "OpenStreetMap", "license": "ODbL-1.0"}, "geometry": {"type": "MultiPolygon", "coordinates": [[[[114.1363558, 22.5753428], [114.136676, 22.5752411], [114.136691, 22.5752814], [114.1367087, 22.5753289], [114.136387, 22.5754277], [114.1363696, 22.5753804], [114.1363558, 22.5753428]]]]}}, {"type": "Feature", "id": "way/1255620235", "properties": {"tags": {"building": "yes", "name": "37栋"}, "heightStatus": "unknown", "source": "OpenStreetMap", "license": "ODbL-1.0"}, "geometry": {"type": "MultiPolygon", "coordinates": [[[[114.136653, 22.5751774], [114.1367141, 22.5751586], [114.1366949, 22.5751053], [114.1367666, 22.5750824], [114.136806, 22.5751916], [114.1367408, 22.5752118], [114.1367583, 22.5752601], [114.136691, 22.5752814], [114.136676, 22.5752411], [114.136653, 22.5751774]]]]}}, {"type": "Feature", "id": "way/1255620237", "properties": {"tags": {"building": "yes", "name": "39A栋"}, "heightStatus": "unknown", "source": "OpenStreetMap", "license": "ODbL-1.0"}, "geometry": {"type": "MultiPolygon", "coordinates": [[[[114.1353576, 22.5749063], [114.1354182, 22.574885], [114.1354115, 22.5748687], [114.1355381, 22.5748241], [114.1355451, 22.5748411], [114.1356088, 22.5748186], [114.1356524, 22.5749241], [114.1355689, 22.5749535], [114.1355632, 22.5749395], [114.1354743, 22.5749708], [114.1354805, 22.574986], [114.1354019, 22.5750137], [114.1353576, 22.5749063]]]]}}, {"type": "Feature", "id": "way/1255620238", "properties": {"tags": {"building": "yes", "name": "39B栋"}, "heightStatus": "unknown", "source": "OpenStreetMap", "license": "ODbL-1.0"}, "geometry": {"type": "MultiPolygon", "coordinates": [[[[114.13567, 22.5747949], [114.1357307, 22.5747735], [114.135724, 22.5747573], [114.1358505, 22.5747127], [114.1358575, 22.5747296], [114.1359213, 22.5747072], [114.1359649, 22.5748126], [114.1358814, 22.574842], [114.1358756, 22.574828], [114.1357867, 22.5748593], [114.135793, 22.5748745], [114.1357144, 22.5749022], [114.13567, 22.5747949]]]]}}, {"type": "Feature", "id": "way/1255620240", "properties": {"tags": {"building": "yes", "name": "123栋"}, "heightStatus": "unknown", "source": "OpenStreetMap", "license": "ODbL-1.0"}, "geometry": {"type": "MultiPolygon", "coordinates": [[[[114.135039, 22.5742883], [114.1350431, 22.5742347], [114.1350619, 22.574193], [114.1351029, 22.5741527], [114.1351802, 22.5741123], [114.1351972, 22.5741894], [114.1351753, 22.5742021], [114.1351568, 22.5742189], [114.1351434, 22.5742375], [114.1351343, 22.5742582], [114.1351296, 22.5742939], [114.1351324, 22.5743135], [114.1351389, 22.5743324], [114.1351602, 22.5743635], [114.1350872, 22.5744073], [114.1350532, 22.5743455], [114.135039, 22.5742883]]]]}}, {"type": "Feature", "id": "way/1255620241", "properties": {"tags": {"building": "roof", "layer": "1"}, "heightStatus": "unknown", "source": "OpenStreetMap", "license": "ODbL-1.0"}, "geometry": {"type": "MultiPolygon", "coordinates": [[[[114.1351296, 22.5742939], [114.1351343, 22.5742582], [114.1351434, 22.5742375], [114.1351568, 22.5742189], [114.1351753, 22.5742021], [114.1351972, 22.5741894], [114.1352365, 22.5741789], [114.1352772, 22.5741811], [114.1353149, 22.5741958], [114.135345, 22.5742213], [114.1353642, 22.5742546], [114.1353702, 22.5742919], [114.1353623, 22.5743289], [114.1353415, 22.5743614], [114.1353101, 22.5743856], [114.1352718, 22.5743986], [114.1352309, 22.5743991], [114.1351923, 22.5743869], [114.1351602, 22.5743635], [114.1351389, 22.5743324], [114.1351324, 22.5743135], [114.1351296, 22.5742939]]]]}}, {"type": "Feature", "id": "way/1255620243", "properties": {"tags": {"building": "yes", "name": "40栋"}, "heightStatus": "unknown", "source": "OpenStreetMap", "license": "ODbL-1.0"}, "geometry": {"type": "MultiPolygon", "coordinates": [[[[114.1359389, 22.5745737], [114.1360001, 22.5745534], [114.1359937, 22.5745371], [114.1361211, 22.5744947], [114.1361278, 22.5745117], [114.136192, 22.5744904], [114.1362334, 22.5745966], [114.1361493, 22.5746245], [114.1361438, 22.5746104], [114.1360543, 22.5746402], [114.1360603, 22.5746555], [114.1359811, 22.5746818], [114.1359389, 22.5745737]]]]}}, {"type": "Feature", "id": "way/1255620244", "properties": {"tags": {"building": "yes", "name": "41A栋"}, "heightStatus": "unknown", "source": "OpenStreetMap", "license": "ODbL-1.0"}, "geometry": {"type": "MultiPolygon", "coordinates": [[[[114.136031, 22.5742621], [114.1360921, 22.5742418], [114.1360857, 22.5742254], [114.1362131, 22.5741831], [114.1362198, 22.5742001], [114.136284, 22.5741788], [114.1363254, 22.5742849], [114.1362413, 22.5743129], [114.1362359, 22.5742988], [114.1361463, 22.5743286], [114.1361523, 22.5743439], [114.1360731, 22.5743702], [114.136031, 22.5742621]]]]}}, {"type": "Feature", "id": "way/1255620245", "properties": {"tags": {"building": "yes", "name": "41B栋"}, "heightStatus": "unknown", "source": "OpenStreetMap", "license": "ODbL-1.0"}, "geometry": {"type": "MultiPolygon", "coordinates": [[[[114.1359754, 22.5739882], [114.1360365, 22.5739679], [114.1360301, 22.5739515], [114.1361576, 22.5739092], [114.1361642, 22.5739262], [114.1362284, 22.5739049], [114.1362698, 22.574011], [114.1361858, 22.574039], [114.1361803, 22.5740249], [114.1360908, 22.5740547], [114.1360968, 22.57407], [114.1360176, 22.5740963], [114.1359754, 22.5739882]]]]}}, {"type": "Feature", "id": "way/1255620246", "properties": {"tags": {"building": "yes", "name": "42栋"}, "heightStatus": "unknown", "source": "OpenStreetMap", "license": "ODbL-1.0"}, "geometry": {"type": "MultiPolygon", "coordinates": [[[[114.1358809, 22.5737357], [114.135942, 22.5737154], [114.1359356, 22.5736991], [114.1360631, 22.5736567], [114.1360697, 22.5736738], [114.1361339, 22.5736524], [114.1361753, 22.5737586], [114.1360913, 22.5737865], [114.1360858, 22.5737724], [114.1359963, 22.5738022], [114.1360022, 22.5738175], [114.135923, 22.5738438], [114.1358809, 22.5737357]]]]}}, {"type": "Feature", "id": "way/1256770754", "properties": {"tags": {"building": "yes", "name": "44栋"}, "heightStatus": "unknown", "source": "OpenStreetMap", "license": "ODbL-1.0"}, "geometry": {"type": "MultiPolygon", "coordinates": [[[[114.1357908, 22.573007], [114.1359432, 22.5729228], [114.1359851, 22.5729874], [114.1359571, 22.5730029], [114.1359626, 22.5730112], [114.1360178, 22.5729807], [114.1360631, 22.5730506], [114.135999, 22.573086], [114.1359915, 22.5730744], [114.1359118, 22.5731185], [114.1359183, 22.5731285], [114.135849, 22.5731668], [114.1358016, 22.5730936], [114.13586, 22.5730614], [114.1358543, 22.5730527], [114.1358293, 22.5730665], [114.1357908, 22.573007]]]]}}, {"type": "Feature", "id": "way/1256770755", "properties": {"tags": {"building": "yes", "name": "43栋"}, "heightStatus": "unknown", "source": "OpenStreetMap", "license": "ODbL-1.0"}, "geometry": {"type": "MultiPolygon", "coordinates": [[[[114.1358984, 22.5727092], [114.1360508, 22.572625], [114.1360927, 22.5726896], [114.1360647, 22.572705], [114.1360701, 22.5727134], [114.1361254, 22.5726829], [114.1361707, 22.5727528], [114.1361066, 22.5727882], [114.1360991, 22.5727766], [114.1360193, 22.5728206], [114.1360259, 22.5728307], [114.1359566, 22.5728689], [114.1359092, 22.5727958], [114.1359675, 22.5727636], [114.1359619, 22.5727549], [114.1359369, 22.5727687], [114.1358984, 22.5727092]]]]}}, {"type": "Feature", "id": "way/1256770756", "properties": {"tags": {"building": "yes"}, "heightStatus": "unknown", "source": "OpenStreetMap", "license": "ODbL-1.0"}, "geometry": {"type": "MultiPolygon", "coordinates": [[[[114.1361092, 22.5730324], [114.1361789, 22.5728309], [114.1362489, 22.5728516], [114.1361792, 22.573053], [114.1361092, 22.5730324]]]]}}, {"type": "Feature", "id": "way/1256770759", "properties": {"tags": {"building": "yes", "name": "45栋"}, "heightStatus": "unknown", "source": "OpenStreetMap", "license": "ODbL-1.0"}, "geometry": {"type": "MultiPolygon", "coordinates": [[[[114.1357033, 22.5732944], [114.1358557, 22.5732101], [114.1358976, 22.5732747], [114.1358696, 22.5732902], [114.135875, 22.5732985], [114.1359303, 22.573268], [114.1359756, 22.573338], [114.1359115, 22.5733733], [114.135904, 22.5733617], [114.1358243, 22.5734058], [114.1358308, 22.5734159], [114.1357615, 22.5734541], [114.1357141, 22.573381], [114.1357725, 22.5733488], [114.1357668, 22.57334], [114.1357418, 22.5733538], [114.1357033, 22.5732944]]]]}}, {"type": "Feature", "id": "way/1256770760", "properties": {"tags": {"building": "yes", "name": "46栋"}, "heightStatus": "unknown", "source": "OpenStreetMap", "license": "ODbL-1.0"}, "geometry": {"type": "MultiPolygon", "coordinates": [[[[114.1354215, 22.573529], [114.1355739, 22.5734448], [114.1356158, 22.5735094], [114.1355878, 22.5735248], [114.1355933, 22.5735332], [114.1356485, 22.5735027], [114.1356938, 22.5735726], [114.1356298, 22.573608], [114.1356222, 22.5735964], [114.1355425, 22.5736404], [114.135549, 22.5736505], [114.1354797, 22.5736888], [114.1354324, 22.5736156], [114.1354907, 22.5735834], [114.135485, 22.5735747], [114.13546, 22.5735885], [114.1354215, 22.573529]]]]}}, {"type": "Feature", "id": "way/1256770761", "properties": {"tags": {"building": "yes", "name": "47栋"}, "heightStatus": "unknown", "source": "OpenStreetMap", "license": "ODbL-1.0"}, "geometry": {"type": "MultiPolygon", "coordinates": [[[[114.1351487, 22.5736759], [114.1353012, 22.5735916], [114.135343, 22.5736562], [114.1353151, 22.5736717], [114.1353205, 22.57368], [114.1353757, 22.5736495], [114.135421, 22.5737195], [114.135357, 22.5737548], [114.1353495, 22.5737432], [114.1352697, 22.5737873], [114.1352763, 22.5737974], [114.135207, 22.5738356], [114.1351596, 22.5737624], [114.1352179, 22.5737302], [114.1352123, 22.5737215], [114.1351873, 22.5737353], [114.1351487, 22.5736759]]]]}}, {"type": "Feature", "id": "way/1256770762", "properties": {"tags": {"building": "yes", "name": "48栋"}, "heightStatus": "unknown", "source": "OpenStreetMap", "license": "ODbL-1.0"}, "geometry": {"type": "MultiPolygon", "coordinates": [[[[114.1348727, 22.5738278], [114.1350252, 22.5737436], [114.135067, 22.5738082], [114.1350391, 22.5738236], [114.1350445, 22.573832], [114.1350997, 22.5738015], [114.135145, 22.5738714], [114.135081, 22.5739068], [114.1350735, 22.5738952], [114.1349937, 22.5739393], [114.1350002, 22.5739493], [114.134931, 22.5739876], [114.1348836, 22.5739144], [114.1349419, 22.5738822], [114.1349362, 22.5738735], [114.1349112, 22.5738873], [114.1348727, 22.5738278]]]]}}, {"type": "Feature", "id": "way/1256770766", "properties": {"tags": {"building": "yes", "name": "56栋"}, "heightStatus": "unknown", "source": "OpenStreetMap", "license": "ODbL-1.0"}, "geometry": {"type": "MultiPolygon", "coordinates": [[[[114.1356752, 22.5726848], [114.1357303, 22.5726539], [114.1356987, 22.5726059], [114.1357633, 22.5725688], [114.1357852, 22.5726022], [114.1358278, 22.5726674], [114.135769, 22.5727004], [114.1357977, 22.5727439], [114.1357367, 22.5727782], [114.1357154, 22.5727458], [114.1356752, 22.5726848]]]]}}, {"type": "Feature", "id": "way/1256770767", "properties": {"tags": {"building": "yes", "name": "55栋"}, "heightStatus": "unknown", "source": "OpenStreetMap", "license": "ODbL-1.0"}, "geometry": {"type": "MultiPolygon", "coordinates": [[[[114.1355601, 22.572831], [114.1357154, 22.5727458], [114.1357367, 22.5727782], [114.1357658, 22.5728235], [114.1356104, 22.572909], [114.1355601, 22.572831]]]]}}, {"type": "Feature", "id": "way/1256770768", "properties": {"tags": {"building": "yes", "name": "58栋"}, "heightStatus": "unknown", "source": "OpenStreetMap", "license": "ODbL-1.0"}, "geometry": {"type": "MultiPolygon", "coordinates": [[[[114.1350288, 22.572997], [114.1351812, 22.5729118], [114.1352255, 22.5729805], [114.1352305, 22.5729891], [114.1350796, 22.5730736], [114.1350513, 22.573031], [114.1350288, 22.572997]]]]}}, {"type": "Feature", "id": "way/1256770769", "properties": {"tags": {"building": "yes", "name": "57栋"}, "heightStatus": "unknown", "source": "OpenStreetMap", "license": "ODbL-1.0"}, "geometry": {"type": "MultiPolygon", "coordinates": [[[[114.135175, 22.5729021], [114.135463, 22.5727435], [114.1355135, 22.5728218], [114.1352255, 22.5729805], [114.1351812, 22.5729118], [114.135175, 22.5729021]]]]}}, {"type": "Feature", "id": "way/1256770770", "properties": {"tags": {"building": "yes", "name": "59栋"}, "heightStatus": "unknown", "source": "OpenStreetMap", "license": "ODbL-1.0"}, "geometry": {"type": "MultiPolygon", "coordinates": [[[[114.134678, 22.5731754], [114.1349661, 22.5730168], [114.1350166, 22.5730951], [114.1347286, 22.5732538], [114.134678, 22.5731754]]]]}}, {"type": "Feature", "id": "way/1256770771", "properties": {"tags": {"building": "yes", "name": "51栋"}, "heightStatus": "unknown", "source": "OpenStreetMap", "license": "ODbL-1.0"}, "geometry": {"type": "MultiPolygon", "coordinates": [[[[114.1349987, 22.5733531], [114.1351541, 22.5732703], [114.1351749, 22.573303], [114.1352007, 22.5733434], [114.1350447, 22.5734267], [114.1350115, 22.5733736], [114.1349987, 22.5733531]]]]}}, {"type": "Feature", "id": "way/1256770772", "properties": {"tags": {"building": "yes", "name": "52栋"}, "heightStatus": "unknown", "source": "OpenStreetMap", "license": "ODbL-1.0"}, "geometry": {"type": "MultiPolygon", "coordinates": [[[[114.1351749, 22.573303], [114.1353295, 22.5732209], [114.1353774, 22.5732977], [114.1352233, 22.5733797], [114.1352007, 22.5733434], [114.1351749, 22.573303]]]]}}, {"type": "Feature", "id": "way/1256770773", "properties": {"tags": {"building": "yes", "name": "54栋"}, "heightStatus": "unknown", "source": "OpenStreetMap", "license": "ODbL-1.0"}, "geometry": {"type": "MultiPolygon", "coordinates": [[[[114.1355354, 22.5730686], [114.1356909, 22.572986], [114.1357367, 22.5730597], [114.1355804, 22.5731425], [114.1355555, 22.5731016], [114.1355354, 22.5730686]]]]}}, {"type": "Feature", "id": "way/1256770774", "properties": {"tags": {"building": "yes", "name": "53栋"}, "heightStatus": "unknown", "source": "OpenStreetMap", "license": "ODbL-1.0"}, "geometry": {"type": "MultiPolygon", "coordinates": [[[[114.135401, 22.5731839], [114.1355555, 22.5731016], [114.1355804, 22.5731425], [114.1356031, 22.5731787], [114.135449, 22.5732607], [114.135401, 22.5731839]]]]}}, {"type": "Feature", "id": "way/1256770775", "properties": {"tags": {"building": "yes", "name": "49栋"}, "heightStatus": "unknown", "source": "OpenStreetMap", "license": "ODbL-1.0"}, "geometry": {"type": "MultiPolygon", "coordinates": [[[[114.1346188, 22.5733381], [114.1346843, 22.5733022], [114.1347154, 22.5733505], [114.1347708, 22.57332], [114.1348093, 22.5733798], [114.1348315, 22.5734139], [114.1347699, 22.5734477], [114.1347416, 22.5734038], [114.1346825, 22.5734363], [114.1346404, 22.573372], [114.1346188, 22.5733381]]]]}}, {"type": "Feature", "id": "way/1256770776", "properties": {"tags": {"building": "yes", "name": "50栋"}, "heightStatus": "unknown", "source": "OpenStreetMap", "license": "ODbL-1.0"}, "geometry": {"type": "MultiPolygon", "coordinates": [[[[114.1348093, 22.5733798], [114.1349626, 22.5732959], [114.1349987, 22.5733531], [114.1350115, 22.5733736], [114.1348593, 22.5734567], [114.1348315, 22.5734139], [114.1348093, 22.5733798]]]]}}, {"type": "Feature", "id": "way/1256770782", "properties": {"tags": {"building": "kindergarten"}, "heightStatus": "unknown", "source": "OpenStreetMap", "license": "ODbL-1.0"}, "geometry": {"type": "MultiPolygon", "coordinates": [[[[114.1342728, 22.5747214], [114.1343062, 22.574706], [114.1342913, 22.574678], [114.134346, 22.5746539], [114.1344339, 22.574615], [114.1344271, 22.5745992], [114.134556, 22.5745444], [114.1345396, 22.5745121], [114.1347882, 22.5744061], [114.1349073, 22.5746623], [114.1348023, 22.5747031], [114.1348069, 22.574716], [114.1347419, 22.5747403], [114.134737, 22.5747606], [114.1347261, 22.57478], [114.1347088, 22.5747949], [114.1346871, 22.5748037], [114.1346635, 22.5748053], [114.1346406, 22.5747995], [114.1346219, 22.5747877], [114.1346082, 22.5747711], [114.134601, 22.5747512], [114.134601, 22.5747344], [114.1346082, 22.5747105], [114.1346219, 22.5746938], [114.1345986, 22.5746416], [114.1344963, 22.5746836], [114.1344902, 22.5747009], [114.1343013, 22.5747797], [114.1342728, 22.5747214]]]]}}, {"type": "Feature", "id": "way/1256770783", "properties": {"tags": {"building": "yes", "name": "70栋"}, "heightStatus": "unknown", "source": "OpenStreetMap", "license": "ODbL-1.0"}, "geometry": {"type": "MultiPolygon", "coordinates": [[[[114.134057, 22.5739508], [114.1342107, 22.5738654], [114.1342322, 22.5738978], [114.1342588, 22.5739377], [114.1341045, 22.5740236], [114.1340702, 22.5739711], [114.134057, 22.5739508]]]]}}, {"type": "Feature", "id": "way/1256770784", "properties": {"tags": {"building": "yes", "name": "71栋"}, "heightStatus": "unknown", "source": "OpenStreetMap", "license": "ODbL-1.0"}, "geometry": {"type": "MultiPolygon", "coordinates": [[[[114.1342322, 22.5738978], [114.1343851, 22.573813], [114.1344026, 22.57384], [114.1344345, 22.573889], [114.1342821, 22.5739736], [114.1342588, 22.5739377], [114.1342322, 22.5738978]]]]}}, {"type": "Feature", "id": "way/1256770785", "properties": {"tags": {"building": "yes", "name": "70栋"}, "heightStatus": "unknown", "source": "OpenStreetMap", "license": "ODbL-1.0"}, "geometry": {"type": "MultiPolygon", "coordinates": [[[[114.1343426, 22.5737455], [114.1343981, 22.5737152], [114.1343672, 22.5736669], [114.1344323, 22.5736305], [114.1344537, 22.5736641], [114.1344955, 22.5737298], [114.1344362, 22.5737621], [114.1344643, 22.573806], [114.1344026, 22.57384], [114.1343851, 22.573813], [114.1343426, 22.5737455]]]]}}, {"type": "Feature", "id": "way/1256770790", "properties": {"tags": {"building": "yes", "name": "73栋"}, "heightStatus": "unknown", "source": "OpenStreetMap", "license": "ODbL-1.0"}, "geometry": {"type": "MultiPolygon", "coordinates": [[[[114.1344005, 22.5741084], [114.1345529, 22.5740241], [114.1345948, 22.5740887], [114.1345668, 22.5741042], [114.1345723, 22.5741125], [114.1346275, 22.574082], [114.1346728, 22.574152], [114.1346088, 22.5741873], [114.1346013, 22.5741757], [114.1345215, 22.5742198], [114.134528, 22.5742299], [114.1344587, 22.5742681], [114.1344114, 22.5741949], [114.1344697, 22.5741627], [114.134464, 22.574154], [114.134439, 22.5741678], [114.1344005, 22.5741084]]]]}}, {"type": "Feature", "id": "way/1256770791", "properties": {"tags": {"building": "yes", "name": "74栋"}, "heightStatus": "unknown", "source": "OpenStreetMap", "license": "ODbL-1.0"}, "geometry": {"type": "MultiPolygon", "coordinates": [[[[114.1341342, 22.5742585], [114.1342867, 22.5741743], [114.1343285, 22.5742389], [114.1343006, 22.5742543], [114.134306, 22.5742627], [114.1343612, 22.5742322], [114.1344065, 22.5743021], [114.1343425, 22.5743375], [114.134335, 22.5743259], [114.1342552, 22.5743699], [114.1342617, 22.57438], [114.1341925, 22.5744183], [114.1341451, 22.5743451], [114.1342034, 22.5743129], [114.1341977, 22.5743042], [114.1341727, 22.574318], [114.1341342, 22.5742585]]]]}}, {"type": "Feature", "id": "way/1256770792", "properties": {"tags": {"building": "yes", "name": "75A栋"}, "heightStatus": "unknown", "source": "OpenStreetMap", "license": "ODbL-1.0"}, "geometry": {"type": "MultiPolygon", "coordinates": [[[[114.1338689, 22.574403], [114.1340214, 22.5743188], [114.1340632, 22.5743834], [114.1340353, 22.5743989], [114.1340407, 22.5744072], [114.1340959, 22.5743767], [114.1341412, 22.5744466], [114.1340772, 22.574482], [114.1340697, 22.5744704], [114.1339899, 22.5745145], [114.1339964, 22.5745245], [114.1339272, 22.5745628], [114.1338798, 22.5744896], [114.1339381, 22.5744574], [114.1339325, 22.5744487], [114.1339075, 22.5744625], [114.1338689, 22.574403]]]]}}, {"type": "Feature", "id": "way/1256770793", "properties": {"tags": {"building": "yes", "name": "75B栋"}, "heightStatus": "unknown", "source": "OpenStreetMap", "license": "ODbL-1.0"}, "geometry": {"type": "MultiPolygon", "coordinates": [[[[114.1336057, 22.574556], [114.1337581, 22.5744718], [114.1338, 22.5745364], [114.1337721, 22.5745518], [114.1337775, 22.5745602], [114.1338327, 22.5745297], [114.133878, 22.5745996], [114.133814, 22.574635], [114.1338065, 22.5746234], [114.1337267, 22.5746674], [114.1337332, 22.5746775], [114.1336639, 22.5747158], [114.1336166, 22.5746426], [114.1336749, 22.5746104], [114.1336692, 22.5746017], [114.1336442, 22.5746155], [114.1336057, 22.574556]]]]}}, {"type": "Feature", "id": "way/1256770794", "properties": {"tags": {"building": "yes", "layer": "1", "name": "乐富楼"}, "heightStatus": "unknown", "source": "OpenStreetMap", "license": "ODbL-1.0"}, "geometry": {"type": "MultiPolygon", "coordinates": [[[[114.134444, 22.5756397], [114.1345153, 22.5756152], [114.1345288, 22.5756178], [114.1345576, 22.5755737], [114.1345449, 22.5755667], [114.1345196, 22.5755085], [114.134684, 22.5754475], [114.1347111, 22.5755097], [114.1347089, 22.5755215], [114.1347617, 22.5755452], [114.1347691, 22.5755311], [114.1348334, 22.5755113], [114.1348837, 22.5756509], [114.1348186, 22.5756708], [114.1348033, 22.5756633], [114.1347722, 22.5757174], [114.1347864, 22.5757243], [114.1348097, 22.5757824], [114.1346469, 22.5758379], [114.1346233, 22.5757788], [114.1346304, 22.5757664], [114.1345743, 22.5757388], [114.134566, 22.5757531], [114.1344988, 22.5757761], [114.134444, 22.5756397]]]]}}, {"type": "Feature", "id": "way/1256770795", "properties": {"tags": {"building": "yes", "layer": "1", "name": "乐丰楼"}, "heightStatus": "unknown", "source": "OpenStreetMap", "license": "ODbL-1.0"}, "geometry": {"type": "MultiPolygon", "coordinates": [[[[114.134915, 22.5754825], [114.1349866, 22.5754587], [114.1350002, 22.5754614], [114.1350293, 22.5754176], [114.1350168, 22.5754104], [114.1349921, 22.575352], [114.1351571, 22.5752925], [114.1351835, 22.5753549], [114.1351812, 22.5753667], [114.1352337, 22.5753909], [114.1352413, 22.5753769], [114.1352807, 22.5753649], [114.1353297, 22.5755056], [114.1352894, 22.575517], [114.1352741, 22.5755094], [114.1352425, 22.5755631], [114.1352566, 22.5755702], [114.1352792, 22.5756285], [114.1351159, 22.5756826], [114.1350929, 22.5756232], [114.1351002, 22.5756109], [114.1350443, 22.5755828], [114.1350359, 22.5755971], [114.1349685, 22.5756195], [114.134915, 22.5754825]]]]}}, {"type": "Feature", "id": "way/1256770796", "properties": {"tags": {"building": "yes", "layer": "1", "name": "乐康楼"}, "heightStatus": "unknown", "source": "OpenStreetMap", "license": "ODbL-1.0"}, "geometry": {"type": "MultiPolygon", "coordinates": [[[[114.1339966, 22.5757872], [114.1340407, 22.5757713], [114.1340542, 22.575774], [114.1340833, 22.5757301], [114.1340707, 22.575723], [114.1340458, 22.5756646], [114.1342108, 22.5756047], [114.1342373, 22.575667], [114.1342351, 22.5756788], [114.1342876, 22.5757029], [114.1342952, 22.5756888], [114.1343597, 22.5756695], [114.1344089, 22.5758093], [114.1343436, 22.5758289], [114.1343284, 22.5758213], [114.1342969, 22.5758751], [114.134311, 22.5758822], [114.1343338, 22.5759404], [114.1341707, 22.5759948], [114.1341475, 22.5759356], [114.1341547, 22.5759232], [114.1340987, 22.5758952], [114.1340903, 22.5759095], [114.1340482, 22.5759231], [114.1339966, 22.5757872]]]]}}, {"type": "Feature", "id": "way/1256770797", "properties": {"tags": {"building": "yes", "name": "118栋"}, "heightStatus": "unknown", "source": "OpenStreetMap", "license": "ODbL-1.0"}, "geometry": {"type": "MultiPolygon", "coordinates": [[[[114.1339634, 22.5757921], [114.1340389, 22.5756573], [114.1342123, 22.575596], [114.1343397, 22.5756295], [114.1344467, 22.5755952], [114.1345051, 22.5754996], [114.1346927, 22.5754351], [114.1348113, 22.5754776], [114.134929, 22.5754375], [114.1349856, 22.5753411], [114.1351621, 22.5752778], [114.1353174, 22.5753321], [114.1353727, 22.5754875], [114.1353525, 22.5755272], [114.1354164, 22.5756886], [114.1351776, 22.5757676], [114.1351679, 22.5758003], [114.1348508, 22.5759003], [114.1348431, 22.5758777], [114.1346681, 22.5759374], [114.1346769, 22.5759591], [114.1343892, 22.5760568], [114.1343795, 22.5760339], [114.1341137, 22.5761178], [114.1340507, 22.5759451], [114.1340176, 22.5759316], [114.1339634, 22.5757921]]]]}}, {"type": "Feature", "id": "way/1256770799", "properties": {"tags": {"building": "yes", "name": "114栋"}, "heightStatus": "unknown", "source": "OpenStreetMap", "license": "ODbL-1.0"}, "geometry": {"type": "MultiPolygon", "coordinates": [[[[114.1339246, 22.5753614], [114.1339883, 22.5753395], [114.1339844, 22.5753299], [114.1339571, 22.5753394], [114.1339309, 22.5752744], [114.1340973, 22.575217], [114.1341258, 22.5752875], [114.1340953, 22.5752981], [114.134099, 22.5753072], [114.1341593, 22.5752864], [114.1341901, 22.5753628], [114.1341202, 22.5753868], [114.1341151, 22.5753742], [114.134028, 22.5754042], [114.1340325, 22.5754152], [114.1339569, 22.5754413], [114.1339246, 22.5753614]]]]}}, {"type": "Feature", "id": "way/1256770801", "properties": {"tags": {"building": "yes", "name": "115栋"}, "heightStatus": "unknown", "source": "OpenStreetMap", "license": "ODbL-1.0"}, "geometry": {"type": "MultiPolygon", "coordinates": [[[[114.1342223, 22.5752658], [114.134286, 22.5752439], [114.1342822, 22.5752344], [114.1342549, 22.5752438], [114.1342286, 22.5751788], [114.134395, 22.5751214], [114.1344236, 22.575192], [114.134393, 22.5752025], [114.1343967, 22.5752116], [114.134457, 22.5751908], [114.1344879, 22.5752672], [114.134418, 22.5752913], [114.1344129, 22.5752786], [114.1343258, 22.5753086], [114.1343302, 22.5753196], [114.1342546, 22.5753457], [114.1342223, 22.5752658]]]]}}, {"type": "Feature", "id": "way/1256770802", "properties": {"tags": {"building": "yes", "name": "116栋"}, "heightStatus": "unknown", "source": "OpenStreetMap", "license": "ODbL-1.0"}, "geometry": {"type": "MultiPolygon", "coordinates": [[[[114.1345213, 22.5751639], [114.134585, 22.575142], [114.1345811, 22.5751324], [114.1345538, 22.5751418], [114.1345276, 22.5750769], [114.134694, 22.5750195], [114.1347225, 22.57509], [114.134692, 22.5751006], [114.1346957, 22.5751097], [114.134756, 22.5750889], [114.1347868, 22.5751652], [114.1347169, 22.5751893], [114.1347118, 22.5751767], [114.1346247, 22.5752067], [114.1346292, 22.5752177], [114.1345536, 22.5752438], [114.1345213, 22.5751639]]]]}}, {"type": "Feature", "id": "way/1256770803", "properties": {"tags": {"building": "yes", "name": "117栋"}, "heightStatus": "unknown", "source": "OpenStreetMap", "license": "ODbL-1.0"}, "geometry": {"type": "MultiPolygon", "coordinates": [[[[114.1348194, 22.5750638], [114.1348831, 22.5750419], [114.1348792, 22.5750324], [114.1348519, 22.5750418], [114.1348257, 22.5749769], [114.1349921, 22.5749195], [114.1350206, 22.57499], [114.1349901, 22.5750005], [114.1349938, 22.5750096], [114.1350541, 22.5749888], [114.1350849, 22.5750652], [114.1350151, 22.5750893], [114.1350099, 22.5750766], [114.1349229, 22.5751066], [114.1349273, 22.5751176], [114.1348517, 22.5751437], [114.1348194, 22.5750638]]]]}}, {"type": "Feature", "id": "way/1262566114", "properties": {"tags": {"building": "yes", "name": "66栋"}, "heightStatus": "unknown", "source": "OpenStreetMap", "license": "ODbL-1.0"}, "geometry": {"type": "MultiPolygon", "coordinates": [[[[114.1333289, 22.574108], [114.1334826, 22.5740226], [114.1335307, 22.5740949], [114.1333764, 22.5741808], [114.1333421, 22.5741283], [114.1333289, 22.574108]]]]}}, {"type": "Feature", "id": "way/1262566115", "properties": {"tags": {"building": "yes", "name": "67栋"}, "heightStatus": "unknown", "source": "OpenStreetMap", "license": "ODbL-1.0"}, "geometry": {"type": "MultiPolygon", "coordinates": [[[[114.1335101, 22.5742363], [114.1336638, 22.5741509], [114.1336765, 22.5741693], [114.1337117, 22.5742234], [114.1335576, 22.5743091], [114.1335233, 22.5742566], [114.1335101, 22.5742363]]]]}}, {"type": "Feature", "id": "way/1262566116", "properties": {"tags": {"building": "yes", "name": "68栋"}, "heightStatus": "unknown", "source": "OpenStreetMap", "license": "ODbL-1.0"}, "geometry": {"type": "MultiPolygon", "coordinates": [[[[114.1336765, 22.5741693], [114.1338304, 22.5740835], [114.1338659, 22.5741374], [114.1338783, 22.5741562], [114.133724, 22.5742421], [114.1337117, 22.5742234], [114.1336765, 22.5741693]]]]}}, {"type": "Feature", "id": "way/1262566117", "properties": {"tags": {"building": "yes", "name": "69栋"}, "heightStatus": "unknown", "source": "OpenStreetMap", "license": "ODbL-1.0"}, "geometry": {"type": "MultiPolygon", "coordinates": [[[[114.133818, 22.5740647], [114.1339717, 22.5739793], [114.1339932, 22.5740117], [114.1340198, 22.5740516], [114.1338659, 22.5741374], [114.1338304, 22.5740835], [114.133818, 22.5740647]]]]}}, {"type": "Feature", "id": "way/1262566118", "properties": {"tags": {"building": "yes", "name": "65栋"}, "heightStatus": "unknown", "source": "OpenStreetMap", "license": "ODbL-1.0"}, "geometry": {"type": "MultiPolygon", "coordinates": [[[[114.133385, 22.5739099], [114.1335387, 22.5738245], [114.1335514, 22.5738429], [114.1335866, 22.573897], [114.1334325, 22.5739827], [114.1333982, 22.5739302], [114.133385, 22.5739099]]]]}}, {"type": "Feature", "id": "way/1262566119", "properties": {"tags": {"building": "yes", "name": "64栋"}, "heightStatus": "unknown", "source": "OpenStreetMap", "license": "ODbL-1.0"}, "geometry": {"type": "MultiPolygon", "coordinates": [[[[114.1335514, 22.5738429], [114.1337053, 22.5737571], [114.1337172, 22.5737751], [114.133753, 22.5738291], [114.1335989, 22.5739157], [114.1335866, 22.573897], [114.1335514, 22.5738429]]]]}}, {"type": "Feature", "id": "way/1262566120", "properties": {"tags": {"building": "yes", "name": "63栋"}, "heightStatus": "unknown", "source": "OpenStreetMap", "license": "ODbL-1.0"}, "geometry": {"type": "MultiPolygon", "coordinates": [[[[114.1337172, 22.5737751], [114.1338717, 22.5736892], [114.1339071, 22.5737431], [114.1339195, 22.5737619], [114.1337652, 22.5738478], [114.133753, 22.5738291], [114.1337172, 22.5737751]]]]}}, {"type": "Feature", "id": "way/1262566121", "properties": {"tags": {"building": "yes", "name": "60栋"}, "heightStatus": "unknown", "source": "OpenStreetMap", "license": "ODbL-1.0"}, "geometry": {"type": "MultiPolygon", "coordinates": [[[[114.1342001, 22.5734539], [114.1343534, 22.5733678], [114.1343667, 22.573388], [114.1344012, 22.5734404], [114.1342474, 22.5735267], [114.1342119, 22.5734728], [114.1342001, 22.5734539]]]]}}, {"type": "Feature", "id": "way/1262566122", "properties": {"tags": {"building": "yes", "name": "61栋"}, "heightStatus": "unknown", "source": "OpenStreetMap", "license": "ODbL-1.0"}, "geometry": {"type": "MultiPolygon", "coordinates": [[[[114.1340582, 22.5735589], [114.1342119, 22.5734728], [114.1342474, 22.5735267], [114.1342597, 22.5735454], [114.1341051, 22.5736313], [114.1340699, 22.573577], [114.1340582, 22.5735589]]]]}}, {"type": "Feature", "id": "way/1262566123", "properties": {"tags": {"building": "yes", "name": "62栋"}, "heightStatus": "unknown", "source": "OpenStreetMap", "license": "ODbL-1.0"}, "geometry": {"type": "MultiPolygon", "coordinates": [[[[114.1339158, 22.5736635], [114.1340699, 22.573577], [114.1341051, 22.5736313], [114.1341174, 22.57365], [114.1339634, 22.5737364], [114.1339511, 22.5737175], [114.1339158, 22.5736635]]]]}}, {"type": "Feature", "id": "way/1262566124", "properties": {"tags": {"building": "yes", "name": "86栋"}, "heightStatus": "unknown", "source": "OpenStreetMap", "license": "ODbL-1.0"}, "geometry": {"type": "MultiPolygon", "coordinates": [[[[114.1329858, 22.5745283], [114.1331395, 22.5744429], [114.1331521, 22.5744613], [114.1331874, 22.5745153], [114.1330333, 22.5746011], [114.132999, 22.5745486], [114.1329858, 22.5745283]]]]}}, {"type": "Feature", "id": "way/1262566125", "properties": {"tags": {"building": "yes", "name": "87栋"}, "heightStatus": "unknown", "source": "OpenStreetMap", "license": "ODbL-1.0"}, "geometry": {"type": "MultiPolygon", "coordinates": [[[[114.1331521, 22.5744613], [114.1333061, 22.5743755], [114.1333416, 22.5744294], [114.1333539, 22.5744482], [114.1331996, 22.5745341], [114.1331874, 22.5745153], [114.1331521, 22.5744613]]]]}}, {"type": "Feature", "id": "way/1262566126", "properties": {"tags": {"building": "yes", "name": "88栋"}, "heightStatus": "unknown", "source": "OpenStreetMap", "license": "ODbL-1.0"}, "geometry": {"type": "MultiPolygon", "coordinates": [[[[114.1332937, 22.5743567], [114.1334474, 22.5742713], [114.1334689, 22.5743037], [114.1334955, 22.5743436], [114.1333416, 22.5744294], [114.1333061, 22.5743755], [114.1332937, 22.5743567]]]]}}, {"type": "Feature", "id": "way/1262566127", "properties": {"tags": {"building": "yes", "name": "81栋"}, "heightStatus": "unknown", "source": "OpenStreetMap", "license": "ODbL-1.0"}, "geometry": {"type": "MultiPolygon", "coordinates": [[[[114.1321855, 22.5745936], [114.1324583, 22.5744333], [114.132471, 22.5744517], [114.1325062, 22.5745058], [114.1322319, 22.5746654], [114.1321855, 22.5745936]]]]}}, {"type": "Feature", "id": "way/1262566128", "properties": {"tags": {"building": "yes", "name": "80栋"}, "heightStatus": "unknown", "source": "OpenStreetMap", "license": "ODbL-1.0"}, "geometry": {"type": "MultiPolygon", "coordinates": [[[[114.132471, 22.5744517], [114.1326249, 22.5743659], [114.1326368, 22.5743838], [114.1326726, 22.5744378], [114.1325185, 22.5745245], [114.1325062, 22.5745058], [114.132471, 22.5744517]]]]}}, {"type": "Feature", "id": "way/1262566129", "properties": {"tags": {"building": "yes", "name": "79栋"}, "heightStatus": "unknown", "source": "OpenStreetMap", "license": "ODbL-1.0"}, "geometry": {"type": "MultiPolygon", "coordinates": [[[[114.1326368, 22.5743838], [114.1327913, 22.5742979], [114.1328267, 22.5743519], [114.1328391, 22.5743707], [114.1326848, 22.5744566], [114.1326726, 22.5744378], [114.1326368, 22.5743838]]]]}}, {"type": "Feature", "id": "way/1262566130", "properties": {"tags": {"building": "yes", "name": "78栋"}, "heightStatus": "unknown", "source": "OpenStreetMap", "license": "ODbL-1.0"}, "geometry": {"type": "MultiPolygon", "coordinates": [[[[114.1328465, 22.5742665], [114.1330006, 22.57418], [114.1330358, 22.5742343], [114.1330481, 22.574253], [114.1328941, 22.5743394], [114.1328818, 22.5743205], [114.1328465, 22.5742665]]]]}}, {"type": "Feature", "id": "way/1262566131", "properties": {"tags": {"building": "yes", "name": "77栋"}, "heightStatus": "unknown", "source": "OpenStreetMap", "license": "ODbL-1.0"}, "geometry": {"type": "MultiPolygon", "coordinates": [[[[114.1329889, 22.5741619], [114.1331426, 22.5740758], [114.1331781, 22.5741298], [114.1331904, 22.5741485], [114.1330358, 22.5742343], [114.1330006, 22.57418], [114.1329889, 22.5741619]]]]}}, {"type": "Feature", "id": "way/1262566132", "properties": {"tags": {"building": "yes", "name": "76栋"}, "heightStatus": "unknown", "source": "OpenStreetMap", "license": "ODbL-1.0"}, "geometry": {"type": "MultiPolygon", "coordinates": [[[[114.1331308, 22.574057], [114.1332841, 22.5739709], [114.1332974, 22.5739911], [114.1333319, 22.5740435], [114.1331781, 22.5741298], [114.1331426, 22.5740758], [114.1331308, 22.574057]]]]}}, {"type": "Feature", "id": "way/1262566133", "properties": {"tags": {"building": "yes", "layer": "1", "name": "乐群楼"}, "heightStatus": "unknown", "source": "OpenStreetMap", "license": "ODbL-1.0"}, "geometry": {"type": "MultiPolygon", "coordinates": [[[[114.1359844, 22.5751377], [114.1360663, 22.5749397], [114.1361108, 22.5749554], [114.1361284, 22.5749129], [114.1363533, 22.5749922], [114.1363375, 22.5750305], [114.136375, 22.5750437], [114.1362934, 22.5752411], [114.136243, 22.5752233], [114.1362264, 22.5752634], [114.1360102, 22.5751872], [114.1360248, 22.575152], [114.1359844, 22.5751377]]]]}}, {"type": "Feature", "id": "way/1262566134", "properties": {"tags": {"building": "yes", "layer": "1", "name": "乐怡楼"}, "heightStatus": "unknown", "source": "OpenStreetMap", "license": "ODbL-1.0"}, "geometry": {"type": "MultiPolygon", "coordinates": [[[[114.1355289, 22.5753131], [114.1356108, 22.5751151], [114.1356553, 22.5751308], [114.1356743, 22.5750895], [114.1358978, 22.5751676], [114.135882, 22.5752059], [114.1359195, 22.5752191], [114.135838, 22.5754164], [114.1357876, 22.5753987], [114.135771, 22.5754388], [114.1355548, 22.5753626], [114.1355694, 22.5753273], [114.1355289, 22.5753131]]]]}}, {"type": "Feature", "id": "way/1262566135", "properties": {"tags": {"building": "yes", "name": "119栋"}, "heightStatus": "unknown", "source": "OpenStreetMap", "license": "ODbL-1.0"}, "geometry": {"type": "MultiPolygon", "coordinates": [[[[114.1354986, 22.5752956], [114.1355638, 22.5751358], [114.1356108, 22.5751151], [114.1356743, 22.5750895], [114.1357096, 22.5750392], [114.1360001, 22.5749339], [114.1360663, 22.5749397], [114.1361284, 22.5749129], [114.1362044, 22.5748028], [114.1362749, 22.574775], [114.1363899, 22.5750457], [114.1362689, 22.5753103], [114.136175, 22.5753365], [114.1362056, 22.5754206], [114.1357845, 22.5755629], [114.1357691, 22.5755785], [114.1357229, 22.5755878], [114.1356952, 22.5755764], [114.1356879, 22.575587], [114.1356725, 22.5755927], [114.1356532, 22.5755899], [114.1356409, 22.5755764], [114.1356421, 22.5755606], [114.1356066, 22.5755479], [114.1354986, 22.5752956]]]]}}, {"type": "Feature", "id": "way/1262566136", "properties": {"tags": {"building": "yes", "name": "96栋"}, "heightStatus": "unknown", "source": "OpenStreetMap", "license": "ODbL-1.0"}, "geometry": {"type": "MultiPolygon", "coordinates": [[[[114.1329946, 22.575377], [114.133163, 22.5753231], [114.133186, 22.5753858], [114.1331941, 22.5754083], [114.1330269, 22.5754615], [114.133009, 22.5754145], [114.1329946, 22.575377]]]]}}, {"type": "Feature", "id": "way/1262566137", "properties": {"tags": {"building": "yes", "name": "97栋"}, "heightStatus": "unknown", "source": "OpenStreetMap", "license": "ODbL-1.0"}, "geometry": {"type": "MultiPolygon", "coordinates": [[[[114.133186, 22.5753858], [114.1333562, 22.5753334], [114.1333695, 22.5753693], [114.133386, 22.5754137], [114.1332151, 22.5754664], [114.1331941, 22.5754083], [114.133186, 22.5753858]]]]}}, {"type": "Feature", "id": "way/1262566138", "properties": {"tags": {"building": "yes", "name": "98栋"}, "heightStatus": "unknown", "source": "OpenStreetMap", "license": "ODbL-1.0"}, "geometry": {"type": "MultiPolygon", "coordinates": [[[[114.1333695, 22.5753693], [114.1335387, 22.5753174], [114.1335468, 22.57534], [114.133569, 22.5754015], [114.1334003, 22.5754534], [114.133386, 22.5754137], [114.1333695, 22.5753693]]]]}}, {"type": "Feature", "id": "way/1262566139", "properties": {"tags": {"building": "yes", "name": "99栋"}, "heightStatus": "unknown", "source": "OpenStreetMap", "license": "ODbL-1.0"}, "geometry": {"type": "MultiPolygon", "coordinates": [[[[114.1335098, 22.5752364], [114.1335709, 22.5752176], [114.1335517, 22.5751643], [114.1336234, 22.5751414], [114.1336628, 22.5752506], [114.1335976, 22.5752708], [114.1336151, 22.5753191], [114.1335468, 22.57534], [114.1335387, 22.5753174], [114.1335098, 22.5752364]]]]}}, {"type": "Feature", "id": "way/1262566140", "properties": {"tags": {"building": "yes", "name": "89栋"}, "heightStatus": "unknown", "source": "OpenStreetMap", "license": "ODbL-1.0"}, "geometry": {"type": "MultiPolygon", "coordinates": [[[[114.133281, 22.5751206], [114.1334507, 22.5750686], [114.1334707, 22.5751249], [114.1334806, 22.5751528], [114.1333118, 22.5752047], [114.1332976, 22.575165], [114.133281, 22.5751206]]]]}}, {"type": "Feature", "id": "way/1262566141", "properties": {"tags": {"building": "yes", "name": "90栋"}, "heightStatus": "unknown", "source": "OpenStreetMap", "license": "ODbL-1.0"}, "geometry": {"type": "MultiPolygon", "coordinates": [[[[114.1330975, 22.5751371], [114.1332678, 22.5750847], [114.133281, 22.5751206], [114.1332976, 22.575165], [114.1331267, 22.5752177], [114.1331056, 22.5751596], [114.1330975, 22.5751371]]]]}}, {"type": "Feature", "id": "way/1262566142", "properties": {"tags": {"building": "yes", "name": "91栋"}, "heightStatus": "unknown", "source": "OpenStreetMap", "license": "ODbL-1.0"}, "geometry": {"type": "MultiPolygon", "coordinates": [[[[114.1329062, 22.5751283], [114.1330746, 22.5750744], [114.1330975, 22.5751371], [114.1331056, 22.5751596], [114.1329385, 22.5752128], [114.1329206, 22.5751658], [114.1329062, 22.5751283]]]]}}, {"type": "Feature", "id": "way/1262566143", "properties": {"tags": {"building": "yes"}, "heightStatus": "unknown", "source": "OpenStreetMap", "license": "ODbL-1.0"}, "geometry": {"type": "MultiPolygon", "coordinates": [[[[114.1334352, 22.5750251], [114.1335154, 22.5750007], [114.133551, 22.5751005], [114.1334707, 22.5751249], [114.1334507, 22.5750686], [114.1334352, 22.5750251]]]]}}, {"type": "Feature", "id": "way/1262566144", "properties": {"tags": {"building": "yes", "name": "101栋"}, "heightStatus": "unknown", "source": "OpenStreetMap", "license": "ODbL-1.0"}, "geometry": {"type": "MultiPolygon", "coordinates": [[[[114.1334618, 22.5756261], [114.133631, 22.5755742], [114.1336391, 22.5755967], [114.1336613, 22.5756583], [114.1334926, 22.5757102], [114.1334618, 22.5756261]]]]}}, {"type": "Feature", "id": "way/1262566145", "properties": {"tags": {"building": "yes", "name": "100栋"}, "heightStatus": "unknown", "source": "OpenStreetMap", "license": "ODbL-1.0"}, "geometry": {"type": "MultiPolygon", "coordinates": [[[[114.1336021, 22.5754932], [114.1336632, 22.5754744], [114.133644, 22.5754211], [114.1337157, 22.5753982], [114.1337551, 22.5755074], [114.1336899, 22.5755276], [114.1337074, 22.5755759], [114.1336391, 22.5755967], [114.133631, 22.5755742], [114.1336021, 22.5754932]]]]}}, {"type": "Feature", "id": "way/1262566146", "properties": {"tags": {"building": "yes", "name": "105栋"}, "heightStatus": "unknown", "source": "OpenStreetMap", "license": "ODbL-1.0"}, "geometry": {"type": "MultiPolygon", "coordinates": [[[[114.1334492, 22.5759017], [114.133755, 22.5758047], [114.1337626, 22.5758253], [114.1337832, 22.5758855], [114.1334761, 22.5759815], [114.1334492, 22.5759017]]]]}}, {"type": "Feature", "id": "way/1262566147", "properties": {"tags": {"building": "yes", "name": "112栋"}, "heightStatus": "unknown", "source": "OpenStreetMap", "license": "ODbL-1.0"}, "geometry": {"type": "MultiPolygon", "coordinates": [[[[114.1336732, 22.5761859], [114.1338425, 22.5761341], [114.1338506, 22.5761566], [114.1338728, 22.5762182], [114.133704, 22.57627], [114.1336889, 22.5762288], [114.1336732, 22.5761859]]]]}}, {"type": "Feature", "id": "way/1262566148", "properties": {"tags": {"building": "yes", "name": "113栋"}, "heightStatus": "unknown", "source": "OpenStreetMap", "license": "ODbL-1.0"}, "geometry": {"type": "MultiPolygon", "coordinates": [[[[114.1338136, 22.576053], [114.1338747, 22.5760342], [114.1338555, 22.5759809], [114.1339272, 22.575958], [114.1339666, 22.5760672], [114.1339014, 22.5760874], [114.1339189, 22.5761357], [114.1338506, 22.5761566], [114.1338425, 22.5761341], [114.1338136, 22.576053]]]]}}, {"type": "Feature", "id": "way/1262566149", "properties": {"tags": {"building": "yes", "name": "111栋"}, "heightStatus": "unknown", "source": "OpenStreetMap", "license": "ODbL-1.0"}, "geometry": {"type": "MultiPolygon", "coordinates": [[[[114.133383, 22.5763261], [114.1336889, 22.5762288], [114.133704, 22.57627], [114.133718, 22.5763096], [114.1334099, 22.5764059], [114.133383, 22.5763261]]]]}}, {"type": "Feature", "id": "way/1262566150", "properties": {"tags": {"building": "yes", "name": "84栋"}, "heightStatus": "unknown", "source": "OpenStreetMap", "license": "ODbL-1.0"}, "geometry": {"type": "MultiPolygon", "coordinates": [[[[114.13264, 22.574994], [114.1328093, 22.5749421], [114.1328174, 22.5749646], [114.1328395, 22.5750262], [114.1326701, 22.5750783], [114.1326477, 22.5750169], [114.13264, 22.574994]]]]}}, {"type": "Feature", "id": "way/1262566151", "properties": {"tags": {"building": "yes", "name": "85栋"}, "heightStatus": "unknown", "source": "OpenStreetMap", "license": "ODbL-1.0"}, "geometry": {"type": "MultiPolygon", "coordinates": [[[[114.1327803, 22.574861], [114.1328414, 22.5748422], [114.1328222, 22.5747889], [114.1328939, 22.574766], [114.1329333, 22.5748752], [114.1328681, 22.5748954], [114.1328856, 22.5749437], [114.1328174, 22.5749646], [114.1328093, 22.5749421], [114.1327803, 22.574861]]]]}}, {"type": "Feature", "id": "way/1262566152", "properties": {"tags": {"building": "yes", "name": "83栋"}, "heightStatus": "unknown", "source": "OpenStreetMap", "license": "ODbL-1.0"}, "geometry": {"type": "MultiPolygon", "coordinates": [[[[114.1323409, 22.5751123], [114.1326477, 22.5750169], [114.1326701, 22.5750783], [114.1326768, 22.5750966], [114.1323699, 22.575192], [114.1323409, 22.5751123]]]]}}, {"type": "Feature", "id": "way/1262566153", "properties": {"tags": {"building": "yes", "name": "82栋"}, "heightStatus": "unknown", "source": "OpenStreetMap", "license": "ODbL-1.0"}, "geometry": {"type": "MultiPolygon", "coordinates": [[[[114.1325451, 22.5747533], [114.1327144, 22.5747014], [114.1327225, 22.5747239], [114.1327447, 22.5747855], [114.1325753, 22.5748376], [114.1325529, 22.5747762], [114.1325451, 22.5747533]]]]}}, {"type": "Feature", "id": "way/1262566154", "properties": {"tags": {"building": "yes", "name": "82栋"}, "heightStatus": "unknown", "source": "OpenStreetMap", "license": "ODbL-1.0"}, "geometry": {"type": "MultiPolygon", "coordinates": [[[[114.132246, 22.5748716], [114.1325529, 22.5747762], [114.1325753, 22.5748376], [114.1325819, 22.5748559], [114.1322751, 22.5749513], [114.132246, 22.5748716]]]]}}, {"type": "Feature", "id": "way/1262566155", "properties": {"tags": {"building": "yes", "name": "92栋"}, "heightStatus": "unknown", "source": "OpenStreetMap", "license": "ODbL-1.0"}, "geometry": {"type": "MultiPolygon", "coordinates": [[[[114.1326123, 22.5753438], [114.1329199, 22.5752482], [114.1329505, 22.575332], [114.1326428, 22.5754277], [114.1326244, 22.5753771], [114.1326123, 22.5753438]]]]}}, {"type": "Feature", "id": "way/1262566156", "properties": {"tags": {"building": "yes", "name": "93栋"}, "heightStatus": "unknown", "source": "OpenStreetMap", "license": "ODbL-1.0"}, "geometry": {"type": "MultiPolygon", "coordinates": [[[[114.1324241, 22.5753454], [114.1325933, 22.5752935], [114.1326123, 22.5753438], [114.1326244, 22.5753771], [114.1324542, 22.5754297], [114.1324241, 22.5753454]]]]}}, {"type": "Feature", "id": "way/1262566157", "properties": {"tags": {"building": "yes", "name": "95栋"}, "heightStatus": "unknown", "source": "OpenStreetMap", "license": "ODbL-1.0"}, "geometry": {"type": "MultiPolygon", "coordinates": [[[[114.1327043, 22.5755836], [114.1330119, 22.575488], [114.1330425, 22.5755718], [114.1327348, 22.5756675], [114.1327164, 22.5756168], [114.1327043, 22.5755836]]]]}}, {"type": "Feature", "id": "way/1262566158", "properties": {"tags": {"building": "yes", "name": "94栋"}, "heightStatus": "unknown", "source": "OpenStreetMap", "license": "ODbL-1.0"}, "geometry": {"type": "MultiPolygon", "coordinates": [[[[114.1325161, 22.5755852], [114.1326853, 22.5755333], [114.1327043, 22.5755836], [114.1327164, 22.5756168], [114.1325462, 22.5756695], [114.1325161, 22.5755852]]]]}}, {"type": "Feature", "id": "way/1262566160", "properties": {"tags": {"building": "yes", "name": "103栋"}, "heightStatus": "unknown", "source": "OpenStreetMap", "license": "ODbL-1.0"}, "geometry": {"type": "MultiPolygon", "coordinates": [[[[114.1327937, 22.5758259], [114.1331016, 22.5757303], [114.1331133, 22.5757631], [114.1331319, 22.5758141], [114.1328243, 22.5759097], [114.1328058, 22.5758591], [114.1327937, 22.5758259]]]]}}, {"type": "Feature", "id": "way/1262566161", "properties": {"tags": {"building": "yes", "name": "104栋"}, "heightStatus": "unknown", "source": "OpenStreetMap", "license": "ODbL-1.0"}, "geometry": {"type": "MultiPolygon", "coordinates": [[[[114.1326055, 22.5758274], [114.1327748, 22.5757755], [114.1327937, 22.5758259], [114.1328058, 22.5758591], [114.1326356, 22.5759117], [114.1326055, 22.5758274]]]]}}, {"type": "Feature", "id": "way/1262566162", "properties": {"tags": {"building": "yes", "name": "102栋"}, "heightStatus": "unknown", "source": "OpenStreetMap", "license": "ODbL-1.0"}, "geometry": {"type": "MultiPolygon", "coordinates": [[[[114.133083, 22.5756786], [114.1332523, 22.5756268], [114.1332833, 22.5757103], [114.1331133, 22.5757631], [114.1331016, 22.5757303], [114.133083, 22.5756786]]]]}}, {"type": "Feature", "id": "way/1262566163", "properties": {"tags": {"building": "yes", "name": "108栋"}, "heightStatus": "unknown", "source": "OpenStreetMap", "license": "ODbL-1.0"}, "geometry": {"type": "MultiPolygon", "coordinates": [[[[114.1326921, 22.5760686], [114.1328614, 22.5760168], [114.1328803, 22.5760671], [114.1328925, 22.5761003], [114.1327223, 22.5761529], [114.1326921, 22.5760686]]]]}}, {"type": "Feature", "id": "way/1262566164", "properties": {"tags": {"building": "yes", "name": "107栋"}, "heightStatus": "unknown", "source": "OpenStreetMap", "license": "ODbL-1.0"}, "geometry": {"type": "MultiPolygon", "coordinates": [[[[114.1328803, 22.5760671], [114.1331882, 22.5759716], [114.1332, 22.5760044], [114.1332186, 22.5760553], [114.1329109, 22.576151], [114.1328925, 22.5761003], [114.1328803, 22.5760671]]]]}}, {"type": "Feature", "id": "way/1262566165", "properties": {"tags": {"building": "yes", "name": "106栋"}, "heightStatus": "unknown", "source": "OpenStreetMap", "license": "ODbL-1.0"}, "geometry": {"type": "MultiPolygon", "coordinates": [[[[114.1331697, 22.5759199], [114.1333389, 22.575868], [114.13337, 22.5759516], [114.1332, 22.5760044], [114.1331882, 22.5759716], [114.1331697, 22.5759199]]]]}}, {"type": "Feature", "id": "way/1262566166", "properties": {"tags": {"building": "yes", "name": "110栋"}, "heightStatus": "unknown", "source": "OpenStreetMap", "license": "ODbL-1.0"}, "geometry": {"type": "MultiPolygon", "coordinates": [[[[114.132989, 22.5764241], [114.1332969, 22.5763284], [114.1333275, 22.5764121], [114.1330196, 22.5765078], [114.1329975, 22.5764474], [114.132989, 22.5764241]]]]}}, {"type": "Feature", "id": "way/1262566167", "properties": {"tags": {"building": "yes", "name": "109栋"}, "heightStatus": "unknown", "source": "OpenStreetMap", "license": "ODbL-1.0"}, "geometry": {"type": "MultiPolygon", "coordinates": [[[[114.1328069, 22.5763325], [114.1328751, 22.5763114], [114.1328926, 22.5763594], [114.1329581, 22.5763391], [114.132989, 22.5764241], [114.1329975, 22.5764474], [114.132925, 22.5764699], [114.1329057, 22.5764168], [114.1328444, 22.5764358], [114.1328069, 22.5763325]]]]}}, {"type": "Feature", "id": "way/1262566169", "properties": {"tags": {"amenity": "fire_station", "building": "yes", "name": "罗湖消防东乐小型站"}, "heightStatus": "unknown", "source": "OpenStreetMap", "license": "ODbL-1.0"}, "geometry": {"type": "MultiPolygon", "coordinates": [[[[114.1378174, 22.5735155], [114.1379396, 22.573478], [114.1379973, 22.5736385], [114.1378751, 22.573676], [114.1378174, 22.5735155]]]]}}, {"type": "Feature", "id": "way/1262566170", "properties": {"tags": {"building": "yes", "name": "A座"}, "heightStatus": "unknown", "source": "OpenStreetMap", "license": "ODbL-1.0"}, "geometry": {"type": "MultiPolygon", "coordinates": [[[[114.1372647, 22.5748285], [114.1375106, 22.5744934], [114.1376292, 22.5745677], [114.1374118, 22.5748639], [114.1373729, 22.5748396], [114.1373444, 22.5748784], [114.1372647, 22.5748285]]]]}}, {"type": "Feature", "id": "way/1262566171", "properties": {"tags": {"building": "yes", "name": "B座"}, "heightStatus": "unknown", "source": "OpenStreetMap", "license": "ODbL-1.0"}, "geometry": {"type": "MultiPolygon", "coordinates": [[[[114.1376046, 22.5743651], [114.1378505, 22.57403], [114.1379302, 22.57408], [114.1379017, 22.5741188], [114.1379406, 22.5741431], [114.1377232, 22.5744394], [114.1376046, 22.5743651]]]]}}, {"type": "Feature", "id": "way/1262566173", "properties": {"tags": {"building": "yes"}, "heightStatus": "unknown", "source": "OpenStreetMap", "license": "ODbL-1.0"}, "geometry": {"type": "MultiPolygon", "coordinates": [[[[114.1342582, 22.5725011], [114.1343714, 22.5724391], [114.1346642, 22.5728946], [114.1345509, 22.5729567], [114.1342582, 22.5725011]]]]}}, {"type": "Feature", "id": "way/1262566174", "properties": {"tags": {"building": "yes"}, "heightStatus": "unknown", "source": "OpenStreetMap", "license": "ODbL-1.0"}, "geometry": {"type": "MultiPolygon", "coordinates": [[[[114.1345693, 22.5727397], [114.1349736, 22.5725218], [114.1350702, 22.5726745], [114.134666, 22.5728926], [114.1345693, 22.5727397]]]]}}, {"type": "Feature", "id": "way/1262566175", "properties": {"tags": {"building": "yes"}, "heightStatus": "unknown", "source": "OpenStreetMap", "license": "ODbL-1.0"}, "geometry": {"type": "MultiPolygon", "coordinates": [[[[114.1344089, 22.5724932], [114.1348132, 22.5722753], [114.1349098, 22.5724281], [114.1345056, 22.5726461], [114.1344089, 22.5724932]]]]}}, {"type": "Feature", "id": "way/1264730579", "properties": {"tags": {"building": "apartments", "building:levels": "7", "name": "东乐南苑"}, "heightStatus": "levels_only_unverified", "source": "OpenStreetMap", "license": "ODbL-1.0"}, "geometry": {"type": "MultiPolygon", "coordinates": [[[[114.1350922, 22.5723837], [114.1356236, 22.5720743], [114.1356922, 22.5721747], [114.1357109, 22.5723481], [114.135213, 22.5726419], [114.1351655, 22.5725733], [114.1356251, 22.5723023], [114.1356144, 22.5722094], [114.1351555, 22.5724765], [114.1350922, 22.5723837]]]]}}, {"type": "Feature", "id": "way/1264730580", "properties": {"tags": {"building": "retail", "layer": "1", "name": "联江大厦"}, "heightStatus": "unknown", "source": "OpenStreetMap", "license": "ODbL-1.0"}, "geometry": {"type": "MultiPolygon", "coordinates": [[[[114.1356225, 22.5717542], [114.1358923, 22.5716176], [114.1360476, 22.5721551], [114.1357713, 22.5722888], [114.1356225, 22.5717542]]]]}}, {"type": "Feature", "id": "way/1264730581", "properties": {"tags": {"building": "apartments", "building:levels": "6", "layer": "2"}, "heightStatus": "levels_only_unverified", "source": "OpenStreetMap", "license": "ODbL-1.0"}, "geometry": {"type": "MultiPolygon", "coordinates": [[[[114.1357598, 22.572095], [114.135956, 22.5719974], [114.1359956, 22.5721466], [114.1357974, 22.5722499], [114.1357598, 22.572095]]]]}}, {"type": "Feature", "id": "way/1264730587", "properties": {"tags": {"building": "apartments", "building:levels": "31", "name": "10栋", "name:en": "Block 10", "name:zh": "10栋"}, "heightStatus": "levels_only_unverified", "source": "OpenStreetMap", "license": "ODbL-1.0"}, "geometry": {"type": "MultiPolygon", "coordinates": [[[[114.1320662, 22.5721895], [114.1321179, 22.5720954], [114.1321608, 22.5721165], [114.1322714, 22.5721462], [114.1323371, 22.5722081], [114.132378, 22.5722304], [114.1323244, 22.572321], [114.1320662, 22.5721895]]]]}}, {"type": "Feature", "id": "way/1264730590", "properties": {"tags": {"building": "apartments", "building:levels": "27", "layer": "2", "name": "6栋", "name:en": "Block 6", "name:zh": "6栋"}, "heightStatus": "levels_only_unverified", "source": "OpenStreetMap", "license": "ODbL-1.0"}, "geometry": {"type": "MultiPolygon", "coordinates": [[[[114.1334175, 22.5721037], [114.1336312, 22.5720268], [114.1336587, 22.572092], [114.1335164, 22.5721432], [114.1335476, 22.5722172], [114.1335737, 22.5722192], [114.1336109, 22.5721457], [114.1336759, 22.5721738], [114.1335579, 22.5724069], [114.1334798, 22.5723731], [114.1335139, 22.572306], [114.1335665, 22.5723287], [114.1335961, 22.5722703], [114.133531, 22.5722422], [114.1335152, 22.5722734], [114.1334833, 22.5722597], [114.1334175, 22.5721037]]]]}}, {"type": "Feature", "id": "way/1264730591", "properties": {"tags": {"building": "apartments", "building:levels": "27", "layer": "2", "name": "5栋", "name:en": "Block 5", "name:zh": "5栋"}, "heightStatus": "levels_only_unverified", "source": "OpenStreetMap", "license": "ODbL-1.0"}, "geometry": {"type": "MultiPolygon", "coordinates": [[[[114.1329721, 22.5723538], [114.1331217, 22.5722912], [114.1331042, 22.5722555], [114.1333964, 22.5721333], [114.1334253, 22.5721923], [114.1332027, 22.5722854], [114.1332394, 22.57236], [114.1332868, 22.572268], [114.13335, 22.5722958], [114.133308, 22.5723772], [114.1333228, 22.5723837], [114.1332352, 22.5725533], [114.1331571, 22.5725189], [114.1332118, 22.5724129], [114.1331782, 22.5724082], [114.1331437, 22.5723379], [114.1329949, 22.5724002], [114.1329721, 22.5723538]]]]}}, {"type": "Feature", "id": "way/1264730592", "properties": {"tags": {"building": "apartments", "building:levels": "27", "layer": "2", "name": "4栋", "name:en": "Block 4", "name:zh": "4栋"}, "heightStatus": "levels_only_unverified", "source": "OpenStreetMap", "license": "ODbL-1.0"}, "geometry": {"type": "MultiPolygon", "coordinates": [[[[114.1326484, 22.5724833], [114.132961, 22.5723566], [114.1329895, 22.5724164], [114.1328895, 22.572457], [114.1329236, 22.5725287], [114.1329793, 22.5724297], [114.1330487, 22.572463], [114.1330022, 22.5725456], [114.1330213, 22.5725548], [114.132922, 22.5727312], [114.1328385, 22.5726911], [114.1328957, 22.5725895], [114.1328643, 22.5725744], [114.1328311, 22.5725046], [114.1326864, 22.5725633], [114.1326484, 22.5724833]]]]}}, {"type": "Feature", "id": "way/1264730593", "properties": {"tags": {"building": "retail", "building:levels": "2", "layer": "1"}, "heightStatus": "levels_only_unverified", "source": "OpenStreetMap", "license": "ODbL-1.0"}, "geometry": {"type": "MultiPolygon", "coordinates": [[[[114.1324043, 22.5720301], [114.1329045, 22.571799], [114.133342, 22.571614], [114.1333622, 22.5716011], [114.1333902, 22.5715922], [114.1334198, 22.5715915], [114.1334431, 22.5715969], [114.1334644, 22.5716074], [114.1334822, 22.5716223], [114.1334972, 22.571644], [114.1335051, 22.5716687], [114.1335048, 22.5716965], [114.1334953, 22.571723], [114.1335943, 22.5719015], [114.1338181, 22.5723052], [114.1335289, 22.5724361], [114.1326835, 22.572852], [114.1326121, 22.5728306], [114.1325616, 22.5728036], [114.1325216, 22.5727644], [114.132497, 22.572721], [114.1324854, 22.5726732], [114.1324876, 22.5726243], [114.1325016, 22.5725812], [114.1325263, 22.5725424], [114.1325625, 22.5725085], [114.1326068, 22.5724841], [114.1324043, 22.5720301]]]]}}, {"type": "Feature", "id": "way/1264730594", "properties": {"tags": {"building": "apartments", "building:levels": "27", "name": "3栋", "name:en": "Block 3", "name:zh": "3栋"}, "heightStatus": "levels_only_unverified", "source": "OpenStreetMap", "license": "ODbL-1.0"}, "geometry": {"type": "MultiPolygon", "coordinates": [[[[114.1321939, 22.5727898], [114.1324076, 22.5727129], [114.1324351, 22.5727781], [114.1322928, 22.5728293], [114.1323241, 22.5729033], [114.1323501, 22.5729052], [114.1323873, 22.5728318], [114.1324524, 22.5728599], [114.1323343, 22.5730929], [114.1322563, 22.5730592], [114.1322903, 22.5729921], [114.1323429, 22.5730148], [114.1323725, 22.5729564], [114.1323074, 22.5729283], [114.1322916, 22.5729595], [114.1322597, 22.5729458], [114.1321939, 22.5727898]]]]}}, {"type": "Feature", "id": "way/1279573003", "properties": {"tags": {"building": "residential", "name": "东湖豪庭"}, "heightStatus": "unknown", "source": "OpenStreetMap", "license": "ODbL-1.0"}, "geometry": {"type": "MultiPolygon", "coordinates": [[[[114.1394514, 22.5795653], [114.1394536, 22.5795328], [114.1394702, 22.5794921], [114.1394966, 22.5794596], [114.1396597, 22.5793654], [114.1398928, 22.5792309], [114.1399479, 22.5792452], [114.1400139, 22.5792756], [114.140026, 22.5793498], [114.1400227, 22.5794311], [114.140004, 22.5794962], [114.1398928, 22.5797005], [114.1398136, 22.5798011], [114.1397475, 22.579858], [114.1396551, 22.5799027], [114.1394625, 22.5796049], [114.1394514, 22.5795653]]]]}}, {"type": "Feature", "id": "way/1279573039", "properties": {"tags": {"amenity": "police", "building": "no", "name": "东湖派出所"}, "heightStatus": "unknown", "source": "OpenStreetMap", "license": "ODbL-1.0"}, "geometry": {"type": "MultiPolygon", "coordinates": [[[[114.1327615, 22.579764], [114.1327922, 22.5797419], [114.1331477, 22.5797224], [114.1331659, 22.579995], [114.1327883, 22.5799994], [114.1327615, 22.579764]]]]}}, {"type": "Feature", "id": "way/1293015953", "properties": {"tags": {"building": "industrial"}, "heightStatus": "unknown", "source": "OpenStreetMap", "license": "ODbL-1.0"}, "geometry": {"type": "MultiPolygon", "coordinates": [[[[114.1317836, 22.5799205], [114.1317867, 22.579781], [114.1325075, 22.5797945], [114.1324987, 22.5801916], [114.132318, 22.5801882], [114.1323237, 22.5799308], [114.1317836, 22.5799205]]]]}}, {"type": "Feature", "id": "way/1293015957", "properties": {"tags": {"building": "industrial"}, "heightStatus": "unknown", "source": "OpenStreetMap", "license": "ODbL-1.0"}, "geometry": {"type": "MultiPolygon", "coordinates": [[[[114.1322167, 22.5806855], [114.1322187, 22.5805877], [114.1324464, 22.5805916], [114.1324504, 22.5803883], [114.1322234, 22.5803845], [114.1322253, 22.5802896], [114.1324508, 22.5802934], [114.132451, 22.5802789], [114.1325789, 22.5802811], [114.1325708, 22.5806914], [114.1322167, 22.5806855]]]]}}, {"type": "Feature", "id": "way/1293015967", "properties": {"tags": {"building": "apartments", "building:levels": "7", "name": "8栋", "name:en": "Block 8", "name:zh": "8栋"}, "heightStatus": "levels_only_unverified", "source": "OpenStreetMap", "license": "ODbL-1.0"}, "geometry": {"type": "MultiPolygon", "coordinates": [[[[114.1320903, 22.5784236], [114.1321303, 22.5784224], [114.1321193, 22.5783214], [114.1321713, 22.5783166], [114.132174, 22.5783421], [114.1322278, 22.5783371], [114.1322248, 22.578309], [114.1322672, 22.5783051], [114.1322776, 22.5784011], [114.1323383, 22.5783955], [114.1323468, 22.5784735], [114.1320988, 22.5784991], [114.1320903, 22.5784236]]]]}}, {"type": "Feature", "id": "way/1293015969", "properties": {"tags": {"building": "apartments", "building:levels": "7", "name": "1栋", "name:en": "Block 1", "name:zh": "1栋"}, "heightStatus": "levels_only_unverified", "source": "OpenStreetMap", "license": "ODbL-1.0"}, "geometry": {"type": "MultiPolygon", "coordinates": [[[[114.1320422, 22.5778767], [114.132107, 22.5778562], [114.1321006, 22.5777748], [114.1321858, 22.5777732], [114.1321858, 22.5778557], [114.1322752, 22.5778778], [114.1322528, 22.5779492], [114.1321286, 22.5779312], [114.1320632, 22.5779543], [114.1320422, 22.5778767]]]]}}, {"type": "Feature", "id": "way/1293015974", "properties": {"tags": {"building": "school"}, "heightStatus": "unknown", "source": "OpenStreetMap", "license": "ODbL-1.0"}, "geometry": {"type": "MultiPolygon", "coordinates": [[[[114.1328673, 22.5800787], [114.1330549, 22.5800593], [114.1330528, 22.580045], [114.1330844, 22.5800407], [114.1330891, 22.5800717], [114.1333279, 22.5800407], [114.1333354, 22.5801197], [114.1332799, 22.5801254], [114.1332953, 22.5802442], [114.1332807, 22.5802606], [114.133253, 22.580262], [114.1332329, 22.5802535], [114.1332364, 22.5802803], [114.1332253, 22.5802911], [114.1332026, 22.5802905], [114.1331915, 22.5802824], [114.1331897, 22.5802673], [114.1331792, 22.5802684], [114.133202, 22.5804188], [114.1330293, 22.5804413], [114.1330487, 22.580598], [114.1331046, 22.5805908], [114.1331021, 22.5805669], [114.1331473, 22.5805628], [114.1331575, 22.5806521], [114.1329705, 22.5806721], [114.1329269, 22.5803622], [114.1329322, 22.5803358], [114.1329497, 22.5803293], [114.1329661, 22.5803417], [114.1329719, 22.5803768], [114.1331089, 22.5803568], [114.1330794, 22.5801293], [114.1328744, 22.5801493], [114.1328673, 22.5800787]]]]}}, {"type": "Feature", "id": "way/1415630024", "properties": {"tags": {"building": "yes"}, "heightStatus": "unknown", "source": "OpenStreetMap", "license": "ODbL-1.0"}, "geometry": {"type": "MultiPolygon", "coordinates": [[[[114.1344562, 22.5795034], [114.1346856, 22.5794371], [114.1347941, 22.5797571], [114.1345648, 22.5798234], [114.1344562, 22.5795034]]]]}}, {"type": "Feature", "id": "way/1415630025", "properties": {"tags": {"building": "yes"}, "heightStatus": "unknown", "source": "OpenStreetMap", "license": "ODbL-1.0"}, "geometry": {"type": "MultiPolygon", "coordinates": [[[[114.1346449, 22.5801259], [114.1348874, 22.5800634], [114.1349907, 22.5804047], [114.1347482, 22.5804673], [114.1346449, 22.5801259]]]]}}, {"type": "Feature", "id": "way/1415630026", "properties": {"tags": {"building": "yes"}, "heightStatus": "unknown", "source": "OpenStreetMap", "license": "ODbL-1.0"}, "geometry": {"type": "MultiPolygon", "coordinates": [[[[114.1351703, 22.5807474], [114.1353066, 22.5804614], [114.1356244, 22.5805906], [114.135488, 22.5808765], [114.1351703, 22.5807474]]]]}}, {"type": "Feature", "id": "way/1415630028", "properties": {"tags": {"building": "yes"}, "heightStatus": "unknown", "source": "OpenStreetMap", "license": "ODbL-1.0"}, "geometry": {"type": "MultiPolygon", "coordinates": [[[[114.1393136, 22.5784205], [114.1396551, 22.5783356], [114.1397981, 22.578801], [114.1394787, 22.5790036], [114.13933, 22.5787896], [114.1394282, 22.578743], [114.1393136, 22.5784205]]]]}}, {"type": "Feature", "id": "way/1415630029", "properties": {"tags": {"building": "yes"}, "heightStatus": "unknown", "source": "OpenStreetMap", "license": "ODbL-1.0"}, "geometry": {"type": "MultiPolygon", "coordinates": [[[[114.1378503, 22.5788935], [114.1382029, 22.5786808], [114.1383396, 22.5788741], [114.1382719, 22.5789149], [114.1381763, 22.5787798], [114.1379788, 22.5788989], [114.1380879, 22.5790531], [114.1380005, 22.5791058], [114.1378503, 22.5788935]]]]}}, {"type": "Feature", "id": "way/1415630030", "properties": {"tags": {"building": "yes"}, "heightStatus": "unknown", "source": "OpenStreetMap", "license": "ODbL-1.0"}, "geometry": {"type": "MultiPolygon", "coordinates": [[[[114.1379015, 22.5796489], [114.1380583, 22.5795544], [114.1381162, 22.5796363], [114.1380791, 22.5796586], [114.1381125, 22.5797058], [114.1381766, 22.5796672], [114.1382234, 22.5797335], [114.1380028, 22.5798664], [114.1379385, 22.5797754], [114.1380201, 22.5797262], [114.1379872, 22.5796797], [114.1379423, 22.5797067], [114.1379015, 22.5796489]]]]}}, {"type": "Feature", "id": "way/1415630031", "properties": {"tags": {"building": "yes"}, "heightStatus": "unknown", "source": "OpenStreetMap", "license": "ODbL-1.0"}, "geometry": {"type": "MultiPolygon", "coordinates": [[[[114.1381577, 22.5794991], [114.1383145, 22.5794046], [114.1383724, 22.5794865], [114.1383353, 22.5795088], [114.1383687, 22.579556], [114.1384328, 22.5795174], [114.1384796, 22.5795836], [114.138259, 22.5797166], [114.1381947, 22.5796256], [114.1382763, 22.5795764], [114.1382434, 22.5795299], [114.1381985, 22.5795569], [114.1381577, 22.5794991]]]]}}, {"type": "Feature", "id": "way/1415630032", "properties": {"tags": {"building": "yes"}, "heightStatus": "unknown", "source": "OpenStreetMap", "license": "ODbL-1.0"}, "geometry": {"type": "MultiPolygon", "coordinates": [[[[114.1385896, 22.579245], [114.1387464, 22.5791505], [114.1388043, 22.5792324], [114.1387672, 22.5792547], [114.1388006, 22.5793019], [114.1388647, 22.5792632], [114.1389115, 22.5793295], [114.1386909, 22.5794625], [114.1386266, 22.5793715], [114.1387082, 22.5793223], [114.1386753, 22.5792757], [114.1386304, 22.5793028], [114.1385896, 22.579245]]]]}}, {"type": "Feature", "id": "way/1415630033", "properties": {"tags": {"building": "yes"}, "heightStatus": "unknown", "source": "OpenStreetMap", "license": "ODbL-1.0"}, "geometry": {"type": "MultiPolygon", "coordinates": [[[[114.1388538, 22.5790951], [114.1390106, 22.5790007], [114.1390685, 22.5790825], [114.1390314, 22.5791049], [114.1390648, 22.579152], [114.1391289, 22.5791134], [114.1391757, 22.5791797], [114.1389551, 22.5793127], [114.1388908, 22.5792216], [114.1389724, 22.5791725], [114.1389395, 22.5791259], [114.1388946, 22.5791529], [114.1388538, 22.5790951]]]]}}, {"type": "Feature", "id": "way/1429518256", "properties": {"tags": {"amenity": "toilets", "building": "toilets"}, "heightStatus": "unknown", "source": "OpenStreetMap", "license": "ODbL-1.0"}, "geometry": {"type": "MultiPolygon", "coordinates": [[[[114.1403358, 22.5806162], [114.1403525, 22.5806032], [114.1403807, 22.5805952], [114.1404229, 22.5806156], [114.140425, 22.5806484], [114.140437, 22.5806955], [114.1404712, 22.5807184], [114.1404813, 22.5807333], [114.1404659, 22.5807741], [114.1404444, 22.5807933], [114.1404444, 22.580815], [114.140437, 22.5808484], [114.1404296, 22.5808701], [114.1404303, 22.5808961], [114.140435, 22.5809431], [114.1404089, 22.5809766], [114.1403572, 22.580963], [114.1403505, 22.5809215], [114.140372, 22.580888], [114.1403472, 22.5808373], [114.1403492, 22.5807945], [114.140368, 22.5807685], [114.1403881, 22.5807394], [114.140378, 22.5807035], [114.1403398, 22.5806664], [114.1403358, 22.5806162]]]]}}, {"type": "Feature", "id": "way/1462723252", "properties": {"tags": {"building": "yes", "fee": "no", "height": "19.5", "man_made": "tower", "name": "湖光塔", "start_date": "2025-12-25"}, "heightStatus": "height_tag_unverified", "source": "OpenStreetMap", "license": "ODbL-1.0"}, "geometry": {"type": "MultiPolygon", "coordinates": [[[[114.1401832, 22.5769016], [114.1401883, 22.5768756], [114.1402027, 22.5768529], [114.1402247, 22.576836], [114.1402515, 22.5768271], [114.1402801, 22.5768272], [114.1403069, 22.5768362], [114.1403287, 22.5768532], [114.1403429, 22.5768761], [114.1403479, 22.576902], [114.1403439, 22.5769253], [114.1403325, 22.5769463], [114.1403146, 22.5769631], [114.140292, 22.576974], [114.1402668, 22.576978], [114.1402416, 22.5769747], [114.1402187, 22.5769645], [114.1402002, 22.5769482], [114.140188, 22.5769276], [114.1401832, 22.5769016]]]]}}, {"type": "Feature", "id": "way/1464254557", "properties": {"tags": {"building": "residential"}, "heightStatus": "unknown", "source": "OpenStreetMap", "license": "ODbL-1.0"}, "geometry": {"type": "MultiPolygon", "coordinates": [[[[114.1375013, 22.5779444], [114.1378123, 22.5778466], [114.1378333, 22.5779035], [114.1378017, 22.5779135], [114.1378318, 22.577995], [114.1378494, 22.5779894], [114.1378604, 22.5780192], [114.1375613, 22.5781132], [114.1375453, 22.5780698], [114.1376249, 22.5780448], [114.1375971, 22.5779693], [114.1375195, 22.5779938], [114.1375013, 22.5779444]]]]}}, {"type": "Feature", "id": "way/1464254558", "properties": {"tags": {"building": "residential"}, "heightStatus": "unknown", "source": "OpenStreetMap", "license": "ODbL-1.0"}, "geometry": {"type": "MultiPolygon", "coordinates": [[[[114.1376376, 22.5783192], [114.1379486, 22.5782214], [114.1379696, 22.5782783], [114.137938, 22.5782883], [114.1379681, 22.5783698], [114.1379857, 22.5783642], [114.1379967, 22.578394], [114.1376976, 22.578488], [114.1376816, 22.5784446], [114.1377613, 22.5784196], [114.1377335, 22.5783441], [114.1376558, 22.5783686], [114.1376376, 22.5783192]]]]}}, {"type": "Feature", "id": "way/1494523993", "properties": {"tags": {"building": "construction"}, "heightStatus": "unknown", "source": "OpenStreetMap", "license": "ODbL-1.0"}, "geometry": {"type": "MultiPolygon", "coordinates": [[[[114.1399873, 22.5761594], [114.1400017, 22.5753566], [114.1405305, 22.5753647], [114.1405284, 22.5754783], [114.1405649, 22.5754789], [114.1405628, 22.5755931], [114.1405275, 22.5755926], [114.1405243, 22.5757645], [114.1402619, 22.5757605], [114.1402547, 22.5761635], [114.1399873, 22.5761594]]]]}}, {"type": "Feature", "id": "way/1494523994", "properties": {"tags": {"building": "construction"}, "heightStatus": "unknown", "source": "OpenStreetMap", "license": "ODbL-1.0"}, "geometry": {"type": "MultiPolygon", "coordinates": [[[[114.1397469, 22.5752667], [114.1397473, 22.5752368], [114.13977, 22.575237], [114.1397769, 22.5746517], [114.1410732, 22.5746648], [114.1410688, 22.5750441], [114.1410082, 22.5750435], [114.1410063, 22.5752049], [114.1409804, 22.5752046], [114.1409795, 22.5752786], [114.1397469, 22.5752667]]]]}}, {"type": "Feature", "id": "way/1494523995", "properties": {"tags": {"building": "construction"}, "heightStatus": "unknown", "source": "OpenStreetMap", "license": "ODbL-1.0"}, "geometry": {"type": "MultiPolygon", "coordinates": [[[[114.1406972, 22.574495], [114.1407072, 22.5735865], [114.1411295, 22.5735905], [114.1411196, 22.5744989], [114.1406972, 22.574495]]]]}}, {"type": "Feature", "id": "relation/20393900", "properties": {"tags": {"building": "construction"}, "heightStatus": "unknown", "source": "OpenStreetMap", "license": "ODbL-1.0"}, "geometry": {"type": "MultiPolygon", "coordinates": [[[[114.1394482, 22.5754316], [114.1399021, 22.5754429], [114.1398846, 22.5763354], [114.1397938, 22.576336], [114.1394482, 22.5754316]], [[114.1395929, 22.5757029], [114.1396002, 22.5757324], [114.1396174, 22.5757583], [114.1396425, 22.5757778], [114.1396731, 22.5757888], [114.1396823, 22.5757892], [114.1397074, 22.5757902], [114.1397402, 22.575781], [114.1397679, 22.5757622], [114.1397872, 22.575736], [114.139796, 22.5757054], [114.1397933, 22.5756738], [114.1397794, 22.5756448], [114.1397559, 22.5756217], [114.1397254, 22.5756072], [114.1396929, 22.5756028], [114.1396606, 22.5756082], [114.1396318, 22.5756228], [114.1396095, 22.575645], [114.1395961, 22.5756727], [114.1395929, 22.5757029]], [[114.1397078, 22.5759259], [114.1397167, 22.5759564], [114.1397922, 22.575957], [114.1397922, 22.5759014], [114.1397078, 22.5759259]], [[114.1397137, 22.5760975], [114.1397349, 22.5761514], [114.1397933, 22.5761558], [114.1397916, 22.5760991], [114.1397137, 22.5760975]]]]}}, {"type": "Feature", "id": "way/1494524000", "properties": {"tags": {"building": "construction"}, "heightStatus": "unknown", "source": "OpenStreetMap", "license": "ODbL-1.0"}, "geometry": {"type": "MultiPolygon", "coordinates": [[[[114.1397598, 22.5745746], [114.1397607, 22.5745071], [114.1397644, 22.5742267], [114.1406042, 22.5742362], [114.1405996, 22.574584], [114.1397598, 22.5745746]]]]}}, {"type": "Feature", "id": "way/1494524001", "properties": {"tags": {"building": "construction"}, "heightStatus": "unknown", "source": "OpenStreetMap", "license": "ODbL-1.0"}, "geometry": {"type": "MultiPolygon", "coordinates": [[[[114.1393336, 22.575191], [114.1393534, 22.5744783], [114.1396061, 22.5744843], [114.1396055, 22.5745048], [114.1395989, 22.5747415], [114.1395492, 22.5747403], [114.1395366, 22.5751958], [114.1393336, 22.575191]]]]}}, {"type": "Feature", "id": "way/1494524003", "properties": {"tags": {"building": "construction"}, "heightStatus": "unknown", "source": "OpenStreetMap", "license": "ODbL-1.0"}, "geometry": {"type": "MultiPolygon", "coordinates": [[[[114.1403366, 22.5741004], [114.1405179, 22.5739315], [114.1406107, 22.5739307], [114.1406129, 22.57415], [114.1403371, 22.5741524], [114.1403366, 22.5741004]]]]}}, {"type": "Feature", "id": "relation/20393901", "properties": {"tags": {"building": "yes"}, "heightStatus": "unknown", "source": "OpenStreetMap", "license": "ODbL-1.0"}, "geometry": {"type": "MultiPolygon", "coordinates": [[[[114.1383475, 22.5785567], [114.1384397, 22.5785079], [114.1384586, 22.5785279], [114.1385433, 22.5784854], [114.1385657, 22.5785123], [114.1386585, 22.5784591], [114.138666, 22.5784716], [114.1387669, 22.5784191], [114.1388357, 22.5785222], [114.1388521, 22.5785161], [114.1388684, 22.57851], [114.1388839, 22.5785142], [114.1388985, 22.5785284], [114.1390115, 22.5784604], [114.1391301, 22.5786349], [114.1390048, 22.5787031], [114.1389614, 22.5786449], [114.1389228, 22.5786693], [114.1388511, 22.5785698], [114.1388195, 22.5785709], [114.1387351, 22.5786136], [114.1387105, 22.5786494], [114.138667, 22.578859], [114.1385361, 22.5788411], [114.1385407, 22.5787594], [114.1384886, 22.578754], [114.1384929, 22.578677], [114.1384525, 22.5786756], [114.1384322, 22.5786468], [114.1384139, 22.5786549], [114.1383475, 22.5785567]], [[114.1385505, 22.5786562], [114.1385576, 22.5786693], [114.1386806, 22.5786818], [114.1386927, 22.578629], [114.1386851, 22.5786141], [114.138559, 22.5786447], [114.1385505, 22.5786562]]]]}}]}