{"type": "FeatureCollection", "features": [{"type": "Feature", "id": "way/1215835796", "properties": {"tags": {"building": "yes", "building:levels": "6"}, "heightStatus": "levels_only_unverified", "source": "OpenStreetMap", "license": "ODbL-1.0"}, "geometry": {"type": "MultiPolygon", "coordinates": [[[[114.1323753, 22.5834574], [114.1323807, 22.5832544], [114.1325658, 22.5831415], [114.1327619, 22.5831411], [114.1327593, 22.5834633], [114.1323753, 22.5834574]]]]}}, {"type": "Feature", "id": "way/1216264471", "properties": {"tags": {"building": "train_station", "building:levels": "0", "building:levels:underground": "2", "layer": "-1", "location": "underground", "name": "布心站"}, "heightStatus": "levels_only_unverified", "source": "OpenStreetMap", "license": "ODbL-1.0"}, "geometry": {"type": "MultiPolygon", "coordinates": [[[[114.1323377, 22.5844942], [114.1323383, 22.5844368], [114.1328103, 22.5844403], [114.1328136, 22.5843577], [114.1328622, 22.5843579], [114.1328685, 22.5828033], [114.1330687, 22.5828045], [114.133055, 22.5835176], [114.1330303, 22.584311], [114.1333847, 22.5843148], [114.1333841, 22.5843547], [114.1330257, 22.5843529], [114.1330193, 22.5847126], [114.1328107, 22.5847096], [114.1328105, 22.5844983], [114.1323377, 22.5844942]]]]}}, {"type": "Feature", "id": "way/1216264478", "properties": {"tags": {"building": "yes"}, "heightStatus": "unknown", "source": "OpenStreetMap", "license": "ODbL-1.0"}, "geometry": {"type": "MultiPolygon", "coordinates": [[[[114.1323694, 22.5840005], [114.1327933, 22.584], [114.1327937, 22.5842247], [114.1323697, 22.5842252], [114.1323694, 22.5840005]]]]}}, {"type": "Feature", "id": "way/1216264479", "properties": {"tags": {"building": "yes"}, "heightStatus": "unknown", "source": "OpenStreetMap", "license": "ODbL-1.0"}, "geometry": {"type": "MultiPolygon", "coordinates": [[[[114.1317777, 22.5836251], [114.1322017, 22.5836246], [114.132202, 22.5838493], [114.1317781, 22.5838499], [114.1317777, 22.5836251]]]]}}, {"type": "Feature", "id": "way/1216264480", "properties": {"tags": {"building": "yes"}, "heightStatus": "unknown", "source": "OpenStreetMap", "license": "ODbL-1.0"}, "geometry": {"type": "MultiPolygon", "coordinates": [[[[114.1323869, 22.5836373], [114.1328108, 22.5836368], [114.1328112, 22.5838615], [114.1323872, 22.5838621], [114.1323869, 22.5836373]]]]}}, {"type": "Feature", "id": "way/1216264481", "properties": {"tags": {"building": "yes"}, "heightStatus": "unknown", "source": "OpenStreetMap", "license": "ODbL-1.0"}, "geometry": {"type": "MultiPolygon", "coordinates": [[[[114.1317754, 22.5832844], [114.1321994, 22.5832839], [114.1321997, 22.5835085], [114.1317757, 22.5835091], [114.1317754, 22.5832844]]]]}}, {"type": "Feature", "id": "way/1216264482", "properties": {"tags": {"building": "yes"}, "heightStatus": "unknown", "source": "OpenStreetMap", "license": "ODbL-1.0"}, "geometry": {"type": "MultiPolygon", "coordinates": [[[[114.1317757, 22.5830138], [114.1321997, 22.5830133], [114.1322, 22.583238], [114.131776, 22.5832386], [114.1317757, 22.5830138]]]]}}, {"type": "Feature", "id": "way/1216264485", "properties": {"tags": {"building": "yes"}, "heightStatus": "unknown", "source": "OpenStreetMap", "license": "ODbL-1.0"}, "geometry": {"type": "MultiPolygon", "coordinates": [[[[114.1331133, 22.5832712], [114.133117, 22.5831401], [114.1337722, 22.5831559], [114.1337685, 22.5832868], [114.1331133, 22.5832712]]]]}}, {"type": "Feature", "id": "way/1216264486", "properties": {"tags": {"building": "yes"}, "heightStatus": "unknown", "source": "OpenStreetMap", "license": "ODbL-1.0"}, "geometry": {"type": "MultiPolygon", "coordinates": [[[[114.1331223, 22.5829842], [114.133126, 22.5828531], [114.1337812, 22.5828689], [114.1337775, 22.5829998], [114.1331223, 22.5829842]]]]}}, {"type": "Feature", "id": "way/1216264487", "properties": {"tags": {"building": "yes"}, "heightStatus": "unknown", "source": "OpenStreetMap", "license": "ODbL-1.0"}, "geometry": {"type": "MultiPolygon", "coordinates": [[[[114.1331233, 22.582736], [114.133127, 22.5826049], [114.1337822, 22.5826207], [114.1337785, 22.5827516], [114.1331233, 22.582736]]]]}}, {"type": "Feature", "id": "way/1216264488", "properties": {"tags": {"building": "yes"}, "heightStatus": "unknown", "source": "OpenStreetMap", "license": "ODbL-1.0"}, "geometry": {"type": "MultiPolygon", "coordinates": [[[[114.1331468, 22.5825157], [114.1331505, 22.5823847], [114.1338057, 22.5824004], [114.133802, 22.5825313], [114.1331468, 22.5825157]]]]}}, {"type": "Feature", "id": "way/1216264489", "properties": {"tags": {"building": "yes"}, "heightStatus": "unknown", "source": "OpenStreetMap", "license": "ODbL-1.0"}, "geometry": {"type": "MultiPolygon", "coordinates": [[[[114.1330923, 22.5842461], [114.133094, 22.5841748], [114.1331674, 22.5841763], [114.1331696, 22.5840872], [114.1333169, 22.5840903], [114.1333149, 22.584172], [114.1334675, 22.5841752], [114.1334696, 22.5840918], [114.1336285, 22.5840951], [114.1336266, 22.5841701], [114.1337034, 22.5841717], [114.1337013, 22.5842587], [114.1330923, 22.5842461]]]]}}, {"type": "Feature", "id": "way/1216264490", "properties": {"tags": {"building": "yes"}, "heightStatus": "unknown", "source": "OpenStreetMap", "license": "ODbL-1.0"}, "geometry": {"type": "MultiPolygon", "coordinates": [[[[114.1337768, 22.5842623], [114.1337785, 22.584191], [114.1338519, 22.5841925], [114.1338541, 22.5841034], [114.1340014, 22.5841065], [114.1339994, 22.5841882], [114.134152, 22.5841914], [114.1341541, 22.584108], [114.1343129, 22.5841113], [114.1343111, 22.5841863], [114.1343879, 22.5841879], [114.1343858, 22.5842749], [114.1337768, 22.5842623]]]]}}, {"type": "Feature", "id": "way/1216264491", "properties": {"tags": {"building": "yes"}, "heightStatus": "unknown", "source": "OpenStreetMap", "license": "ODbL-1.0"}, "geometry": {"type": "MultiPolygon", "coordinates": [[[[114.1331092, 22.583928], [114.1331109, 22.5838568], [114.1331844, 22.5838583], [114.1331866, 22.5837692], [114.1333338, 22.5837722], [114.1333318, 22.583854], [114.1334114, 22.5838556], [114.1334845, 22.5838572], [114.1334865, 22.5837737], [114.1336454, 22.5837771], [114.1336435, 22.583852], [114.1337203, 22.5838536], [114.1337182, 22.5839407], [114.1334074, 22.5839342], [114.1331092, 22.583928]]]]}}, {"type": "Feature", "id": "way/1216264492", "properties": {"tags": {"building": "yes"}, "heightStatus": "unknown", "source": "OpenStreetMap", "license": "ODbL-1.0"}, "geometry": {"type": "MultiPolygon", "coordinates": [[[[114.1331454, 22.5836146], [114.1331471, 22.5835434], [114.1332206, 22.5835449], [114.1332228, 22.5834558], [114.13337, 22.5834589], [114.133368, 22.5835406], [114.1335207, 22.5835438], [114.1335227, 22.5834603], [114.1336816, 22.5834637], [114.1336797, 22.5835386], [114.1337565, 22.5835403], [114.1337544, 22.5836273], [114.1331454, 22.5836146]]]]}}, {"type": "Feature", "id": "way/1216264493", "properties": {"tags": {"building": "yes"}, "heightStatus": "unknown", "source": "OpenStreetMap", "license": "ODbL-1.0"}, "geometry": {"type": "MultiPolygon", "coordinates": [[[[114.1337643, 22.5839427], [114.1337683, 22.5838642], [114.1338414, 22.5838657], [114.1338434, 22.5837823], [114.1340023, 22.5837856], [114.1340005, 22.5838606], [114.1340772, 22.5838622], [114.1340751, 22.5839492], [114.1337643, 22.5839427]]]]}}, {"type": "Feature", "id": "way/1216264494", "properties": {"tags": {"building": "yes"}, "heightStatus": "unknown", "source": "OpenStreetMap", "license": "ODbL-1.0"}, "geometry": {"type": "MultiPolygon", "coordinates": [[[[114.1330528, 22.5848117], [114.1330568, 22.5847331], [114.1331299, 22.5847347], [114.1331319, 22.5846512], [114.1332908, 22.5846546], [114.1332889, 22.5847295], [114.1333657, 22.5847311], [114.1333636, 22.5848182], [114.1330528, 22.5848117]]]]}}, {"type": "Feature", "id": "way/1216264495", "properties": {"tags": {"building": "yes"}, "heightStatus": "unknown", "source": "OpenStreetMap", "license": "ODbL-1.0"}, "geometry": {"type": "MultiPolygon", "coordinates": [[[[114.1330363, 22.5852295], [114.1330404, 22.585151], [114.1331134, 22.5851525], [114.1331155, 22.5850691], [114.1332743, 22.5850724], [114.1332725, 22.5851474], [114.1333493, 22.585149], [114.1333472, 22.585236], [114.1330363, 22.5852295]]]]}}, {"type": "Feature", "id": "way/1216264496", "properties": {"tags": {"building": "yes"}, "heightStatus": "unknown", "source": "OpenStreetMap", "license": "ODbL-1.0"}, "geometry": {"type": "MultiPolygon", "coordinates": [[[[114.1330315, 22.5856474], [114.1330355, 22.5855688], [114.1331086, 22.5855703], [114.1331106, 22.5854869], [114.1332695, 22.5854902], [114.1332677, 22.5855652], [114.1333444, 22.5855668], [114.1333423, 22.5856538], [114.1330315, 22.5856474]]]]}}, {"type": "Feature", "id": "way/1216264497", "properties": {"tags": {"building": "yes"}, "heightStatus": "unknown", "source": "OpenStreetMap", "license": "ODbL-1.0"}, "geometry": {"type": "MultiPolygon", "coordinates": [[[[114.1334164, 22.5857184], [114.1334205, 22.5856398], [114.1334935, 22.5856414], [114.1334956, 22.5855579], [114.1336544, 22.5855613], [114.1336526, 22.5856363], [114.1337294, 22.5856379], [114.1337273, 22.5857249], [114.1334164, 22.5857184]]]]}}, {"type": "Feature", "id": "way/1216264498", "properties": {"tags": {"building": "yes"}, "heightStatus": "unknown", "source": "OpenStreetMap", "license": "ODbL-1.0"}, "geometry": {"type": "MultiPolygon", "coordinates": [[[[114.1337589, 22.5855345], [114.1337629, 22.585456], [114.133836, 22.5854575], [114.1338381, 22.5853741], [114.1339969, 22.5853774], [114.1339951, 22.5854524], [114.1340719, 22.585454], [114.1340697, 22.585541], [114.1337589, 22.5855345]]]]}}, {"type": "Feature", "id": "way/1216264499", "properties": {"tags": {"building": "yes"}, "heightStatus": "unknown", "source": "OpenStreetMap", "license": "ODbL-1.0"}, "geometry": {"type": "MultiPolygon", "coordinates": [[[[114.1340658, 22.5852768], [114.1340698, 22.5851982], [114.1341429, 22.5851998], [114.134145, 22.5851163], [114.1343038, 22.5851197], [114.134302, 22.5851946], [114.1343787, 22.5851962], [114.1343766, 22.5852832], [114.1340658, 22.5852768]]]]}}, {"type": "Feature", "id": "way/1216264500", "properties": {"tags": {"building": "yes"}, "heightStatus": "unknown", "source": "OpenStreetMap", "license": "ODbL-1.0"}, "geometry": {"type": "MultiPolygon", "coordinates": [[[[114.1344171, 22.585069], [114.1344211, 22.5849904], [114.1344942, 22.584992], [114.1344962, 22.5849085], [114.1346551, 22.5849119], [114.1346532, 22.5849868], [114.13473, 22.5849884], [114.1347279, 22.5850755], [114.1344171, 22.585069]]]]}}, {"type": "Feature", "id": "way/1216264501", "properties": {"tags": {"building": "yes"}, "heightStatus": "unknown", "source": "OpenStreetMap", "license": "ODbL-1.0"}, "geometry": {"type": "MultiPolygon", "coordinates": [[[[114.1334285, 22.5847026], [114.13343, 22.5846302], [114.1338965, 22.5846385], [114.133895, 22.5847109], [114.1334285, 22.5847026]]]]}}, {"type": "Feature", "id": "way/1216264502", "properties": {"tags": {"building": "yes"}, "heightStatus": "unknown", "source": "OpenStreetMap", "license": "ODbL-1.0"}, "geometry": {"type": "MultiPolygon", "coordinates": [[[[114.134043, 22.5847117], [114.1340448, 22.5846358], [114.1347653, 22.5846505], [114.1347635, 22.5847263], [114.134043, 22.5847117]]]]}}, {"type": "Feature", "id": "way/1216783741", "properties": {"tags": {"building": "yes"}, "heightStatus": "unknown", "source": "OpenStreetMap", "license": "ODbL-1.0"}, "geometry": {"type": "MultiPolygon", "coordinates": [[[[114.1322541, 22.5861641], [114.1322555, 22.5860611], [114.1327427, 22.5860667], [114.1327413, 22.5861697], [114.1322541, 22.5861641]]]]}}, {"type": "Feature", "id": "way/1216783742", "properties": {"tags": {"building": "yes"}, "heightStatus": "unknown", "source": "OpenStreetMap", "license": "ODbL-1.0"}, "geometry": {"type": "MultiPolygon", "coordinates": [[[[114.1322614, 22.5859155], [114.1322628, 22.5858125], [114.13275, 22.5858181], [114.1327486, 22.5859211], [114.1322614, 22.5859155]]]]}}, {"type": "Feature", "id": "way/1216783743", "properties": {"tags": {"building": "yes"}, "heightStatus": "unknown", "source": "OpenStreetMap", "license": "ODbL-1.0"}, "geometry": {"type": "MultiPolygon", "coordinates": [[[[114.1322717, 22.585679], [114.1322731, 22.5855759], [114.1327603, 22.5855816], [114.1327589, 22.5856845], [114.1322717, 22.585679]]]]}}, {"type": "Feature", "id": "way/1216783745", "properties": {"tags": {"building": "yes"}, "heightStatus": "unknown", "source": "OpenStreetMap", "license": "ODbL-1.0"}, "geometry": {"type": "MultiPolygon", "coordinates": [[[[114.1321104, 22.5854791], [114.1321118, 22.5853646], [114.1328177, 22.5853718], [114.1328163, 22.5854862], [114.1321104, 22.5854791]]]]}}, {"type": "Feature", "id": "way/1216783746", "properties": {"tags": {"building": "yes"}, "heightStatus": "unknown", "source": "OpenStreetMap", "license": "ODbL-1.0"}, "geometry": {"type": "MultiPolygon", "coordinates": [[[[114.1322377, 22.5864182], [114.1322399, 22.5863004], [114.1328118, 22.5863092], [114.1328097, 22.586427], [114.1322377, 22.5864182]]]]}}, {"type": "Feature", "id": "way/1216783748", "properties": {"tags": {"building": "yes"}, "heightStatus": "unknown", "source": "OpenStreetMap", "license": "ODbL-1.0"}, "geometry": {"type": "MultiPolygon", "coordinates": [[[[114.1317686, 22.5852221], [114.1317714, 22.58511], [114.1322011, 22.5851192], [114.1321983, 22.5852312], [114.1317686, 22.5852221]]]]}}, {"type": "Feature", "id": "way/1216783749", "properties": {"tags": {"building": "yes"}, "heightStatus": "unknown", "source": "OpenStreetMap", "license": "ODbL-1.0"}, "geometry": {"type": "MultiPolygon", "coordinates": [[[[114.1323441, 22.5852288], [114.1323469, 22.5851167], [114.1327765, 22.5851259], [114.1327737, 22.5852379], [114.1323441, 22.5852288]]]]}}, {"type": "Feature", "id": "way/1216783751", "properties": {"tags": {"building": "yes"}, "heightStatus": "unknown", "source": "OpenStreetMap", "license": "ODbL-1.0"}, "geometry": {"type": "MultiPolygon", "coordinates": [[[[114.1324175, 22.5849326], [114.1324203, 22.5848205], [114.13285, 22.5848297], [114.1328472, 22.5849417], [114.1324175, 22.5849326]]]]}}, {"type": "Feature", "id": "way/1216783752", "properties": {"tags": {"building": "yes"}, "heightStatus": "unknown", "source": "OpenStreetMap", "license": "ODbL-1.0"}, "geometry": {"type": "MultiPolygon", "coordinates": [[[[114.1317796, 22.5846572], [114.1317824, 22.5845451], [114.132212, 22.5845543], [114.1322092, 22.5846663], [114.1317796, 22.5846572]]]]}}, {"type": "Feature", "id": "way/1216783753", "properties": {"tags": {"building": "yes"}, "heightStatus": "unknown", "source": "OpenStreetMap", "license": "ODbL-1.0"}, "geometry": {"type": "MultiPolygon", "coordinates": [[[[114.1323634, 22.5846747], [114.1323662, 22.5845627], [114.1327958, 22.5845718], [114.132793, 22.5846838], [114.1323634, 22.5846747]]]]}}, {"type": "Feature", "id": "way/1279573015", "properties": {"tags": {"building": "office", "name": "围岭布心山公园综合楼"}, "heightStatus": "unknown", "source": "OpenStreetMap", "license": "ODbL-1.0"}, "geometry": {"type": "MultiPolygon", "coordinates": [[[[114.1391337, 22.5812204], [114.1393008, 22.5812202], [114.139301, 22.5813112], [114.1391338, 22.5813115], [114.1391337, 22.5812204]]]]}}, {"type": "Feature", "id": "way/1279573016", "properties": {"tags": {"building": "office", "name": "安琪大厦"}, "heightStatus": "unknown", "source": "OpenStreetMap", "license": "ODbL-1.0"}, "geometry": {"type": "MultiPolygon", "coordinates": [[[[114.1382662, 22.5820896], [114.1384343, 22.581578], [114.1387229, 22.5816589], [114.1386618, 22.5818449], [114.1385886, 22.5818243], [114.1384815, 22.58215], [114.1382662, 22.5820896]]]]}}, {"type": "Feature", "id": "way/1293015942", "properties": {"tags": {"building": "industrial"}, "heightStatus": "unknown", "source": "OpenStreetMap", "license": "ODbL-1.0"}, "geometry": {"type": "MultiPolygon", "coordinates": [[[[114.1317924, 22.5824738], [114.1317963, 22.582365], [114.1322092, 22.5823775], [114.1322053, 22.5824863], [114.1317924, 22.5824738]]]]}}, {"type": "Feature", "id": "way/1293015944", "properties": {"tags": {"building": "industrial"}, "heightStatus": "unknown", "source": "OpenStreetMap", "license": "ODbL-1.0"}, "geometry": {"type": "MultiPolygon", "coordinates": [[[[114.1317857, 22.5828651], [114.1317896, 22.5827563], [114.1322025, 22.5827688], [114.1321986, 22.5828775], [114.1317857, 22.5828651]]]]}}, {"type": "Feature", "id": "way/1293015945", "properties": {"tags": {"building": "industrial"}, "heightStatus": "unknown", "source": "OpenStreetMap", "license": "ODbL-1.0"}, "geometry": {"type": "MultiPolygon", "coordinates": [[[[114.1322879, 22.5826609], [114.132293, 22.5823796], [114.132383, 22.582381], [114.1323827, 22.5824005], [114.1328095, 22.582407], [114.1328195, 22.5824182], [114.1328487, 22.5824186], [114.1328473, 22.5824965], [114.132411, 22.5824896], [114.1324105, 22.5825158], [114.1323716, 22.5825152], [114.1323689, 22.5826622], [114.1322879, 22.5826609]]]]}}, {"type": "Feature", "id": "way/1293015946", "properties": {"tags": {"building": "industrial"}, "heightStatus": "unknown", "source": "OpenStreetMap", "license": "ODbL-1.0"}, "geometry": {"type": "MultiPolygon", "coordinates": [[[[114.1322888, 22.5829431], [114.1322892, 22.5828683], [114.1323858, 22.5828688], [114.1323867, 22.5827333], [114.1325478, 22.5827341], [114.1325476, 22.5827721], [114.1327948, 22.5827734], [114.1327937, 22.5829459], [114.1322888, 22.5829431]]]]}}, {"type": "Feature", "id": "relation/17728189", "properties": {"tags": {"building": "industrial"}, "heightStatus": "unknown", "source": "OpenStreetMap", "license": "ODbL-1.0"}, "geometry": {"type": "MultiPolygon", "coordinates": [[[[114.1317315, 22.5821065], [114.1317461, 22.5812452], [114.1326754, 22.5812564], [114.1326738, 22.5813727], [114.1327129, 22.5813732], [114.1327116, 22.5814663], [114.1327265, 22.5814665], [114.1327255, 22.5815412], [114.1327986, 22.5815421], [114.1328558, 22.5821235], [114.1317315, 22.5821065]], [[114.1319163, 22.5817621], [114.1319936, 22.5817634], [114.1319931, 22.5817892], [114.1320114, 22.5817895], [114.1320091, 22.5819034], [114.132383, 22.58191], [114.1323844, 22.581842], [114.1325472, 22.5818449], [114.1325463, 22.5818914], [114.1325996, 22.5818923], [114.1326068, 22.5815413], [114.1326421, 22.5815419], [114.1326443, 22.5814329], [114.1325492, 22.5814312], [114.1325481, 22.5814834], [114.1324873, 22.5814824], [114.132487, 22.5814964], [114.1323879, 22.5814947], [114.1323893, 22.5814255], [114.1320143, 22.581419], [114.1320122, 22.5815207], [114.1319212, 22.5815191], [114.1319163, 22.5817621]]]]}}, {"type": "Feature", "id": "way/1293015952", "properties": {"tags": {"building": "industrial"}, "heightStatus": "unknown", "source": "OpenStreetMap", "license": "ODbL-1.0"}, "geometry": {"type": "MultiPolygon", "coordinates": [[[[114.1317752, 22.5811689], [114.1317775, 22.5808659], [114.1318594, 22.5808664], [114.1318598, 22.580818], [114.1318903, 22.5808182], [114.1318901, 22.5808438], [114.1324809, 22.5808479], [114.1324811, 22.5808191], [114.1325163, 22.5808194], [114.1325162, 22.5808393], [114.1325635, 22.5808396], [114.1325632, 22.5808764], [114.1326078, 22.5808767], [114.1326075, 22.5809111], [114.1325911, 22.580911], [114.1325899, 22.5810814], [114.1325223, 22.581081], [114.1325225, 22.5810592], [114.1324849, 22.5810589], [114.132484, 22.5811765], [114.1319039, 22.5811729], [114.1319036, 22.5812052], [114.1318259, 22.5812047], [114.1318261, 22.5811693], [114.1317752, 22.5811689]]]]}}, {"type": "Feature", "id": "way/1293015978", "properties": {"tags": {"building": "school"}, "heightStatus": "unknown", "source": "OpenStreetMap", "license": "ODbL-1.0"}, "geometry": {"type": "MultiPolygon", "coordinates": [[[[114.1332601, 22.581039], [114.1333163, 22.5810325], [114.1333219, 22.5810736], [114.1334382, 22.58106], [114.1334464, 22.5811201], [114.133274, 22.5811403], [114.1332601, 22.581039]]]]}}, {"type": "Feature", "id": "way/1293015979", "properties": {"tags": {"building": "school"}, "heightStatus": "unknown", "source": "OpenStreetMap", "license": "ODbL-1.0"}, "geometry": {"type": "MultiPolygon", "coordinates": [[[[114.1329793, 22.5811655], [114.1329979, 22.5811634], [114.1329826, 22.58105], [114.1331941, 22.5810256], [114.1332307, 22.5812962], [114.1330005, 22.5813227], [114.1329793, 22.5811655]]]]}}, {"type": "Feature", "id": "way/1293015980", "properties": {"tags": {"building": "apartments", "building:levels": "13"}, "heightStatus": "levels_only_unverified", "source": "OpenStreetMap", "license": "ODbL-1.0"}, "geometry": {"type": "MultiPolygon", "coordinates": [[[[114.132984, 22.5814948], [114.1330985, 22.5814834], [114.1331127, 22.5816047], [114.1330878, 22.5816072], [114.133089, 22.5816177], [114.133043, 22.5816223], [114.1330417, 22.581611], [114.1329981, 22.5816154], [114.132984, 22.5814948]]]]}}, {"type": "Feature", "id": "way/1293015981", "properties": {"tags": {"building": "apartments", "building:levels": "13"}, "heightStatus": "levels_only_unverified", "source": "OpenStreetMap", "license": "ODbL-1.0"}, "geometry": {"type": "MultiPolygon", "coordinates": [[[[114.1331469, 22.5814919], [114.1332056, 22.5814861], [114.1332041, 22.5814739], [114.1332947, 22.5814648], [114.1332961, 22.5814765], [114.1333348, 22.5814726], [114.1333422, 22.5815351], [114.1333773, 22.5815315], [114.1333695, 22.5814658], [114.1334086, 22.5814618], [114.1334075, 22.5814518], [114.1334923, 22.5814432], [114.1334934, 22.5814521], [114.1335438, 22.581447], [114.1335592, 22.5815771], [114.1335095, 22.5815821], [114.133511, 22.5815948], [114.1334648, 22.5815994], [114.1334625, 22.5815799], [114.1334385, 22.5815823], [114.1334369, 22.5815681], [114.1332931, 22.5815823], [114.1332973, 22.5816184], [114.1332238, 22.5816257], [114.1332229, 22.5816183], [114.1331953, 22.581621], [114.1331935, 22.5816059], [114.1331606, 22.5816092], [114.1331469, 22.5814919]]]]}}, {"type": "Feature", "id": "way/1293015982", "properties": {"tags": {"building": "apartments", "building:levels": "7"}, "heightStatus": "levels_only_unverified", "source": "OpenStreetMap", "license": "ODbL-1.0"}, "geometry": {"type": "MultiPolygon", "coordinates": [[[[114.1330987, 22.5820593], [114.1331011, 22.5819826], [114.1331391, 22.5819837], [114.1331396, 22.5819662], [114.1331844, 22.5819675], [114.133184, 22.5819791], [114.1331998, 22.5819795], [114.1332002, 22.5819677], [114.1332372, 22.5819689], [114.1332367, 22.5819819], [114.1333063, 22.5819841], [114.1333068, 22.5819709], [114.133345, 22.5819721], [114.1333446, 22.5819823], [114.1333642, 22.581983], [114.1333646, 22.5819731], [114.1334059, 22.5819745], [114.1334056, 22.5819825], [114.133475, 22.581985], [114.1334755, 22.5819732], [114.1335161, 22.5819747], [114.1335157, 22.5819836], [114.1335327, 22.5819842], [114.1335331, 22.5819756], [114.1335695, 22.581977], [114.1335692, 22.5819842], [114.1336386, 22.5819867], [114.1336394, 22.5819691], [114.1336895, 22.5819709], [114.1336891, 22.5819811], [114.1336968, 22.5819814], [114.1336971, 22.5819728], [114.1337406, 22.5819741], [114.1337403, 22.5819829], [114.1337743, 22.5819838], [114.1337716, 22.5820667], [114.1337432, 22.5820659], [114.1337429, 22.5820754], [114.1337005, 22.5820743], [114.1337007, 22.5820685], [114.1336719, 22.5820679], [114.1336716, 22.5820793], [114.1336335, 22.5820785], [114.1336338, 22.5820673], [114.1335762, 22.5820662], [114.133576, 22.5820749], [114.1335332, 22.582074], [114.1335333, 22.5820664], [114.1334954, 22.5820656], [114.1334953, 22.5820716], [114.1334658, 22.5820711], [114.1334659, 22.5820649], [114.1334076, 22.5820638], [114.1334074, 22.5820744], [114.1333586, 22.5820735], [114.1333588, 22.5820664], [114.1333407, 22.582066], [114.1333406, 22.5820729], [114.1333043, 22.5820722], [114.1333045, 22.5820626], [114.133238, 22.5820613], [114.1332379, 22.5820677], [114.1332024, 22.5820669], [114.1332025, 22.5820617], [114.133166, 22.5820608], [114.1331658, 22.5820678], [114.1331316, 22.5820669], [114.1331318, 22.5820602], [114.1330987, 22.5820593]]]]}}, {"type": "Feature", "id": "way/1293015983", "properties": {"tags": {"building": "apartments", "building:levels": "7"}, "heightStatus": "levels_only_unverified", "source": "OpenStreetMap", "license": "ODbL-1.0"}, "geometry": {"type": "MultiPolygon", "coordinates": [[[[114.1336566, 22.5817805], [114.1336578, 22.5817012], [114.1336898, 22.5817016], [114.1336899, 22.5816931], [114.1337285, 22.5816936], [114.1337284, 22.5816997], [114.1337488, 22.5817], [114.1337489, 22.5816926], [114.1337929, 22.581693], [114.1337928, 22.5817012], [114.1338533, 22.5817017], [114.1338534, 22.5816932], [114.1338998, 22.5816935], [114.1338997, 22.5817006], [114.1339194, 22.5817007], [114.1339194, 22.5816959], [114.1339531, 22.5816961], [114.1339531, 22.5817036], [114.1339862, 22.5817038], [114.1339859, 22.5817694], [114.1340231, 22.5817695], [114.1340232, 22.5817593], [114.1340653, 22.5817594], [114.1340652, 22.5817694], [114.1340866, 22.5817695], [114.1340867, 22.581762], [114.1341212, 22.5817622], [114.1341212, 22.5817688], [114.1341875, 22.5817692], [114.1341876, 22.5817594], [114.1342282, 22.5817597], [114.1342282, 22.5817687], [114.1342563, 22.5817689], [114.1342563, 22.5817614], [114.1342891, 22.5817617], [114.134289, 22.5817683], [114.1343244, 22.5817686], [114.1343236, 22.5818527], [114.134298, 22.5818525], [114.134298, 22.581859], [114.1341888, 22.5818581], [114.1341889, 22.5818495], [114.1341234, 22.5818489], [114.1341233, 22.5818578], [114.134017, 22.5818567], [114.1340171, 22.5818438], [114.1339896, 22.5818435], [114.1339903, 22.5817817], [114.1339525, 22.5817813], [114.1339524, 22.5817901], [114.1338504, 22.5817889], [114.1338505, 22.5817827], [114.133786, 22.5817819], [114.1337858, 22.5817912], [114.1336826, 22.5817899], [114.1336827, 22.5817808], [114.1336566, 22.5817805]]]]}}, {"type": "Feature", "id": "way/1293015984", "properties": {"tags": {"building": "apartments", "building:levels": "7"}, "heightStatus": "levels_only_unverified", "source": "OpenStreetMap", "license": "ODbL-1.0"}, "geometry": {"type": "MultiPolygon", "coordinates": [[[[114.1338693, 22.5821005], [114.1338722, 22.5820222], [114.1339006, 22.5820231], [114.1339011, 22.5820099], [114.1339434, 22.5820113], [114.1339429, 22.5820222], [114.1339603, 22.5820228], [114.1339607, 22.5820101], [114.1340017, 22.5820115], [114.1340014, 22.5820209], [114.1340711, 22.5820231], [114.1340716, 22.5820092], [114.134119, 22.5820107], [114.1341186, 22.5820216], [114.134126, 22.5820218], [114.1341265, 22.5820088], [114.1341692, 22.58201], [114.1341688, 22.5820216], [114.1342276, 22.5820232], [114.1342281, 22.5820094], [114.1342827, 22.5820108], [114.1342824, 22.5820195], [114.1342946, 22.5820198], [114.1342948, 22.5820138], [114.1343369, 22.5820147], [114.1343366, 22.5820263], [114.1343694, 22.5820269], [114.1343676, 22.5821103], [114.13435, 22.58211], [114.1343498, 22.5821178], [114.1342953, 22.5821169], [114.1342956, 22.582104], [114.1342651, 22.5821034], [114.1342649, 22.582114], [114.1342304, 22.5821134], [114.1342306, 22.5821048], [114.1341683, 22.5821037], [114.1341681, 22.5821142], [114.1341298, 22.5821135], [114.1341301, 22.5821019], [114.1340945, 22.5821012], [114.1340943, 22.5821094], [114.1340649, 22.5821087], [114.1340652, 22.582099], [114.1340116, 22.5820977], [114.1340113, 22.5821073], [114.1339633, 22.582106], [114.1339636, 22.5820961], [114.1339272, 22.5820951], [114.1339267, 22.5821105], [114.1338935, 22.5821095], [114.1338938, 22.5821013], [114.1338693, 22.5821005]]]]}}, {"type": "Feature", "id": "way/1293015985", "properties": {"tags": {"building": "apartments", "building:levels": "7"}, "heightStatus": "levels_only_unverified", "source": "OpenStreetMap", "license": "ODbL-1.0"}, "geometry": {"type": "MultiPolygon", "coordinates": [[[[114.1330742, 22.581787], [114.1330772, 22.5817086], [114.1331055, 22.5817095], [114.133106, 22.5816964], [114.1331483, 22.5816978], [114.1331479, 22.5817087], [114.1331652, 22.5817093], [114.1331657, 22.5816966], [114.1332066, 22.5816979], [114.1332063, 22.5817073], [114.133276, 22.5817096], [114.1332765, 22.5816956], [114.1333239, 22.5816971], [114.1333235, 22.581708], [114.1333309, 22.5817082], [114.1333314, 22.5816953], [114.1333741, 22.5816965], [114.1333737, 22.5817081], [114.1334326, 22.5817097], [114.133433, 22.5816959], [114.1334876, 22.5816973], [114.1334873, 22.581706], [114.1334995, 22.5817063], [114.1334997, 22.5817003], [114.1335418, 22.5817012], [114.1335416, 22.5817127], [114.1335744, 22.5817134], [114.1335725, 22.5817968], [114.1335549, 22.5817965], [114.1335547, 22.5818043], [114.1335002, 22.5818033], [114.1335005, 22.5817904], [114.13347, 22.5817899], [114.1334698, 22.5818005], [114.1334354, 22.5817999], [114.1334356, 22.5817913], [114.1333732, 22.5817901], [114.133373, 22.5818007], [114.1333347, 22.5817999], [114.133335, 22.5817883], [114.1332994, 22.5817876], [114.1332992, 22.5817958], [114.1332699, 22.5817952], [114.1332701, 22.5817855], [114.1332165, 22.5817841], [114.1332162, 22.5817938], [114.1331682, 22.5817925], [114.1331686, 22.5817826], [114.1331321, 22.5817815], [114.1331316, 22.581797], [114.1330984, 22.581796], [114.1330987, 22.5817877], [114.1330742, 22.581787]]]]}}, {"type": "Feature", "id": "way/1415630017", "properties": {"tags": {"building": "yes"}, "heightStatus": "unknown", "source": "OpenStreetMap", "license": "ODbL-1.0"}, "geometry": {"type": "MultiPolygon", "coordinates": [[[[114.1347641, 22.5834909], [114.1347694, 22.5831858], [114.1351075, 22.5831909], [114.1351022, 22.583496], [114.1347641, 22.5834909]]]]}}, {"type": "Feature", "id": "way/1415630018", "properties": {"tags": {"building": "yes"}, "heightStatus": "unknown", "source": "OpenStreetMap", "license": "ODbL-1.0"}, "geometry": {"type": "MultiPolygon", "coordinates": [[[[114.1341186, 22.5836062], [114.1341239, 22.5833011], [114.1344621, 22.5833061], [114.1344567, 22.5836112], [114.1341186, 22.5836062]]]]}}, {"type": "Feature", "id": "way/1415630019", "properties": {"tags": {"building": "yes"}, "heightStatus": "unknown", "source": "OpenStreetMap", "license": "ODbL-1.0"}, "geometry": {"type": "MultiPolygon", "coordinates": [[[[114.134134, 22.5831268], [114.1341393, 22.5828217], [114.1344775, 22.5828268], [114.1344721, 22.5831319], [114.134134, 22.5831268]]]]}}, {"type": "Feature", "id": "way/1415630020", "properties": {"tags": {"building": "yes"}, "heightStatus": "unknown", "source": "OpenStreetMap", "license": "ODbL-1.0"}, "geometry": {"type": "MultiPolygon", "coordinates": [[[[114.1345833, 22.5827307], [114.1345908, 22.5824673], [114.1347767, 22.5824738], [114.1347787, 22.5824533], [114.1351168, 22.5824584], [114.1351115, 22.5827635], [114.1347733, 22.5827584], [114.1347722, 22.5827332], [114.1345833, 22.5827307]]]]}}, {"type": "Feature", "id": "way/1415630021", "properties": {"tags": {"building": "yes"}, "heightStatus": "unknown", "source": "OpenStreetMap", "license": "ODbL-1.0"}, "geometry": {"type": "MultiPolygon", "coordinates": [[[[114.1343979, 22.5815034], [114.1346434, 22.5814263], [114.1347147, 22.5816199], [114.1344692, 22.581697], [114.1343979, 22.5815034]]]]}}, {"type": "Feature", "id": "way/1415630022", "properties": {"tags": {"building": "yes"}, "heightStatus": "unknown", "source": "OpenStreetMap", "license": "ODbL-1.0"}, "geometry": {"type": "MultiPolygon", "coordinates": [[[[114.1337925, 22.58126], [114.1340512, 22.5812438], [114.1340662, 22.5814479], [114.1338075, 22.5814641], [114.1337925, 22.58126]]]]}}, {"type": "Feature", "id": "way/1415630023", "properties": {"tags": {"building": "yes"}, "heightStatus": "unknown", "source": "OpenStreetMap", "license": "ODbL-1.0"}, "geometry": {"type": "MultiPolygon", "coordinates": [[[[114.1348417, 22.5818387], [114.135101, 22.5818368], [114.1351028, 22.5820413], [114.1348435, 22.5820432], [114.1348417, 22.5818387]]]]}}, {"type": "Feature", "id": "way/1415630027", "properties": {"tags": {"building": "yes"}, "heightStatus": "unknown", "source": "OpenStreetMap", "license": "ODbL-1.0"}, "geometry": {"type": "MultiPolygon", "coordinates": [[[[114.1348695, 22.5811638], [114.1350059, 22.5808778], [114.1353236, 22.581007], [114.1351872, 22.581293], [114.1348695, 22.5811638]]]]}}, {"type": "Feature", "id": "way/1429518254", "properties": {"tags": {"building": "yes", "name": "翠湖驿站", "name:en": "Cuihu Greenway Station", "name:zh-Hans": "翠湖驿站"}, "heightStatus": "unknown", "source": "OpenStreetMap", "license": "ODbL-1.0"}, "geometry": {"type": "MultiPolygon", "coordinates": [[[[114.1399227, 22.5815437], [114.1399442, 22.5814416], [114.1400146, 22.5813561], [114.140083, 22.5813035], [114.1401701, 22.5812762], [114.1402419, 22.5812911], [114.1402521, 22.5813128], [114.1402701, 22.5813512], [114.1402312, 22.5814217], [114.1401815, 22.5814459], [114.1401259, 22.5814242], [114.1400997, 22.5814539], [114.1400434, 22.5815208], [114.1400582, 22.5815666], [114.1401011, 22.5816347], [114.1400984, 22.5816768], [114.1400743, 22.5817127], [114.140034, 22.5817189], [114.1399871, 22.5817004], [114.1399603, 22.5816632], [114.1399227, 22.5815437]]]]}}, {"type": "Feature", "id": "way/1451700777", "properties": {"tags": {"addr:housename": "观山嘉苑", "addr:housename:en": "Guanshan Jiayuan", "addr:housename:zh": "观山嘉苑", "building": "apartments", "name": "5栋", "name:en": "Block 5", "name:zh": "5栋"}, "heightStatus": "unknown", "source": "OpenStreetMap", "license": "ODbL-1.0"}, "geometry": {"type": "MultiPolygon", "coordinates": [[[[114.1338364, 22.5871917], [114.1339038, 22.5871557], [114.1338872, 22.5871293], [114.1340524, 22.5870409], [114.134069, 22.5870673], [114.1342036, 22.5869952], [114.1341871, 22.5869688], [114.1343522, 22.5868804], [114.1343688, 22.5869069], [114.1344362, 22.5868708], [114.1344852, 22.586949], [114.1338855, 22.5872698], [114.1338364, 22.5871917]]]]}}, {"type": "Feature", "id": "way/1451700778", "properties": {"tags": {"addr:housename": "观山嘉苑", "addr:housename:en": "Guanshan Jiayuan", "addr:housename:zh": "观山嘉苑", "building": "apartments", "name": "4栋", "name:en": "Block 4", "name:zh": "4栋"}, "heightStatus": "unknown", "source": "OpenStreetMap", "license": "ODbL-1.0"}, "geometry": {"type": "MultiPolygon", "coordinates": [[[[114.1348306, 22.5864808], [114.1348542, 22.5864682], [114.1348375, 22.5864416], [114.1348842, 22.5864166], [114.1348966, 22.5864363], [114.1349569, 22.5864041], [114.1349445, 22.5863843], [114.1349913, 22.5863593], [114.135008, 22.5863859], [114.1350316, 22.5863733], [114.1351019, 22.5864854], [114.1350783, 22.586498], [114.1351007, 22.5865336], [114.135147, 22.5865088], [114.1351641, 22.5865361], [114.135142, 22.586548], [114.1351564, 22.5865709], [114.1349542, 22.5866791], [114.1349398, 22.5866561], [114.1349177, 22.586668], [114.1349005, 22.5866406], [114.1349468, 22.5866159], [114.1349245, 22.5865803], [114.1349009, 22.5865929], [114.1348306, 22.5864808]]]]}}, {"type": "Feature", "id": "way/1451700779", "properties": {"tags": {"addr:housename": "观山嘉苑", "addr:housename:en": "Guanshan Jiayuan", "addr:housename:zh": "观山嘉苑", "building": "apartments", "name": "3栋", "name:en": "Block 3", "name:zh": "3栋"}, "heightStatus": "unknown", "source": "OpenStreetMap", "license": "ODbL-1.0"}, "geometry": {"type": "MultiPolygon", "coordinates": [[[[114.1344326, 22.5858968], [114.1345364, 22.585841], [114.1345903, 22.5859265], [114.134641, 22.5858993], [114.1346768, 22.5859561], [114.134793, 22.5858936], [114.1347572, 22.5858368], [114.1348079, 22.5858095], [114.134754, 22.585724], [114.1348578, 22.5856683], [114.1349117, 22.5857537], [114.1349423, 22.5857373], [114.1350163, 22.5858548], [114.1350383, 22.585843], [114.1350704, 22.5858939], [114.1349708, 22.5859474], [114.1349318, 22.5858857], [114.1348854, 22.5859107], [114.1349078, 22.5859461], [114.1346696, 22.5860741], [114.1346473, 22.5860387], [114.1346008, 22.5860636], [114.1346398, 22.5861254], [114.1345401, 22.586179], [114.134508, 22.586128], [114.13453, 22.5861162], [114.1344559, 22.5859987], [114.1344865, 22.5859823], [114.1344326, 22.5858968]]]]}}, {"type": "Feature", "id": "way/1451700780", "properties": {"tags": {"addr:housename": "观山嘉苑", "addr:housename:en": "Guanshan Jiayuan", "addr:housename:zh": "观山嘉苑", "building": "apartments", "name": "2栋", "name:en": "Block 2", "name:zh": "2栋"}, "heightStatus": "unknown", "source": "OpenStreetMap", "license": "ODbL-1.0"}, "geometry": {"type": "MultiPolygon", "coordinates": [[[[114.1338521, 22.5864136], [114.1339558, 22.5863578], [114.1340097, 22.5864433], [114.1340604, 22.586416], [114.1340963, 22.5864729], [114.1342125, 22.5864104], [114.1341767, 22.5863536], [114.1342274, 22.5863263], [114.1341735, 22.5862408], [114.1342772, 22.586185], [114.1343311, 22.5862705], [114.1343617, 22.5862541], [114.1344358, 22.5863715], [114.1344578, 22.5863597], [114.1344899, 22.5864107], [114.1343902, 22.5864642], [114.1343513, 22.5864025], [114.1343049, 22.5864274], [114.1343272, 22.5864629], [114.1340891, 22.5865909], [114.1340667, 22.5865555], [114.1340203, 22.5865804], [114.1340592, 22.5866422], [114.1339596, 22.5866957], [114.1339275, 22.5866448], [114.1339495, 22.586633], [114.1338754, 22.5865155], [114.133906, 22.5864991], [114.1338521, 22.5864136]]]]}}, {"type": "Feature", "id": "way/1451700781", "properties": {"tags": {"addr:housename": "观山嘉苑", "addr:housename:en": "Guanshan Jiayuan", "addr:housename:zh": "观山嘉苑", "building": "apartments", "name": "1栋", "name:en": "Block 1", "name:zh": "1栋"}, "heightStatus": "unknown", "source": "OpenStreetMap", "license": "ODbL-1.0"}, "geometry": {"type": "MultiPolygon", "coordinates": [[[[114.1333959, 22.5866961], [114.1334195, 22.5866835], [114.1334027, 22.5866568], [114.1334495, 22.5866318], [114.1334619, 22.5866516], [114.1335222, 22.5866193], [114.1335098, 22.5865995], [114.1335565, 22.5865745], [114.1335733, 22.5866012], [114.1335968, 22.5865885], [114.1336672, 22.5867006], [114.1336436, 22.5867132], [114.1336659, 22.5867488], [114.1337123, 22.586724], [114.1337294, 22.5867513], [114.1337073, 22.5867632], [114.1337217, 22.5867862], [114.1335195, 22.5868943], [114.1335051, 22.5868714], [114.1334829, 22.5868832], [114.1334658, 22.5868559], [114.1335121, 22.5868311], [114.1334898, 22.5867955], [114.1334662, 22.5868081], [114.1333959, 22.5866961]]]]}}, {"type": "Feature", "id": "way/1486263224", "properties": {"tags": {"addr:housename": "山湖居", "addr:housename:en": "ShanHuJu", "addr:housename:zh": "山湖居", "building": "apartments", "name": "A栋", "name:en": "Block A", "name:zh": "A栋"}, "heightStatus": "unknown", "source": "OpenStreetMap", "license": "ODbL-1.0"}, "geometry": {"type": "MultiPolygon", "coordinates": [[[[114.135641, 22.5857415], [114.1356442, 22.5855951], [114.1363256, 22.5856315], [114.1363166, 22.5857739], [114.135641, 22.5857415]]]]}}, {"type": "Feature", "id": "way/1486263225", "properties": {"tags": {"addr:housename": "山湖居", "addr:housename:en": "ShanHuJu", "addr:housename:zh": "山湖居", "building": "apartments", "name": "B栋", "name:en": "Block B", "name:zh": "B栋"}, "heightStatus": "unknown", "source": "OpenStreetMap", "license": "ODbL-1.0"}, "geometry": {"type": "MultiPolygon", "coordinates": [[[[114.1351657, 22.5857033], [114.1351842, 22.5855739], [114.1355196, 22.5856147], [114.1355023, 22.585736], [114.1355502, 22.5857418], [114.1355272, 22.5859029], [114.1353197, 22.5858776], [114.1353415, 22.5857247], [114.1351657, 22.5857033]]]]}}, {"type": "Feature", "id": "way/1486263226", "properties": {"tags": {"addr:housename": "山湖居", "addr:housename:en": "ShanHuJu", "addr:housename:zh": "山湖居", "building": "apartments", "name": "A栋", "name:en": "Block A", "name:zh": "A栋"}, "heightStatus": "unknown", "source": "OpenStreetMap", "license": "ODbL-1.0"}, "geometry": {"type": "MultiPolygon", "coordinates": [[[[114.1362067, 22.5860304], [114.1362114, 22.5859585], [114.136272, 22.5859619], [114.1362747, 22.5859204], [114.1362514, 22.5859191], [114.1362554, 22.585857], [114.1363766, 22.5858637], [114.1363705, 22.5859584], [114.1364102, 22.5859606], [114.1364049, 22.5860414], [114.1362067, 22.5860304]]]]}}, {"type": "Feature", "id": "way/1486263227", "properties": {"tags": {"addr:housename": "山湖居", "addr:housename:en": "ShanHuJu", "addr:housename:zh": "山湖居", "building": "apartments", "name": "C栋", "name:en": "Block C", "name:zh": "C栋"}, "heightStatus": "unknown", "source": "OpenStreetMap", "license": "ODbL-1.0"}, "geometry": {"type": "MultiPolygon", "coordinates": [[[[114.1351015, 22.5860035], [114.1352755, 22.5858855], [114.1353571, 22.5859881], [114.1353519, 22.5860687], [114.1363853, 22.5861256], [114.1363725, 22.586323], [114.1353092, 22.5862643], [114.1351015, 22.5860035]]]]}}, {"type": "Feature", "id": "way/1486263228", "properties": {"tags": {"addr:housename": "山湖居", "addr:housename:en": "ShanHuJu", "addr:housename:zh": "山湖居", "building": "apartments", "name": "D栋", "name:en": "Block D", "name:zh": "D栋"}, "heightStatus": "unknown", "source": "OpenStreetMap", "license": "ODbL-1.0"}, "geometry": {"type": "MultiPolygon", "coordinates": [[[[114.1366062, 22.5859609], [114.1367182, 22.5858042], [114.1375035, 22.5862826], [114.1373915, 22.5864394], [114.1366062, 22.5859609]]]]}}, {"type": "Feature", "id": "way/1486263229", "properties": {"tags": {"addr:housename": "山湖居", "addr:housename:en": "ShanHuJu", "addr:housename:zh": "山湖居", "building": "apartments", "name": "F栋", "name:en": "Block F", "name:zh": "F栋"}, "heightStatus": "unknown", "source": "OpenStreetMap", "license": "ODbL-1.0"}, "geometry": {"type": "MultiPolygon", "coordinates": [[[[114.1369698, 22.5865545], [114.1370305, 22.5865392], [114.1370157, 22.5864889], [114.137169, 22.5864504], [114.1371883, 22.5865158], [114.1372519, 22.5864999], [114.1373, 22.5866635], [114.1372205, 22.5866834], [114.1372353, 22.5867338], [114.1371369, 22.5867585], [114.1370999, 22.5866327], [114.1370003, 22.5866577], [114.1369698, 22.5865545]]]]}}, {"type": "Feature", "id": "way/1486263230", "properties": {"tags": {"addr:housename": "山湖居", "addr:housename:en": "ShanHuJu", "addr:housename:zh": "山湖居", "building": "apartments", "name": "E栋", "name:en": "Block E", "name:zh": "E`栋"}, "heightStatus": "unknown", "source": "OpenStreetMap", "license": "ODbL-1.0"}, "geometry": {"type": "MultiPolygon", "coordinates": [[[[114.1364824, 22.5864253], [114.1365525, 22.5864102], [114.1365309, 22.5863253], [114.1367066, 22.5862873], [114.1367263, 22.5863646], [114.1367838, 22.5863521], [114.136824, 22.5865105], [114.1367356, 22.5865296], [114.1367503, 22.5865873], [114.1366425, 22.5866106], [114.1366155, 22.586504], [114.1365082, 22.5865272], [114.1364824, 22.5864253]]]]}}, {"type": "Feature", "id": "way/1486263231", "properties": {"tags": {"addr:housename": "山湖居", "addr:housename:en": "ShanHuJu", "addr:housename:zh": "山湖居", "building": "apartments", "name": "G栋", "name:en": "Block G", "name:zh": "G栋"}, "heightStatus": "unknown", "source": "OpenStreetMap", "license": "ODbL-1.0"}, "geometry": {"type": "MultiPolygon", "coordinates": [[[[114.1363177, 22.586904], [114.13641, 22.5867654], [114.1371158, 22.587166], [114.1370234, 22.5873047], [114.1363177, 22.586904]]]]}}, {"type": "Feature", "id": "way/1534144255", "properties": {"tags": {"building": "yes", "name": "翠湖课堂", "name:en": "Cuihu Classroom", "name:zh-Hans": "翠湖课堂"}, "heightStatus": "unknown", "source": "OpenStreetMap", "license": "ODbL-1.0"}, "geometry": {"type": "MultiPolygon", "coordinates": [[[[114.141326, 22.5852697], [114.1414103, 22.5852243], [114.1414678, 22.5853155], [114.1413835, 22.5853608], [114.141326, 22.5852697]]]]}}]}