{"type": "FeatureCollection", "features": [{"type": "Feature", "id": "way/371598154", "properties": {"tags": {"amenity": "arts_centre", "building": "yes", "name": "深圳美术馆", "name:en": "Shenzhen Art Meseum", "tourism": "museum"}, "heightStatus": "unknown", "source": "OpenStreetMap", "license": "ODbL-1.0"}, "geometry": {"type": "MultiPolygon", "coordinates": [[[[114.1420767, 22.5737886], [114.1423972, 22.5737219], [114.1424751, 22.574041], [114.1421547, 22.5741077], [114.1420767, 22.5737886]]]]}}, {"type": "Feature", "id": "way/1506959537", "properties": {"tags": {"amenity": "shelter", "building": "pavilion", "building:levels": "2", "name:zh-Hans": "劳乐亭", "shelter_type": "gazebo"}, "heightStatus": "levels_only_unverified", "source": "OpenStreetMap", "license": "ODbL-1.0"}, "geometry": {"type": "MultiPolygon", "coordinates": [[[[114.143212, 22.5738538], [114.1433684, 22.5738464], [114.1433731, 22.5739317], [114.1432167, 22.5739391], [114.143212, 22.5738538]]]]}}]}