{"type": "FeatureCollection", "features": [{"type": "Feature", "id": "way/288455348", "properties": {"tags": {"building": "yes"}, "heightStatus": "unknown", "source": "OpenStreetMap", "license": "ODbL-1.0"}, "geometry": {"type": "MultiPolygon", "coordinates": [[[[114.1712134, 22.5966779], [114.1712608, 22.5966469], [114.1712687, 22.5966571], [114.1712754, 22.5966659], [114.1712802, 22.5966721], [114.1712886, 22.596683], [114.1712411, 22.5967141], [114.1712134, 22.5966779]]]]}}, {"type": "Feature", "id": "way/1251167531", "properties": {"tags": {"building": "residential"}, "heightStatus": "unknown", "source": "OpenStreetMap", "license": "ODbL-1.0"}, "geometry": {"type": "MultiPolygon", "coordinates": [[[[114.1717207, 22.5985308], [114.1718128, 22.5984646], [114.1719908, 22.5986758], [114.1719059, 22.5987368], [114.1718377, 22.5986559], [114.1718159, 22.5986715], [114.1717739, 22.5986216], [114.1717884, 22.5986112], [114.1717207, 22.5985308]]]]}}, {"type": "Feature", "id": "way/1251167532", "properties": {"tags": {"building": "residential"}, "heightStatus": "unknown", "source": "OpenStreetMap", "license": "ODbL-1.0"}, "geometry": {"type": "MultiPolygon", "coordinates": [[[[114.1719262, 22.5987585], [114.1720098, 22.5986982], [114.1720739, 22.5987738], [114.1719903, 22.5988342], [114.1719262, 22.5987585]]]]}}, {"type": "Feature", "id": "way/1251167538", "properties": {"tags": {"building": "residential"}, "heightStatus": "unknown", "source": "OpenStreetMap", "license": "ODbL-1.0"}, "geometry": {"type": "MultiPolygon", "coordinates": [[[[114.1715704, 22.5988285], [114.1716746, 22.5987621], [114.171746, 22.5988576], [114.1716418, 22.598924], [114.1715704, 22.5988285]]]]}}, {"type": "Feature", "id": "way/1251167540", "properties": {"tags": {"building": "residential"}, "heightStatus": "unknown", "source": "OpenStreetMap", "license": "ODbL-1.0"}, "geometry": {"type": "MultiPolygon", "coordinates": [[[[114.1713219, 22.5988022], [114.171426, 22.5987358], [114.1714974, 22.5988313], [114.1713933, 22.5988977], [114.1713219, 22.5988022]]]]}}, {"type": "Feature", "id": "way/1251167541", "properties": {"tags": {"building": "residential"}, "heightStatus": "unknown", "source": "OpenStreetMap", "license": "ODbL-1.0"}, "geometry": {"type": "MultiPolygon", "coordinates": [[[[114.1714627, 22.5986871], [114.1715669, 22.5986207], [114.1716383, 22.5987162], [114.1715341, 22.5987826], [114.1714627, 22.5986871]]]]}}, {"type": "Feature", "id": "way/1251167544", "properties": {"tags": {"building": "residential"}, "heightStatus": "unknown", "source": "OpenStreetMap", "license": "ODbL-1.0"}, "geometry": {"type": "MultiPolygon", "coordinates": [[[[114.1711304, 22.5977715], [114.1712568, 22.5976959], [114.1713207, 22.5977869], [114.1711942, 22.5978625], [114.1711304, 22.5977715]]]]}}, {"type": "Feature", "id": "way/1251167545", "properties": {"tags": {"building": "residential"}, "heightStatus": "unknown", "source": "OpenStreetMap", "license": "ODbL-1.0"}, "geometry": {"type": "MultiPolygon", "coordinates": [[[[114.1710405, 22.5976346], [114.1711669, 22.597559], [114.1712308, 22.59765], [114.1711043, 22.5977256], [114.1710405, 22.5976346]]]]}}, {"type": "Feature", "id": "way/1251167546", "properties": {"tags": {"building": "residential"}, "heightStatus": "unknown", "source": "OpenStreetMap", "license": "ODbL-1.0"}, "geometry": {"type": "MultiPolygon", "coordinates": [[[[114.1709552, 22.5975139], [114.1710817, 22.5974383], [114.1711456, 22.5975293], [114.1710191, 22.5976049], [114.1709552, 22.5975139]]]]}}, {"type": "Feature", "id": "way/1251167547", "properties": {"tags": {"building": "residential"}, "heightStatus": "unknown", "source": "OpenStreetMap", "license": "ODbL-1.0"}, "geometry": {"type": "MultiPolygon", "coordinates": [[[[114.1708689, 22.5973802], [114.1709953, 22.5973046], [114.1710592, 22.5973956], [114.1709327, 22.5974712], [114.1708689, 22.5973802]]]]}}, {"type": "Feature", "id": "way/1251167553", "properties": {"tags": {"building": "residential"}, "heightStatus": "unknown", "source": "OpenStreetMap", "license": "ODbL-1.0"}, "geometry": {"type": "MultiPolygon", "coordinates": [[[[114.1708535, 22.597878], [114.1709691, 22.5977989], [114.171058, 22.5979096], [114.1709424, 22.5979887], [114.1708535, 22.597878]]]]}}, {"type": "Feature", "id": "way/1251167554", "properties": {"tags": {"building": "residential"}, "heightStatus": "unknown", "source": "OpenStreetMap", "license": "ODbL-1.0"}, "geometry": {"type": "MultiPolygon", "coordinates": [[[[114.1709948, 22.5980688], [114.1711104, 22.5979896], [114.1711993, 22.5981004], [114.1710837, 22.5981795], [114.1709948, 22.5980688]]]]}}, {"type": "Feature", "id": "way/1251167555", "properties": {"tags": {"building": "residential"}, "heightStatus": "unknown", "source": "OpenStreetMap", "license": "ODbL-1.0"}, "geometry": {"type": "MultiPolygon", "coordinates": [[[[114.1712249, 22.597927], [114.171295, 22.5978702], [114.1713843, 22.5979642], [114.171345, 22.5979961], [114.1712884, 22.5979364], [114.1712576, 22.5979614], [114.1712249, 22.597927]]]]}}, {"type": "Feature", "id": "way/1251167556", "properties": {"tags": {"building": "residential"}, "heightStatus": "unknown", "source": "OpenStreetMap", "license": "ODbL-1.0"}, "geometry": {"type": "MultiPolygon", "coordinates": [[[[114.1713568, 22.5980499], [114.1714277, 22.5979912], [114.1715121, 22.5980782], [114.1714412, 22.5981368], [114.1713568, 22.5980499]]]]}}, {"type": "Feature", "id": "way/1251167557", "properties": {"tags": {"building": "residential"}, "heightStatus": "unknown", "source": "OpenStreetMap", "license": "ODbL-1.0"}, "geometry": {"type": "MultiPolygon", "coordinates": [[[[114.1715855, 22.5982948], [114.1716564, 22.5982361], [114.1717408, 22.5983231], [114.1716698, 22.5983817], [114.1715855, 22.5982948]]]]}}, {"type": "Feature", "id": "way/1251167558", "properties": {"tags": {"building": "residential"}, "heightStatus": "unknown", "source": "OpenStreetMap", "license": "ODbL-1.0"}, "geometry": {"type": "MultiPolygon", "coordinates": [[[[114.1714536, 22.5981719], [114.1715236, 22.5981151], [114.171613, 22.5982091], [114.1715737, 22.598241], [114.171517, 22.5981813], [114.1714863, 22.5982063], [114.1714536, 22.5981719]]]]}}, {"type": "Feature", "id": "way/1251167559", "properties": {"tags": {"building": "residential"}, "heightStatus": "unknown", "source": "OpenStreetMap", "license": "ODbL-1.0"}, "geometry": {"type": "MultiPolygon", "coordinates": [[[[114.1711664, 22.5982445], [114.171282, 22.5981653], [114.1713709, 22.5982761], [114.1712553, 22.5983552], [114.1711664, 22.5982445]]]]}}, {"type": "Feature", "id": "way/1251167560", "properties": {"tags": {"building": "residential"}, "heightStatus": "unknown", "source": "OpenStreetMap", "license": "ODbL-1.0"}, "geometry": {"type": "MultiPolygon", "coordinates": [[[[114.1710446, 22.5984398], [114.171121, 22.5983668], [114.1711897, 22.5984282], [114.1711, 22.5985139], [114.1710655, 22.598483], [114.1710788, 22.5984703], [114.1710446, 22.5984398]]]]}}, {"type": "Feature", "id": "way/1251167561", "properties": {"tags": {"building": "residential"}, "heightStatus": "unknown", "source": "OpenStreetMap", "license": "ODbL-1.0"}, "geometry": {"type": "MultiPolygon", "coordinates": [[[[114.1709603, 22.5983442], [114.1710243, 22.5982831], [114.1710983, 22.5983492], [114.1710343, 22.5984103], [114.1709603, 22.5983442]]]]}}, {"type": "Feature", "id": "way/1251167562", "properties": {"tags": {"building": "residential"}, "heightStatus": "unknown", "source": "OpenStreetMap", "license": "ODbL-1.0"}, "geometry": {"type": "MultiPolygon", "coordinates": [[[[114.1711239, 22.5985856], [114.171182, 22.5985322], [114.1711542, 22.5985064], [114.1711948, 22.5984691], [114.1713387, 22.5986026], [114.1712657, 22.5986697], [114.1712342, 22.5986405], [114.1712085, 22.5986641], [114.1711239, 22.5985856]]]]}}, {"type": "Feature", "id": "way/1251167563", "properties": {"tags": {"building": "residential"}, "heightStatus": "unknown", "source": "OpenStreetMap", "license": "ODbL-1.0"}, "geometry": {"type": "MultiPolygon", "coordinates": [[[[114.1709601, 22.5986469], [114.1710355, 22.5985827], [114.1711606, 22.5987078], [114.1710852, 22.598772], [114.1709601, 22.5986469]]]]}}, {"type": "Feature", "id": "way/1251167564", "properties": {"tags": {"building": "residential"}, "heightStatus": "unknown", "source": "OpenStreetMap", "license": "ODbL-1.0"}, "geometry": {"type": "MultiPolygon", "coordinates": [[[[114.1708352, 22.5984901], [114.1708659, 22.598461], [114.1708429, 22.5984403], [114.1708865, 22.5983991], [114.1710279, 22.5985267], [114.1709537, 22.5985969], [114.1708352, 22.5984901]]]]}}, {"type": "Feature", "id": "way/1252719040", "properties": {"tags": {"building": "residential"}, "heightStatus": "unknown", "source": "OpenStreetMap", "license": "ODbL-1.0"}, "geometry": {"type": "MultiPolygon", "coordinates": [[[[114.1712881, 22.5983823], [114.1713945, 22.5982985], [114.1714875, 22.5983991], [114.1714066, 22.5984628], [114.1713774, 22.5984313], [114.1713519, 22.5984514], [114.1712881, 22.5983823]]]]}}, {"type": "Feature", "id": "way/1252719041", "properties": {"tags": {"building": "residential"}, "heightStatus": "unknown", "source": "OpenStreetMap", "license": "ODbL-1.0"}, "geometry": {"type": "MultiPolygon", "coordinates": [[[[114.1714087, 22.5985041], [114.1715051, 22.598428], [114.1715684, 22.5984962], [114.171472, 22.5985724], [114.1714087, 22.5985041]]]]}}]}