{"type": "FeatureCollection", "features": [{"type": "Feature", "id": "way/275163883", "properties": {"tags": {"amenity": "fuel", "brand": "中国石化", "brand:en": "Sinopec", "brand:wikidata": "Q831445", "brand:zh": "中国石化", "building": "roof", "layer": "1", "name": "中国石化", "name:en": "Sinopec", "name:zh": "中国石化"}, "heightStatus": "unknown", "source": "OpenStreetMap", "license": "ODbL-1.0"}, "geometry": {"type": "MultiPolygon", "coordinates": [[[[114.1867075, 22.612007], [114.187105, 22.611873], [114.1872023, 22.6121188], [114.1868046, 22.6122528], [114.1867075, 22.612007]]]]}}, {"type": "Feature", "id": "way/275163897", "properties": {"tags": {"amenity": "fuel", "brand": "中国石化", "brand:en": "Sinopec", "brand:wikidata": "Q831445", "brand:zh": "中国石化", "building": "roof", "layer": "1", "name": "中国石化", "name:en": "Sinopec", "name:zh": "中国石化"}, "heightStatus": "unknown", "source": "OpenStreetMap", "license": "ODbL-1.0"}, "geometry": {"type": "MultiPolygon", "coordinates": [[[[114.1865789, 22.6135152], [114.1869673, 22.6133326], [114.1870853, 22.6135465], [114.186697, 22.6137291], [114.1865789, 22.6135152]]]]}}, {"type": "Feature", "id": "way/275163907", "properties": {"tags": {"building": "yes"}, "heightStatus": "unknown", "source": "OpenStreetMap", "license": "ODbL-1.0"}, "geometry": {"type": "MultiPolygon", "coordinates": [[[[114.1867616, 22.6137307], [114.18704, 22.613594], [114.1870906, 22.6136817], [114.1868121, 22.6138185], [114.1867616, 22.6137307]]]]}}, {"type": "Feature", "id": "way/275163915", "properties": {"tags": {"building": "yes"}, "heightStatus": "unknown", "source": "OpenStreetMap", "license": "ODbL-1.0"}, "geometry": {"type": "MultiPolygon", "coordinates": [[[[114.1867347, 22.6118783], [114.1870306, 22.6117777], [114.1870669, 22.6118686], [114.186771, 22.6119691], [114.1867347, 22.6118783]]]]}}, {"type": "Feature", "id": "way/1162384711", "properties": {"tags": {"building": "yes"}, "heightStatus": "unknown", "source": "OpenStreetMap", "license": "ODbL-1.0"}, "geometry": {"type": "MultiPolygon", "coordinates": [[[[114.1871582, 22.615135], [114.1871716, 22.6148267], [114.1872676, 22.6148301], [114.1873602, 22.6148347], [114.1873469, 22.615142], [114.1871582, 22.615135]]]]}}, {"type": "Feature", "id": "way/1162384712", "properties": {"tags": {"building": "yes"}, "heightStatus": "unknown", "source": "OpenStreetMap", "license": "ODbL-1.0"}, "geometry": {"type": "MultiPolygon", "coordinates": [[[[114.1870814, 22.6155179], [114.1874769, 22.6154661], [114.1874994, 22.6156123], [114.1871039, 22.6156641], [114.1870814, 22.6155179]]]]}}, {"type": "Feature", "id": "way/1162384713", "properties": {"tags": {"building": "yes"}, "heightStatus": "unknown", "source": "OpenStreetMap", "license": "ODbL-1.0"}, "geometry": {"type": "MultiPolygon", "coordinates": [[[[114.1867314, 22.6153252], [114.1868069, 22.6152285], [114.186904, 22.6152527], [114.1871628, 22.6152399], [114.1872414, 22.6152086], [114.187303, 22.6153124], [114.1871951, 22.6153664], [114.1870303, 22.6153863], [114.1868562, 22.6153778], [114.1867314, 22.6153252]]]]}}, {"type": "Feature", "id": "way/1162384714", "properties": {"tags": {"building": "yes"}, "heightStatus": "unknown", "source": "OpenStreetMap", "license": "ODbL-1.0"}, "geometry": {"type": "MultiPolygon", "coordinates": [[[[114.1874043, 22.6151839], [114.1874142, 22.6148911], [114.1875066, 22.6148938], [114.1874968, 22.6151866], [114.1874043, 22.6151839]]]]}}, {"type": "Feature", "id": "way/1162384715", "properties": {"tags": {"building": "yes"}, "heightStatus": "unknown", "source": "OpenStreetMap", "license": "ODbL-1.0"}, "geometry": {"type": "MultiPolygon", "coordinates": [[[[114.1873687, 22.6154006], [114.1873739, 22.6151994], [114.1874669, 22.6152015], [114.1874617, 22.6154027], [114.1873687, 22.6154006]]]]}}, {"type": "Feature", "id": "way/1162384716", "properties": {"tags": {"building": "yes"}, "heightStatus": "unknown", "source": "OpenStreetMap", "license": "ODbL-1.0"}, "geometry": {"type": "MultiPolygon", "coordinates": [[[[114.1873593, 22.6156641], [114.1875097, 22.6156192], [114.1876065, 22.6158958], [114.1874563, 22.6159407], [114.1873593, 22.6156641]]]]}}, {"type": "Feature", "id": "way/1162384717", "properties": {"tags": {"building": "yes"}, "heightStatus": "unknown", "source": "OpenStreetMap", "license": "ODbL-1.0"}, "geometry": {"type": "MultiPolygon", "coordinates": [[[[114.1872811, 22.6154586], [114.1872833, 22.6153981], [114.1873687, 22.6154006], [114.1874617, 22.6154027], [114.1874863, 22.6154042], [114.1874842, 22.6154647], [114.1872811, 22.6154586]]]]}}, {"type": "Feature", "id": "way/1162384718", "properties": {"tags": {"building": "yes"}, "heightStatus": "unknown", "source": "OpenStreetMap", "license": "ODbL-1.0"}, "geometry": {"type": "MultiPolygon", "coordinates": [[[[114.1865985, 22.6152099], [114.186701, 22.6152078], [114.1867097, 22.6156311], [114.1867117, 22.6157316], [114.1866402, 22.6157318], [114.1866104, 22.6157323], [114.1865985, 22.6152099]]]]}}, {"type": "Feature", "id": "way/1162384719", "properties": {"tags": {"building": "yes"}, "heightStatus": "unknown", "source": "OpenStreetMap", "license": "ODbL-1.0"}, "geometry": {"type": "MultiPolygon", "coordinates": [[[[114.1865851, 22.6158712], [114.1866417, 22.6158707], [114.1867457, 22.6158697], [114.1868734, 22.6158686], [114.186947, 22.6158679], [114.186948, 22.6159603], [114.1865861, 22.6159637], [114.1865851, 22.6158712]]]]}}, {"type": "Feature", "id": "way/1162384720", "properties": {"tags": {"building": "yes"}, "heightStatus": "unknown", "source": "OpenStreetMap", "license": "ODbL-1.0"}, "geometry": {"type": "MultiPolygon", "coordinates": [[[[114.1863001, 22.6159822], [114.1865012, 22.615981], [114.186503, 22.6162433], [114.1863019, 22.6162445], [114.1863001, 22.6159822]]]]}}, {"type": "Feature", "id": "way/1162384721", "properties": {"tags": {"building": "yes"}, "heightStatus": "unknown", "source": "OpenStreetMap", "license": "ODbL-1.0"}, "geometry": {"type": "MultiPolygon", "coordinates": [[[[114.1868734, 22.6158686], [114.1868751, 22.6157289], [114.1869088, 22.6157293], [114.186949, 22.6157297], [114.186947, 22.6158679], [114.1868734, 22.6158686]]]]}}, {"type": "Feature", "id": "way/1162384722", "properties": {"tags": {"building": "yes"}, "heightStatus": "unknown", "source": "OpenStreetMap", "license": "ODbL-1.0"}, "geometry": {"type": "MultiPolygon", "coordinates": [[[[114.1867097, 22.6156311], [114.1869068, 22.6156277], [114.1869088, 22.6157293], [114.1868751, 22.6157289], [114.1867442, 22.615731], [114.1867117, 22.6157316], [114.1867097, 22.6156311]]]]}}, {"type": "Feature", "id": "way/1162384723", "properties": {"tags": {"building": "yes"}, "heightStatus": "unknown", "source": "OpenStreetMap", "license": "ODbL-1.0"}, "geometry": {"type": "MultiPolygon", "coordinates": [[[[114.1866402, 22.6157318], [114.1867442, 22.615731], [114.1867457, 22.6158697], [114.1866417, 22.6158707], [114.1866402, 22.6157318]]]]}}, {"type": "Feature", "id": "way/1163496398", "properties": {"tags": {"building": "yes"}, "heightStatus": "unknown", "source": "OpenStreetMap", "license": "ODbL-1.0"}, "geometry": {"type": "MultiPolygon", "coordinates": [[[[114.1872676, 22.6148301], [114.1872739, 22.6147214], [114.1874799, 22.6147315], [114.1874737, 22.6148402], [114.1873602, 22.6148347], [114.1872676, 22.6148301]]]]}}, {"type": "Feature", "id": "way/1256576060", "properties": {"tags": {"amenity": "shelter", "building": "yes"}, "heightStatus": "unknown", "source": "OpenStreetMap", "license": "ODbL-1.0"}, "geometry": {"type": "MultiPolygon", "coordinates": [[[[114.183537, 22.6142857], [114.1835745, 22.614244], [114.1836481, 22.6143005], [114.1836106, 22.6143422], [114.183537, 22.6142857]]]]}}, {"type": "Feature", "id": "way/1262438140", "properties": {"tags": {"building": "yes"}, "heightStatus": "unknown", "source": "OpenStreetMap", "license": "ODbL-1.0"}, "geometry": {"type": "MultiPolygon", "coordinates": [[[[114.1891676, 22.6089306], [114.189171, 22.6086978], [114.1891717, 22.6086552], [114.189331, 22.6086573], [114.1893298, 22.6087366], [114.1893822, 22.6087373], [114.1893802, 22.6088688], [114.1892888, 22.6088677], [114.1892879, 22.6089321], [114.1892534, 22.6089317], [114.1891676, 22.6089306]]]]}}, {"type": "Feature", "id": "way/1262438141", "properties": {"tags": {"building": "yes"}, "heightStatus": "unknown", "source": "OpenStreetMap", "license": "ODbL-1.0"}, "geometry": {"type": "MultiPolygon", "coordinates": [[[[114.1890654, 22.6090134], [114.1891002, 22.6089338], [114.1892296, 22.6089821], [114.1892499, 22.6089897], [114.1892191, 22.6090602], [114.189271, 22.6090795], [114.1892191, 22.609198], [114.1890901, 22.6091499], [114.189138, 22.6090404], [114.1890654, 22.6090134]]]]}}, {"type": "Feature", "id": "way/1263406770", "properties": {"tags": {"building": "yes", "man_made": "tower"}, "heightStatus": "unknown", "source": "OpenStreetMap", "license": "ODbL-1.0"}, "geometry": {"type": "MultiPolygon", "coordinates": [[[[114.1810187, 22.6123174], [114.1810219, 22.6123022], [114.1810305, 22.6122887], [114.1810433, 22.6122784], [114.1810591, 22.6122727], [114.1810761, 22.612272], [114.1810924, 22.6122765], [114.1811062, 22.6122856], [114.181116, 22.6122984], [114.1811207, 22.6123135], [114.1811198, 22.6123291], [114.1811135, 22.6123435], [114.1811026, 22.6123552], [114.1810882, 22.612363], [114.1810718, 22.6123661], [114.1810552, 22.6123641], [114.1810402, 22.6123574], [114.1810283, 22.6123465], [114.1810209, 22.6123327], [114.1810187, 22.6123174]]]]}}, {"type": "Feature", "id": "way/1292957072", "properties": {"tags": {"building": "yes"}, "heightStatus": "unknown", "source": "OpenStreetMap", "license": "ODbL-1.0"}, "geometry": {"type": "MultiPolygon", "coordinates": [[[[114.1824613, 22.6107611], [114.1825795, 22.6106666], [114.1828506, 22.6109556], [114.1827325, 22.61105], [114.1824613, 22.6107611]]]]}}]}