{"type": "FeatureCollection", "features": [{"type": "Feature", "id": "way/1242737967", "properties": {"tags": {"building": "apartments"}, "heightStatus": "unknown", "source": "OpenStreetMap", "license": "ODbL-1.0"}, "geometry": {"type": "MultiPolygon", "coordinates": [[[[114.1899731, 22.5564714], [114.1899732, 22.5564377], [114.1903555, 22.556439], [114.1903551, 22.5565369], [114.1906018, 22.5565377], [114.190601, 22.5567565], [114.1902624, 22.5567555], [114.1902628, 22.5566462], [114.1902054, 22.556646], [114.1902057, 22.5565529], [114.1901203, 22.5565527], [114.1901204, 22.5565181], [114.1900276, 22.5565178], [114.1900277, 22.5564716], [114.1899731, 22.5564714]]]]}}, {"type": "Feature", "id": "way/1242737968", "properties": {"tags": {"building": "apartments"}, "heightStatus": "unknown", "source": "OpenStreetMap", "license": "ODbL-1.0"}, "geometry": {"type": "MultiPolygon", "coordinates": [[[[114.1907231, 22.5568517], [114.1907332, 22.556537], [114.1907746, 22.5565381], [114.1907814, 22.5563278], [114.1909735, 22.5563331], [114.1909676, 22.5565177], [114.1909388, 22.5565169], [114.1909264, 22.5568991], [114.1908143, 22.556896], [114.1908156, 22.5568542], [114.1907231, 22.5568517]]]]}}, {"type": "Feature", "id": "way/1242737969", "properties": {"tags": {"building": "apartments"}, "heightStatus": "unknown", "source": "OpenStreetMap", "license": "ODbL-1.0"}, "geometry": {"type": "MultiPolygon", "coordinates": [[[[114.1901855, 22.5570344], [114.1902765, 22.5568301], [114.1905939, 22.5569507], [114.1905029, 22.557155], [114.1901855, 22.5570344]]]]}}]}