{"type": "FeatureCollection", "features": [{"type": "Feature", "id": "way/1242123091", "properties": {"tags": {"building": "yes", "layer": "1"}, "heightStatus": "unknown", "source": "OpenStreetMap", "license": "ODbL-1.0"}, "geometry": {"type": "MultiPolygon", "coordinates": [[[[114.1916982, 22.5714148], [114.1917011, 22.5711962], [114.1918244, 22.5711976], [114.1918215, 22.5714162], [114.1917693, 22.5714156], [114.1916982, 22.5714148]]]]}}, {"type": "Feature", "id": "way/1553768415", "properties": {"tags": {"building": "yes"}, "heightStatus": "unknown", "source": "OpenStreetMap", "license": "ODbL-1.0"}, "geometry": {"type": "MultiPolygon", "coordinates": [[[[114.1931503, 22.5697428], [114.1931509, 22.5697228], [114.1931579, 22.5697039], [114.1931706, 22.5696877], [114.1931879, 22.5696758], [114.1932083, 22.569669], [114.1932357, 22.5696689], [114.1933516, 22.5696829], [114.1933542, 22.5696576], [114.1933562, 22.5696535], [114.1933591, 22.5696509], [114.1933618, 22.5696495], [114.193365, 22.5696487], [114.1933676, 22.5696487], [114.1933703, 22.5696492], [114.1933756, 22.5696521], [114.1933783, 22.5696559], [114.193379, 22.5696582], [114.1933792, 22.5696612], [114.1933744, 22.5697046], [114.1933825, 22.5697058], [114.1933758, 22.5697454], [114.1937023, 22.5697943], [114.1934945, 22.5699008], [114.1932933, 22.5698625], [114.1933, 22.5698142], [114.1932157, 22.5698015], [114.1931893, 22.5697944], [114.1931677, 22.5697789], [114.193156, 22.569762], [114.1931503, 22.5697428]]]]}}, {"type": "Feature", "id": "way/1553768416", "properties": {"tags": {"building": "yes"}, "heightStatus": "unknown", "source": "OpenStreetMap", "license": "ODbL-1.0"}, "geometry": {"type": "MultiPolygon", "coordinates": [[[[114.1927231, 22.5699254], [114.192765, 22.5697958], [114.1930423, 22.5698722], [114.1930675, 22.5698792], [114.1930847, 22.5698839], [114.193066, 22.5699419], [114.1931013, 22.5699516], [114.1930894, 22.5699883], [114.1930541, 22.5699786], [114.1930428, 22.5700136], [114.1927231, 22.5699254]]]]}}]}