{"type": "FeatureCollection", "features": [{"type": "Feature", "id": "way/1189307193", "properties": {"tags": {"amenity": "toilets", "building": "yes", "toilets:disposal": "flush"}, "heightStatus": "unknown", "source": "OpenStreetMap", "license": "ODbL-1.0"}, "geometry": {"type": "MultiPolygon", "coordinates": [[[[114.0701452, 22.5761297], [114.0702309, 22.5761241], [114.0702279, 22.5760852], [114.0702791, 22.5760819], [114.0702854, 22.5761632], [114.0701485, 22.5761723], [114.0701452, 22.5761297]]]]}}, {"type": "Feature", "id": "way/1432666135", "properties": {"tags": {"addr:housename": "三九花园", "addr:housename:en": "Sanjiu Garden", "addr:housename:zh": "三九花园", "building": "apartments", "name": "24栋", "name:en": "Block 24", "name:zh": "24栋"}, "heightStatus": "unknown", "source": "OpenStreetMap", "license": "ODbL-1.0"}, "geometry": {"type": "MultiPolygon", "coordinates": [[[[114.0719283, 22.5773396], [114.0722338, 22.5771251], [114.0722883, 22.5771914], [114.0719828, 22.5774058], [114.0719283, 22.5773396]]]]}}, {"type": "Feature", "id": "way/1432666136", "properties": {"tags": {"addr:housename": "三九花园", "addr:housename:en": "Sanjiu Garden", "addr:housename:zh": "三九花园", "building": "apartments", "name": "25栋", "name:en": "Block 25", "name:zh": "25栋"}, "heightStatus": "unknown", "source": "OpenStreetMap", "license": "ODbL-1.0"}, "geometry": {"type": "MultiPolygon", "coordinates": [[[[114.0721283, 22.5774731], [114.0723775, 22.5772981], [114.072432, 22.5773644], [114.0721828, 22.5775393], [114.0721283, 22.5774731]]]]}}, {"type": "Feature", "id": "way/1432666137", "properties": {"tags": {"addr:housename": "三九花园", "addr:housename:en": "Sanjiu Garden", "addr:housename:zh": "三九花园", "building": "apartments", "name": "23栋", "name:en": "Block 23", "name:zh": "23栋"}, "heightStatus": "unknown", "source": "OpenStreetMap", "license": "ODbL-1.0"}, "geometry": {"type": "MultiPolygon", "coordinates": [[[[114.0718067, 22.5776618], [114.0719292, 22.5775112], [114.0721272, 22.5776485], [114.0721585, 22.5776413], [114.0721908, 22.5776412], [114.0722221, 22.5776484], [114.0722507, 22.5776622], [114.0722748, 22.577682], [114.072293, 22.5777066], [114.0723043, 22.5777345], [114.072308, 22.5777641], [114.0723039, 22.5777937], [114.0722948, 22.5778153], [114.0723305, 22.5778401], [114.0722903, 22.5778894], [114.0722522, 22.577863], [114.0722237, 22.5778776], [114.0721922, 22.5778853], [114.0721596, 22.5778856], [114.0721279, 22.5778785], [114.072099, 22.5778645], [114.0720798, 22.5778882], [114.0719701, 22.5778121], [114.0719894, 22.5777884], [114.0718067, 22.5776618]]]]}}, {"type": "Feature", "id": "way/1432666139", "properties": {"tags": {"addr:housename": "三九花园", "addr:housename:en": "Sanjiu Garden", "addr:housename:zh": "三九花园", "building": "apartments", "name": "22栋", "name:en": "Block 22", "name:zh": "22栋"}, "heightStatus": "unknown", "source": "OpenStreetMap", "license": "ODbL-1.0"}, "geometry": {"type": "MultiPolygon", "coordinates": [[[[114.0725316, 22.5776946], [114.0729783, 22.5775392], [114.0730008, 22.5775944], [114.0729826, 22.5776008], [114.073006, 22.5776581], [114.0725957, 22.5778008], [114.0725723, 22.5777435], [114.0725541, 22.5777498], [114.0725316, 22.5776946]]]]}}, {"type": "Feature", "id": "way/1432666140", "properties": {"tags": {"addr:housename": "三九花园", "addr:housename:en": "Sanjiu Garden", "addr:housename:zh": "三九花园", "building": "apartments", "name": "21栋", "name:en": "Block 21", "name:zh": "21栋"}, "heightStatus": "unknown", "source": "OpenStreetMap", "license": "ODbL-1.0"}, "geometry": {"type": "MultiPolygon", "coordinates": [[[[114.073062, 22.5775132], [114.0735088, 22.5773578], [114.0735313, 22.577413], [114.0735131, 22.5774193], [114.0735365, 22.5774766], [114.0731261, 22.5776193], [114.0731028, 22.577562], [114.0730846, 22.5775684], [114.073062, 22.5775132]]]]}}, {"type": "Feature", "id": "way/1432666141", "properties": {"tags": {"addr:housename": "三九花园", "addr:housename:en": "Sanjiu Garden", "addr:housename:zh": "三九花园", "building": "apartments", "name": "26栋", "name:en": "Block 26", "name:zh": "26栋"}, "heightStatus": "unknown", "source": "OpenStreetMap", "license": "ODbL-1.0"}, "geometry": {"type": "MultiPolygon", "coordinates": [[[[114.0725437, 22.5774758], [114.072891, 22.577355], [114.0729215, 22.5774297], [114.0725742, 22.5775505], [114.0725437, 22.5774758]]]]}}, {"type": "Feature", "id": "way/1432666142", "properties": {"tags": {"addr:housename": "三九花园", "addr:housename:en": "Sanjiu Garden", "addr:housename:zh": "三九花园", "building": "apartments", "name": "36栋", "name:en": "Block 36", "name:zh": "36栋"}, "heightStatus": "unknown", "source": "OpenStreetMap", "license": "ODbL-1.0"}, "geometry": {"type": "MultiPolygon", "coordinates": [[[[114.0724281, 22.5770883], [114.0725573, 22.5769999], [114.0726259, 22.5770853], [114.0725946, 22.5771067], [114.0726085, 22.5771241], [114.0726711, 22.5770813], [114.0727252, 22.5771488], [114.0725335, 22.57728], [114.0724793, 22.5772125], [114.0725419, 22.5771697], [114.0725279, 22.5771523], [114.0724967, 22.5771737], [114.0724281, 22.5770883]]]]}}, {"type": "Feature", "id": "way/1432666143", "properties": {"tags": {"addr:housename": "三九花园", "addr:housename:en": "Sanjiu Garden", "addr:housename:zh": "三九花园", "building": "apartments", "name": "37栋", "name:en": "Block 37", "name:zh": "37栋"}, "heightStatus": "unknown", "source": "OpenStreetMap", "license": "ODbL-1.0"}, "geometry": {"type": "MultiPolygon", "coordinates": [[[[114.0729488, 22.5772601], [114.0729495, 22.5771611], [114.0731535, 22.5771624], [114.0731528, 22.5772614], [114.0729488, 22.5772601]]]]}}, {"type": "Feature", "id": "way/1432666144", "properties": {"tags": {"addr:housename": "三九花园", "addr:housename:en": "Sanjiu Garden", "addr:housename:zh": "三九花园", "building": "apartments", "name": "38栋", "name:en": "Block 38", "name:zh": "38栋"}, "heightStatus": "unknown", "source": "OpenStreetMap", "license": "ODbL-1.0"}, "geometry": {"type": "MultiPolygon", "coordinates": [[[[114.073286, 22.5771571], [114.0732867, 22.5770581], [114.0734907, 22.5770593], [114.07349, 22.5771583], [114.073286, 22.5771571]]]]}}, {"type": "Feature", "id": "way/1432666145", "properties": {"tags": {"addr:housename": "三九花园", "addr:housename:en": "Sanjiu Garden", "addr:housename:zh": "三九花园", "building": "apartments", "name": "40栋", "name:en": "Block 40", "name:zh": "40栋"}, "heightStatus": "unknown", "source": "OpenStreetMap", "license": "ODbL-1.0"}, "geometry": {"type": "MultiPolygon", "coordinates": [[[[114.0727597, 22.5768572], [114.0728611, 22.576825], [114.0729276, 22.577003], [114.0728262, 22.5770353], [114.0727597, 22.5768572]]]]}}, {"type": "Feature", "id": "way/1432666146", "properties": {"tags": {"addr:housename": "三九花园", "addr:housename:en": "Sanjiu Garden", "addr:housename:zh": "三九花园", "building": "apartments", "name": "41栋", "name:en": "Block 41", "name:zh": "41栋"}, "heightStatus": "unknown", "source": "OpenStreetMap", "license": "ODbL-1.0"}, "geometry": {"type": "MultiPolygon", "coordinates": [[[[114.0729959, 22.576699], [114.0730973, 22.5766667], [114.0731638, 22.5768447], [114.0730624, 22.576877], [114.0729959, 22.576699]]]]}}, {"type": "Feature", "id": "way/1515286204", "properties": {"tags": {"building": "yes"}, "heightStatus": "unknown", "source": "OpenStreetMap", "license": "ODbL-1.0"}, "geometry": {"type": "MultiPolygon", "coordinates": [[[[114.0735367, 22.5809027], [114.0735964, 22.5808431], [114.0736587, 22.5808963], [114.073599, 22.5809559], [114.0735367, 22.5809027]]]]}}]}