{"type": "FeatureCollection", "features": [{"type": "Feature", "id": "way/498524805", "properties": {"tags": {"alt_name": "深圳汽车站", "amenity": "bus_station", "building": "yes", "bus": "yes", "name": "银湖汽车站", "public_transport": "station", "wikidata": "Q115861852"}, "heightStatus": "unknown", "source": "OpenStreetMap", "license": "ODbL-1.0"}, "geometry": {"type": "MultiPolygon", "coordinates": [[[[114.0837443, 22.5718228], [114.0842065, 22.5714757], [114.084835, 22.5708669], [114.0855876, 22.5712548], [114.0856616, 22.5711362], [114.0857477, 22.5711829], [114.0858692, 22.5712116], [114.0857963, 22.5718285], [114.0854863, 22.5721381], [114.0851062, 22.572352], [114.0842435, 22.5726991], [114.0839847, 22.5721786], [114.0837443, 22.5718228]]]]}}, {"type": "Feature", "id": "way/1251562173", "properties": {"tags": {"building": "yes", "building:levels": "5", "name": "体育馆"}, "heightStatus": "levels_only_unverified", "source": "OpenStreetMap", "license": "ODbL-1.0"}, "geometry": {"type": "MultiPolygon", "coordinates": [[[[114.0870097, 22.5675928], [114.0871006, 22.5672724], [114.087138, 22.5672815], [114.0871578, 22.5672117], [114.0877946, 22.5673659], [114.0877753, 22.5674338], [114.0879025, 22.5674646], [114.0878111, 22.5677868], [114.0877517, 22.5677731], [114.0876839, 22.5677561], [114.0876655, 22.5678209], [114.0870315, 22.5676676], [114.08705, 22.5676026], [114.0870097, 22.5675928]]]]}}, {"type": "Feature", "id": "way/1266700988", "properties": {"tags": {"building": "commercial", "name": "鸿颖大厦"}, "heightStatus": "unknown", "source": "OpenStreetMap", "license": "ODbL-1.0"}, "geometry": {"type": "MultiPolygon", "coordinates": [[[[114.0925574, 22.5688432], [114.092638, 22.5685548], [114.0929684, 22.5686335], [114.0929192, 22.5688095], [114.0928407, 22.5687908], [114.0928338, 22.5688156], [114.0926675, 22.568776], [114.0926749, 22.5687493], [114.0926582, 22.5687453], [114.0926262, 22.5688596], [114.0925574, 22.5688432]]]]}}, {"type": "Feature", "id": "way/1266700989", "properties": {"tags": {"building": "apartments", "layer": "1", "name": "1栋"}, "heightStatus": "unknown", "source": "OpenStreetMap", "license": "ODbL-1.0"}, "geometry": {"type": "MultiPolygon", "coordinates": [[[[114.0919673, 22.5685972], [114.0920483, 22.5683277], [114.0925021, 22.5684426], [114.0924254, 22.5687064], [114.0923978, 22.5686994], [114.0923935, 22.5687137], [114.0923547, 22.5687038], [114.0923583, 22.5686917], [114.0923264, 22.5686835], [114.0923696, 22.5685389], [114.092398, 22.5685461], [114.0924164, 22.5684846], [114.0923523, 22.5684683], [114.0923399, 22.56851], [114.0923148, 22.5685037], [114.0923, 22.5685532], [114.0921634, 22.5685184], [114.0921779, 22.56847], [114.0921478, 22.5684623], [114.0921599, 22.5684218], [114.092092, 22.5684045], [114.0920731, 22.5684677], [114.0921135, 22.5684779], [114.0920709, 22.5686205], [114.0920426, 22.5686133], [114.0920385, 22.5686267], [114.0919879, 22.5686139], [114.0919911, 22.5686033], [114.0919673, 22.5685972]]]]}}, {"type": "Feature", "id": "way/1266700990", "properties": {"tags": {"building": "apartments", "name": "2栋"}, "heightStatus": "unknown", "source": "OpenStreetMap", "license": "ODbL-1.0"}, "geometry": {"type": "MultiPolygon", "coordinates": [[[[114.0918556, 22.5689929], [114.09188, 22.5689068], [114.092004, 22.5689367], [114.0920114, 22.5689106], [114.0920594, 22.5689222], [114.0920771, 22.5688595], [114.0919168, 22.5688209], [114.0919364, 22.5687515], [114.0921191, 22.5687956], [114.0921129, 22.5688175], [114.0921837, 22.5688346], [114.0921736, 22.5688705], [114.0922721, 22.5688942], [114.0922838, 22.5688531], [114.0923788, 22.568876], [114.0923543, 22.5689623], [114.0922908, 22.5689469], [114.0922809, 22.5689817], [114.0922214, 22.5689673], [114.0922151, 22.5689893], [114.0921481, 22.5689731], [114.092141, 22.5689983], [114.0920808, 22.5689838], [114.0920739, 22.5690081], [114.0920095, 22.5689925], [114.0919996, 22.5690276], [114.0918556, 22.5689929]]]]}}, {"type": "Feature", "id": "way/1298813160", "properties": {"tags": {"building": "train_station", "building:levels": "0", "building:levels:underground": "2", "layer": "-1", "location": "underground", "name": "泥岗站", "name:en": "Nigang Station", "name:zh": "泥岗站", "public_transport": "station", "start_date": "2016-10-28", "wikidata": "Q27825846", "wikipedia": "zh:泥岗站"}, "heightStatus": "levels_only_unverified", "source": "OpenStreetMap", "license": "ODbL-1.0"}, "geometry": {"type": "MultiPolygon", "coordinates": [[[[114.0910786, 22.5700824], [114.0911609, 22.5698606], [114.0911288, 22.569848], [114.0911353, 22.5696416], [114.0911927, 22.5696434], [114.0913956, 22.5698492], [114.091366, 22.5699268], [114.0914119, 22.5699413], [114.0913982, 22.5699725], [114.0918445, 22.5701104], [114.0918693, 22.5700404], [114.0917541, 22.5700395], [114.0917537, 22.5700149], [114.0917531, 22.5699762], [114.0918109, 22.5699747], [114.0918112, 22.5699563], [114.0918584, 22.5699565], [114.0918582, 22.5699483], [114.0921709, 22.5699564], [114.0921622, 22.5701051], [114.092138, 22.5701677], [114.0921756, 22.5701832], [114.092166, 22.5702033], [114.0927831, 22.5703907], [114.0928214, 22.5702823], [114.0931705, 22.5703896], [114.0930667, 22.5706787], [114.0932294, 22.5707229], [114.0932734, 22.5710223], [114.0932342, 22.5710274], [114.0931981, 22.5710321], [114.0931619, 22.570782], [114.0929146, 22.5707085], [114.0929429, 22.5706285], [114.091213, 22.5701082], [114.0912072, 22.5701232], [114.0910786, 22.5700824]]]]}}, {"type": "Feature", "id": "way/1298813161", "properties": {"tags": {"building": "train_station", "building:levels": "0", "building:levels:underground": "3", "layer": "-1", "location": "underground", "name": "银湖站", "name:en": "Yinhu Station", "name:zh": "银湖站", "public_transport": "station", "start_date": "2016-10-28", "wikidata": "Q20689186", "wikipedia": "zh:银湖站 (深圳市)"}, "heightStatus": "levels_only_unverified", "source": "OpenStreetMap", "license": "ODbL-1.0"}, "geometry": {"type": "MultiPolygon", "coordinates": [[[[114.0830277, 22.572194], [114.0831459, 22.572111], [114.0831592, 22.5721265], [114.0848379, 22.5708278], [114.0848118, 22.5707987], [114.084843, 22.5707726], [114.0848268, 22.5707544], [114.0849465, 22.5706601], [114.0849651, 22.5706799], [114.0850185, 22.5706402], [114.0850339, 22.5706045], [114.085326, 22.5703762], [114.0853428, 22.5703934], [114.0853797, 22.5703629], [114.0854568, 22.5704443], [114.0854883, 22.5704215], [114.0855295, 22.5704658], [114.0855539, 22.5704486], [114.0857656, 22.5705608], [114.0857416, 22.5706041], [114.0856653, 22.570624], [114.0856291, 22.5706548], [114.0854922, 22.5706789], [114.0854399, 22.5706263], [114.0834107, 22.5722291], [114.0834516, 22.5722688], [114.0832241, 22.5724504], [114.0831434, 22.5724491], [114.0831431, 22.5723902], [114.083195, 22.5723896], [114.0830277, 22.572194]]]]}}, {"type": "Feature", "id": "way/1372641896", "properties": {"tags": {"building": "school", "building:levels": "5", "layer": "1", "name": "STEAM 中心"}, "heightStatus": "levels_only_unverified", "source": "OpenStreetMap", "license": "ODbL-1.0"}, "geometry": {"type": "MultiPolygon", "coordinates": [[[[114.0883044, 22.5695639], [114.0883185, 22.5695301], [114.0883209, 22.5695279], [114.0883463, 22.5695051], [114.0883591, 22.5695013], [114.0883923, 22.5694971], [114.0884238, 22.5695044], [114.0884979, 22.5695215], [114.0886141, 22.5695484], [114.0886381, 22.5695647], [114.0886549, 22.5695771], [114.0886607, 22.569595], [114.0886644, 22.5696064], [114.0886686, 22.5696326], [114.0886596, 22.5696617], [114.0886421, 22.569683], [114.0886176, 22.5696973], [114.0884119, 22.5697782], [114.0883849, 22.5697791], [114.0883451, 22.5697653], [114.0883124, 22.5697278], [114.0883044, 22.5695639]]]]}}, {"type": "Feature", "id": "way/1372641902", "properties": {"tags": {"addr:housenumber": "1", "building": "residential"}, "heightStatus": "unknown", "source": "OpenStreetMap", "license": "ODbL-1.0"}, "geometry": {"type": "MultiPolygon", "coordinates": [[[[114.0891623, 22.5704276], [114.0891634, 22.5703604], [114.089244, 22.5703615], [114.0892447, 22.5703163], [114.0891792, 22.5703154], [114.0891796, 22.5702878], [114.0891687, 22.5702876], [114.0891693, 22.5702503], [114.0893723, 22.570253], [114.0893717, 22.5702888], [114.0893603, 22.5702887], [114.0893598, 22.5703163], [114.0892768, 22.5703152], [114.089276, 22.5703641], [114.0893734, 22.5703654], [114.0893724, 22.5704296], [114.0893075, 22.5704287], [114.0893073, 22.5704408], [114.0892328, 22.5704398], [114.089233, 22.5704285], [114.0891623, 22.5704276]]]]}}, {"type": "Feature", "id": "way/1372641908", "properties": {"tags": {"building": "school", "building:levels": "3"}, "heightStatus": "levels_only_unverified", "source": "OpenStreetMap", "license": "ODbL-1.0"}, "geometry": {"type": "MultiPolygon", "coordinates": [[[[114.0895423, 22.5690325], [114.0895479, 22.5690134], [114.0895598, 22.5689746], [114.0897085, 22.5690096], [114.0900735, 22.569098], [114.0900446, 22.5692002], [114.0900252, 22.5692702], [114.0900213, 22.5692825], [114.0900169, 22.5692981], [114.0900123, 22.5693144], [114.0896935, 22.5692375], [114.089671, 22.5692321], [114.0896462, 22.5692261], [114.089623, 22.5692205], [114.0896056, 22.5692164], [114.0896281, 22.5691375], [114.0896505, 22.5690587], [114.0895423, 22.5690325]]]]}}, {"type": "Feature", "id": "way/1372641909", "properties": {"tags": {"amenity": "fast_food", "building": "yes", "fast_food": "cafeteria", "name": "澍园"}, "heightStatus": "unknown", "source": "OpenStreetMap", "license": "ODbL-1.0"}, "geometry": {"type": "MultiPolygon", "coordinates": [[[[114.0897041, 22.5688794], [114.0897795, 22.5686027], [114.0904728, 22.5687698], [114.0903976, 22.5690175], [114.0902425, 22.5689824], [114.0902213, 22.5690557], [114.0897563, 22.5689432], [114.0897041, 22.5688794]]]]}}, {"type": "Feature", "id": "way/1372641910", "properties": {"tags": {"building": "school"}, "heightStatus": "unknown", "source": "OpenStreetMap", "license": "ODbL-1.0"}, "geometry": {"type": "MultiPolygon", "coordinates": [[[[114.090402, 22.5690891], [114.0905024, 22.5687384], [114.0910596, 22.5688744], [114.0909592, 22.5692251], [114.090402, 22.5690891]]]]}}, {"type": "Feature", "id": "way/1372641915", "properties": {"tags": {"building": "school", "name": "成美楼"}, "heightStatus": "unknown", "source": "OpenStreetMap", "license": "ODbL-1.0"}, "geometry": {"type": "MultiPolygon", "coordinates": [[[[114.0877732, 22.568041], [114.087817, 22.5678889], [114.0879546, 22.5679227], [114.0880265, 22.5679403], [114.0880061, 22.568011], [114.0879881, 22.5680736], [114.087979, 22.5681053], [114.0879119, 22.5680889], [114.0879156, 22.5680759], [114.0877732, 22.568041]]]]}}, {"type": "Feature", "id": "way/1372641916", "properties": {"tags": {"building": "school", "layer": "1"}, "heightStatus": "unknown", "source": "OpenStreetMap", "license": "ODbL-1.0"}, "geometry": {"type": "MultiPolygon", "coordinates": [[[[114.0863527, 22.5685534], [114.0868053, 22.5678256], [114.0865708, 22.5686841], [114.0863527, 22.5685534]]]]}}, {"type": "Feature", "id": "way/1372641922", "properties": {"tags": {"building": "school", "building:levels": "3", "level": "2"}, "heightStatus": "levels_only_unverified", "source": "OpenStreetMap", "license": "ODbL-1.0"}, "geometry": {"type": "MultiPolygon", "coordinates": [[[[114.0873773, 22.5693443], [114.0877222, 22.5681241], [114.0879349, 22.568174], [114.0876345, 22.5692644], [114.0876245, 22.5692997], [114.0875969, 22.5693944], [114.0873773, 22.5693443]]]]}}, {"type": "Feature", "id": "way/1377353592", "properties": {"tags": {"building": "commercial", "name": "鸿煦大厦"}, "heightStatus": "unknown", "source": "OpenStreetMap", "license": "ODbL-1.0"}, "geometry": {"type": "MultiPolygon", "coordinates": [[[[114.0915749, 22.5688633], [114.091651, 22.5686027], [114.0917253, 22.5686183], [114.0917388, 22.5685684], [114.0918605, 22.568598], [114.0917675, 22.5689085], [114.0915749, 22.5688633]]]]}}, {"type": "Feature", "id": "way/1377353593", "properties": {"tags": {"brand": "亚朵酒店", "brand:en": "Atour Hotel", "brand:wikidata": "Q111081972", "brand:zh": "亚朵酒店", "building": "commercial", "name": "亚朵酒店", "name:en": "Atour Hotel", "name:zh": "亚朵酒店", "tourism": "hotel"}, "heightStatus": "unknown", "source": "OpenStreetMap", "license": "ODbL-1.0"}, "geometry": {"type": "MultiPolygon", "coordinates": [[[[114.0914129, 22.5684169], [114.0914374, 22.5683433], [114.091472, 22.5683517], [114.0914788, 22.5683292], [114.0916279, 22.5683664], [114.0916323, 22.568347], [114.0917241, 22.5683698], [114.0917181, 22.5683882], [114.0918753, 22.5684235], [114.0918658, 22.5684516], [114.0919069, 22.5684616], [114.091887, 22.5685305], [114.0918724, 22.5685358], [114.0918612, 22.5685708], [114.0916806, 22.5685281], [114.0916758, 22.5685465], [114.0915829, 22.568524], [114.0915873, 22.5685074], [114.0914129, 22.5684626], [114.0914244, 22.568427], [114.0914129, 22.5684169]]]]}}, {"type": "Feature", "id": "relation/18996168", "properties": {"tags": {"building": "yes", "name": "深圳市教育科学研究院"}, "heightStatus": "unknown", "source": "OpenStreetMap", "license": "ODbL-1.0"}, "geometry": {"type": "MultiPolygon", "coordinates": [[[[114.089601, 22.5683816], [114.0896586, 22.5681698], [114.0897332, 22.5679187], [114.0898348, 22.5679429], [114.0898455, 22.5679344], [114.0898499, 22.5679328], [114.0898587, 22.5679295], [114.0898729, 22.567929], [114.0898865, 22.5679327], [114.0898981, 22.5679403], [114.0899063, 22.567951], [114.0899103, 22.5679634], [114.0902334, 22.5680435], [114.0902442, 22.568035], [114.0902485, 22.5680334], [114.0902574, 22.5680302], [114.0902716, 22.5680296], [114.0902852, 22.5680333], [114.0902967, 22.568041], [114.0903049, 22.5680516], [114.0903089, 22.5680641], [114.0903331, 22.5680645], [114.0903794, 22.5681065], [114.0904328, 22.5681359], [114.0904901, 22.5681559], [114.0905503, 22.5681666], [114.0906166, 22.5681615], [114.0906642, 22.5681441], [114.0906781, 22.5681575], [114.0906889, 22.5681489], [114.0906932, 22.5681474], [114.0907021, 22.5681441], [114.0907162, 22.5681436], [114.0907298, 22.5681473], [114.0907414, 22.5681549], [114.0907496, 22.5681656], [114.0907536, 22.568178], [114.0910813, 22.5682543], [114.0910921, 22.5682458], [114.0910964, 22.5682442], [114.0911053, 22.568241], [114.0911195, 22.5682404], [114.0911331, 22.5682441], [114.0911446, 22.5682517], [114.0911529, 22.5682624], [114.0911568, 22.5682748], [114.0912591, 22.5682965], [114.0911982, 22.5685215], [114.0911312, 22.5687568], [114.0910304, 22.5687343], [114.0910258, 22.568745], [114.0910156, 22.568754], [114.0910027, 22.5687594], [114.0909885, 22.5687607], [114.0909747, 22.5687576], [114.0909628, 22.5687506], [114.0909568, 22.5687437], [114.090954, 22.5687403], [114.0909492, 22.568728], [114.0909508, 22.5687147], [114.0906232, 22.5686385], [114.0906186, 22.5686492], [114.0906084, 22.5686581], [114.0905955, 22.5686636], [114.0905814, 22.5686648], [114.0905676, 22.5686618], [114.0905556, 22.5686548], [114.0905497, 22.5686479], [114.0905468, 22.5686445], [114.0905421, 22.5686321], [114.0905437, 22.5686189], [114.0901762, 22.5685239], [114.0901715, 22.5685347], [114.0901614, 22.5685436], [114.0901485, 22.5685491], [114.0901343, 22.5685503], [114.0901205, 22.5685473], [114.0901086, 22.5685402], [114.0901026, 22.5685333], [114.0900998, 22.56853], [114.090095, 22.5685176], [114.0900966, 22.5685044], [114.0897825, 22.5684248], [114.0897779, 22.5684356], [114.0897677, 22.5684445], [114.0897548, 22.5684499], [114.0897407, 22.5684512], [114.0897269, 22.5684482], [114.0897149, 22.5684411], [114.089709, 22.5684342], [114.0897061, 22.5684309], [114.0897014, 22.5684185], [114.089703, 22.5684053], [114.089601, 22.5683816]], [[114.0897496, 22.5683106], [114.0902594, 22.5684382], [114.0902715, 22.5684307], [114.0902567, 22.5683948], [114.0902487, 22.5683564], [114.09025, 22.5683156], [114.0902688, 22.5682697], [114.0902956, 22.5682338], [114.0903399, 22.5681979], [114.0903305, 22.5681744], [114.0898249, 22.5680468], [114.0897496, 22.5683106]], [[114.0905276, 22.5684902], [114.090537, 22.5685063], [114.0910466, 22.5686289], [114.0911204, 22.56837], [114.0906325, 22.5682524], [114.0906108, 22.5682617], [114.0906269, 22.5683069], [114.0906296, 22.5683515], [114.0906175, 22.5684035], [114.0905893, 22.5684419], [114.0905491, 22.568479], [114.0905276, 22.5684902]]]]}}, {"type": "Feature", "id": "way/1377927477", "properties": {"tags": {"building": "apartments", "layer": "1", "name": "1栋"}, "heightStatus": "unknown", "source": "OpenStreetMap", "license": "ODbL-1.0"}, "geometry": {"type": "MultiPolygon", "coordinates": [[[[114.0855594, 22.5700154], [114.0857, 22.5697985], [114.0857295, 22.5698148], [114.0857666, 22.5697575], [114.0857367, 22.569741], [114.0858731, 22.5695305], [114.0859064, 22.5695489], [114.08592, 22.569528], [114.0859985, 22.5695713], [114.085957, 22.5696354], [114.0859803, 22.5696482], [114.08572, 22.5700503], [114.0856879, 22.5700326], [114.085647, 22.5700957], [114.0855825, 22.5700601], [114.0855978, 22.5700366], [114.0855594, 22.5700154]]]]}}, {"type": "Feature", "id": "way/1377927478", "properties": {"tags": {"building": "retail"}, "heightStatus": "unknown", "source": "OpenStreetMap", "license": "ODbL-1.0"}, "geometry": {"type": "MultiPolygon", "coordinates": [[[[114.0855439, 22.5700325], [114.0858846, 22.5695052], [114.0859091, 22.569519], [114.0860071, 22.5695742], [114.0860146, 22.5695807], [114.0860205, 22.5696002], [114.0860205, 22.5696189], [114.0860142, 22.5696322], [114.0859652, 22.5697102], [114.085999, 22.5697242], [114.086026, 22.5697585], [114.0861916, 22.5699302], [114.0862794, 22.5699676], [114.0862778, 22.5699926], [114.0863115, 22.5700363], [114.086222, 22.5700987], [114.0861798, 22.5700519], [114.0861747, 22.5700862], [114.0861476, 22.5701143], [114.0859396, 22.570292], [114.0856067, 22.5701253], [114.0855731, 22.5700725], [114.0855439, 22.5700325]]]]}}, {"type": "Feature", "id": "way/1377933620", "properties": {"tags": {"building": "yes"}, "heightStatus": "unknown", "source": "OpenStreetMap", "license": "ODbL-1.0"}, "geometry": {"type": "MultiPolygon", "coordinates": [[[[114.0911139, 22.5693112], [114.0911393, 22.5692246], [114.091203, 22.5690078], [114.0912334, 22.5689024], [114.0916256, 22.5689968], [114.0915963, 22.5690979], [114.0915463, 22.5690869], [114.0915257, 22.5690995], [114.0914916, 22.5690914], [114.0914779, 22.5691376], [114.0914439, 22.5691296], [114.0914591, 22.5690795], [114.0914347, 22.5690607], [114.0913687, 22.5690452], [114.0913204, 22.5692092], [114.0914684, 22.5692452], [114.091443, 22.5693329], [114.0913108, 22.5693001], [114.0912993, 22.5693397], [114.0912302, 22.5693226], [114.0912254, 22.5693391], [114.0911139, 22.5693112]]]]}}, {"type": "Feature", "id": "way/1377934170", "properties": {"tags": {"building": "apartments", "layer": "1"}, "heightStatus": "unknown", "source": "OpenStreetMap", "license": "ODbL-1.0"}, "geometry": {"type": "MultiPolygon", "coordinates": [[[[114.0911139, 22.5693112], [114.0911393, 22.5692246], [114.0913031, 22.569265], [114.0913196, 22.5692083], [114.0914684, 22.5692452], [114.091443, 22.5693329], [114.0913108, 22.5693001], [114.0912993, 22.5693397], [114.0912302, 22.5693226], [114.0912254, 22.5693391], [114.0911139, 22.5693112]]]]}}, {"type": "Feature", "id": "way/1377934171", "properties": {"tags": {"building": "commercial", "layer": "1"}, "heightStatus": "unknown", "source": "OpenStreetMap", "license": "ODbL-1.0"}, "geometry": {"type": "MultiPolygon", "coordinates": [[[[114.091203, 22.5690078], [114.0912334, 22.5689024], [114.0916256, 22.5689968], [114.0915963, 22.5690979], [114.0915463, 22.5690869], [114.0915257, 22.5690995], [114.0914916, 22.5690914], [114.0914779, 22.5691376], [114.0914439, 22.5691296], [114.0914591, 22.5690795], [114.0914347, 22.5690607], [114.0913741, 22.5690457], [114.0913379, 22.5690504], [114.0913234, 22.5690979], [114.0912887, 22.5690895], [114.0913017, 22.5690443], [114.0912667, 22.5690363], [114.0912582, 22.5690209], [114.091203, 22.5690078]]]]}}, {"type": "Feature", "id": "way/1377939688", "properties": {"tags": {"building": "apartments"}, "heightStatus": "unknown", "source": "OpenStreetMap", "license": "ODbL-1.0"}, "geometry": {"type": "MultiPolygon", "coordinates": [[[[114.0904488, 22.570742], [114.0904496, 22.5706817], [114.0904863, 22.5706821], [114.0904867, 22.5706487], [114.0904665, 22.5706485], [114.0904676, 22.5705663], [114.0906359, 22.5705681], [114.0906348, 22.5706611], [114.0906013, 22.5706607], [114.0906011, 22.5706827], [114.0906826, 22.5706835], [114.0906829, 22.5706552], [114.0906626, 22.570655], [114.0906635, 22.5705704], [114.0908336, 22.5705719], [114.0908327, 22.5706584], [114.0907953, 22.570658], [114.090795, 22.5706893], [114.0908845, 22.5706901], [114.0908849, 22.5706595], [114.0908594, 22.5706592], [114.0908603, 22.5705771], [114.0910253, 22.5705787], [114.0910244, 22.5706589], [114.0909941, 22.5706586], [114.0909936, 22.5706984], [114.0910368, 22.5706988], [114.0910367, 22.5707108], [114.0910874, 22.5707115], [114.091088, 22.5706754], [114.0910626, 22.570675], [114.091064, 22.5705973], [114.0912291, 22.5706], [114.0912276, 22.5706793], [114.0911937, 22.5706787], [114.091193, 22.5707138], [114.0912929, 22.5707156], [114.0912937, 22.5706751], [114.0912709, 22.5706746], [114.0912724, 22.5706074], [114.0914211, 22.5706103], [114.0914193, 22.5706899], [114.0913986, 22.5706895], [114.0913981, 22.5707143], [114.0914411, 22.5707152], [114.0914394, 22.5707865], [114.091391, 22.5707856], [114.0913906, 22.570801], [114.0912858, 22.570799], [114.0912862, 22.5707815], [114.0911955, 22.5707799], [114.0911951, 22.5707951], [114.0910959, 22.5707934], [114.0910961, 22.5707808], [114.0910413, 22.5707799], [114.0910417, 22.5707608], [114.0909865, 22.57076], [114.0909863, 22.5707722], [114.0908924, 22.5707708], [114.0908927, 22.5707533], [114.090768, 22.5707515], [114.0907678, 22.5707623], [114.0906984, 22.5707613], [114.0906986, 22.5707455], [114.0905753, 22.5707437], [114.0905804, 22.5707609], [114.0905036, 22.57076], [114.0905039, 22.5707426], [114.0904488, 22.570742]]]]}}, {"type": "Feature", "id": "way/1377939689", "properties": {"tags": {"building": "apartments"}, "heightStatus": "unknown", "source": "OpenStreetMap", "license": "ODbL-1.0"}, "geometry": {"type": "MultiPolygon", "coordinates": [[[[114.0904871, 22.5704202], [114.0904884, 22.5703548], [114.0905307, 22.5703556], [114.0905315, 22.5703203], [114.0905085, 22.5703199], [114.09051, 22.570249], [114.090665, 22.5702518], [114.0906635, 22.5703218], [114.090643, 22.5703215], [114.0906421, 22.5703595], [114.0907347, 22.5703613], [114.0907356, 22.5703207], [114.0907094, 22.5703202], [114.0907111, 22.5702478], [114.0908682, 22.570251], [114.0908665, 22.5703265], [114.0908415, 22.5703259], [114.0908407, 22.570356], [114.0909335, 22.570358], [114.0909344, 22.5703219], [114.0909084, 22.5703213], [114.0909102, 22.57025], [114.0910667, 22.5702534], [114.0910647, 22.5703326], [114.0910452, 22.5703322], [114.0910445, 22.5703587], [114.0911237, 22.5703604], [114.0911243, 22.5703366], [114.0910985, 22.570336], [114.0911009, 22.5702467], [114.0912724, 22.5702506], [114.09127, 22.5703403], [114.0912428, 22.5703397], [114.0912422, 22.5703627], [114.0912827, 22.5703637], [114.091282, 22.5703869], [114.0913367, 22.5703882], [114.0913379, 22.5703484], [114.0913161, 22.5703478], [114.0913182, 22.570282], [114.0914582, 22.5702857], [114.0914562, 22.5703475], [114.0914394, 22.5703471], [114.091438, 22.5703891], [114.0915297, 22.5703918], [114.0915311, 22.570353], [114.0915156, 22.5703525], [114.0915183, 22.570279], [114.0916632, 22.5702835], [114.0916604, 22.5703586], [114.0916429, 22.570358], [114.091642, 22.5703821], [114.0916943, 22.5703837], [114.0916915, 22.5704615], [114.0916383, 22.5704599], [114.0916377, 22.5704761], [114.0915332, 22.5704731], [114.0915336, 22.57046], [114.0914382, 22.5704574], [114.0914378, 22.57047], [114.0913383, 22.5704676], [114.0913387, 22.5704505], [114.0912878, 22.5704494], [114.0912883, 22.5704313], [114.0908297, 22.5704222], [114.0908293, 22.5704378], [114.0907392, 22.5704361], [114.0907395, 22.570422], [114.0906272, 22.57042], [114.0906269, 22.5704366], [114.0905411, 22.5704351], [114.0905414, 22.5704211], [114.0904871, 22.5704202]]]]}}, {"type": "Feature", "id": "way/1377940398", "properties": {"tags": {"building": "apartments"}, "heightStatus": "unknown", "source": "OpenStreetMap", "license": "ODbL-1.0"}, "geometry": {"type": "MultiPolygon", "coordinates": [[[[114.0896774, 22.5707733], [114.08969, 22.5707168], [114.0896978, 22.5707183], [114.0897154, 22.5706391], [114.0897579, 22.5706472], [114.0897605, 22.5706356], [114.0898332, 22.5706495], [114.0898306, 22.5706615], [114.0898641, 22.5706678], [114.0898495, 22.5707332], [114.089868, 22.5707367], [114.0898817, 22.570675], [114.0899134, 22.570681], [114.0899201, 22.5706724], [114.0899909, 22.5706869], [114.0899882, 22.5706982], [114.0900271, 22.5707062], [114.0900119, 22.5707693], [114.0900279, 22.5707726], [114.0900427, 22.5707108], [114.0900811, 22.5707187], [114.0900845, 22.5707048], [114.0901596, 22.5707202], [114.0901572, 22.5707305], [114.0901954, 22.5707383], [114.0901805, 22.570801], [114.0901966, 22.5708042], [114.0902113, 22.5707421], [114.0902438, 22.5707486], [114.0902469, 22.5707355], [114.0903317, 22.5707525], [114.0903287, 22.5707652], [114.0903611, 22.5707717], [114.0903432, 22.5708482], [114.0903542, 22.5708504], [114.0903316, 22.5709473], [114.0902876, 22.5709386], [114.0902768, 22.5709535], [114.0901994, 22.5709351], [114.0902026, 22.5709235], [114.0901183, 22.5709035], [114.0901149, 22.5709158], [114.0900377, 22.5708975], [114.0900399, 22.5708895], [114.0899521, 22.5708687], [114.0899494, 22.5708785], [114.0898693, 22.5708595], [114.0898715, 22.5708517], [114.0897908, 22.5708326], [114.0897863, 22.5708487], [114.0897014, 22.5708286], [114.0897075, 22.5708066], [114.0896774, 22.5707733]]]]}}, {"type": "Feature", "id": "way/1377940399", "properties": {"tags": {"building": "apartments"}, "heightStatus": "unknown", "source": "OpenStreetMap", "license": "ODbL-1.0"}, "geometry": {"type": "MultiPolygon", "coordinates": [[[[114.0896381, 22.5703641], [114.0896775, 22.5703641], [114.0896775, 22.5703361], [114.0896572, 22.5703361], [114.0896573, 22.5702934], [114.08967, 22.5702773], [114.0897122, 22.5702593], [114.0897813, 22.57026], [114.0897805, 22.5703391], [114.0897608, 22.5703389], [114.0897606, 22.5703633], [114.0898145, 22.5703638], [114.0898147, 22.5703418], [114.0897986, 22.5703417], [114.0897995, 22.5702619], [114.0898293, 22.5702622], [114.0898294, 22.5702511], [114.0898902, 22.5702517], [114.0898901, 22.5702623], [114.0899214, 22.5702626], [114.0899206, 22.5703378], [114.0898969, 22.5703375], [114.0898966, 22.5703677], [114.0899581, 22.5703683], [114.0899584, 22.5703385], [114.0899412, 22.5703384], [114.089942, 22.5702615], [114.0899704, 22.5702618], [114.0899705, 22.5702495], [114.0900328, 22.57025], [114.0900326, 22.5702657], [114.0900645, 22.5702659], [114.0900637, 22.5703423], [114.0900473, 22.5703422], [114.0900471, 22.5703639], [114.0901016, 22.5703643], [114.0901018, 22.5703447], [114.0900806, 22.5703445], [114.0900814, 22.5702622], [114.0901079, 22.5702624], [114.090108, 22.5702538], [114.0901729, 22.5702544], [114.0901769, 22.5702686], [114.0902041, 22.5702689], [114.0902032, 22.5703443], [114.0901837, 22.5703441], [114.0901833, 22.570371], [114.0902473, 22.5703717], [114.0902477, 22.5703426], [114.090225, 22.5703424], [114.0902259, 22.5702674], [114.0902889, 22.570268], [114.0903204, 22.5702754], [114.0903452, 22.5702915], [114.0903446, 22.5703413], [114.0902938, 22.5703407], [114.0902935, 22.5703646], [114.0903253, 22.570365], [114.0903252, 22.5703781], [114.0903643, 22.5703786], [114.0903641, 22.5703901], [114.0903499, 22.5703899], [114.0903494, 22.5704235], [114.0903372, 22.5704233], [114.0903365, 22.5704729], [114.0903067, 22.5704725], [114.0903065, 22.5704862], [114.090263, 22.5704857], [114.0902632, 22.5704732], [114.0902274, 22.5704728], [114.090228, 22.5704276], [114.090201, 22.5704273], [114.0902004, 22.5704807], [114.0901734, 22.5704804], [114.0901734, 22.5704883], [114.090114, 22.5704879], [114.0901142, 22.5704706], [114.0900851, 22.5704705], [114.0900854, 22.5704226], [114.0900566, 22.5704224], [114.0900563, 22.5704731], [114.0900335, 22.570473], [114.0900334, 22.5704846], [114.0899757, 22.5704845], [114.0899758, 22.5704652], [114.0899472, 22.5704652], [114.0899473, 22.5704194], [114.0899123, 22.5704194], [114.0899123, 22.5704676], [114.0898868, 22.5704676], [114.0898868, 22.5704781], [114.0898314, 22.5704781], [114.0898314, 22.5704658], [114.0897997, 22.5704658], [114.0897997, 22.5704244], [114.0897756, 22.5704244], [114.0897757, 22.5704646], [114.0897387, 22.5704646], [114.0897387, 22.5704763], [114.0896891, 22.5704763], [114.0896891, 22.5704671], [114.0896617, 22.570467], [114.0896617, 22.5704219], [114.0896495, 22.5704219], [114.0896495, 22.5703799], [114.0896381, 22.5703799], [114.0896381, 22.5703641]]]]}}, {"type": "Feature", "id": "way/1377940535", "properties": {"tags": {"building": "apartments", "name": "1栋"}, "heightStatus": "unknown", "source": "OpenStreetMap", "license": "ODbL-1.0"}, "geometry": {"type": "MultiPolygon", "coordinates": [[[[114.0916137, 22.5706544], [114.091646, 22.5705637], [114.091783, 22.5706053], [114.0917641, 22.5706584], [114.0919059, 22.5707014], [114.0918833, 22.5707649], [114.0920209, 22.5708066], [114.092, 22.5708655], [114.0921489, 22.5709106], [114.0921277, 22.5709703], [114.0922623, 22.5710111], [114.0922404, 22.5710728], [114.0923852, 22.5711166], [114.0923643, 22.5711755], [114.0925155, 22.5712212], [114.0924811, 22.5713182], [114.0923198, 22.5712694], [114.0923397, 22.5712135], [114.0921997, 22.5711712], [114.0922219, 22.5711086], [114.0920801, 22.5710657], [114.0921013, 22.5710059], [114.0919605, 22.5709633], [114.091983, 22.5708998], [114.0918453, 22.5708581], [114.0918662, 22.5707993], [114.0917274, 22.5707572], [114.0917493, 22.5706955], [114.0916137, 22.5706544]]]]}}, {"type": "Feature", "id": "way/1377941023", "properties": {"tags": {"building": "school"}, "heightStatus": "unknown", "source": "OpenStreetMap", "license": "ODbL-1.0"}, "geometry": {"type": "MultiPolygon", "coordinates": [[[[114.0912282, 22.571179], [114.0912562, 22.571088], [114.0912889, 22.5710966], [114.0913089, 22.5710316], [114.0912754, 22.5710228], [114.0912963, 22.5709547], [114.0917896, 22.5710841], [114.0917643, 22.5711663], [114.0917321, 22.5711579], [114.0917163, 22.5712091], [114.0917469, 22.5712172], [114.0917189, 22.571308], [114.0912282, 22.571179]]]]}}, {"type": "Feature", "id": "relation/18996553", "properties": {"tags": {"building": "dormitory", "name": "宜园"}, "heightStatus": "unknown", "source": "OpenStreetMap", "license": "ODbL-1.0"}, "geometry": {"type": "MultiPolygon", "coordinates": [[[[114.0902135, 22.5693368], [114.090216, 22.569318], [114.0902274, 22.5692334], [114.0902418, 22.5691256], [114.0907706, 22.5692489], [114.0907989, 22.5693467], [114.0905981, 22.5693802], [114.0902135, 22.5693368]], [[114.0903102, 22.5692806], [114.0906054, 22.5693169], [114.0906893, 22.5693003], [114.0906882, 22.5692816], [114.0903272, 22.5692061], [114.0903102, 22.5692806]]]]}}, {"type": "Feature", "id": "relation/18996554", "properties": {"tags": {"building": "dormitory", "name": "韶园"}, "heightStatus": "unknown", "source": "OpenStreetMap", "license": "ODbL-1.0"}, "geometry": {"type": "MultiPolygon", "coordinates": [[[[114.0889978, 22.5700019], [114.0890294, 22.5699817], [114.089057, 22.5699641], [114.0892604, 22.5698338], [114.0892946, 22.5697767], [114.0893812, 22.5697772], [114.0893812, 22.5697891], [114.0893812, 22.5698258], [114.0893813, 22.569881], [114.0893816, 22.5700934], [114.0890639, 22.5700919], [114.0889978, 22.5700019]], [[114.0890868, 22.5700325], [114.089087, 22.5700363], [114.0890949, 22.5700363], [114.0892736, 22.5700379], [114.0892753, 22.5699616], [114.0892786, 22.5699367], [114.0892952, 22.5699258], [114.0893056, 22.5699244], [114.0893063, 22.5698953], [114.0892916, 22.5698929], [114.0890868, 22.5700325]]]]}}, {"type": "Feature", "id": "way/1377950259", "properties": {"tags": {"addr:housenumber": "1", "building": "residential"}, "heightStatus": "unknown", "source": "OpenStreetMap", "license": "ODbL-1.0"}, "geometry": {"type": "MultiPolygon", "coordinates": [[[[114.0888909, 22.5704242], [114.0888915, 22.5703574], [114.0889694, 22.570358], [114.0889698, 22.5703146], [114.0889114, 22.5703142], [114.0889117, 22.570284], [114.0889003, 22.5702839], [114.0889006, 22.5702466], [114.0891066, 22.5702481], [114.0891063, 22.5702854], [114.0890936, 22.5702854], [114.0890934, 22.5703127], [114.0890034, 22.570312], [114.089003, 22.5703604], [114.0891024, 22.5703611], [114.0891018, 22.5704276], [114.0890379, 22.5704272], [114.0890378, 22.5704402], [114.0889605, 22.5704396], [114.0889607, 22.5704247], [114.0888909, 22.5704242]]]]}}, {"type": "Feature", "id": "relation/18996574", "properties": {"tags": {"building": "dormitory", "name": "悦园"}, "heightStatus": "unknown", "source": "OpenStreetMap", "license": "ODbL-1.0"}, "geometry": {"type": "MultiPolygon", "coordinates": [[[[114.0896214, 22.5699252], [114.0896215, 22.569879], [114.0896216, 22.5698251], [114.0896216, 22.5697877], [114.0896218, 22.5696908], [114.0901568, 22.5698464], [114.0901547, 22.5699457], [114.0896676, 22.569939], [114.0896681, 22.5699257], [114.0896214, 22.5699252]], [[114.0897123, 22.5698646], [114.089717, 22.5698732], [114.0900608, 22.56988], [114.0900602, 22.5698738], [114.0897263, 22.569791], [114.0897143, 22.5697978], [114.0897123, 22.5698646]]]]}}, {"type": "Feature", "id": "relation/18996575", "properties": {"tags": {"building": "dormitory", "name": "彬园"}, "heightStatus": "unknown", "source": "OpenStreetMap", "license": "ODbL-1.0"}, "geometry": {"type": "MultiPolygon", "coordinates": [[[[114.0882509, 22.5702037], [114.0887418, 22.5701181], [114.0887475, 22.570354], [114.0884616, 22.5703533], [114.0882864, 22.5703965], [114.0882509, 22.5702037]], [[114.0883009, 22.5702498], [114.0883158, 22.5703312], [114.0884634, 22.570292], [114.088697, 22.5703002], [114.0887129, 22.570291], [114.088714, 22.5702714], [114.0886641, 22.5702704], [114.0886375, 22.5702645], [114.0886354, 22.570242], [114.088645, 22.5702243], [114.0886705, 22.5702184], [114.0887098, 22.5702116], [114.088709, 22.5701928], [114.088697, 22.5701782], [114.0883009, 22.5702498]]]]}}, {"type": "Feature", "id": "way/1377987121", "properties": {"tags": {"building": "elevator"}, "heightStatus": "unknown", "source": "OpenStreetMap", "license": "ODbL-1.0"}, "geometry": {"type": "MultiPolygon", "coordinates": [[[[114.0879881, 22.5680736], [114.0880061, 22.568011], [114.0880416, 22.5680198], [114.0880232, 22.5680824], [114.0879881, 22.5680736]]]]}}, {"type": "Feature", "id": "way/1377987123", "properties": {"tags": {"building": "school", "building:levels": "3", "layer": "1"}, "heightStatus": "levels_only_unverified", "source": "OpenStreetMap", "license": "ODbL-1.0"}, "geometry": {"type": "MultiPolygon", "coordinates": [[[[114.0878432, 22.5692268], [114.0879888, 22.5692232], [114.088083, 22.5688684], [114.0879017, 22.5688247], [114.0879283, 22.5687319], [114.0879524, 22.5686483], [114.0879837, 22.5685389], [114.0880156, 22.5684276], [114.0880656, 22.568257], [114.0880726, 22.5682326], [114.0881328, 22.5680197], [114.0881819, 22.5678466], [114.0882225, 22.5677055], [114.0887215, 22.5678274], [114.0887701, 22.5676578], [114.0887837, 22.5676102], [114.0888282, 22.5676211], [114.0887259, 22.5679778], [114.088703, 22.5680577], [114.0890918, 22.5681523], [114.0891155, 22.5680712], [114.0891206, 22.568053], [114.0892181, 22.5677162], [114.0892624, 22.5677271], [114.0892013, 22.5679344], [114.0895553, 22.5680207], [114.0895132, 22.5681679], [114.0893968, 22.5685697], [114.0896596, 22.5686312], [114.0896068, 22.5688118], [114.0895598, 22.5689746], [114.0895479, 22.5690134], [114.0895423, 22.5690325], [114.0895196, 22.5691117], [114.0894917, 22.5692083], [114.0892356, 22.5691458], [114.0891615, 22.5694019], [114.089137, 22.5693962], [114.0891305, 22.569418], [114.0890568, 22.5694548], [114.0890302, 22.5694481], [114.0890267, 22.5694606], [114.0887853, 22.5694027], [114.0887652, 22.5693979], [114.0887454, 22.5693932], [114.0887345, 22.5693905], [114.0887582, 22.5693067], [114.0888335, 22.5690487], [114.0888614, 22.5689529], [114.0888846, 22.5688737], [114.0888951, 22.5688367], [114.0889164, 22.5687621], [114.0889357, 22.5686931], [114.0889471, 22.5686528], [114.088998, 22.5684793], [114.0890543, 22.5682852], [114.0890652, 22.5682471], [114.0890697, 22.5682306], [114.0886806, 22.5681368], [114.0885586, 22.5685613], [114.0885469, 22.5686022], [114.088527, 22.5686706], [114.0885054, 22.5687467], [114.0884956, 22.5687811], [114.0884715, 22.5688604], [114.0884437, 22.568955], [114.0883694, 22.5692126], [114.0883448, 22.5692973], [114.0883414, 22.5693099], [114.0883131, 22.5693023], [114.0882601, 22.5692881], [114.0882599, 22.5693388], [114.0878442, 22.5693477], [114.0878434, 22.5692519], [114.0878433, 22.5692413], [114.0878432, 22.5692268]]]]}}, {"type": "Feature", "id": "way/1377987126", "properties": {"tags": {"building": "school", "building:levels": "5", "layer": "1", "level": "2"}, "heightStatus": "levels_only_unverified", "source": "OpenStreetMap", "license": "ODbL-1.0"}, "geometry": {"type": "MultiPolygon", "coordinates": [[[[114.0880156, 22.5684276], [114.0880656, 22.568257], [114.0882625, 22.5683036], [114.088492, 22.5683578], [114.0885576, 22.5681241], [114.0883287, 22.5680678], [114.0881328, 22.5680197], [114.0881819, 22.5678466], [114.088718, 22.5679759], [114.0887259, 22.5679778], [114.088703, 22.5680577], [114.0886981, 22.5680749], [114.0886806, 22.5681368], [114.0886647, 22.5681917], [114.0885586, 22.5685613], [114.0885234, 22.5685532], [114.0884432, 22.5685333], [114.0882144, 22.5684783], [114.0880156, 22.5684276]]]]}}, {"type": "Feature", "id": "way/1377987127", "properties": {"tags": {"building": "school", "building:levels": "6", "layer": "2"}, "heightStatus": "levels_only_unverified", "source": "OpenStreetMap", "license": "ODbL-1.0"}, "geometry": {"type": "MultiPolygon", "coordinates": [[[[114.0886981, 22.5680749], [114.088703, 22.5680577], [114.0887306, 22.5679592], [114.088791, 22.5679737], [114.0887578, 22.5680894], [114.0886981, 22.5680749]]]]}}, {"type": "Feature", "id": "way/1377987128", "properties": {"tags": {"building": "yes"}, "heightStatus": "unknown", "source": "OpenStreetMap", "license": "ODbL-1.0"}, "geometry": {"type": "MultiPolygon", "coordinates": [[[[114.0888196, 22.5676565], [114.08883, 22.5676213], [114.0889418, 22.5676495], [114.0889344, 22.5676755], [114.0889317, 22.5676848], [114.0888196, 22.5676565]]]]}}, {"type": "Feature", "id": "way/1377987129", "properties": {"tags": {"building": "yes"}, "heightStatus": "unknown", "source": "OpenStreetMap", "license": "ODbL-1.0"}, "geometry": {"type": "MultiPolygon", "coordinates": [[[[114.0890904, 22.5677231], [114.0890928, 22.5677148], [114.0891005, 22.5676878], [114.0892163, 22.5677162], [114.0892062, 22.5677515], [114.0890904, 22.5677231]]]]}}, {"type": "Feature", "id": "way/1377987131", "properties": {"tags": {"building": "school", "building:levels": "6", "layer": "2"}, "heightStatus": "levels_only_unverified", "source": "OpenStreetMap", "license": "ODbL-1.0"}, "geometry": {"type": "MultiPolygon", "coordinates": [[[[114.0890284, 22.5681549], [114.0890606, 22.5680385], [114.0891206, 22.568053], [114.0890918, 22.5681523], [114.0890873, 22.568169], [114.0890284, 22.5681549]]]]}}, {"type": "Feature", "id": "way/1377988839", "properties": {"tags": {"building": "yes", "layer": "2"}, "heightStatus": "unknown", "source": "OpenStreetMap", "license": "ODbL-1.0"}, "geometry": {"type": "MultiPolygon", "coordinates": [[[[114.0886647, 22.5681917], [114.0886806, 22.5681368], [114.0890697, 22.5682306], [114.0890543, 22.5682852], [114.0886647, 22.5681917]]]]}}, {"type": "Feature", "id": "way/1377990657", "properties": {"tags": {"building": "school", "building:levels": "6", "layer": "1", "level": "2"}, "heightStatus": "levels_only_unverified", "source": "OpenStreetMap", "license": "ODbL-1.0"}, "geometry": {"type": "MultiPolygon", "coordinates": [[[[114.0879017, 22.5688247], [114.0879283, 22.5687319], [114.0879524, 22.5686483], [114.0881558, 22.568698], [114.0884599, 22.5687716], [114.0884956, 22.5687811], [114.0884715, 22.5688604], [114.0884437, 22.568955], [114.0883429, 22.56893], [114.0883302, 22.5689269], [114.0881049, 22.5688747], [114.088083, 22.5688684], [114.0879017, 22.5688247]]]]}}, {"type": "Feature", "id": "way/1377993842", "properties": {"tags": {"building": "school", "building:levels": "6", "layer": "1", "level": "2"}, "heightStatus": "levels_only_unverified", "source": "OpenStreetMap", "license": "ODbL-1.0"}, "geometry": {"type": "MultiPolygon", "coordinates": [[[[114.0878433, 22.5692413], [114.0882423, 22.5692315], [114.0883302, 22.5689269], [114.0883429, 22.56893], [114.0884437, 22.568955], [114.0883694, 22.5692126], [114.0883448, 22.5692973], [114.0883414, 22.5693099], [114.0883131, 22.5693023], [114.0882601, 22.5692881], [114.0882599, 22.5693388], [114.0878442, 22.5693477], [114.0878434, 22.5692519], [114.0878433, 22.5692413]]]]}}, {"type": "Feature", "id": "way/1377993848", "properties": {"tags": {"building": "school", "building:levels": "3"}, "heightStatus": "levels_only_unverified", "source": "OpenStreetMap", "license": "ODbL-1.0"}, "geometry": {"type": "MultiPolygon", "coordinates": [[[[114.0885054, 22.5687467], [114.088527, 22.5686706], [114.0885469, 22.5686022], [114.0885869, 22.5686124], [114.0885453, 22.5687563], [114.0885054, 22.5687467]]]]}}, {"type": "Feature", "id": "way/1377993849", "properties": {"tags": {"building": "yes", "building:levels": "7"}, "heightStatus": "levels_only_unverified", "source": "OpenStreetMap", "license": "ODbL-1.0"}, "geometry": {"type": "MultiPolygon", "coordinates": [[[[114.0883448, 22.5692973], [114.0883694, 22.5692126], [114.0884321, 22.5692275], [114.0884066, 22.5693123], [114.0883448, 22.5692973]]]]}}, {"type": "Feature", "id": "way/1378004170", "properties": {"tags": {"building": "school", "building:levels": "6", "layer": "1", "level": "2"}, "heightStatus": "levels_only_unverified", "source": "OpenStreetMap", "license": "ODbL-1.0"}, "geometry": {"type": "MultiPolygon", "coordinates": [[[[114.0888335, 22.5690487], [114.0888614, 22.5689529], [114.0888846, 22.5688737], [114.0895423, 22.5690325], [114.0895196, 22.5691117], [114.0894917, 22.5692083], [114.0892356, 22.5691458], [114.0891284, 22.5691209], [114.0891126, 22.5691172], [114.0888645, 22.5690561], [114.0888335, 22.5690487]]]]}}, {"type": "Feature", "id": "way/1378004172", "properties": {"tags": {"building": "school", "building:levels": "6", "layer": "1", "level": "2"}, "heightStatus": "levels_only_unverified", "source": "OpenStreetMap", "license": "ODbL-1.0"}, "geometry": {"type": "MultiPolygon", "coordinates": [[[[114.0887345, 22.5693905], [114.0887582, 22.5693067], [114.0890382, 22.5693737], [114.0891126, 22.5691172], [114.0891284, 22.5691209], [114.0892356, 22.5691458], [114.0891615, 22.5694019], [114.089137, 22.5693962], [114.0891305, 22.569418], [114.0890568, 22.5694548], [114.0890302, 22.5694481], [114.0890267, 22.5694606], [114.0887853, 22.5694027], [114.0887652, 22.5693979], [114.0887454, 22.5693932], [114.0887345, 22.5693905]]]]}}, {"type": "Feature", "id": "way/1378004181", "properties": {"tags": {"building": "school", "building:levels": "5", "layer": "1", "level": "2"}, "heightStatus": "levels_only_unverified", "source": "OpenStreetMap", "license": "ODbL-1.0"}, "geometry": {"type": "MultiPolygon", "coordinates": [[[[114.0889471, 22.5686528], [114.088998, 22.5684793], [114.0892774, 22.5685455], [114.0893427, 22.5683142], [114.0890652, 22.5682471], [114.0890697, 22.5682306], [114.0890873, 22.568169], [114.0890918, 22.5681523], [114.0891155, 22.5680712], [114.0894092, 22.5681426], [114.0895132, 22.5681679], [114.0893968, 22.5685697], [114.0896596, 22.5686312], [114.0896068, 22.5688118], [114.0892434, 22.5687242], [114.0889471, 22.5686528]]]]}}, {"type": "Feature", "id": "way/1378004184", "properties": {"tags": {"building": "porch", "building:levels": "3"}, "heightStatus": "levels_only_unverified", "source": "OpenStreetMap", "license": "ODbL-1.0"}, "geometry": {"type": "MultiPolygon", "coordinates": [[[[114.0884437, 22.568955], [114.0884715, 22.5688604], [114.0884956, 22.5687811], [114.0888846, 22.5688737], [114.0888614, 22.5689529], [114.0888335, 22.5690487], [114.0884437, 22.568955]]]]}}, {"type": "Feature", "id": "way/1378236476", "properties": {"tags": {"building": "roof", "layer": "1", "roof:material": "galss"}, "heightStatus": "unknown", "source": "OpenStreetMap", "license": "ODbL-1.0"}, "geometry": {"type": "MultiPolygon", "coordinates": [[[[114.0884241, 22.5676557], [114.0884418, 22.5675926], [114.0886881, 22.5676502], [114.0886703, 22.5677133], [114.0884241, 22.5676557]]]]}}, {"type": "Feature", "id": "way/1378236480", "properties": {"tags": {"building": "roof", "layer": "1", "roof:material": "galss"}, "heightStatus": "unknown", "source": "OpenStreetMap", "license": "ODbL-1.0"}, "geometry": {"type": "MultiPolygon", "coordinates": [[[[114.0877942, 22.5691644], [114.0878613, 22.5689304], [114.0879387, 22.5689489], [114.0878733, 22.5691818], [114.0877942, 22.5691644]]]]}}, {"type": "Feature", "id": "way/1378267561", "properties": {"tags": {"building": "roof", "building:levels": "4", "level": "2"}, "heightStatus": "levels_only_unverified", "source": "OpenStreetMap", "license": "ODbL-1.0"}, "geometry": {"type": "MultiPolygon", "coordinates": [[[[114.087654, 22.5684912], [114.087657, 22.5684684], [114.0876676, 22.5684477], [114.0876848, 22.5684312], [114.0877068, 22.5684205], [114.0877325, 22.5684169], [114.087758, 22.5684212], [114.0877806, 22.5684332], [114.0877976, 22.5684513], [114.0878071, 22.5684736], [114.0878081, 22.5684976], [114.0878005, 22.5685205], [114.0877851, 22.5685399], [114.0877636, 22.5685534], [114.0877385, 22.5685596], [114.0877126, 22.5685577], [114.0876898, 22.5685487], [114.0876713, 22.5685335], [114.0876589, 22.5685136], [114.087654, 22.5684912]]]]}}, {"type": "Feature", "id": "way/1378267562", "properties": {"tags": {"building": "school", "building:levels": "3"}, "heightStatus": "levels_only_unverified", "source": "OpenStreetMap", "license": "ODbL-1.0"}, "geometry": {"type": "MultiPolygon", "coordinates": [[[[114.0888534, 22.5688266], [114.0888941, 22.568683], [114.0889357, 22.5686931], [114.0889164, 22.5687621], [114.0888951, 22.5688367], [114.0888534, 22.5688266]]]]}}, {"type": "Feature", "id": "way/1378267582", "properties": {"tags": {"building:levels": "4", "building:part": "roof", "level": "2", "roof:shape": "gabled"}, "heightStatus": "levels_only_unverified", "source": "OpenStreetMap", "license": "ODbL-1.0"}, "geometry": {"type": "MultiPolygon", "coordinates": [[[[114.0885548, 22.5689786], [114.0886006, 22.5688144], [114.0887596, 22.5688522], [114.0887139, 22.5690164], [114.0885548, 22.5689786]]]]}}, {"type": "Feature", "id": "way/1378267584", "properties": {"tags": {"building": "yes", "building:levels": "7"}, "heightStatus": "levels_only_unverified", "source": "OpenStreetMap", "license": "ODbL-1.0"}, "geometry": {"type": "MultiPolygon", "coordinates": [[[[114.0886732, 22.5693756], [114.0886977, 22.5692918], [114.0887582, 22.5693067], [114.0887345, 22.5693905], [114.0886732, 22.5693756]]]]}}, {"type": "Feature", "id": "way/1378279473", "properties": {"tags": {"building": "school"}, "heightStatus": "unknown", "source": "OpenStreetMap", "license": "ODbL-1.0"}, "geometry": {"type": "MultiPolygon", "coordinates": [[[[114.0882718, 22.5675054], [114.0882754, 22.5674882], [114.088342, 22.5675042], [114.0886845, 22.5675862], [114.0887837, 22.5676102], [114.0887701, 22.5676578], [114.0883235, 22.5675495], [114.0882812, 22.5675248], [114.0882718, 22.5675054]]]]}}, {"type": "Feature", "id": "way/1378279474", "properties": {"tags": {"building": "yes"}, "heightStatus": "unknown", "source": "OpenStreetMap", "license": "ODbL-1.0"}, "geometry": {"type": "MultiPolygon", "coordinates": [[[[114.0892494, 22.5677799], [114.0892648, 22.5677274], [114.0893536, 22.5677497], [114.0893628, 22.567752], [114.0893474, 22.5678045], [114.0892494, 22.5677799]]]]}}, {"type": "Feature", "id": "relation/19000867", "properties": {"tags": {"building": "yes"}, "heightStatus": "unknown", "source": "OpenStreetMap", "license": "ODbL-1.0"}, "geometry": {"type": "MultiPolygon", "coordinates": [[[[114.0882718, 22.5675054], [114.0882754, 22.5674882], [114.088342, 22.5675042], [114.0886845, 22.5675862], [114.0887837, 22.5676102], [114.0887701, 22.5676578], [114.0883235, 22.5675495], [114.0882812, 22.5675248], [114.0882718, 22.5675054]], [[114.0884697, 22.5675801], [114.088551, 22.5675996], [114.0885619, 22.567561], [114.0884806, 22.5675415], [114.0884697, 22.5675801]], [[114.0885684, 22.567604], [114.0886497, 22.5676234], [114.0886606, 22.5675848], [114.0885792, 22.5675653], [114.0885684, 22.567604]]]]}}, {"type": "Feature", "id": "way/1378279488", "properties": {"tags": {"building": "yes"}, "heightStatus": "unknown", "source": "OpenStreetMap", "license": "ODbL-1.0"}, "geometry": {"type": "MultiPolygon", "coordinates": [[[[114.0904271, 22.5679805], [114.090436, 22.5679494], [114.0904391, 22.5679385], [114.0905059, 22.5679548], [114.0905026, 22.5679661], [114.0904939, 22.5679968], [114.0904271, 22.5679805]]]]}}, {"type": "Feature", "id": "way/1378279489", "properties": {"tags": {"building": "yes"}, "heightStatus": "unknown", "source": "OpenStreetMap", "license": "ODbL-1.0"}, "geometry": {"type": "MultiPolygon", "coordinates": [[[[114.0905847, 22.5680194], [114.0905935, 22.5679884], [114.0905967, 22.5679774], [114.0906634, 22.5679936], [114.0906605, 22.568004], [114.0906514, 22.5680356], [114.0905847, 22.5680194]]]]}}, {"type": "Feature", "id": "way/1378284460", "properties": {"tags": {"building": "porch", "building:levels": "2"}, "heightStatus": "levels_only_unverified", "source": "OpenStreetMap", "license": "ODbL-1.0"}, "geometry": {"type": "MultiPolygon", "coordinates": [[[[114.0887607, 22.5682238], [114.0887958, 22.5680986], [114.0888233, 22.5680007], [114.0890179, 22.5680473], [114.0889905, 22.5681458], [114.0889552, 22.5682703], [114.0887607, 22.5682238]]]]}}, {"type": "Feature", "id": "way/1378293458", "properties": {"tags": {"building": "school", "building:levels": "7", "level": "6"}, "heightStatus": "levels_only_unverified", "source": "OpenStreetMap", "license": "ODbL-1.0"}, "geometry": {"type": "MultiPolygon", "coordinates": [[[[114.0878472, 22.5692666], [114.0878995, 22.5692658], [114.0879009, 22.5693436], [114.0878486, 22.5693444], [114.0878472, 22.5692666]]]]}}, {"type": "Feature", "id": "way/1378300347", "properties": {"tags": {"building:levels": "6", "building:part": "yes", "level": "2"}, "heightStatus": "levels_only_unverified", "source": "OpenStreetMap", "license": "ODbL-1.0"}, "geometry": {"type": "MultiPolygon", "coordinates": [[[[114.0887597, 22.5692995], [114.0888325, 22.5690505], [114.0888476, 22.5690541], [114.0887758, 22.5693031], [114.0887597, 22.5692995]]]]}}, {"type": "Feature", "id": "way/1378314138", "properties": {"tags": {"building:levels": "3", "building:part": "yes", "layer": "1", "man_made": "bridge"}, "heightStatus": "levels_only_unverified", "source": "OpenStreetMap", "license": "ODbL-1.0"}, "geometry": {"type": "MultiPolygon", "coordinates": [[[[114.0893812, 22.5697891], [114.0894478, 22.569789], [114.08946, 22.5697448], [114.0896056, 22.5692164], [114.089623, 22.5692205], [114.0896462, 22.5692261], [114.089671, 22.5692321], [114.0896935, 22.5692375], [114.0895393, 22.5697878], [114.0896216, 22.5697877], [114.0896216, 22.5698251], [114.0896215, 22.569879], [114.0893813, 22.569881], [114.0893812, 22.5698258], [114.0893812, 22.5697891]]]]}}, {"type": "Feature", "id": "way/1378320601", "properties": {"tags": {"building": "yes", "building:levels": "2"}, "heightStatus": "levels_only_unverified", "source": "OpenStreetMap", "license": "ODbL-1.0"}, "geometry": {"type": "MultiPolygon", "coordinates": [[[[114.0900123, 22.5693144], [114.0900169, 22.5692981], [114.0900252, 22.5692702], [114.0900735, 22.569098], [114.0902418, 22.5691256], [114.0902274, 22.5692334], [114.090216, 22.569318], [114.0902135, 22.5693368], [114.0900123, 22.5693144]]]]}}, {"type": "Feature", "id": "way/1378351068", "properties": {"tags": {"building:part": "yes", "layer": "1", "level": "1", "man_made": "bridge"}, "heightStatus": "unknown", "source": "OpenStreetMap", "license": "ODbL-1.0"}, "geometry": {"type": "MultiPolygon", "coordinates": [[[[114.0882599, 22.5693388], [114.0882601, 22.5692881], [114.0883131, 22.5693023], [114.0883414, 22.5693099], [114.0883414, 22.5693355], [114.0883291, 22.5693359], [114.0883394, 22.5694542], [114.088356, 22.5694718], [114.088369, 22.5694831], [114.0883876, 22.5694909], [114.0884238, 22.5695044], [114.0883923, 22.5694971], [114.0883463, 22.5695051], [114.0883209, 22.5695279], [114.088315, 22.5695416], [114.0882981, 22.5693373], [114.0882599, 22.5693388]]]]}}, {"type": "Feature", "id": "way/1378351069", "properties": {"tags": {"building:part": "yes", "layer": "1", "level": "1", "man_made": "bridge"}, "heightStatus": "unknown", "source": "OpenStreetMap", "license": "ODbL-1.0"}, "geometry": {"type": "MultiPolygon", "coordinates": [[[[114.0886141, 22.5695484], [114.0886443, 22.5695455], [114.0886712, 22.569542], [114.0886946, 22.5695307], [114.0887115, 22.5695085], [114.0887207, 22.5694786], [114.0887454, 22.5693932], [114.0887652, 22.5693979], [114.0887853, 22.5694027], [114.0887603, 22.5694916], [114.0887539, 22.5695187], [114.0887533, 22.5695428], [114.088764, 22.5695621], [114.0887399, 22.5695766], [114.0887105, 22.5695942], [114.0886851, 22.569586], [114.0886764, 22.5695845], [114.0886607, 22.569595], [114.0886549, 22.5695771], [114.0886381, 22.5695647], [114.0886141, 22.5695484]]]]}}, {"type": "Feature", "id": "way/1378351078", "properties": {"tags": {"building:levels": "3", "building:part": "yes", "layer": "1", "man_made": "bridge"}, "heightStatus": "levels_only_unverified", "source": "OpenStreetMap", "license": "ODbL-1.0"}, "geometry": {"type": "MultiPolygon", "coordinates": [[[[114.0887105, 22.5695942], [114.0887399, 22.5695766], [114.088764, 22.5695621], [114.089057, 22.5699641], [114.0889978, 22.5700019], [114.0887105, 22.5695942]]]]}}, {"type": "Feature", "id": "way/1378459146", "properties": {"tags": {"building": "yes", "building:levels": "5"}, "heightStatus": "levels_only_unverified", "source": "OpenStreetMap", "license": "ODbL-1.0"}, "geometry": {"type": "MultiPolygon", "coordinates": [[[[114.087361, 22.5693993], [114.0873753, 22.5693452], [114.0875984, 22.5693957], [114.087584, 22.5694497], [114.087361, 22.5693993]]]]}}, {"type": "Feature", "id": "way/1378640441", "properties": {"tags": {"building": "yes"}, "heightStatus": "unknown", "source": "OpenStreetMap", "license": "ODbL-1.0"}, "geometry": {"type": "MultiPolygon", "coordinates": [[[[114.0907958, 22.5699221], [114.0908572, 22.5698668], [114.0909013, 22.5699085], [114.0908398, 22.5699638], [114.0907958, 22.5699221]]]]}}, {"type": "Feature", "id": "way/1378645286", "properties": {"tags": {"building": "apartments"}, "heightStatus": "unknown", "source": "OpenStreetMap", "license": "ODbL-1.0"}, "geometry": {"type": "MultiPolygon", "coordinates": [[[[114.0919643, 22.5686125], [114.0920483, 22.5683277], [114.0925021, 22.5684426], [114.092421, 22.5687281], [114.0922667, 22.5686893], [114.0922631, 22.5687013], [114.0921444, 22.5686715], [114.0921482, 22.5686588], [114.0919643, 22.5686125]]]]}}, {"type": "Feature", "id": "way/1378648504", "properties": {"tags": {"building": "apartments", "name": "8栋"}, "heightStatus": "unknown", "source": "OpenStreetMap", "license": "ODbL-1.0"}, "geometry": {"type": "MultiPolygon", "coordinates": [[[[114.086478, 22.5705482], [114.0865019, 22.5704706], [114.0865339, 22.5704775], [114.0865377, 22.570464], [114.0865839, 22.5704726], [114.0865797, 22.5704863], [114.0866286, 22.5704961], [114.0866454, 22.5704603], [114.0866048, 22.5704374], [114.0866192, 22.5704147], [114.0866038, 22.5704087], [114.0866398, 22.5703491], [114.0866882, 22.5703743], [114.0866953, 22.5703643], [114.0867705, 22.5704034], [114.0867626, 22.5704153], [114.086816, 22.5704441], [114.0867806, 22.5705008], [114.0867649, 22.5704923], [114.0867542, 22.5705101], [114.0867235, 22.5704954], [114.0867022, 22.5705332], [114.0867361, 22.5705581], [114.0867489, 22.5705492], [114.0867872, 22.5705846], [114.0867755, 22.5705935], [114.0868, 22.5706161], [114.0867361, 22.5706731], [114.0866393, 22.5705935], [114.0866595, 22.5705738], [114.0866169, 22.5705492], [114.0866046, 22.570577], [114.086478, 22.5705482]]]]}}, {"type": "Feature", "id": "way/1378648505", "properties": {"tags": {"building": "apartments", "name": "5栋"}, "heightStatus": "unknown", "source": "OpenStreetMap", "license": "ODbL-1.0"}, "geometry": {"type": "MultiPolygon", "coordinates": [[[[114.0877548, 22.5705812], [114.0877909, 22.5705617], [114.08778, 22.5705474], [114.0878232, 22.5705247], [114.0878327, 22.5705388], [114.0878702, 22.5705196], [114.0878574, 22.5704702], [114.08781, 22.5704807], [114.0878043, 22.5704549], [114.0877884, 22.5704599], [114.0877722, 22.5703934], [114.0878264, 22.5703823], [114.0878245, 22.5703705], [114.0879087, 22.5703532], [114.0879114, 22.5703669], [114.0879719, 22.5703554], [114.0879866, 22.5704195], [114.0879688, 22.5704228], [114.0879738, 22.5704426], [114.0879402, 22.5704506], [114.0879531, 22.5705025], [114.087987, 22.5705025], [114.0879874, 22.5704849], [114.0880429, 22.5704851], [114.0880425, 22.5705008], [114.0880778, 22.5705013], [114.0880775, 22.5705843], [114.0879499, 22.5705824], [114.087948, 22.5705559], [114.0878992, 22.57057], [114.0879101, 22.5705921], [114.0877938, 22.5706494], [114.0877548, 22.5705812]]]]}}, {"type": "Feature", "id": "way/1378648506", "properties": {"tags": {"building": "apartments", "name": "6栋"}, "heightStatus": "unknown", "source": "OpenStreetMap", "license": "ODbL-1.0"}, "geometry": {"type": "MultiPolygon", "coordinates": [[[[114.0873165, 22.5706581], [114.0873167, 22.5705771], [114.0873622, 22.5705772], [114.0873623, 22.5705377], [114.0874153, 22.5705378], [114.0874153, 22.570528], [114.0874999, 22.5705282], [114.0874998, 22.5705363], [114.0875498, 22.5705365], [114.0875497, 22.5705668], [114.0876056, 22.5705669], [114.0876052, 22.5706589], [114.0875953, 22.5706589], [114.0875952, 22.5706933], [114.0875011, 22.570693], [114.0875011, 22.5706992], [114.0874047, 22.570699], [114.0874047, 22.5706914], [114.087329, 22.5706912], [114.0873291, 22.5706581], [114.0873165, 22.5706581]]]]}}, {"type": "Feature", "id": "way/1378648507", "properties": {"tags": {"building": "apartments", "name": "7栋"}, "heightStatus": "unknown", "source": "OpenStreetMap", "license": "ODbL-1.0"}, "geometry": {"type": "MultiPolygon", "coordinates": [[[[114.0869072, 22.5706357], [114.0869074, 22.5705547], [114.086953, 22.5705548], [114.0869531, 22.5705153], [114.087006, 22.5705154], [114.0870061, 22.5705056], [114.0870906, 22.5705058], [114.0870906, 22.5705139], [114.0871405, 22.5705141], [114.0871404, 22.5705444], [114.0871963, 22.5705446], [114.087196, 22.5706365], [114.087186, 22.5706365], [114.0871859, 22.5706709], [114.0870919, 22.5706706], [114.0870918, 22.5706768], [114.0869954, 22.5706766], [114.0869954, 22.570669], [114.0869197, 22.5706688], [114.0869198, 22.5706357], [114.0869072, 22.5706357]]]]}}, {"type": "Feature", "id": "way/1378651124", "properties": {"tags": {"building": "apartments", "name": "4栋"}, "heightStatus": "unknown", "source": "OpenStreetMap", "license": "ODbL-1.0"}, "geometry": {"type": "MultiPolygon", "coordinates": [[[[114.0877189, 22.5697667], [114.0878521, 22.5697511], [114.0878521, 22.5697324], [114.0877864, 22.569734], [114.087783, 22.5696593], [114.0879967, 22.5696672], [114.0879937, 22.5697355], [114.0879246, 22.5697355], [114.0879246, 22.5697542], [114.0880561, 22.5697573], [114.0880544, 22.5698429], [114.0879111, 22.5698367], [114.0878521, 22.5698367], [114.0877307, 22.5698523], [114.0877189, 22.5697667]]]]}}, {"type": "Feature", "id": "way/1378651125", "properties": {"tags": {"building": "apartments", "name": "3栋"}, "heightStatus": "unknown", "source": "OpenStreetMap", "license": "ODbL-1.0"}, "geometry": {"type": "MultiPolygon", "coordinates": [[[[114.0872597, 22.5697948], [114.0873897, 22.5697573], [114.0873904, 22.5697361], [114.0873415, 22.569735], [114.0873392, 22.5696685], [114.0875277, 22.5696672], [114.0875254, 22.5697362], [114.0874697, 22.569738], [114.0874696, 22.5697591], [114.0875958, 22.5697817], [114.0875806, 22.5698531], [114.0874673, 22.5698296], [114.0873836, 22.5698286], [114.0872901, 22.5698603], [114.0872597, 22.5697948]]]]}}, {"type": "Feature", "id": "way/1378651126", "properties": {"tags": {"building": "apartments", "name": "2栋"}, "heightStatus": "unknown", "source": "OpenStreetMap", "license": "ODbL-1.0"}, "geometry": {"type": "MultiPolygon", "coordinates": [[[[114.086821, 22.5698491], [114.0869166, 22.569806], [114.0868975, 22.5697736], [114.0868678, 22.5697893], [114.0868338, 22.5697373], [114.087008, 22.5696756], [114.0870366, 22.5697217], [114.086992, 22.5697423], [114.0870111, 22.5697746], [114.0871227, 22.5697687], [114.0871227, 22.5698482], [114.0870048, 22.5698511], [114.0869572, 22.5698633], [114.0868593, 22.5699041], [114.086821, 22.5698491]]]]}}, {"type": "Feature", "id": "way/1378816250", "properties": {"tags": {"building": "apartments", "name": "2栋"}, "heightStatus": "unknown", "source": "OpenStreetMap", "license": "ODbL-1.0"}, "geometry": {"type": "MultiPolygon", "coordinates": [[[[114.0918265, 22.5713072], [114.0918507, 22.5712279], [114.0922813, 22.5713401], [114.0922573, 22.5714187], [114.0922143, 22.5714075], [114.0922093, 22.5714238], [114.0921293, 22.571403], [114.092134, 22.5713875], [114.0920682, 22.5713703], [114.0920634, 22.571386], [114.091989, 22.5713667], [114.0919938, 22.5713509], [114.0919248, 22.571333], [114.0919205, 22.5713474], [114.0918491, 22.5713287], [114.0918535, 22.5713144], [114.0918265, 22.5713072]]]]}}, {"type": "Feature", "id": "way/1378817000", "properties": {"tags": {"building": "apartments", "name": "2栋"}, "heightStatus": "unknown", "source": "OpenStreetMap", "license": "ODbL-1.0"}, "geometry": {"type": "MultiPolygon", "coordinates": [[[[114.0925465, 22.5711934], [114.0925598, 22.5710936], [114.0926175, 22.5711002], [114.0926192, 22.5710874], [114.0926968, 22.5710963], [114.0926949, 22.5711106], [114.0927853, 22.5711209], [114.0927871, 22.571107], [114.0928657, 22.571116], [114.0928634, 22.5711328], [114.0929563, 22.5711435], [114.0929582, 22.5711296], [114.0930293, 22.5711377], [114.0930274, 22.5711521], [114.0930821, 22.5711584], [114.093071, 22.5712404], [114.0930485, 22.5712378], [114.093039, 22.5713083], [114.0929928, 22.571303], [114.0929911, 22.5713158], [114.0929272, 22.5713084], [114.0929285, 22.5712984], [114.0928303, 22.5712871], [114.0928288, 22.571298], [114.0927601, 22.5712901], [114.0927617, 22.5712785], [114.0926682, 22.5712677], [114.0926633, 22.5712773], [114.0925927, 22.5712692], [114.0925941, 22.5712588], [114.0925536, 22.5712542], [114.0925615, 22.5711951], [114.0925465, 22.5711934]]]]}}, {"type": "Feature", "id": "way/1378817001", "properties": {"tags": {"building": "apartments", "name": "1栋"}, "heightStatus": "unknown", "source": "OpenStreetMap", "license": "ODbL-1.0"}, "geometry": {"type": "MultiPolygon", "coordinates": [[[[114.0924754, 22.5715354], [114.0924935, 22.5714783], [114.0924789, 22.5714744], [114.0925096, 22.5713777], [114.0925653, 22.5713928], [114.0925693, 22.5713804], [114.0926447, 22.5714008], [114.0926404, 22.5714146], [114.0927272, 22.571438], [114.0927314, 22.5714246], [114.0928082, 22.5714453], [114.092803, 22.5714616], [114.0928919, 22.5714856], [114.0928961, 22.5714721], [114.0929661, 22.571491], [114.0929617, 22.5715049], [114.0930404, 22.5715262], [114.0930453, 22.5715107], [114.0931261, 22.5715326], [114.0931216, 22.5715468], [114.0931699, 22.5715599], [114.0931445, 22.57164], [114.0931259, 22.571635], [114.0931042, 22.5717032], [114.0930749, 22.5716952], [114.0930717, 22.5717055], [114.092985, 22.571682], [114.092988, 22.5716725], [114.0929001, 22.5716487], [114.0928961, 22.5716611], [114.092835, 22.5716445], [114.0928381, 22.5716348], [114.0927426, 22.5716089], [114.0927392, 22.5716195], [114.0926731, 22.5716016], [114.0926766, 22.5715904], [114.0925862, 22.5715658], [114.0925797, 22.5715745], [114.0925114, 22.5715561], [114.0925145, 22.571546], [114.0924754, 22.5715354]]]]}}, {"type": "Feature", "id": "way/1378887617", "properties": {"tags": {"building": "yes"}, "heightStatus": "unknown", "source": "OpenStreetMap", "license": "ODbL-1.0"}, "geometry": {"type": "MultiPolygon", "coordinates": [[[[114.0881421, 22.5674686], [114.0881505, 22.5674394], [114.0881575, 22.5674148], [114.088196, 22.5674242], [114.0881839, 22.5674667], [114.0881807, 22.567478], [114.0881421, 22.5674686]]]]}}, {"type": "Feature", "id": "way/1380249708", "properties": {"tags": {"building": "commercial"}, "heightStatus": "unknown", "source": "OpenStreetMap", "license": "ODbL-1.0"}, "geometry": {"type": "MultiPolygon", "coordinates": [[[[114.0920858, 22.570794], [114.0921027, 22.5706869], [114.0922064, 22.5707009], [114.0921895, 22.570808], [114.0920858, 22.570794]]]]}}, {"type": "Feature", "id": "way/1380249713", "properties": {"tags": {"building": "commercial"}, "heightStatus": "unknown", "source": "OpenStreetMap", "license": "ODbL-1.0"}, "geometry": {"type": "MultiPolygon", "coordinates": [[[[114.0922203, 22.5708914], [114.0922448, 22.5707086], [114.0923534, 22.5707209], [114.092329, 22.5709038], [114.0922203, 22.5708914]]]]}}, {"type": "Feature", "id": "way/1380249714", "properties": {"tags": {"building": "commercial"}, "heightStatus": "unknown", "source": "OpenStreetMap", "license": "ODbL-1.0"}, "geometry": {"type": "MultiPolygon", "coordinates": [[[[114.0923592, 22.5709932], [114.0923983, 22.5707255], [114.0924981, 22.570738], [114.092462, 22.5709842], [114.09241, 22.570978], [114.0924074, 22.5709989], [114.0923592, 22.5709932]]]]}}, {"type": "Feature", "id": "way/1380249715", "properties": {"tags": {"building": "commercial"}, "heightStatus": "unknown", "source": "OpenStreetMap", "license": "ODbL-1.0"}, "geometry": {"type": "MultiPolygon", "coordinates": [[[[114.092512, 22.5710441], [114.0925557, 22.5707387], [114.092655, 22.5707328], [114.0926123, 22.5710461], [114.0925792, 22.5710422], [114.0925771, 22.571053], [114.092512, 22.5710441]]]]}}, {"type": "Feature", "id": "way/1380249716", "properties": {"tags": {"building": "commercial"}, "heightStatus": "unknown", "source": "OpenStreetMap", "license": "ODbL-1.0"}, "geometry": {"type": "MultiPolygon", "coordinates": [[[[114.0926714, 22.5710426], [114.0927216, 22.5707219], [114.0928355, 22.5707371], [114.0927891, 22.5710329], [114.0927529, 22.571028], [114.092749, 22.571053], [114.0926714, 22.5710426]]]]}}, {"type": "Feature", "id": "way/1473808881", "properties": {"tags": {"building": "residential", "name": "1栋"}, "heightStatus": "unknown", "source": "OpenStreetMap", "license": "ODbL-1.0"}, "geometry": {"type": "MultiPolygon", "coordinates": [[[[114.0917764, 22.5692394], [114.0924202, 22.5691099], [114.0924438, 22.5692051], [114.0918001, 22.569333], [114.0917764, 22.5692394]]]]}}, {"type": "Feature", "id": "way/1473808882", "properties": {"tags": {"building": "residential", "name": "2栋"}, "heightStatus": "unknown", "source": "OpenStreetMap", "license": "ODbL-1.0"}, "geometry": {"type": "MultiPolygon", "coordinates": [[[[114.0924821, 22.5691007], [114.0929534, 22.5690065], [114.0929746, 22.569097], [114.0925033, 22.5691913], [114.0924821, 22.5691007]]]]}}]}