{"type": "FeatureCollection", "features": [{"type": "Feature", "id": "way/617585468", "properties": {"tags": {"addr:housename": "中海·鹿丹名苑", "addr:housename:en": "COC Ludan Garden", "addr:housename:zh": "中海·鹿丹名苑", "building": "apartments", "building:levels": "29", "name": "7栋", "name:en": "Block 7", "name:zh": "7栋"}, "heightStatus": "levels_only_unverified", "source": "OpenStreetMap", "license": "ODbL-1.0"}, "geometry": {"type": "MultiPolygon", "coordinates": [[[[114.1002759, 22.5360007], [114.1002881, 22.5359977], [114.100283, 22.5359801], [114.1003305, 22.5359683], [114.1003357, 22.5359859], [114.1003672, 22.5359781], [114.1003721, 22.5359167], [114.1003333, 22.5359141], [114.100335, 22.5358939], [114.1003156, 22.5358925], [114.1003201, 22.5358362], [114.1003783, 22.5358401], [114.1003797, 22.5358228], [114.1004565, 22.5358281], [114.1004551, 22.5358454], [114.1005133, 22.5358494], [114.1005088, 22.5359058], [114.1004894, 22.5359045], [114.1004877, 22.5359246], [114.1004489, 22.535922], [114.100444, 22.5359834], [114.1004739, 22.5359954], [114.1004818, 22.5359787], [114.100527, 22.5359968], [114.1005191, 22.5360135], [114.1005608, 22.5360303], [114.1005336, 22.5360881], [114.1005034, 22.536076], [114.1004944, 22.5360951], [114.1004265, 22.5360678], [114.1004387, 22.5360418], [114.1003631, 22.5360366], [114.1003711, 22.536064], [114.1002995, 22.5360817], [114.1002759, 22.5360007]]]]}}]}