{"type": "FeatureCollection", "features": [{"type": "Feature", "id": "way/243511449", "properties": {"tags": {"addr:city": "深圳市", "addr:district": "罗湖区", "addr:housenumber": "5047", "addr:postcode": "518031", "addr:province": "广东省", "addr:street": "深南东路", "atm": "yes", "building": "commercial", "building:levels": "35", "drive_through": "yes", "height": "183.80", "name": "平安银行大厦", "name:en": "Ping An Bank Building", "name:zh": "平安银行大厦", "old_name": "深圳发展银行大厦;深发展大厦", "old_name:en": "Shenzhen Development Bank Building", "old_name:zh": "深圳发展银行大厦", "start_date": "1997-01-18", "wikidata": "Q64211384", "wikipedia": "zh:平安银行大厦"}, "heightStatus": "height_tag_unverified", "source": "OpenStreetMap", "license": "ODbL-1.0"}, "geometry": {"type": "MultiPolygon", "coordinates": [[[[114.1020998, 22.543255], [114.1021255, 22.5431481], [114.1021553, 22.543024], [114.1021794, 22.5429237], [114.1022861, 22.5429456], [114.102393, 22.5429675], [114.1024997, 22.5429893], [114.1026065, 22.5430112], [114.1026453, 22.5430192], [114.1028506, 22.5430612], [114.1028659, 22.5430644], [114.1030423, 22.5431005], [114.1029627, 22.5434318], [114.1027863, 22.5433957], [114.102771, 22.5433925], [114.1025658, 22.5433505], [114.1025271, 22.5433425], [114.1024202, 22.5433206], [114.1023134, 22.5432988], [114.1022066, 22.5432769], [114.1020998, 22.543255]]]]}}, {"type": "Feature", "id": "way/389143927", "properties": {"tags": {"alt_name": "金融中心东座", "building": "commercial", "building:levels": "30", "name": "中国建设银行大厦"}, "heightStatus": "levels_only_unverified", "source": "OpenStreetMap", "license": "ODbL-1.0"}, "geometry": {"type": "MultiPolygon", "coordinates": [[[[114.1009246, 22.5424389], [114.1009291, 22.542183], [114.1012583, 22.5421879], [114.1012538, 22.5424439], [114.1009246, 22.5424389]]]]}}, {"type": "Feature", "id": "way/389143928", "properties": {"tags": {"addr:city": "深圳市", "addr:district": "罗湖区", "addr:province": "广东省", "building": "commercial", "name": "金融中心大厦"}, "heightStatus": "unknown", "source": "OpenStreetMap", "license": "ODbL-1.0"}, "geometry": {"type": "MultiPolygon", "coordinates": [[[[114.1002342, 22.5427227], [114.1002367, 22.5424638], [114.1003083, 22.5424267], [114.1003096, 22.5423635], [114.1003114, 22.5419132], [114.100713, 22.5416962], [114.1012082, 22.5419602], [114.1012785, 22.5419269], [114.1015834, 22.5421051], [114.1015813, 22.5421986], [114.1015075, 22.5422374], [114.1015061, 22.5422955], [114.1016384, 22.5422961], [114.1016384, 22.5424023], [114.1015046, 22.5424012], [114.1015039, 22.5424401], [114.101575, 22.5424833], [114.1015712, 22.5426513], [114.1014136, 22.5427326], [114.1013766, 22.5427227], [114.1013188, 22.5427525], [114.1013664, 22.5428294], [114.1012381, 22.5428961], [114.1011891, 22.5428193], [114.1010342, 22.542899], [114.1010321, 22.5429274], [114.1008989, 22.5429957], [114.1007471, 22.5429162], [114.1006522, 22.5429645], [114.1002342, 22.5427227]]]]}}, {"type": "Feature", "id": "way/413131417", "properties": {"tags": {"building": "train_station", "building:levels": "0", "building:levels:underground": "2", "layer": "-1", "location": "underground", "name": "大剧院/红岭南出站换乘通道", "name:en": "Grand Theater/Hongling South Station Transfer Corridor", "name:zh": "大剧院/红岭南出站换乘通道"}, "heightStatus": "levels_only_unverified", "source": "OpenStreetMap", "license": "ODbL-1.0"}, "geometry": {"type": "MultiPolygon", "coordinates": [[[[114.1000921, 22.5429915], [114.1001385, 22.5429456], [114.1003815, 22.5431675], [114.1007567, 22.5432753], [114.100744, 22.5433217], [114.1015573, 22.54356], [114.1015632, 22.5435373], [114.1016338, 22.5435494], [114.1016273, 22.5435764], [114.1018394, 22.5436422], [114.1019419, 22.5436741], [114.1020203, 22.5436984], [114.1020067, 22.5437383], [114.1019929, 22.5437788], [114.1007137, 22.5434108], [114.1007087, 22.5434249], [114.1004464, 22.5433474], [114.100478, 22.5432678], [114.1003551, 22.5432301], [114.1001285, 22.5430272], [114.1001118, 22.5430108], [114.1000921, 22.5429915]]]]}}, {"type": "Feature", "id": "way/617585412", "properties": {"tags": {"building": "apartments"}, "heightStatus": "unknown", "source": "OpenStreetMap", "license": "ODbL-1.0"}, "geometry": {"type": "MultiPolygon", "coordinates": [[[[114.1004589, 22.5398788], [114.1008623, 22.5398769], [114.1008627, 22.5399498], [114.1004593, 22.5399516], [114.1004589, 22.5398788]]]]}}, {"type": "Feature", "id": "way/617585413", "properties": {"tags": {"building": "apartments"}, "heightStatus": "unknown", "source": "OpenStreetMap", "license": "ODbL-1.0"}, "geometry": {"type": "MultiPolygon", "coordinates": [[[[114.1000008, 22.5398819], [114.1004041, 22.5398801], [114.1004045, 22.5399529], [114.1000012, 22.5399547], [114.1000008, 22.5398819]]]]}}, {"type": "Feature", "id": "way/617585414", "properties": {"tags": {"building": "apartments"}, "heightStatus": "unknown", "source": "OpenStreetMap", "license": "ODbL-1.0"}, "geometry": {"type": "MultiPolygon", "coordinates": [[[[114.1000184, 22.5396652], [114.1004217, 22.5396634], [114.1004221, 22.5397362], [114.1000188, 22.539738], [114.1000184, 22.5396652]]]]}}, {"type": "Feature", "id": "way/617585415", "properties": {"tags": {"building": "apartments"}, "heightStatus": "unknown", "source": "OpenStreetMap", "license": "ODbL-1.0"}, "geometry": {"type": "MultiPolygon", "coordinates": [[[[114.1005784, 22.5396448], [114.1009818, 22.539643], [114.1009822, 22.5397158], [114.1005788, 22.5397176], [114.1005784, 22.5396448]]]]}}, {"type": "Feature", "id": "way/617585416", "properties": {"tags": {"building": "apartments"}, "heightStatus": "unknown", "source": "OpenStreetMap", "license": "ODbL-1.0"}, "geometry": {"type": "MultiPolygon", "coordinates": [[[[114.1000137, 22.5394461], [114.100417, 22.5394443], [114.1004174, 22.5395171], [114.1000141, 22.5395189], [114.1000137, 22.5394461]]]]}}, {"type": "Feature", "id": "way/617585417", "properties": {"tags": {"building": "apartments"}, "heightStatus": "unknown", "source": "OpenStreetMap", "license": "ODbL-1.0"}, "geometry": {"type": "MultiPolygon", "coordinates": [[[[114.1004568, 22.5394461], [114.1008601, 22.5394443], [114.1008605, 22.5395171], [114.1004572, 22.5395189], [114.1004568, 22.5394461]]]]}}, {"type": "Feature", "id": "way/617585418", "properties": {"tags": {"building": "school"}, "heightStatus": "unknown", "source": "OpenStreetMap", "license": "ODbL-1.0"}, "geometry": {"type": "MultiPolygon", "coordinates": [[[[114.0999366, 22.5391679], [114.1000738, 22.5391675], [114.1000728, 22.5388791], [114.0999508, 22.5388794], [114.0999502, 22.5387085], [114.1002023, 22.5387078], [114.100203, 22.5388835], [114.1001657, 22.5388836], [114.1001667, 22.539176], [114.1009655, 22.5391736], [114.1009658, 22.5392645], [114.0999369, 22.5392675], [114.0999366, 22.5391679]]]]}}, {"type": "Feature", "id": "way/617585422", "properties": {"tags": {"building": "yes"}, "heightStatus": "unknown", "source": "OpenStreetMap", "license": "ODbL-1.0"}, "geometry": {"type": "MultiPolygon", "coordinates": [[[[114.1008295, 22.5386679], [114.101327, 22.5386629], [114.1013284, 22.5387657], [114.1008349, 22.538762], [114.1008295, 22.5386679]]]]}}, {"type": "Feature", "id": "way/617585423", "properties": {"tags": {"building": "yes"}, "heightStatus": "unknown", "source": "OpenStreetMap", "license": "ODbL-1.0"}, "geometry": {"type": "MultiPolygon", "coordinates": [[[[114.1013618, 22.5386713], [114.1018475, 22.5386745], [114.101844, 22.5387511], [114.1013665, 22.5387489], [114.1013618, 22.5386713]]]]}}, {"type": "Feature", "id": "way/617585424", "properties": {"tags": {"building": "yes"}, "heightStatus": "unknown", "source": "OpenStreetMap", "license": "ODbL-1.0"}, "geometry": {"type": "MultiPolygon", "coordinates": [[[[114.1018475, 22.5388509], [114.10185, 22.538743], [114.1019238, 22.5387444], [114.1019251, 22.5386839], [114.1019879, 22.5386851], [114.1019874, 22.5387065], [114.1023251, 22.5387127], [114.1023632, 22.5387133], [114.1023617, 22.538729], [114.102361, 22.5387586], [114.102429, 22.53876], [114.1024282, 22.5387911], [114.1024466, 22.5387915], [114.102445, 22.5388626], [114.1018475, 22.5388509]]]]}}, {"type": "Feature", "id": "way/617585425", "properties": {"tags": {"building": "yes"}, "heightStatus": "unknown", "source": "OpenStreetMap", "license": "ODbL-1.0"}, "geometry": {"type": "MultiPolygon", "coordinates": [[[[114.1008494, 22.5389085], [114.1011594, 22.5389104], [114.1011583, 22.5389864], [114.1008494, 22.5389864], [114.1008494, 22.5389085]]]]}}, {"type": "Feature", "id": "way/617585426", "properties": {"tags": {"building": "yes"}, "heightStatus": "unknown", "source": "OpenStreetMap", "license": "ODbL-1.0"}, "geometry": {"type": "MultiPolygon", "coordinates": [[[[114.1010756, 22.5394784], [114.1010776, 22.5393959], [114.1014469, 22.5394035], [114.1014449, 22.539486], [114.1010756, 22.5394784]]]]}}, {"type": "Feature", "id": "way/617585427", "properties": {"tags": {"building": "yes"}, "heightStatus": "unknown", "source": "OpenStreetMap", "license": "ODbL-1.0"}, "geometry": {"type": "MultiPolygon", "coordinates": [[[[114.1011252, 22.5396517], [114.1011794, 22.5396509], [114.1011791, 22.5396338], [114.1012288, 22.5396331], [114.1012291, 22.5396525], [114.1013377, 22.5396509], [114.1013371, 22.5396164], [114.1013961, 22.5396155], [114.1013964, 22.5396348], [114.1014519, 22.539634], [114.1014533, 22.5397216], [114.1013803, 22.5397226], [114.1013805, 22.5397346], [114.1013315, 22.5397353], [114.1013312, 22.5397196], [114.1012349, 22.539721], [114.1012352, 22.5397361], [114.1011855, 22.5397368], [114.1011851, 22.5397146], [114.1011263, 22.5397155], [114.1011252, 22.5396517]]]]}}, {"type": "Feature", "id": "way/617585435", "properties": {"tags": {"building": "apartments"}, "heightStatus": "unknown", "source": "OpenStreetMap", "license": "ODbL-1.0"}, "geometry": {"type": "MultiPolygon", "coordinates": [[[[114.1015415, 22.5397314], [114.1015428, 22.539685], [114.1015803, 22.5396859], [114.1015812, 22.5396531], [114.1017371, 22.539657], [114.1017362, 22.5396852], [114.1017781, 22.5396863], [114.1017765, 22.5397409], [114.1016829, 22.5397385], [114.1016819, 22.5397743], [114.1016393, 22.5397733], [114.1016404, 22.5397339], [114.1015415, 22.5397314]]]]}}, {"type": "Feature", "id": "way/617585436", "properties": {"tags": {"building": "yes"}, "heightStatus": "unknown", "source": "OpenStreetMap", "license": "ODbL-1.0"}, "geometry": {"type": "MultiPolygon", "coordinates": [[[[114.1018523, 22.5396982], [114.1018558, 22.5395177], [114.1019338, 22.539519], [114.1019316, 22.5396301], [114.1019842, 22.539631], [114.1019838, 22.5396527], [114.1021355, 22.5396552], [114.1021342, 22.5397212], [114.1019692, 22.5397185], [114.1019688, 22.5397395], [114.1019327, 22.5397389], [114.1019334, 22.5396995], [114.1018523, 22.5396982]]]]}}, {"type": "Feature", "id": "way/617585437", "properties": {"tags": {"building": "yes"}, "heightStatus": "unknown", "source": "OpenStreetMap", "license": "ODbL-1.0"}, "geometry": {"type": "MultiPolygon", "coordinates": [[[[114.1019257, 22.5394093], [114.1019307, 22.5393261], [114.1024232, 22.5393513], [114.1024182, 22.5394345], [114.1019257, 22.5394093]]]]}}, {"type": "Feature", "id": "way/617585438", "properties": {"tags": {"building": "yes"}, "heightStatus": "unknown", "source": "OpenStreetMap", "license": "ODbL-1.0"}, "geometry": {"type": "MultiPolygon", "coordinates": [[[[114.1019139, 22.5391128], [114.1019183, 22.5390272], [114.1024251, 22.5390492], [114.1024207, 22.5391348], [114.1019139, 22.5391128]]]]}}, {"type": "Feature", "id": "way/617585439", "properties": {"tags": {"building": "yes"}, "heightStatus": "unknown", "source": "OpenStreetMap", "license": "ODbL-1.0"}, "geometry": {"type": "MultiPolygon", "coordinates": [[[[114.1014083, 22.5389992], [114.1014094, 22.5388152], [114.1015954, 22.5388162], [114.1015952, 22.5388545], [114.1015094, 22.5388541], [114.1015085, 22.5389997], [114.1014083, 22.5389992]]]]}}, {"type": "Feature", "id": "way/617585440", "properties": {"tags": {"building": "yes"}, "heightStatus": "unknown", "source": "OpenStreetMap", "license": "ODbL-1.0"}, "geometry": {"type": "MultiPolygon", "coordinates": [[[[114.101503, 22.5390504], [114.1018693, 22.5390468], [114.1018705, 22.5391513], [114.1016208, 22.5391527], [114.1015553, 22.539153], [114.1015042, 22.5391549], [114.101503, 22.5390504]]]]}}, {"type": "Feature", "id": "way/617585441", "properties": {"tags": {"building": "yes"}, "heightStatus": "unknown", "source": "OpenStreetMap", "license": "ODbL-1.0"}, "geometry": {"type": "MultiPolygon", "coordinates": [[[[114.1015553, 22.539153], [114.1016208, 22.5391527], [114.101621, 22.5392075], [114.1016619, 22.5392485], [114.101803, 22.5392454], [114.1018056, 22.5393468], [114.1016235, 22.5393508], [114.1016222, 22.5393003], [114.1015556, 22.5392377], [114.1015553, 22.539153]]]]}}, {"type": "Feature", "id": "way/617585442", "properties": {"tags": {"building": "yes"}, "heightStatus": "unknown", "source": "OpenStreetMap", "license": "ODbL-1.0"}, "geometry": {"type": "MultiPolygon", "coordinates": [[[[114.1021841, 22.5397393], [114.1021858, 22.539666], [114.1022788, 22.5396679], [114.10228, 22.5396194], [114.1024, 22.5396218], [114.1023995, 22.5396401], [114.1023829, 22.5396398], [114.102382, 22.5396774], [114.1024298, 22.5396783], [114.1024283, 22.5397443], [114.1021841, 22.5397393]]]]}}, {"type": "Feature", "id": "way/617585443", "properties": {"tags": {"building": "yes"}, "heightStatus": "unknown", "source": "OpenStreetMap", "license": "ODbL-1.0"}, "geometry": {"type": "MultiPolygon", "coordinates": [[[[114.1011636, 22.5392423], [114.1011647, 22.5391945], [114.1012551, 22.5391963], [114.1012543, 22.5392305], [114.1013275, 22.5392319], [114.1013282, 22.5391982], [114.1014079, 22.5391998], [114.1014057, 22.5392914], [114.1013084, 22.5392895], [114.1013091, 22.5392574], [114.1012869, 22.539257], [114.1012862, 22.5392866], [114.1012092, 22.5392851], [114.1012101, 22.5392432], [114.1011636, 22.5392423]]]]}}, {"type": "Feature", "id": "way/617585444", "properties": {"tags": {"building": "yes"}, "heightStatus": "unknown", "source": "OpenStreetMap", "license": "ODbL-1.0"}, "geometry": {"type": "MultiPolygon", "coordinates": [[[[114.1012124, 22.5391661], [114.1012136, 22.5390906], [114.1013601, 22.5390927], [114.1013597, 22.5391176], [114.1014172, 22.5391397], [114.1013915, 22.5391699], [114.1013431, 22.5391693], [114.1013428, 22.5391821], [114.101247, 22.5391808], [114.1012473, 22.5391666], [114.1012124, 22.5391661]]]]}}, {"type": "Feature", "id": "way/617585466", "properties": {"tags": {"addr:housename": "中海·鹿丹名苑", "addr:housename:en": "COC Ludan Garden", "addr:housename:zh": "中海·鹿丹名苑", "building": "apartments", "building:levels": "29", "name": "4栋", "name:en": "Block 4", "name:zh": "4栋"}, "heightStatus": "levels_only_unverified", "source": "OpenStreetMap", "license": "ODbL-1.0"}, "geometry": {"type": "MultiPolygon", "coordinates": [[[[114.1018271, 22.5362633], [114.1018859, 22.5362547], [114.1018828, 22.5362367], [114.1019315, 22.5362296], [114.1019346, 22.5362476], [114.1019668, 22.5362429], [114.1019787, 22.5361824], [114.1019404, 22.5361759], [114.1019444, 22.536156], [114.1019252, 22.5361528], [114.1019362, 22.5360972], [114.1019936, 22.5361068], [114.101997, 22.5360897], [114.1020727, 22.5361024], [114.1020694, 22.5361195], [114.1021268, 22.5361292], [114.1021158, 22.5361848], [114.1020967, 22.5361816], [114.1020928, 22.5362015], [114.1020545, 22.5361951], [114.1020426, 22.5362556], [114.102071, 22.5362705], [114.1020807, 22.5362546], [114.1021236, 22.5362771], [114.1021138, 22.536293], [114.1021534, 22.5363137], [114.1021197, 22.5363686], [114.1020911, 22.5363536], [114.1020799, 22.5363717], [114.1020155, 22.5363379], [114.1020307, 22.5363132], [114.101956, 22.5363007], [114.1019608, 22.5363287], [114.1018413, 22.5363461], [114.1018271, 22.5362633]]]]}}, {"type": "Feature", "id": "way/617585467", "properties": {"tags": {"addr:housename": "中海·鹿丹名苑", "addr:housename:en": "COC Ludan Garden", "addr:housename:zh": "中海·鹿丹名苑", "building": "apartments", "building:levels": "29", "name": "3栋", "name:en": "Block 3", "name:zh": "3栋"}, "heightStatus": "levels_only_unverified", "source": "OpenStreetMap", "license": "ODbL-1.0"}, "geometry": {"type": "MultiPolygon", "coordinates": [[[[114.1022868, 22.536339], [114.1023317, 22.5363324], [114.1023286, 22.5363144], [114.1023773, 22.5363073], [114.1023804, 22.5363253], [114.1024126, 22.5363206], [114.1024246, 22.5362601], [114.1023863, 22.5362536], [114.1023902, 22.5362337], [114.1023711, 22.5362305], [114.102382, 22.5361749], [114.1024394, 22.5361845], [114.1024428, 22.5361674], [114.1025186, 22.5361802], [114.1025152, 22.5361973], [114.1025726, 22.5362069], [114.1025617, 22.5362625], [114.1025425, 22.5362593], [114.1025386, 22.5362792], [114.1025003, 22.5362728], [114.1024884, 22.5363333], [114.1025168, 22.5363482], [114.1025266, 22.5363324], [114.1025694, 22.5363548], [114.1025597, 22.5363707], [114.1026114, 22.5363978], [114.1025665, 22.5364708], [114.1024613, 22.5364156], [114.1024765, 22.5363909], [114.1024019, 22.5363784], [114.1024067, 22.5364064], [114.1023335, 22.5364171], [114.1023299, 22.5363965], [114.1022975, 22.5364013], [114.1022868, 22.536339]]]]}}, {"type": "Feature", "id": "way/617585469", "properties": {"tags": {"addr:housename": "中海·鹿丹名苑", "addr:housename:en": "COC Ludan Garden", "addr:housename:zh": "中海·鹿丹名苑", "building": "apartments", "building:levels": "29", "name": "6B栋", "name:en": "Block 6B", "name:zh": "6B栋"}, "heightStatus": "levels_only_unverified", "source": "OpenStreetMap", "license": "ODbL-1.0"}, "geometry": {"type": "MultiPolygon", "coordinates": [[[[114.1022276, 22.5370343], [114.1022711, 22.5370333], [114.1022706, 22.537015], [114.1023198, 22.5370139], [114.1023203, 22.5370321], [114.102353, 22.5370313], [114.1023733, 22.5369727], [114.1023363, 22.5369617], [114.102343, 22.5369425], [114.1023244, 22.536937], [114.1023431, 22.5368831], [114.1023987, 22.5368996], [114.1024044, 22.5368831], [114.1024778, 22.5369048], [114.102472, 22.5369213], [114.1025276, 22.5369378], [114.1025089, 22.5369916], [114.1024904, 22.5369861], [114.1024837, 22.5370054], [114.1024467, 22.5369944], [114.1024263, 22.537053], [114.1024524, 22.5370712], [114.1024643, 22.5370567], [114.1025036, 22.5370841], [114.1024917, 22.5370986], [114.1025322, 22.5371269], [114.1024774, 22.5371938], [114.1023878, 22.5371314], [114.1024064, 22.5371087], [114.1023341, 22.5370873], [114.1023349, 22.5371157], [114.10223, 22.5371182], [114.1022276, 22.5370343]]]]}}, {"type": "Feature", "id": "way/617585470", "properties": {"tags": {"addr:housename": "中海·鹿丹名苑", "addr:housename:en": "COC Ludan Garden", "addr:housename:zh": "中海·鹿丹名苑", "building": "apartments", "building:levels": "29", "name": "6A栋", "name:en": "Block 6A", "name:zh": "6A栋"}, "heightStatus": "levels_only_unverified", "source": "OpenStreetMap", "license": "ODbL-1.0"}, "geometry": {"type": "MultiPolygon", "coordinates": [[[[114.101831, 22.5371191], [114.1018691, 22.5370961], [114.1018583, 22.5370809], [114.1018995, 22.537056], [114.1019103, 22.5370712], [114.1019377, 22.5370547], [114.1019217, 22.536995], [114.1018839, 22.5370036], [114.1018786, 22.536984], [114.1018597, 22.5369883], [114.101845, 22.5369334], [114.1019017, 22.5369205], [114.1018972, 22.5369036], [114.1019719, 22.5368865], [114.1019765, 22.5369034], [114.1020331, 22.5368904], [114.1020478, 22.5369453], [114.1020289, 22.5369496], [114.1020342, 22.5369693], [114.1019964, 22.5369779], [114.1020124, 22.5370377], [114.1020449, 22.5370405], [114.1020468, 22.5370223], [114.1020958, 22.5370266], [114.102094, 22.5370447], [114.1021393, 22.5370487], [114.1021329, 22.5371115], [114.1021001, 22.5371086], [114.102098, 22.5371294], [114.1020242, 22.537123], [114.1020271, 22.5370947], [114.1019535, 22.5371115], [114.1019703, 22.5371353], [114.1019083, 22.5371727], [114.1018959, 22.5371553], [114.1018684, 22.5371719], [114.101831, 22.5371191]]]]}}, {"type": "Feature", "id": "way/617585471", "properties": {"tags": {"addr:housename": "中海·鹿丹名苑", "addr:housename:en": "COC Ludan Garden", "addr:housename:zh": "中海·鹿丹名苑", "building": "apartments", "building:levels": "29", "name": "5栋", "name:en": "Block 5", "name:zh": "5栋"}, "heightStatus": "levels_only_unverified", "source": "OpenStreetMap", "license": "ODbL-1.0"}, "geometry": {"type": "MultiPolygon", "coordinates": [[[[114.1009875, 22.536121], [114.1010012, 22.5360592], [114.1010458, 22.5360676], [114.1010497, 22.5360498], [114.101098, 22.5360589], [114.101094, 22.5360768], [114.101126, 22.5360829], [114.1011602, 22.53603], [114.1011268, 22.5360116], [114.1011381, 22.5359942], [114.1011214, 22.535985], [114.1011528, 22.5359365], [114.1012029, 22.5359641], [114.1012125, 22.5359492], [114.1012786, 22.5359857], [114.101269, 22.5360007], [114.1013191, 22.5360283], [114.1012876, 22.5360769], [114.101271, 22.5360676], [114.1012597, 22.536085], [114.1012263, 22.5360666], [114.1011921, 22.5361194], [114.101213, 22.5361425], [114.1012282, 22.5361308], [114.1012598, 22.5361658], [114.1012446, 22.5361775], [114.1012737, 22.5362097], [114.1012213, 22.5362501], [114.1012002, 22.5362268], [114.1011829, 22.5362401], [114.1011354, 22.5361876], [114.101159, 22.5361694], [114.1010939, 22.5361335], [114.1010878, 22.5361613], [114.1010152, 22.5361475], [114.1010197, 22.5361271], [114.1009875, 22.536121]]]]}}, {"type": "Feature", "id": "way/617585472", "properties": {"tags": {"addr:housename": "中海·鹿丹名苑", "addr:housename:en": "COC Ludan Garden", "addr:housename:zh": "中海·鹿丹名苑", "building": "apartments", "building:levels": "29", "name": "8栋", "name:en": "Block 8", "name:zh": "8栋"}, "heightStatus": "levels_only_unverified", "source": "OpenStreetMap", "license": "ODbL-1.0"}, "geometry": {"type": "MultiPolygon", "coordinates": [[[[114.1010226, 22.5366157], [114.1010857, 22.5365364], [114.1013285, 22.5367011], [114.1012654, 22.5367804], [114.101187, 22.5367272], [114.1011415, 22.5367844], [114.1010694, 22.5367354], [114.1011149, 22.5366783], [114.1010226, 22.5366157]]]]}}, {"type": "Feature", "id": "way/617627079", "properties": {"tags": {"addr:housename": "中海·鹿丹名苑", "addr:housename:en": "COC Ludan Garden", "addr:housename:zh": "中海·鹿丹名苑", "building": "apartments", "building:levels": "29", "name": "9栋", "name:en": "Block 9", "name:zh": "9栋"}, "heightStatus": "levels_only_unverified", "source": "OpenStreetMap", "license": "ODbL-1.0"}, "geometry": {"type": "MultiPolygon", "coordinates": [[[[114.1011795, 22.5372759], [114.1012748, 22.5370703], [114.1013186, 22.5370876], [114.1013015, 22.5371246], [114.1013188, 22.5371314], [114.1013052, 22.5371607], [114.1013273, 22.5371694], [114.1014045, 22.5371361], [114.1014097, 22.5371129], [114.1013759, 22.5371065], [114.1013797, 22.5370895], [114.101337, 22.5370814], [114.1013466, 22.5370382], [114.1015838, 22.5370832], [114.101566, 22.5371634], [114.1015084, 22.5371525], [114.1015033, 22.5371753], [114.1014693, 22.5371688], [114.1014633, 22.5371957], [114.1013414, 22.5372483], [114.10132, 22.5372399], [114.1013073, 22.5372673], [114.1012842, 22.5372582], [114.1012611, 22.5373081], [114.1011795, 22.5372759]]]]}}, {"type": "Feature", "id": "way/665904271", "properties": {"tags": {"addr:housenumber": "5008", "addr:street": "深南东路", "building": "yes", "name": "农业银行大厦", "office": "yes"}, "heightStatus": "unknown", "source": "OpenStreetMap", "license": "ODbL-1.0"}, "geometry": {"type": "MultiPolygon", "coordinates": [[[[114.1013785, 22.5449311], [114.1013804, 22.5446574], [114.1013811, 22.5445633], [114.1016711, 22.544565], [114.1017012, 22.544567], [114.1017303, 22.5445739], [114.1017583, 22.5445884], [114.1017801, 22.5446056], [114.1017971, 22.5446307], [114.1018077, 22.5446599], [114.1018058, 22.5449337], [114.1016508, 22.5449328], [114.1013785, 22.5449311]]]]}}, {"type": "Feature", "id": "way/665904274", "properties": {"tags": {"building:levels": "9", "building:part": "yes"}, "heightStatus": "levels_only_unverified", "source": "OpenStreetMap", "license": "ODbL-1.0"}, "geometry": {"type": "MultiPolygon", "coordinates": [[[[114.1021388, 22.5450035], [114.102175, 22.5447997], [114.1022286, 22.5447871], [114.1022953, 22.5448402], [114.1023619, 22.5448293], [114.1024455, 22.5448304], [114.102522, 22.5448453], [114.1025819, 22.544864], [114.1026272, 22.5448992], [114.1027255, 22.5448738], [114.1027589, 22.5449069], [114.1027145, 22.5451162], [114.1026659, 22.5451322], [114.1026278, 22.5450981], [114.1025965, 22.5450701], [114.1025336, 22.545077], [114.102463, 22.5450769], [114.1023798, 22.545062], [114.1023163, 22.5450374], [114.1022592, 22.5450052], [114.1022175, 22.5450185], [114.102171, 22.5450334], [114.1021388, 22.5450035]]]]}}, {"type": "Feature", "id": "way/756810423", "properties": {"tags": {"alt_name": "金融中心南座", "building": "hotel", "building:levels": "30", "name": "晶都酒店"}, "heightStatus": "levels_only_unverified", "source": "OpenStreetMap", "license": "ODbL-1.0"}, "geometry": {"type": "MultiPolygon", "coordinates": [[[[114.1004807, 22.5419963], [114.1007264, 22.5418778], [114.1008787, 22.5421474], [114.100633, 22.5422658], [114.1004807, 22.5419963]]]]}}, {"type": "Feature", "id": "way/756810424", "properties": {"tags": {"alt_name": "金融中心北座", "building": "commercial", "building:levels": "30", "name": "工商银行大厦"}, "heightStatus": "levels_only_unverified", "source": "OpenStreetMap", "license": "ODbL-1.0"}, "geometry": {"type": "MultiPolygon", "coordinates": [[[[114.10046, 22.542594], [114.1006288, 22.5423329], [114.1008667, 22.5424641], [114.100698, 22.5427252], [114.10046, 22.542594]]]]}}, {"type": "Feature", "id": "way/756810425", "properties": {"tags": {"building": "commercial"}, "heightStatus": "unknown", "source": "OpenStreetMap", "license": "ODbL-1.0"}, "geometry": {"type": "MultiPolygon", "coordinates": [[[[114.0999475, 22.5421007], [114.0999496, 22.5419054], [114.1001366, 22.5418106], [114.1003114, 22.5419132], [114.1003096, 22.5423635], [114.1001833, 22.5421467], [114.1001061, 22.5421824], [114.0999475, 22.5421007]]]]}}, {"type": "Feature", "id": "way/756810449", "properties": {"tags": {"building": "commercial"}, "heightStatus": "unknown", "source": "OpenStreetMap", "license": "ODbL-1.0"}, "geometry": {"type": "MultiPolygon", "coordinates": [[[[114.1009914, 22.5415802], [114.1009917, 22.5413282], [114.1011943, 22.5413285], [114.1012847, 22.5412805], [114.1014303, 22.5413643], [114.1014304, 22.5412867], [114.10151, 22.5412868], [114.1015096, 22.5416243], [114.1012835, 22.5417264], [114.1010453, 22.5415811], [114.1009914, 22.5415802]]]]}}, {"type": "Feature", "id": "way/756810450", "properties": {"tags": {"building": "yes"}, "heightStatus": "unknown", "source": "OpenStreetMap", "license": "ODbL-1.0"}, "geometry": {"type": "MultiPolygon", "coordinates": [[[[114.1013049, 22.5417989], [114.1013639, 22.5417107], [114.101686, 22.5418946], [114.1016594, 22.5419343], [114.1015855, 22.5418921], [114.101553, 22.5419406], [114.1013049, 22.5417989]]]]}}, {"type": "Feature", "id": "way/773700353", "properties": {"tags": {"building:colour": "#e8cad2", "building:levels": "35", "building:material": "glass", "building:part": "commercial", "height": "143.75", "roof:material": "concrete"}, "heightStatus": "height_tag_unverified", "source": "OpenStreetMap", "license": "ODbL-1.0"}, "geometry": {"type": "MultiPolygon", "coordinates": [[[[114.1025658, 22.5433505], [114.1026453, 22.5430192], [114.1028506, 22.5430612], [114.1028475, 22.5430742], [114.1028628, 22.5430774], [114.1027895, 22.5433824], [114.1027741, 22.5433794], [114.102771, 22.5433925], [114.1025658, 22.5433505]]]]}}, {"type": "Feature", "id": "way/773700355", "properties": {"tags": {"building:colour": "#e8cad2", "building:levels": "24", "building:material": "glass", "building:part": "commercial", "height": "94.3", "roof:material": "concrete"}, "heightStatus": "height_tag_unverified", "source": "OpenStreetMap", "license": "ODbL-1.0"}, "geometry": {"type": "MultiPolygon", "coordinates": [[[[114.1024202, 22.5433206], [114.1024459, 22.5432137], [114.1025527, 22.5432356], [114.1025271, 22.5433425], [114.1024202, 22.5433206]]]]}}, {"type": "Feature", "id": "way/773700356", "properties": {"tags": {"building:colour": "#e8cad2", "building:levels": "18", "building:material": "glass", "building:part": "commercial", "height": "70.7", "roof:material": "concrete"}, "heightStatus": "height_tag_unverified", "source": "OpenStreetMap", "license": "ODbL-1.0"}, "geometry": {"type": "MultiPolygon", "coordinates": [[[[114.1023134, 22.5432988], [114.1023391, 22.5431918], [114.1024459, 22.5432137], [114.1024202, 22.5433206], [114.1023134, 22.5432988]]]]}}, {"type": "Feature", "id": "way/773700357", "properties": {"tags": {"building:colour": "#e8cad2", "building:levels": "12", "building:material": "glass", "building:part": "commercial", "height": "47.1", "roof:material": "concrete"}, "heightStatus": "height_tag_unverified", "source": "OpenStreetMap", "license": "ODbL-1.0"}, "geometry": {"type": "MultiPolygon", "coordinates": [[[[114.1022066, 22.5432769], [114.1022323, 22.54317], [114.1023391, 22.5431918], [114.1023134, 22.5432988], [114.1022066, 22.5432769]]]]}}, {"type": "Feature", "id": "way/773700358", "properties": {"tags": {"building:colour": "#e8cad2", "building:levels": "30", "building:material": "glass", "building:part": "commercial", "height": "129.6", "roof:colour": "#e8cad2", "roof:direction": "257", "roof:height": "11.8", "roof:material": "glass", "roof:shape": "skillion"}, "heightStatus": "height_tag_unverified", "source": "OpenStreetMap", "license": "ODbL-1.0"}, "geometry": {"type": "MultiPolygon", "coordinates": [[[[114.1025271, 22.5433425], [114.1025527, 22.5432356], [114.1025825, 22.5431113], [114.1026065, 22.5430112], [114.1026453, 22.5430192], [114.1025658, 22.5433505], [114.1025271, 22.5433425]]]]}}, {"type": "Feature", "id": "way/773700359", "properties": {"tags": {"building:colour": "#e8cad2", "building:levels": "6", "building:material": "glass", "building:part": "commercial", "height": "23.6", "roof:material": "concrete"}, "heightStatus": "height_tag_unverified", "source": "OpenStreetMap", "license": "ODbL-1.0"}, "geometry": {"type": "MultiPolygon", "coordinates": [[[[114.1020998, 22.543255], [114.1021255, 22.5431481], [114.1022323, 22.54317], [114.1022066, 22.5432769], [114.1020998, 22.543255]]]]}}, {"type": "Feature", "id": "way/780483058", "properties": {"tags": {"building:colour": "white", "building:material": "metal", "building:part": "yes", "height": "183.6", "roof:colour": "white", "roof:height": "46.1", "roof:material": "metal", "roof:shape": "pyramidal"}, "heightStatus": "height_tag_unverified", "source": "OpenStreetMap", "license": "ODbL-1.0"}, "geometry": {"type": "MultiPolygon", "coordinates": [[[[114.1027736, 22.5433864], [114.1027746, 22.5433844], [114.1027763, 22.5433828], [114.1027784, 22.5433818], [114.1027808, 22.5433817], [114.1027831, 22.5433824], [114.1027849, 22.5433838], [114.1027861, 22.5433858], [114.1027864, 22.5433879], [114.1027859, 22.5433901], [114.1027846, 22.5433919], [114.1027827, 22.5433931], [114.1027803, 22.5433936], [114.102778, 22.5433933], [114.1027759, 22.5433924], [114.1027744, 22.5433907], [114.1027736, 22.5433886], [114.1027736, 22.5433864]]]]}}, {"type": "Feature", "id": "way/780483059", "properties": {"tags": {"building:colour": "#e8cad2", "building:levels": "24", "building:material": "glass", "building:part": "commercial", "height": "94.3", "roof:material": "concrete"}, "heightStatus": "height_tag_unverified", "source": "OpenStreetMap", "license": "ODbL-1.0"}, "geometry": {"type": "MultiPolygon", "coordinates": [[[[114.1024757, 22.5430895], [114.1024997, 22.5429893], [114.1026065, 22.5430112], [114.1025825, 22.5431113], [114.1024757, 22.5430895]]]]}}, {"type": "Feature", "id": "way/780483060", "properties": {"tags": {"building:colour": "#e8cad2", "building:levels": "6", "building:material": "glass", "building:part": "commercial", "height": "23.6", "roof:material": "concrete"}, "heightStatus": "height_tag_unverified", "source": "OpenStreetMap", "license": "ODbL-1.0"}, "geometry": {"type": "MultiPolygon", "coordinates": [[[[114.1021553, 22.543024], [114.1021794, 22.5429237], [114.1022861, 22.5429456], [114.1022621, 22.5430458], [114.1021553, 22.543024]]]]}}, {"type": "Feature", "id": "way/780483061", "properties": {"tags": {"building:colour": "#e8cad2", "building:levels": "18", "building:material": "glass", "building:part": "commercial", "height": "70.7", "roof:material": "concrete"}, "heightStatus": "height_tag_unverified", "source": "OpenStreetMap", "license": "ODbL-1.0"}, "geometry": {"type": "MultiPolygon", "coordinates": [[[[114.102369, 22.5430677], [114.102393, 22.5429675], [114.1024997, 22.5429893], [114.1024757, 22.5430895], [114.102369, 22.5430677]]]]}}, {"type": "Feature", "id": "way/780483062", "properties": {"tags": {"building:colour": "#e8cad2", "building:levels": "12", "building:material": "glass", "building:part": "commercial", "height": "47.1", "roof:material": "concrete"}, "heightStatus": "height_tag_unverified", "source": "OpenStreetMap", "license": "ODbL-1.0"}, "geometry": {"type": "MultiPolygon", "coordinates": [[[[114.1022621, 22.5430458], [114.1022861, 22.5429456], [114.102393, 22.5429675], [114.102369, 22.5430677], [114.1022621, 22.5430458]]]]}}, {"type": "Feature", "id": "way/780483063", "properties": {"tags": {"building:colour": "#e8cad2", "building:levels": "24", "building:material": "glass", "building:part": "commercial", "height": "117.8", "roof:colour": "#cd8fa4", "roof:direction": "257", "roof:height": "94.2", "roof:material": "glass", "roof:shape": "skillion"}, "heightStatus": "height_tag_unverified", "source": "OpenStreetMap", "license": "ODbL-1.0"}, "geometry": {"type": "MultiPolygon", "coordinates": [[[[114.1021255, 22.5431481], [114.1021553, 22.543024], [114.102369, 22.5430677], [114.1025825, 22.5431113], [114.1025527, 22.5432356], [114.1024459, 22.5432137], [114.1023391, 22.5431918], [114.1022323, 22.54317], [114.1021255, 22.5431481]]]]}}, {"type": "Feature", "id": "way/781181210", "properties": {"tags": {"building:colour": "#bdbdbd", "building:levels": "21", "building:material": "concrete", "building:part": "yes", "roof:colour": "#bdbdbd", "roof:material": "concrete", "roof:orientation": "along", "roof:shape": "saltbox"}, "heightStatus": "levels_only_unverified", "source": "OpenStreetMap", "license": "ODbL-1.0"}, "geometry": {"type": "MultiPolygon", "coordinates": [[[[114.1013785, 22.5449311], [114.1013804, 22.5446574], [114.1016527, 22.544659], [114.1016508, 22.5449328], [114.1013785, 22.5449311]]]]}}, {"type": "Feature", "id": "way/781181211", "properties": {"tags": {"building:colour": "#bdbdbd", "building:levels": "3", "building:material": "concrete", "building:part": "yes", "roof:colour": "#bdbdbd", "roof:direction": "90", "roof:material": "concrete", "roof:shape": "skillion"}, "heightStatus": "levels_only_unverified", "source": "OpenStreetMap", "license": "ODbL-1.0"}, "geometry": {"type": "MultiPolygon", "coordinates": [[[[114.1016508, 22.5449328], [114.1016527, 22.544659], [114.1018077, 22.5446599], [114.1018058, 22.5449337], [114.1016508, 22.5449328]]]]}}, {"type": "Feature", "id": "way/781181212", "properties": {"tags": {"building:levels": "1", "building:material": "glass", "building:part": "yes"}, "heightStatus": "levels_only_unverified", "source": "OpenStreetMap", "license": "ODbL-1.0"}, "geometry": {"type": "MultiPolygon", "coordinates": [[[[114.1013804, 22.5446574], [114.1013811, 22.5445633], [114.1016711, 22.544565], [114.1017012, 22.544567], [114.1017303, 22.5445739], [114.1017583, 22.5445884], [114.1017801, 22.5446056], [114.1017971, 22.5446307], [114.1018077, 22.5446599], [114.1016527, 22.544659], [114.1013804, 22.5446574]]]]}}, {"type": "Feature", "id": "relation/16316977", "properties": {"tags": {"building:levels": "1", "building:part": "yes"}, "heightStatus": "levels_only_unverified", "source": "OpenStreetMap", "license": "ODbL-1.0"}, "geometry": {"type": "MultiPolygon", "coordinates": [[[[114.102771, 22.5433925], [114.1027741, 22.5433794], [114.1027895, 22.5433824], [114.1027863, 22.5433957], [114.102771, 22.5433925]], [[114.1027736, 22.5433864], [114.1027736, 22.5433886], [114.1027744, 22.5433907], [114.1027759, 22.5433924], [114.102778, 22.5433933], [114.1027803, 22.5433936], [114.1027827, 22.5433931], [114.1027846, 22.5433919], [114.1027859, 22.5433901], [114.1027864, 22.5433879], [114.1027861, 22.5433858], [114.1027849, 22.5433838], [114.1027831, 22.5433824], [114.1027808, 22.5433817], [114.1027784, 22.5433818], [114.1027763, 22.5433828], [114.1027746, 22.5433844], [114.1027736, 22.5433864]]]]}}, {"type": "Feature", "id": "way/1207071444", "properties": {"tags": {"building": "commercial", "building:levels": "72", "building:material": "mirror", "height": "333", "layer": "1"}, "heightStatus": "height_tag_unverified", "source": "OpenStreetMap", "license": "ODbL-1.0"}, "geometry": {"type": "MultiPolygon", "coordinates": [[[[114.1003371, 22.5406853], [114.1003517, 22.5406275], [114.1003666, 22.540584], [114.1003683, 22.5405485], [114.1003639, 22.5405144], [114.1003415, 22.540416], [114.1003551, 22.5403769], [114.1003778, 22.5403629], [114.1004093, 22.5403603], [114.1004617, 22.5403714], [114.1005542, 22.5403926], [114.1006092, 22.5403871], [114.1006989, 22.5403665], [114.1007234, 22.5403704], [114.1007419, 22.5403815], [114.1007576, 22.540396], [114.1007626, 22.5404206], [114.1007416, 22.5404921], [114.1007361, 22.5405408], [114.1007403, 22.540586], [114.1007586, 22.5406428], [114.100764, 22.5406926], [114.1007592, 22.540713], [114.1007447, 22.5407381], [114.1007314, 22.5407453], [114.1006962, 22.5407468], [114.1006657, 22.5407438], [114.1006309, 22.5407351], [114.1005819, 22.5407221], [114.1005413, 22.5407227], [114.1005034, 22.5407311], [114.1004657, 22.5407389], [114.1004126, 22.5407449], [114.1003739, 22.5407413], [114.1003458, 22.5407329], [114.1003379, 22.5407099], [114.1003371, 22.5406853]]]]}}, {"type": "Feature", "id": "way/1252904138", "properties": {"tags": {"building": "commercial", "name": "蔡屋围丽晶大厦"}, "heightStatus": "unknown", "source": "OpenStreetMap", "license": "ODbL-1.0"}, "geometry": {"type": "MultiPolygon", "coordinates": [[[[114.1020223, 22.5419828], [114.1020718, 22.5419145], [114.102096, 22.5418998], [114.1023294, 22.5420273], [114.1023216, 22.5421361], [114.1024009, 22.5421694], [114.1023933, 22.5425307], [114.1021804, 22.5425269], [114.1021878, 22.5421725], [114.1021466, 22.5421475], [114.1021382, 22.5421594], [114.1020452, 22.5421029], [114.1020647, 22.5420754], [114.1020231, 22.5420502], [114.1020223, 22.5419828]]]]}}, {"type": "Feature", "id": "way/1258687090", "properties": {"tags": {"building": "train_station", "building:levels": "0", "building:levels:underground": "2", "layer": "-1", "location": "underground", "name": "红岭南站", "name:en": "Hongling South Station", "name:zh": "红岭南站", "public_transport": "station", "start_date": "2016-10-28", "wikidata": "Q27825864", "wikipedia": "zh:红岭南站"}, "heightStatus": "levels_only_unverified", "source": "OpenStreetMap", "license": "ODbL-1.0"}, "geometry": {"type": "MultiPolygon", "coordinates": [[[[114.0996003, 22.5430211], [114.0996095, 22.5429743], [114.0996958, 22.5429823], [114.0997018, 22.541524], [114.0996843, 22.5415242], [114.0996844, 22.5414142], [114.0998537, 22.5414138], [114.0998538, 22.5413321], [114.0999147, 22.5413326], [114.0999135, 22.5414124], [114.0999772, 22.5414124], [114.0999806, 22.5413257], [114.100114, 22.5413251], [114.1001137, 22.5413722], [114.1000993, 22.5413722], [114.1001, 22.5415456], [114.1000597, 22.5415796], [114.099914, 22.5415789], [114.09991, 22.5423274], [114.0999087, 22.5425628], [114.0999071, 22.5428965], [114.1000069, 22.5428962], [114.1000043, 22.542965], [114.1000305, 22.5429921], [114.100038, 22.5429857], [114.1000656, 22.5430158], [114.1000921, 22.5429915], [114.1001118, 22.5430108], [114.1001285, 22.5430272], [114.1001208, 22.5430333], [114.100306, 22.5432118], [114.1002329, 22.5432734], [114.1001513, 22.5431942], [114.1001406, 22.5432025], [114.1001297, 22.5431926], [114.1001007, 22.5432187], [114.1001007, 22.5432617], [114.1001438, 22.5432606], [114.1001438, 22.5433095], [114.1001001, 22.5433084], [114.1001007, 22.543319], [114.099663, 22.5433137], [114.0996624, 22.5433467], [114.0996095, 22.5433461], [114.0996113, 22.5431161], [114.0996021, 22.5431135], [114.0996136, 22.5430397], [114.0996268, 22.5430439], [114.0996285, 22.5430253], [114.0996003, 22.5430211]]]]}}, {"type": "Feature", "id": "way/1347997032", "properties": {"tags": {"building": "train_station", "building:levels": "0", "building:levels:underground": "3", "layer": "-2", "location": "underground", "name": "红岭南站", "name:en": "Hongling South Station", "name:zh": "红岭南站", "public_transport": "station", "start_date": "2025-12-28", "wikidata": "Q27825864", "wikipedia": "zh:红岭南站"}, "heightStatus": "levels_only_unverified", "source": "OpenStreetMap", "license": "ODbL-1.0"}, "geometry": {"type": "MultiPolygon", "coordinates": [[[[114.0999736, 22.5410506], [114.0999742, 22.5409804], [114.1002356, 22.5409823], [114.1002357, 22.5409623], [114.1002891, 22.5409627], [114.1002895, 22.540916], [114.1003441, 22.5409164], [114.1003432, 22.5410187], [114.1003014, 22.5410184], [114.1003013, 22.5410332], [114.1007587, 22.5410365], [114.1007584, 22.541069], [114.1012015, 22.5410722], [114.1012021, 22.5410052], [114.1011861, 22.541005], [114.1011868, 22.5409266], [114.1012806, 22.5409273], [114.10128, 22.541003], [114.1012651, 22.5410029], [114.101265, 22.5410167], [114.1012907, 22.5410169], [114.1012905, 22.5410362], [114.1013325, 22.5410365], [114.1013322, 22.5410749], [114.1015653, 22.5410766], [114.1015661, 22.5409824], [114.1016583, 22.540983], [114.1016575, 22.5410743], [114.1023121, 22.5410791], [114.1023127, 22.5410125], [114.102358, 22.5410128], [114.1023575, 22.5410747], [114.1027739, 22.5410778], [114.1027745, 22.5410044], [114.1028404, 22.5410048], [114.1028397, 22.5410815], [114.1044695, 22.5410827], [114.1044241, 22.5410231], [114.1044863, 22.5408747], [114.104487, 22.5406907], [114.1047817, 22.541021], [114.1047821, 22.5410897], [114.1048139, 22.5410894], [114.1048133, 22.5410619], [114.1049502, 22.5410629], [114.1049491, 22.5411938], [114.1065785, 22.541227], [114.1065753, 22.5413148], [114.1042228, 22.5412907], [114.1042217, 22.5414103], [114.1041751, 22.5414099], [114.1041756, 22.5413564], [114.1031585, 22.5413489], [114.1031591, 22.5412778], [114.1028674, 22.5412757], [114.1028667, 22.541356], [114.1020415, 22.54135], [114.1020388, 22.5416702], [114.1019553, 22.5416696], [114.1019576, 22.5414089], [114.1019393, 22.5414088], [114.1018515, 22.5414081], [114.1017353, 22.5414072], [114.1017364, 22.5412791], [114.1005222, 22.5412702], [114.1005214, 22.5413584], [114.1003491, 22.5413568], [114.1002549, 22.541357], [114.100255, 22.5413795], [114.1001235, 22.5413787], [114.1001246, 22.5413047], [114.1000448, 22.5413041], [114.100047, 22.5410512], [114.0999736, 22.5410506]]]]}}, {"type": "Feature", "id": "way/1410489785", "properties": {"tags": {"building": "commercial", "building:levels": "4", "building:levels:underground": "5"}, "heightStatus": "levels_only_unverified", "source": "OpenStreetMap", "license": "ODbL-1.0"}, "geometry": {"type": "MultiPolygon", "coordinates": [[[[114.0999146, 22.5408131], [114.0999214, 22.5402096], [114.1008767, 22.5402188], [114.10087, 22.5408092], [114.1007894, 22.5408084], [114.1007882, 22.5409158], [114.0999713, 22.5409078], [114.0999724, 22.5408136], [114.0999146, 22.5408131]]]]}}, {"type": "Feature", "id": "way/1431913854", "properties": {"tags": {"addr:city": "深圳市", "addr:country": "CN", "addr:district": "罗湖区", "addr:housenumber": "1011", "addr:province": "广东省", "addr:street": "滨河路", "building": "commercial", "building:levels": "33", "height": "170", "name": "深城投中心", "name:en": "Shenchengtou Center", "name:zh": "深城投中心"}, "heightStatus": "height_tag_unverified", "source": "OpenStreetMap", "license": "ODbL-1.0"}, "geometry": {"type": "MultiPolygon", "coordinates": [[[[114.1018429, 22.5375514], [114.1019641, 22.5375513], [114.1019639, 22.5374013], [114.1024425, 22.5374008], [114.1024426, 22.5375071], [114.1023355, 22.5375072], [114.1023357, 22.5376456], [114.101843, 22.5376462], [114.1018429, 22.5375514]]]]}}, {"type": "Feature", "id": "way/1431913856", "properties": {"tags": {"building": "kindergarten"}, "heightStatus": "unknown", "source": "OpenStreetMap", "license": "ODbL-1.0"}, "geometry": {"type": "MultiPolygon", "coordinates": [[[[114.1024906, 22.5367708], [114.1025124, 22.5367049], [114.1025669, 22.5366888], [114.1025501, 22.5366415], [114.1027551, 22.5365795], [114.1027205, 22.5364821], [114.1028038, 22.5364569], [114.1028136, 22.5364846], [114.1028491, 22.5364739], [114.1029394, 22.5367287], [114.1028207, 22.5367647], [114.1028124, 22.5367411], [114.1026073, 22.5368037], [114.1024906, 22.5367708]]]]}}, {"type": "Feature", "id": "way/1431913857", "properties": {"tags": {"building": "apartments", "building:levels": "29"}, "heightStatus": "levels_only_unverified", "source": "OpenStreetMap", "license": "ODbL-1.0"}, "geometry": {"type": "MultiPolygon", "coordinates": [[[[114.1006866, 22.5360983], [114.1007271, 22.5360793], [114.1007181, 22.536063], [114.1007621, 22.5360424], [114.100771, 22.5360587], [114.1008001, 22.536045], [114.1007912, 22.535984], [114.1007527, 22.5359888], [114.1007497, 22.5359688], [114.1007305, 22.5359712], [114.1007223, 22.5359151], [114.1007801, 22.5359079], [114.1007776, 22.5358907], [114.100854, 22.5358812], [114.1008565, 22.5358984], [114.1009143, 22.5358912], [114.1009225, 22.5359473], [114.1009032, 22.5359497], [114.1009061, 22.5359697], [114.1008676, 22.5359745], [114.1008765, 22.5360355], [114.1009084, 22.5360416], [114.1009124, 22.5360237], [114.1009607, 22.5360329], [114.1009567, 22.5360507], [114.1010012, 22.5360592], [114.1009875, 22.536121], [114.1009553, 22.5361149], [114.1009508, 22.5361353], [114.1008782, 22.5361215], [114.1008843, 22.5360937], [114.1008092, 22.536103], [114.1008231, 22.5361283], [114.100757, 22.5361594], [114.1007468, 22.5361408], [114.1007175, 22.5361546], [114.1006866, 22.5360983]]]]}}]}