{"type": "FeatureCollection", "features": [{"type": "Feature", "id": "way/612995538", "properties": {"tags": {"building": "office", "building:levels": "29", "height": "92.8", "name": "中国人保金融大厦"}, "heightStatus": "height_tag_unverified", "source": "OpenStreetMap", "license": "ODbL-1.0"}, "geometry": {"type": "MultiPolygon", "coordinates": [[[[114.0998288, 22.5654569], [114.0998396, 22.5650578], [114.1003039, 22.5650685], [114.1002931, 22.5654676], [114.0998288, 22.5654569]]]]}}, {"type": "Feature", "id": "way/612995539", "properties": {"tags": {"building": "office", "building:levels": "30"}, "heightStatus": "levels_only_unverified", "source": "OpenStreetMap", "license": "ODbL-1.0"}, "geometry": {"type": "MultiPolygon", "coordinates": [[[[114.0999325, 22.566493], [114.0999383, 22.5662792], [114.100005, 22.5662807], [114.1000127, 22.5659968], [114.1003313, 22.5660042], [114.1003179, 22.5665019], [114.0999325, 22.566493]]]]}}, {"type": "Feature", "id": "way/612995540", "properties": {"tags": {"building": "apartments", "building:levels": "36", "name": "浦发银行深圳分行大厦"}, "heightStatus": "levels_only_unverified", "source": "OpenStreetMap", "license": "ODbL-1.0"}, "geometry": {"type": "MultiPolygon", "coordinates": [[[[114.099735, 22.5669963], [114.0997362, 22.5668602], [114.1003529, 22.5668647], [114.1003518, 22.5670008], [114.099735, 22.5669963]]]]}}, {"type": "Feature", "id": "way/612995541", "properties": {"tags": {"building": "apartments", "building:levels": "36"}, "heightStatus": "levels_only_unverified", "source": "OpenStreetMap", "license": "ODbL-1.0"}, "geometry": {"type": "MultiPolygon", "coordinates": [[[[114.100641, 22.5675014], [114.100642, 22.5673923], [114.1007274, 22.567393], [114.1007278, 22.5673447], [114.1006448, 22.5673441], [114.1006457, 22.5672483], [114.1009067, 22.5672504], [114.1009058, 22.5673502], [114.1008169, 22.5673495], [114.1008167, 22.5673739], [114.1008553, 22.5673742], [114.1008551, 22.5674041], [114.1009082, 22.5674045], [114.1009073, 22.5675031], [114.1007889, 22.5675022], [114.1007892, 22.5674696], [114.1007559, 22.5674693], [114.1007556, 22.5675023], [114.100641, 22.5675014]]]]}}, {"type": "Feature", "id": "way/612995542", "properties": {"tags": {"building": "apartments", "building:levels": "36"}, "heightStatus": "levels_only_unverified", "source": "OpenStreetMap", "license": "ODbL-1.0"}, "geometry": {"type": "MultiPolygon", "coordinates": [[[[114.1009859, 22.5671223], [114.1009869, 22.5670132], [114.1010723, 22.5670138], [114.1010728, 22.5669656], [114.1009897, 22.5669649], [114.1009906, 22.5668692], [114.1012517, 22.5668712], [114.1012508, 22.566971], [114.1011619, 22.5669703], [114.1011616, 22.5669947], [114.1012003, 22.566995], [114.1012, 22.5670249], [114.1012531, 22.5670253], [114.1012522, 22.567124], [114.1011339, 22.5671231], [114.1011342, 22.5670905], [114.1011009, 22.5670902], [114.1011006, 22.5671231], [114.1009859, 22.5671223]]]]}}, {"type": "Feature", "id": "way/612995543", "properties": {"tags": {"building": "apartments", "building:levels": "36"}, "heightStatus": "levels_only_unverified", "source": "OpenStreetMap", "license": "ODbL-1.0"}, "geometry": {"type": "MultiPolygon", "coordinates": [[[[114.1006644, 22.5678944], [114.1007974, 22.5677015], [114.1012671, 22.5679775], [114.1011295, 22.5681773], [114.1009371, 22.5680643], [114.1010179, 22.5679471], [114.1009271, 22.5678937], [114.100851, 22.568004], [114.1006644, 22.5678944]]]]}}, {"type": "Feature", "id": "way/1266700987", "properties": {"tags": {"building": "apartments", "layer": "1", "name": "万年青大厦"}, "heightStatus": "unknown", "source": "OpenStreetMap", "license": "ODbL-1.0"}, "geometry": {"type": "MultiPolygon", "coordinates": [[[[114.0935118, 22.5686134], [114.0935379, 22.5685429], [114.094188, 22.5687234], [114.0940974, 22.5687635], [114.0935118, 22.5686134]]]]}}, {"type": "Feature", "id": "way/1271921619", "properties": {"tags": {"building": "office", "building:levels": "30", "name": "中国燃气大厦"}, "heightStatus": "levels_only_unverified", "source": "OpenStreetMap", "license": "ODbL-1.0"}, "geometry": {"type": "MultiPolygon", "coordinates": [[[[114.100798, 22.5652601], [114.1008111, 22.5649908], [114.1012991, 22.5650111], [114.1012861, 22.5652803], [114.100798, 22.5652601]]]]}}, {"type": "Feature", "id": "way/1271921620", "properties": {"tags": {"building": "office", "building:levels": "30"}, "heightStatus": "levels_only_unverified", "source": "OpenStreetMap", "license": "ODbL-1.0"}, "geometry": {"type": "MultiPolygon", "coordinates": [[[[114.1006972, 22.5664295], [114.1006977, 22.5663491], [114.1007478, 22.5663494], [114.1007487, 22.5662222], [114.1007154, 22.566222], [114.1007158, 22.5661627], [114.1010118, 22.5661644], [114.1010114, 22.5662201], [114.100979, 22.5662199], [114.1009781, 22.5663484], [114.1010221, 22.5663486], [114.1010216, 22.5664313], [114.1006972, 22.5664295]]]]}}, {"type": "Feature", "id": "way/1271921621", "properties": {"tags": {"building": "office", "building:levels": "30", "name": "2栋B座"}, "heightStatus": "levels_only_unverified", "source": "OpenStreetMap", "license": "ODbL-1.0"}, "geometry": {"type": "MultiPolygon", "coordinates": [[[[114.1009742, 22.5659439], [114.1009776, 22.565682], [114.1012683, 22.5656853], [114.1012649, 22.5659472], [114.1009742, 22.5659439]]]]}}, {"type": "Feature", "id": "way/1271921623", "properties": {"tags": {"building": "office", "building:levels": "30", "layer": "2", "name": "A座", "name:en": "Block A", "name:zh": "A座"}, "heightStatus": "levels_only_unverified", "source": "OpenStreetMap", "license": "ODbL-1.0"}, "geometry": {"type": "MultiPolygon", "coordinates": [[[[114.1020958, 22.5653532], [114.1021031, 22.5650337], [114.1025188, 22.5650418], [114.1025115, 22.5653614], [114.1020958, 22.5653532]]]]}}, {"type": "Feature", "id": "way/1271921624", "properties": {"tags": {"building": "office", "building:levels": "30", "layer": "2", "name": "B座", "name:en": "Block B", "name:zh": "B座"}, "heightStatus": "levels_only_unverified", "source": "OpenStreetMap", "license": "ODbL-1.0"}, "geometry": {"type": "MultiPolygon", "coordinates": [[[[114.1018241, 22.566514], [114.1018327, 22.5661185], [114.1021538, 22.5661245], [114.1021452, 22.56652], [114.1018241, 22.566514]]]]}}, {"type": "Feature", "id": "way/1271921625", "properties": {"tags": {"building": "apartments", "building:levels": "30", "layer": "2", "name": "C座", "name:en": "Block C", "name:zh": "C座"}, "heightStatus": "levels_only_unverified", "source": "OpenStreetMap", "license": "ODbL-1.0"}, "geometry": {"type": "MultiPolygon", "coordinates": [[[[114.1022858, 22.5661102], [114.1022972, 22.5654778], [114.1024896, 22.5654808], [114.1024859, 22.5656861], [114.1025087, 22.5656865], [114.1025069, 22.5657825], [114.1024756, 22.565782], [114.1024676, 22.5662138], [114.102415, 22.566213], [114.1024152, 22.5662041], [114.1023725, 22.5662034], [114.1023724, 22.5662115], [114.1023196, 22.5662107], [114.1023214, 22.5661108], [114.1022858, 22.5661102]]]]}}, {"type": "Feature", "id": "way/1271921627", "properties": {"tags": {"building": "retail", "building:levels": "4", "layer": "1"}, "heightStatus": "levels_only_unverified", "source": "OpenStreetMap", "license": "ODbL-1.0"}, "geometry": {"type": "MultiPolygon", "coordinates": [[[[114.1017942, 22.5665356], [114.1018049, 22.5651833], [114.1021107, 22.5650124], [114.1025345, 22.5650322], [114.1024969, 22.5665233], [114.1020756, 22.5665307], [114.1017942, 22.5665356]]]]}}, {"type": "Feature", "id": "way/1271921628", "properties": {"tags": {"building": "apartments", "building:levels": "30", "layer": "2", "name": "E座", "name:en": "Block E", "name:zh": "E座"}, "heightStatus": "levels_only_unverified", "source": "OpenStreetMap", "license": "ODbL-1.0"}, "geometry": {"type": "MultiPolygon", "coordinates": [[[[114.1017319, 22.5674206], [114.1017333, 22.5673434], [114.1017873, 22.5673442], [114.1017876, 22.56733], [114.1017338, 22.5673292], [114.1017345, 22.5672932], [114.1017438, 22.5672934], [114.1017443, 22.567264], [114.1017329, 22.5672638], [114.1017334, 22.5672333], [114.1017866, 22.567234], [114.1017869, 22.5672148], [114.101739, 22.5672142], [114.1017406, 22.5671121], [114.1018078, 22.567113], [114.1018076, 22.5671224], [114.101855, 22.567123], [114.1018552, 22.5671139], [114.1019144, 22.5671148], [114.1019126, 22.5672167], [114.1018665, 22.567216], [114.1018659, 22.5672462], [114.1019062, 22.5672468], [114.1019055, 22.5672822], [114.1019595, 22.567283], [114.1019599, 22.5672635], [114.1019834, 22.5672638], [114.1019828, 22.567292], [114.102017, 22.5672926], [114.1020177, 22.5672583], [114.1020799, 22.5672594], [114.1020784, 22.5673321], [114.1020321, 22.5673313], [114.1020318, 22.5673452], [114.1020809, 22.567346], [114.1020792, 22.5674275], [114.1020053, 22.5674263], [114.1020059, 22.5673966], [114.101997, 22.5673964], [114.1019965, 22.5674259], [114.1019564, 22.5674252], [114.1019566, 22.5674173], [114.1019235, 22.5674168], [114.1019234, 22.5674258], [114.101881, 22.5674252], [114.1018818, 22.5673825], [114.101864, 22.5673822], [114.1018632, 22.5674215], [114.1018293, 22.567421], [114.1018295, 22.5674088], [114.1018145, 22.5674085], [114.1018148, 22.5673912], [114.101797, 22.5673909], [114.1017964, 22.5674216], [114.1017319, 22.5674206]]]]}}, {"type": "Feature", "id": "way/1271921629", "properties": {"tags": {"building": "apartments", "building:levels": "30", "layer": "2", "name": "D座", "name:en": "Block D", "name:zh": "D座"}, "heightStatus": "levels_only_unverified", "source": "OpenStreetMap", "license": "ODbL-1.0"}, "geometry": {"type": "MultiPolygon", "coordinates": [[[[114.102151, 22.56703], [114.1021522, 22.5669485], [114.1022262, 22.5669494], [114.1022257, 22.5669791], [114.1022346, 22.5669792], [114.102235, 22.5669497], [114.102275, 22.5669502], [114.1022749, 22.5669581], [114.102308, 22.5669585], [114.1023081, 22.5669494], [114.1023505, 22.5669499], [114.1023499, 22.5669926], [114.1023677, 22.5669927], [114.1023682, 22.5669534], [114.1024021, 22.5669538], [114.102402, 22.566966], [114.102417, 22.5669662], [114.1024168, 22.5669836], [114.1024346, 22.5669837], [114.102435, 22.566953], [114.1024996, 22.5669537], [114.1024986, 22.5670309], [114.1024446, 22.5670303], [114.1024444, 22.5670446], [114.1024982, 22.5670451], [114.1024977, 22.5670811], [114.1024884, 22.567081], [114.1024881, 22.5671104], [114.1024994, 22.5671105], [114.1024991, 22.567141], [114.102446, 22.5671405], [114.1024458, 22.5671598], [114.1024937, 22.5671602], [114.1024927, 22.5672623], [114.1024255, 22.5672617], [114.1024256, 22.5672523], [114.1023782, 22.5672519], [114.1023781, 22.567261], [114.1023189, 22.5672604], [114.1023201, 22.5671586], [114.1023662, 22.567159], [114.1023666, 22.5671288], [114.1023263, 22.5671284], [114.1023267, 22.567093], [114.1022727, 22.5670924], [114.1022725, 22.567112], [114.102249, 22.5671117], [114.1022494, 22.5670836], [114.1022152, 22.5670832], [114.1022147, 22.5671174], [114.1021526, 22.5671167], [114.1021536, 22.5670439], [114.1021999, 22.5670445], [114.1022001, 22.5670306], [114.102151, 22.56703]]]]}}, {"type": "Feature", "id": "way/1271921630", "properties": {"tags": {"area": "yes", "building": "retail", "building:levels": "4", "layer": "1"}, "heightStatus": "levels_only_unverified", "source": "OpenStreetMap", "license": "ODbL-1.0"}, "geometry": {"type": "MultiPolygon", "coordinates": [[[[114.101724, 22.5674381], [114.1017315, 22.5668573], [114.1020709, 22.5668611], [114.1021666, 22.5668621], [114.1021657, 22.5669323], [114.1025594, 22.5669367], [114.1025528, 22.5674473], [114.101724, 22.5674381]]]]}}, {"type": "Feature", "id": "way/1271921639", "properties": {"tags": {"building": "apartments", "building:levels": "36"}, "heightStatus": "levels_only_unverified", "source": "OpenStreetMap", "license": "ODbL-1.0"}, "geometry": {"type": "MultiPolygon", "coordinates": [[[[114.0999455, 22.5674717], [114.0999548, 22.5671452], [114.1003755, 22.5671555], [114.1003649, 22.567526], [114.1001396, 22.5675205], [114.1001408, 22.5674765], [114.0999455, 22.5674717]]]]}}, {"type": "Feature", "id": "way/1271921644", "properties": {"tags": {"addr:city": "深圳市", "addr:district": "罗湖区", "addr:housenumber": "3002", "addr:province": "广东省", "addr:street": "红岭北路", "building": "apartments", "building:levels": "31", "name": "深城公寓"}, "heightStatus": "levels_only_unverified", "source": "OpenStreetMap", "license": "ODbL-1.0"}, "geometry": {"type": "MultiPolygon", "coordinates": [[[[114.0996959, 22.5694485], [114.0997648, 22.5693444], [114.099811, 22.5693704], [114.0998187, 22.5693588], [114.0998854, 22.5693965], [114.0998734, 22.5694145], [114.0999144, 22.5694377], [114.0999256, 22.5694207], [114.0999932, 22.5694591], [114.0999842, 22.5694725], [114.1000215, 22.5694937], [114.1000324, 22.5694774], [114.1001082, 22.5695206], [114.1000938, 22.5695421], [114.1001214, 22.5695579], [114.1001343, 22.5695387], [114.1002218, 22.5695887], [114.1002131, 22.5696017], [114.1002463, 22.5696206], [114.1001815, 22.5697174], [114.1000704, 22.5696539], [114.1000577, 22.5696729], [114.0999885, 22.5696334], [114.1000018, 22.5696135], [114.0999818, 22.5696021], [114.0999708, 22.5696186], [114.0998688, 22.5695606], [114.0998757, 22.5695503], [114.0998687, 22.5695464], [114.0998549, 22.5695671], [114.0997788, 22.5695241], [114.0997927, 22.5695031], [114.0996959, 22.5694485]]]]}}, {"type": "Feature", "id": "way/1272992497", "properties": {"tags": {"addr:city": "深圳市", "addr:district": "罗湖区", "addr:housenumber": "1056", "addr:province": "广东省", "addr:street": "红岭北路", "building": "yes", "building:levels": "5", "government": "tax", "name": "罗湖区税务局", "office": "government", "website": "https://shenzhen.chinatax.gov.cn/lhqswj/index.shtml"}, "heightStatus": "levels_only_unverified", "source": "OpenStreetMap", "license": "ODbL-1.0"}, "geometry": {"type": "MultiPolygon", "coordinates": [[[[114.0996641, 22.564566], [114.0996749, 22.5640011], [114.100006, 22.5640066], [114.0999951, 22.5645714], [114.0996641, 22.564566]]]]}}, {"type": "Feature", "id": "way/1272992498", "properties": {"tags": {"building": "industrial", "building:levels": "7", "name": "楼尚文化创意产业园"}, "heightStatus": "levels_only_unverified", "source": "OpenStreetMap", "license": "ODbL-1.0"}, "geometry": {"type": "MultiPolygon", "coordinates": [[[[114.0997138, 22.5637106], [114.0997172, 22.563531], [114.0997576, 22.5635317], [114.0997622, 22.5632877], [114.1000243, 22.5632919], [114.1000145, 22.5638147], [114.0997448, 22.5638104], [114.0997467, 22.5637111], [114.0997138, 22.5637106]]]]}}, {"type": "Feature", "id": "way/1272992499", "properties": {"tags": {"building": "yes", "building:levels": "10", "name": "艺茂中心", "shop": "mall"}, "heightStatus": "levels_only_unverified", "source": "OpenStreetMap", "license": "ODbL-1.0"}, "geometry": {"type": "MultiPolygon", "coordinates": [[[[114.1001952, 22.5645678], [114.1002135, 22.5632698], [114.1005021, 22.5632733], [114.1004835, 22.5645713], [114.1001952, 22.5645678]]]]}}, {"type": "Feature", "id": "way/1272992507", "properties": {"tags": {"building": "yes", "building:levels": "9", "layer": "1", "shop": "mall"}, "heightStatus": "levels_only_unverified", "source": "OpenStreetMap", "license": "ODbL-1.0"}, "geometry": {"type": "MultiPolygon", "coordinates": [[[[114.1005429, 22.564511], [114.1005442, 22.5642959], [114.1005565, 22.564296], [114.1005624, 22.5634308], [114.1006307, 22.5634312], [114.1006314, 22.5633278], [114.1011131, 22.5633307], [114.1014594, 22.5633327], [114.1014507, 22.5645831], [114.1011123, 22.5645811], [114.1011125, 22.5645511], [114.1010762, 22.5645509], [114.1010759, 22.5645853], [114.1008827, 22.5645843], [114.1008825, 22.5646128], [114.1006002, 22.5646113], [114.1006008, 22.5645113], [114.1005429, 22.564511]]]]}}, {"type": "Feature", "id": "way/1272992508", "properties": {"tags": {"building": "yes", "building:levels": "5", "name": "明珠艺成", "shop": "mall"}, "heightStatus": "levels_only_unverified", "source": "OpenStreetMap", "license": "ODbL-1.0"}, "geometry": {"type": "MultiPolygon", "coordinates": [[[[114.1017277, 22.564549], [114.1017522, 22.5633307], [114.10177, 22.5633048], [114.1020782, 22.5633102], [114.1020529, 22.5645546], [114.1017277, 22.564549]]]]}}, {"type": "Feature", "id": "way/1272992509", "properties": {"tags": {"building": "industrial"}, "heightStatus": "unknown", "source": "OpenStreetMap", "license": "ODbL-1.0"}, "geometry": {"type": "MultiPolygon", "coordinates": [[[[114.1023399, 22.5645738], [114.1023622, 22.5633642], [114.1026844, 22.5633693], [114.1026618, 22.5645789], [114.1023399, 22.5645738]]]]}}, {"type": "Feature", "id": "way/1292389266", "properties": {"tags": {"building": "train_station", "building:levels": "0", "building:levels:underground": "3", "layer": "-1", "location": "underground", "name": "红岭北站", "name:en": "Hongling North Station", "name:zh": "红岭北站", "public_transport": "station", "start_date": "2016-10-28", "wikidata": "Q20688900", "wikipedia": "zh:红岭北站"}, "heightStatus": "levels_only_unverified", "source": "OpenStreetMap", "license": "ODbL-1.0"}, "geometry": {"type": "MultiPolygon", "coordinates": [[[[114.0988734, 22.5643258], [114.0989402, 22.5643258], [114.0989398, 22.5638582], [114.0989916, 22.5638581], [114.0990091, 22.5638581], [114.0990095, 22.5642617], [114.0993313, 22.5642614], [114.0993308, 22.5637095], [114.0996037, 22.5637093], [114.0996045, 22.5646171], [114.100498, 22.5646165], [114.1004982, 22.5648812], [114.1001197, 22.5648815], [114.1001196, 22.5648112], [114.0999705, 22.5648113], [114.0999705, 22.564825], [114.1000917, 22.564825], [114.1000918, 22.5648796], [114.099895, 22.5648797], [114.0998949, 22.5648129], [114.0996017, 22.5648131], [114.0996022, 22.5653819], [114.0995393, 22.565382], [114.0995396, 22.5656666], [114.0993793, 22.5656667], [114.099379, 22.5653836], [114.0993182, 22.5653837], [114.0993181, 22.5651705], [114.0990156, 22.5651707], [114.099016, 22.5655367], [114.098943, 22.5655367], [114.0989426, 22.5651092], [114.0988741, 22.5651093], [114.0988734, 22.5643258]]]]}}, {"type": "Feature", "id": "way/1377354176", "properties": {"tags": {"building": "retail"}, "heightStatus": "unknown", "source": "OpenStreetMap", "license": "ODbL-1.0"}, "geometry": {"type": "MultiPolygon", "coordinates": [[[[114.093449, 22.5687261], [114.0938822, 22.5688148], [114.0939003, 22.5688453], [114.0939099, 22.5688926], [114.0939025, 22.5689005], [114.0935114, 22.5689745], [114.093449, 22.5687261]]]]}}, {"type": "Feature", "id": "way/1377685828", "properties": {"tags": {"building": "apartments", "layer": "1"}, "heightStatus": "unknown", "source": "OpenStreetMap", "license": "ODbL-1.0"}, "geometry": {"type": "MultiPolygon", "coordinates": [[[[114.094802, 22.5699272], [114.0948485, 22.569884], [114.0948762, 22.5699094], [114.0949099, 22.569878], [114.0948831, 22.5698535], [114.0949251, 22.5698144], [114.0949746, 22.5698598], [114.095014, 22.5698232], [114.095061, 22.5698662], [114.0950229, 22.5699016], [114.0950561, 22.5699321], [114.0950939, 22.569897], [114.095137, 22.5699365], [114.0951015, 22.5699695], [114.0951465, 22.5700107], [114.0951029, 22.5700512], [114.0950816, 22.5700316], [114.0950437, 22.5700668], [114.0950656, 22.5700869], [114.0950214, 22.570128], [114.0949794, 22.5700894], [114.0949512, 22.5701155], [114.0949045, 22.5700726], [114.0949336, 22.5700456], [114.0949022, 22.5700168], [114.0948719, 22.570045], [114.0948222, 22.5699994], [114.0948513, 22.5699724], [114.094802, 22.5699272]]]]}}, {"type": "Feature", "id": "way/1377685829", "properties": {"tags": {"building": "apartments", "layer": "1"}, "heightStatus": "unknown", "source": "OpenStreetMap", "license": "ODbL-1.0"}, "geometry": {"type": "MultiPolygon", "coordinates": [[[[114.0951771, 22.5702611], [114.0952235, 22.5702179], [114.0952512, 22.5702433], [114.0952849, 22.5702119], [114.0952581, 22.5701874], [114.0953002, 22.5701483], [114.0953497, 22.5701937], [114.0953891, 22.5701571], [114.095436, 22.5702001], [114.0953979, 22.5702355], [114.0954311, 22.570266], [114.0954689, 22.5702309], [114.095512, 22.5702704], [114.0954766, 22.5703034], [114.0955215, 22.5703446], [114.0954779, 22.5703851], [114.0954566, 22.5703655], [114.0954187, 22.5704007], [114.0954407, 22.5704208], [114.0953965, 22.5704619], [114.0953544, 22.5704233], [114.0953262, 22.5704494], [114.0952795, 22.5704065], [114.0953086, 22.5703795], [114.0952773, 22.5703507], [114.0952469, 22.5703789], [114.0951973, 22.5703333], [114.0952263, 22.5703063], [114.0951771, 22.5702611]]]]}}, {"type": "Feature", "id": "way/1377685830", "properties": {"tags": {"building": "yes", "name": "星湖花园8栋"}, "heightStatus": "unknown", "source": "OpenStreetMap", "license": "ODbL-1.0"}, "geometry": {"type": "MultiPolygon", "coordinates": [[[[114.09475, 22.5699591], [114.0949619, 22.5697558], [114.0955813, 22.5703068], [114.0953694, 22.5705099], [114.09475, 22.5699591]]]]}}, {"type": "Feature", "id": "way/1377691076", "properties": {"tags": {"building": "retail", "name": "红日子购物广场"}, "heightStatus": "unknown", "source": "OpenStreetMap", "license": "ODbL-1.0"}, "geometry": {"type": "MultiPolygon", "coordinates": [[[[114.0937121, 22.5698856], [114.0941415, 22.5698001], [114.0941819, 22.5699822], [114.0937604, 22.5700651], [114.0937121, 22.5698856]]]]}}, {"type": "Feature", "id": "way/1377691992", "properties": {"tags": {"building": "yes", "name": "华日大厦"}, "heightStatus": "unknown", "source": "OpenStreetMap", "license": "ODbL-1.0"}, "geometry": {"type": "MultiPolygon", "coordinates": [[[[114.0974772, 22.5704415], [114.0976174, 22.5701669], [114.0978472, 22.570273], [114.0977103, 22.5705429], [114.0974772, 22.5704415]]]]}}, {"type": "Feature", "id": "way/1377818881", "properties": {"tags": {"building": "yes", "name": "红岗大厦"}, "heightStatus": "unknown", "source": "OpenStreetMap", "license": "ODbL-1.0"}, "geometry": {"type": "MultiPolygon", "coordinates": [[[[114.0982616, 22.571915], [114.0982782, 22.571879], [114.0982654, 22.5718739], [114.0983861, 22.5716309], [114.0984019, 22.5716382], [114.0984181, 22.571605], [114.0984626, 22.5716207], [114.098487, 22.5716215], [114.0985086, 22.571627], [114.0985285, 22.5716367], [114.0985431, 22.5716482], [114.0985571, 22.571663], [114.0985911, 22.5716776], [114.0985725, 22.5717115], [114.098588, 22.5717182], [114.0984656, 22.5719668], [114.0984541, 22.5719613], [114.0984386, 22.5719909], [114.0983965, 22.5719749], [114.0983811, 22.5719743], [114.0983617, 22.5719737], [114.0983456, 22.5719693], [114.0983301, 22.5719625], [114.0983176, 22.5719538], [114.0983083, 22.5719445], [114.0982986, 22.5719319], [114.0982616, 22.571915]]]]}}, {"type": "Feature", "id": "way/1377822163", "properties": {"tags": {"building": "school"}, "heightStatus": "unknown", "source": "OpenStreetMap", "license": "ODbL-1.0"}, "geometry": {"type": "MultiPolygon", "coordinates": [[[[114.094784, 22.5718168], [114.0947972, 22.571767], [114.0949602, 22.5718038], [114.0949965, 22.571667], [114.0949252, 22.5716509], [114.0949419, 22.5715878], [114.0950046, 22.5716019], [114.0950071, 22.5715921], [114.0950852, 22.5716097], [114.0950828, 22.5716187], [114.0954342, 22.5716978], [114.0954254, 22.571731], [114.0956568, 22.571783], [114.0956281, 22.5718921], [114.0955475, 22.571874], [114.0955563, 22.5718406], [114.0953911, 22.5718036], [114.0953997, 22.5717711], [114.0950707, 22.5716974], [114.0950304, 22.5718504], [114.0950873, 22.5718631], [114.0950999, 22.5718153], [114.0952531, 22.5718497], [114.0951865, 22.5721027], [114.0950472, 22.5720714], [114.0950956, 22.5718877], [114.0950105, 22.5718686], [114.0949831, 22.5719722], [114.0949265, 22.5719594], [114.094954, 22.5718551], [114.094784, 22.5718168]]]]}}, {"type": "Feature", "id": "way/1377822164", "properties": {"tags": {"building": "school"}, "heightStatus": "unknown", "source": "OpenStreetMap", "license": "ODbL-1.0"}, "geometry": {"type": "MultiPolygon", "coordinates": [[[[114.0946944, 22.5717429], [114.0947441, 22.5715467], [114.0949331, 22.5715876], [114.0949172, 22.5716503], [114.0948227, 22.5716299], [114.0947889, 22.5717633], [114.0946944, 22.5717429]]]]}}, {"type": "Feature", "id": "way/1377852971", "properties": {"tags": {"building": "yes"}, "heightStatus": "unknown", "source": "OpenStreetMap", "license": "ODbL-1.0"}, "geometry": {"type": "MultiPolygon", "coordinates": [[[[114.0938866, 22.570292], [114.0939106, 22.5702344], [114.0939343, 22.5702221], [114.0939613, 22.5702253], [114.0941771, 22.5702999], [114.0943531, 22.5703627], [114.0943284, 22.5704177], [114.0943015, 22.5704082], [114.0942912, 22.5704347], [114.0938866, 22.570292]]]]}}, {"type": "Feature", "id": "way/1377931002", "properties": {"tags": {"building": "retail"}, "heightStatus": "unknown", "source": "OpenStreetMap", "license": "ODbL-1.0"}, "geometry": {"type": "MultiPolygon", "coordinates": [[[[114.0934603, 22.5686117], [114.0935191, 22.5684999], [114.0937348, 22.5685617], [114.0942397, 22.5687063], [114.0940798, 22.5687869], [114.0934764, 22.5686316], [114.0934603, 22.5686117]]]]}}, {"type": "Feature", "id": "way/1378817002", "properties": {"tags": {"building": "yes"}, "heightStatus": "unknown", "source": "OpenStreetMap", "license": "ODbL-1.0"}, "geometry": {"type": "MultiPolygon", "coordinates": [[[[114.0930787, 22.5712667], [114.0930886, 22.5711881], [114.0931554, 22.571198], [114.0932428, 22.5712916], [114.0930787, 22.5712667]]]]}}, {"type": "Feature", "id": "way/1380268576", "properties": {"tags": {"building": "commercial"}, "heightStatus": "unknown", "source": "OpenStreetMap", "license": "ODbL-1.0"}, "geometry": {"type": "MultiPolygon", "coordinates": [[[[114.0968, 22.5701771], [114.0968579, 22.5700613], [114.0968517, 22.5700533], [114.0968482, 22.5700438], [114.0968461, 22.5700314], [114.0968454, 22.5700192], [114.0968472, 22.5700031], [114.0968497, 22.5699904], [114.0968589, 22.5699742], [114.0968685, 22.5699605], [114.0968821, 22.5699502], [114.0968937, 22.569942], [114.0969046, 22.569937], [114.0969165, 22.5699332], [114.0969278, 22.5699322], [114.0969637, 22.5698584], [114.0975055, 22.5700884], [114.0973474, 22.5704025], [114.0968, 22.5701771]]]]}}, {"type": "Feature", "id": "relation/19025403", "properties": {"tags": {"building": "commercial"}, "heightStatus": "unknown", "source": "OpenStreetMap", "license": "ODbL-1.0"}, "geometry": {"type": "MultiPolygon", "coordinates": [[[[114.0981227, 22.5706054], [114.0981198, 22.5706114], [114.0980043, 22.5705639], [114.0979913, 22.5705908], [114.0979564, 22.5706631], [114.0978611, 22.5706239], [114.0978441, 22.5705836], [114.097886, 22.5704935], [114.0979516, 22.5703526], [114.0979931, 22.5703378], [114.0982089, 22.5704266], [114.098127, 22.5705964], [114.0981227, 22.5706054]]], [[[114.0981227, 22.5706054], [114.0982089, 22.5704266], [114.0983058, 22.5705438], [114.0982186, 22.5707276], [114.0981469, 22.5706986], [114.09818, 22.5706286], [114.0981227, 22.5706054]]]]}}, {"type": "Feature", "id": "relation/19025404", "properties": {"tags": {"building": "commercial"}, "heightStatus": "unknown", "source": "OpenStreetMap", "license": "ODbL-1.0"}, "geometry": {"type": "MultiPolygon", "coordinates": [[[[114.0981965, 22.570774], [114.0982186, 22.5707276], [114.0983058, 22.5705438], [114.0984706, 22.5707907], [114.0984572, 22.5708136], [114.098484, 22.5708278], [114.098478, 22.5708941], [114.0981965, 22.570774]], [[114.0982359, 22.5707189], [114.0983821, 22.5707833], [114.0983848, 22.5707771], [114.0982802, 22.5706266], [114.0982359, 22.5707189]]]]}}, {"type": "Feature", "id": "way/1380273905", "properties": {"tags": {"building": "apartments"}, "heightStatus": "unknown", "source": "OpenStreetMap", "license": "ODbL-1.0"}, "geometry": {"type": "MultiPolygon", "coordinates": [[[[114.0962422, 22.5704179], [114.0963276, 22.5702418], [114.0963923, 22.5702685], [114.0963193, 22.5704191], [114.0966546, 22.5705577], [114.096623, 22.570623], [114.096262, 22.5704738], [114.0962813, 22.570434], [114.0962422, 22.5704179]]]]}}, {"type": "Feature", "id": "way/1380273906", "properties": {"tags": {"building": "commercial"}, "heightStatus": "unknown", "source": "OpenStreetMap", "license": "ODbL-1.0"}, "geometry": {"type": "MultiPolygon", "coordinates": [[[[114.0967683, 22.5707055], [114.0968083, 22.5706256], [114.0967797, 22.5706134], [114.0968298, 22.5705135], [114.0968554, 22.5705245], [114.096874, 22.5704874], [114.0976892, 22.570836], [114.0976737, 22.570867], [114.097705, 22.5708803], [114.0976506, 22.5709888], [114.0976236, 22.5709772], [114.0975883, 22.5710477], [114.0972596, 22.5709072], [114.0972868, 22.5708529], [114.0971266, 22.5707845], [114.0970961, 22.5708455], [114.0967683, 22.5707055]]]]}}, {"type": "Feature", "id": "way/1380273909", "properties": {"tags": {"building": "commercial"}, "heightStatus": "unknown", "source": "OpenStreetMap", "license": "ODbL-1.0"}, "geometry": {"type": "MultiPolygon", "coordinates": [[[[114.0978152, 22.5711411], [114.0978516, 22.5710694], [114.0981706, 22.5712077], [114.0981342, 22.5712794], [114.0978152, 22.5711411]]]]}}, {"type": "Feature", "id": "way/1380273910", "properties": {"tags": {"building": "commercial"}, "heightStatus": "unknown", "source": "OpenStreetMap", "license": "ODbL-1.0"}, "geometry": {"type": "MultiPolygon", "coordinates": [[[[114.0979135, 22.5709518], [114.0979669, 22.5708449], [114.0982879, 22.5709816], [114.0982345, 22.5710885], [114.0979135, 22.5709518]]]]}}, {"type": "Feature", "id": "way/1380273911", "properties": {"tags": {"building": "commercial"}, "heightStatus": "unknown", "source": "OpenStreetMap", "license": "ODbL-1.0"}, "geometry": {"type": "MultiPolygon", "coordinates": [[[[114.098159, 22.571238], [114.0982687, 22.5710265], [114.0983307, 22.5710539], [114.098221, 22.5712655], [114.098159, 22.571238]]]]}}, {"type": "Feature", "id": "way/1414214736", "properties": {"tags": {"building": "school"}, "heightStatus": "unknown", "source": "OpenStreetMap", "license": "ODbL-1.0"}, "geometry": {"type": "MultiPolygon", "coordinates": [[[[114.1010239, 22.569227], [114.1012627, 22.5691104], [114.1016216, 22.5693707], [114.1018169, 22.5692575], [114.1013703, 22.5689489], [114.1012786, 22.5688671], [114.1012046, 22.5687362], [114.1013151, 22.5686966], [114.1014333, 22.5688463], [114.1019698, 22.56919], [114.1022702, 22.569392], [114.1019374, 22.5697975], [114.1016617, 22.5696182], [114.1016971, 22.5695784], [114.1016108, 22.5695158], [114.101523, 22.569567], [114.1010239, 22.569227]]]]}}, {"type": "Feature", "id": "way/1414214739", "properties": {"tags": {"building": "construction", "building:levels": "83", "building:material": "glass", "construction": "office", "height": "407", "name": "云投大厦", "opening_date": "2026", "wikipedia": "zh:城建云投大厦"}, "heightStatus": "height_tag_unverified", "source": "OpenStreetMap", "license": "ODbL-1.0"}, "geometry": {"type": "MultiPolygon", "coordinates": [[[[114.1004683, 22.5699015], [114.1004736, 22.5698606], [114.1006824, 22.5695845], [114.1007355, 22.5695747], [114.1010222, 22.569743], [114.1010464, 22.5697742], [114.1010431, 22.5698145], [114.1008639, 22.5700969], [114.1008116, 22.570109], [114.1004842, 22.5699325], [114.1004683, 22.5699015]]]]}}, {"type": "Feature", "id": "way/1414214740", "properties": {"tags": {"building": "construction"}, "heightStatus": "unknown", "source": "OpenStreetMap", "license": "ODbL-1.0"}, "geometry": {"type": "MultiPolygon", "coordinates": [[[[114.1011253, 22.5703062], [114.1012089, 22.570185], [114.1012632, 22.5702169], [114.1012471, 22.5702403], [114.1015699, 22.5704301], [114.1015811, 22.5704138], [114.101612, 22.5704319], [114.1015352, 22.5705431], [114.1014204, 22.5704756], [114.1014062, 22.5704962], [114.1013618, 22.5704701], [114.1013773, 22.5704477], [114.1013067, 22.5704062], [114.1012904, 22.5704299], [114.1012448, 22.570403], [114.1012578, 22.5703841], [114.1011253, 22.5703062]]]]}}, {"type": "Feature", "id": "way/1414214741", "properties": {"tags": {"building": "construction"}, "heightStatus": "unknown", "source": "OpenStreetMap", "license": "ODbL-1.0"}, "geometry": {"type": "MultiPolygon", "coordinates": [[[[114.1017729, 22.5708557], [114.1018514, 22.5707403], [114.1018093, 22.5707158], [114.1019251, 22.5705456], [114.1020946, 22.570644], [114.1020388, 22.570726], [114.1020571, 22.5707365], [114.1019185, 22.5709402], [114.1017729, 22.5708557]]]]}}, {"type": "Feature", "id": "relation/19346129", "properties": {"tags": {"building": "construction"}, "heightStatus": "unknown", "source": "OpenStreetMap", "license": "ODbL-1.0"}, "geometry": {"type": "MultiPolygon", "coordinates": [[[[114.1024634, 22.5707832], [114.1026364, 22.5705384], [114.1029462, 22.5707251], [114.1027803, 22.5709598], [114.102668, 22.5708922], [114.1026609, 22.5709022], [114.1024634, 22.5707832]], [[114.1025529, 22.5707838], [114.1026882, 22.5708636], [114.1027016, 22.5708442], [114.1026825, 22.570833], [114.1027042, 22.5708017], [114.1025879, 22.5707332], [114.1025529, 22.5707838]]]]}}, {"type": "Feature", "id": "way/1414214745", "properties": {"tags": {"building": "construction"}, "heightStatus": "unknown", "source": "OpenStreetMap", "license": "ODbL-1.0"}, "geometry": {"type": "MultiPolygon", "coordinates": [[[[114.1020525, 22.5710066], [114.1020915, 22.5709462], [114.1021538, 22.5709805], [114.1022159, 22.5708842], [114.1023954, 22.5709828], [114.1023302, 22.5710839], [114.1024377, 22.5711431], [114.102501, 22.5710449], [114.1026998, 22.5711542], [114.1026364, 22.5712525], [114.1026546, 22.5712625], [114.1026159, 22.5713225], [114.1025869, 22.5713065], [114.1025707, 22.5713317], [114.1024819, 22.5712828], [114.1024976, 22.5712585], [114.1024371, 22.5712252], [114.1024237, 22.5712458], [114.1023663, 22.5712142], [114.1023811, 22.5711912], [114.1022948, 22.5711437], [114.1022835, 22.5711614], [114.1022194, 22.5711262], [114.1022319, 22.5711068], [114.1021572, 22.5710657], [114.1021469, 22.5710817], [114.1020878, 22.5710492], [114.1020988, 22.5710321], [114.1020525, 22.5710066]]]]}}, {"type": "Feature", "id": "way/1414214746", "properties": {"tags": {"building": "construction"}, "heightStatus": "unknown", "source": "OpenStreetMap", "license": "ODbL-1.0"}, "geometry": {"type": "MultiPolygon", "coordinates": [[[[114.0997325, 22.5683958], [114.0998948, 22.568353], [114.1000812, 22.5683416], [114.100226, 22.5683715], [114.1002507, 22.5683928], [114.1002306, 22.5686361], [114.1002784, 22.5687869], [114.1002876, 22.5687257], [114.1003, 22.5687271], [114.1003, 22.5688523], [114.1002353, 22.5688566], [114.1002199, 22.568885], [114.1002368, 22.5688964], [114.1002476, 22.5688694], [114.1003508, 22.568922], [114.1004217, 22.568895], [114.1004925, 22.5690131], [114.1006312, 22.5691567], [114.1005388, 22.5692762], [114.0997577, 22.5688822], [114.0997325, 22.5683958]]]]}}, {"type": "Feature", "id": "way/1414214747", "properties": {"tags": {"building": "construction"}, "heightStatus": "unknown", "source": "OpenStreetMap", "license": "ODbL-1.0"}, "geometry": {"type": "MultiPolygon", "coordinates": [[[[114.1018082, 22.5683373], [114.1018112, 22.5679976], [114.1022944, 22.5680012], [114.1022924, 22.5682322], [114.102425, 22.5682332], [114.1024291, 22.5677677], [114.1023652, 22.5677672], [114.102366, 22.5676846], [114.1024362, 22.5676851], [114.1024364, 22.5676568], [114.1026922, 22.5676587], [114.1026899, 22.5679213], [114.1026217, 22.5679208], [114.1026184, 22.568304], [114.1025484, 22.5683035], [114.1025478, 22.5683727], [114.102066, 22.5683691], [114.1020662, 22.5683392], [114.1018082, 22.5683373]]]]}}, {"type": "Feature", "id": "way/1473808883", "properties": {"tags": {"amenity": "police", "building": "yes", "name": "清水河派出所"}, "heightStatus": "unknown", "source": "OpenStreetMap", "license": "ODbL-1.0"}, "geometry": {"type": "MultiPolygon", "coordinates": [[[[114.0930178, 22.568988], [114.0932899, 22.568933], [114.0933156, 22.5690414], [114.0930435, 22.5690964], [114.0930178, 22.568988]]]]}}]}