{"type": "FeatureCollection", "features": [{"type": "Feature", "id": "way/345413691", "properties": {"tags": {"building": "yes"}, "heightStatus": "unknown", "source": "OpenStreetMap", "license": "ODbL-1.0"}, "geometry": {"type": "MultiPolygon", "coordinates": [[[[114.1124065, 22.5743798], [114.1127726, 22.5736649], [114.1128969, 22.5737192], [114.1125308, 22.5744341], [114.1124065, 22.5743798]]]]}}, {"type": "Feature", "id": "way/345413692", "properties": {"tags": {"building": "yes"}, "heightStatus": "unknown", "source": "OpenStreetMap", "license": "ODbL-1.0"}, "geometry": {"type": "MultiPolygon", "coordinates": [[[[114.1125784, 22.5744421], [114.1133744, 22.5728843], [114.1135268, 22.5729507], [114.1127309, 22.5745085], [114.1125784, 22.5744421]]]]}}, {"type": "Feature", "id": "way/345413694", "properties": {"tags": {"building": "yes"}, "heightStatus": "unknown", "source": "OpenStreetMap", "license": "ODbL-1.0"}, "geometry": {"type": "MultiPolygon", "coordinates": [[[[114.1126244, 22.5751193], [114.1129146, 22.574565], [114.1130815, 22.5746396], [114.1127913, 22.5751938], [114.1126244, 22.5751193]]]]}}, {"type": "Feature", "id": "way/345413695", "properties": {"tags": {"building": "yes"}, "heightStatus": "unknown", "source": "OpenStreetMap", "license": "ODbL-1.0"}, "geometry": {"type": "MultiPolygon", "coordinates": [[[[114.1129146, 22.574565], [114.1132078, 22.5740056], [114.1133745, 22.5740802], [114.1130815, 22.5746396], [114.1129146, 22.574565]]]]}}, {"type": "Feature", "id": "way/345413696", "properties": {"tags": {"building": "yes"}, "heightStatus": "unknown", "source": "OpenStreetMap", "license": "ODbL-1.0"}, "geometry": {"type": "MultiPolygon", "coordinates": [[[[114.1132078, 22.5740056], [114.1135084, 22.5734327], [114.1136752, 22.5735074], [114.1133745, 22.5740802], [114.1132078, 22.5740056]]]]}}, {"type": "Feature", "id": "way/345413712", "properties": {"tags": {"building": "yes"}, "heightStatus": "unknown", "source": "OpenStreetMap", "license": "ODbL-1.0"}, "geometry": {"type": "MultiPolygon", "coordinates": [[[[114.112581, 22.5720938], [114.1126178, 22.5720219], [114.1127653, 22.5720872], [114.1127287, 22.5721587], [114.112581, 22.5720938]]]]}}, {"type": "Feature", "id": "way/810268576", "properties": {"tags": {"amenity": "fuel", "building": "roof", "layer": "1", "name": "特发华辉石油加油站"}, "heightStatus": "unknown", "source": "OpenStreetMap", "license": "ODbL-1.0"}, "geometry": {"type": "MultiPolygon", "coordinates": [[[[114.1184052, 22.5748633], [114.118553, 22.5748592], [114.118558, 22.5750108], [114.1184102, 22.575015], [114.1184052, 22.5748633]]]]}}, {"type": "Feature", "id": "way/939229042", "properties": {"tags": {"building": "commercial", "name": "维富大厦"}, "heightStatus": "unknown", "source": "OpenStreetMap", "license": "ODbL-1.0"}, "geometry": {"type": "MultiPolygon", "coordinates": [[[[114.1207244, 22.5786025], [114.1215881, 22.5786162], [114.1215918, 22.5790782], [114.1207281, 22.5790748], [114.1207244, 22.5786025]]]]}}, {"type": "Feature", "id": "way/1241339577", "properties": {"tags": {"building": "commercial", "name": "水贝银座大厦"}, "heightStatus": "unknown", "source": "OpenStreetMap", "license": "ODbL-1.0"}, "geometry": {"type": "MultiPolygon", "coordinates": [[[[114.120598, 22.5761964], [114.1206003, 22.5758271], [114.1211949, 22.575826], [114.1211867, 22.5761136], [114.1211642, 22.5761604], [114.1211194, 22.5761855], [114.1210569, 22.5761986], [114.120598, 22.5761964]]]]}}, {"type": "Feature", "id": "way/1241339578", "properties": {"tags": {"building": "commercial"}, "heightStatus": "unknown", "source": "OpenStreetMap", "license": "ODbL-1.0"}, "geometry": {"type": "MultiPolygon", "coordinates": [[[[114.1206135, 22.5761701], [114.1206179, 22.5758608], [114.120957, 22.5758649], [114.1209526, 22.5761742], [114.1206135, 22.5761701]]]]}}, {"type": "Feature", "id": "way/1241339579", "properties": {"tags": {"building": "commercial"}, "heightStatus": "unknown", "source": "OpenStreetMap", "license": "ODbL-1.0"}, "geometry": {"type": "MultiPolygon", "coordinates": [[[[114.1206112, 22.5755939], [114.1206153, 22.5752181], [114.1210175, 22.5752252], [114.1210125, 22.5755955], [114.1206112, 22.5755939]]]]}}, {"type": "Feature", "id": "way/1241339580", "properties": {"tags": {"building": "commercial", "name": "水贝金座大厦"}, "heightStatus": "unknown", "source": "OpenStreetMap", "license": "ODbL-1.0"}, "geometry": {"type": "MultiPolygon", "coordinates": [[[[114.1206109, 22.5756158], [114.1206112, 22.5755939], [114.1206153, 22.5752181], [114.1206157, 22.5751909], [114.1212456, 22.5752095], [114.1212657, 22.5752247], [114.1212869, 22.5752519], [114.1212893, 22.5752813], [114.1212386, 22.5756245], [114.1206109, 22.5756158]]]]}}, {"type": "Feature", "id": "way/1241339581", "properties": {"tags": {"building": "commercial", "name": "水贝壹号"}, "heightStatus": "unknown", "source": "OpenStreetMap", "license": "ODbL-1.0"}, "geometry": {"type": "MultiPolygon", "coordinates": [[[[114.1198102, 22.5762224], [114.1198198, 22.5754603], [114.1204161, 22.5754667], [114.1204065, 22.5762288], [114.1198102, 22.5762224]]]]}}, {"type": "Feature", "id": "way/1241339582", "properties": {"tags": {"building": "commercial"}, "heightStatus": "unknown", "source": "OpenStreetMap", "license": "ODbL-1.0"}, "geometry": {"type": "MultiPolygon", "coordinates": [[[[114.1198383, 22.5762105], [114.11984, 22.5760095], [114.1203891, 22.5760134], [114.1203874, 22.5762144], [114.1198383, 22.5762105]]]]}}, {"type": "Feature", "id": "way/1241339583", "properties": {"tags": {"building": "commercial"}, "heightStatus": "unknown", "source": "OpenStreetMap", "license": "ODbL-1.0"}, "geometry": {"type": "MultiPolygon", "coordinates": [[[[114.1198214, 22.5757238], [114.1198231, 22.5755332], [114.1204077, 22.5755376], [114.120406, 22.5757283], [114.1198214, 22.5757238]]]]}}, {"type": "Feature", "id": "way/1241339586", "properties": {"tags": {"building": "commercial", "name": "水贝国际中心"}, "heightStatus": "unknown", "source": "OpenStreetMap", "license": "ODbL-1.0"}, "geometry": {"type": "MultiPolygon", "coordinates": [[[[114.1185606, 22.576131], [114.1186174, 22.5759904], [114.1186601, 22.5759892], [114.1186557, 22.5759564], [114.1186143, 22.5759582], [114.1185724, 22.5758391], [114.1187446, 22.5758064], [114.1189098, 22.5758042], [114.1191599, 22.5758086], [114.1194277, 22.5757999], [114.1195952, 22.5758315], [114.1196259, 22.5758565], [114.119627, 22.576082], [114.1196093, 22.5761267], [114.1195763, 22.5761637], [114.1195445, 22.5761779], [114.1194713, 22.57618], [114.1185606, 22.576131]]]]}}, {"type": "Feature", "id": "way/1241339587", "properties": {"tags": {"building": "commercial"}, "heightStatus": "unknown", "source": "OpenStreetMap", "license": "ODbL-1.0"}, "geometry": {"type": "MultiPolygon", "coordinates": [[[[114.11857, 22.5761212], [114.1186243, 22.5759981], [114.1186691, 22.5759938], [114.1186656, 22.5759426], [114.1186219, 22.5759437], [114.1185924, 22.5758598], [114.118754, 22.5758206], [114.1188402, 22.5758151], [114.1191115, 22.5758184], [114.1191292, 22.575838], [114.1191882, 22.5759448], [114.1191728, 22.5759611], [114.1191009, 22.5759567], [114.1190985, 22.5759927], [114.1191198, 22.5759992], [114.1191552, 22.5760711], [114.1191481, 22.5760864], [114.1189982, 22.5761321], [114.11857, 22.5761212]]]]}}, {"type": "Feature", "id": "way/1241339588", "properties": {"tags": {"addr:housenumber": "71", "addr:street": "贝丽北路", "building": "commercial", "name": "兴龙黄金珠宝大厦"}, "heightStatus": "unknown", "source": "OpenStreetMap", "license": "ODbL-1.0"}, "geometry": {"type": "MultiPolygon", "coordinates": [[[[114.1206, 22.5748324], [114.1209183, 22.5748307], [114.12092, 22.5747828], [114.121376, 22.5747861], [114.1213456, 22.5749843], [114.1213295, 22.5750057], [114.1206, 22.5749958], [114.1206, 22.5748324]]]]}}, {"type": "Feature", "id": "way/1241339590", "properties": {"tags": {"building": "commercial", "name": "特力珠宝大厦"}, "heightStatus": "unknown", "source": "OpenStreetMap", "license": "ODbL-1.0"}, "geometry": {"type": "MultiPolygon", "coordinates": [[[[114.1187547, 22.5755241], [114.1187599, 22.5749594], [114.1189871, 22.5749612], [114.1193133, 22.5749637], [114.1193095, 22.5753739], [114.1193081, 22.5755284], [114.1187547, 22.5755241]]]]}}, {"type": "Feature", "id": "way/1241339591", "properties": {"tags": {"building": "commercial"}, "heightStatus": "unknown", "source": "OpenStreetMap", "license": "ODbL-1.0"}, "geometry": {"type": "MultiPolygon", "coordinates": [[[[114.1187547, 22.5755241], [114.1187599, 22.5749594], [114.1189871, 22.5749612], [114.1189799, 22.575369], [114.1193095, 22.5753739], [114.1193081, 22.5755284], [114.1187547, 22.5755241]]]]}}, {"type": "Feature", "id": "way/1241339593", "properties": {"tags": {"building": "commercial"}, "heightStatus": "unknown", "source": "OpenStreetMap", "license": "ODbL-1.0"}, "geometry": {"type": "MultiPolygon", "coordinates": [[[[114.1187601, 22.5748587], [114.1187653, 22.574294], [114.1193186, 22.5742983], [114.1193172, 22.5744528], [114.1189876, 22.5744526], [114.1189873, 22.5748604], [114.1187601, 22.5748587]]]]}}, {"type": "Feature", "id": "way/1241339594", "properties": {"tags": {"building": "commercial", "name": "金钻大厦"}, "heightStatus": "unknown", "source": "OpenStreetMap", "license": "ODbL-1.0"}, "geometry": {"type": "MultiPolygon", "coordinates": [[[[114.1187601, 22.5748587], [114.1187653, 22.574294], [114.1193186, 22.5742983], [114.1193172, 22.5744528], [114.1193135, 22.574863], [114.1189873, 22.5748604], [114.1187601, 22.5748587]]]]}}, {"type": "Feature", "id": "way/1241339599", "properties": {"tags": {"building": "commercial", "name": "特力大厦"}, "heightStatus": "unknown", "source": "OpenStreetMap", "license": "ODbL-1.0"}, "geometry": {"type": "MultiPolygon", "coordinates": [[[[114.1183819, 22.5743278], [114.1183878, 22.5741197], [114.1183961, 22.5740925], [114.1184209, 22.5740587], [114.1184409, 22.5740402], [114.1184645, 22.5740162], [114.1184987, 22.574001], [114.1185294, 22.5739955], [114.1190237, 22.5739955], [114.1190237, 22.5741524], [114.1185577, 22.5741557], [114.1185565, 22.5743256], [114.1183819, 22.5743278]]]]}}, {"type": "Feature", "id": "way/1265070645", "properties": {"tags": {"building": "office", "height": "246", "layer": "2"}, "heightStatus": "height_tag_unverified", "source": "OpenStreetMap", "license": "ODbL-1.0"}, "geometry": {"type": "MultiPolygon", "coordinates": [[[[114.1187176, 22.5736016], [114.1187207, 22.5733149], [114.1191952, 22.5733193], [114.119192, 22.5736061], [114.1187176, 22.5736016]]]]}}, {"type": "Feature", "id": "way/1265070646", "properties": {"tags": {"building": "residential", "building:levels": "24", "height": "180", "layer": "2"}, "heightStatus": "height_tag_unverified", "source": "OpenStreetMap", "license": "ODbL-1.0"}, "geometry": {"type": "MultiPolygon", "coordinates": [[[[114.1183839, 22.5729701], [114.1184693, 22.5728313], [114.1185521, 22.5728748], [114.1186007, 22.5727959], [114.1187369, 22.5728674], [114.1186886, 22.5729459], [114.1187068, 22.5729554], [114.1187129, 22.5729455], [114.1187514, 22.5729657], [114.1186551, 22.5731223], [114.1186095, 22.5730984], [114.118622, 22.5730781], [114.1186024, 22.5730679], [114.1186227, 22.5730349], [114.1185992, 22.5730226], [114.1185082, 22.5731705], [114.1184358, 22.5731326], [114.1184674, 22.5730812], [114.1184506, 22.5730724], [114.1184819, 22.5730215], [114.1183839, 22.5729701]]]]}}, {"type": "Feature", "id": "way/1265070647", "properties": {"tags": {"building": "residential", "building:levels": "24", "height": "180", "layer": "2"}, "heightStatus": "height_tag_unverified", "source": "OpenStreetMap", "license": "ODbL-1.0"}, "geometry": {"type": "MultiPolygon", "coordinates": [[[[114.1187805, 22.5725518], [114.1188659, 22.572413], [114.1189488, 22.5724565], [114.1189973, 22.5723776], [114.1191335, 22.5724491], [114.1190852, 22.5725276], [114.1191035, 22.5725372], [114.1191096, 22.5725272], [114.1191481, 22.5725474], [114.1190518, 22.5727041], [114.1190061, 22.5726801], [114.1190186, 22.5726599], [114.1189991, 22.5726496], [114.1190194, 22.5726167], [114.1189958, 22.5726043], [114.1189048, 22.5727523], [114.1188324, 22.5727143], [114.118864, 22.5726629], [114.1188473, 22.5726541], [114.1188786, 22.5726033], [114.1187805, 22.5725518]]]]}}, {"type": "Feature", "id": "way/1265070652", "properties": {"tags": {"building": "retail", "building:levels": "6", "layer": "1"}, "heightStatus": "levels_only_unverified", "source": "OpenStreetMap", "license": "ODbL-1.0"}, "geometry": {"type": "MultiPolygon", "coordinates": [[[[114.118377, 22.573219], [114.118381, 22.5729099], [114.1184824, 22.5724727], [114.1189124, 22.5723583], [114.1189961, 22.5721424], [114.1187004, 22.5721372], [114.1186994, 22.5710597], [114.1192315, 22.5710592], [114.1195751, 22.5712732], [114.1197255, 22.5711493], [114.1198881, 22.5711831], [114.1199946, 22.571277], [114.1196149, 22.5716446], [114.1197133, 22.5717312], [114.1196645, 22.5718945], [114.1193555, 22.5721366], [114.1191517, 22.5721434], [114.1190319, 22.5723585], [114.1192162, 22.572359], [114.1192136, 22.5736489], [114.1184427, 22.5736582], [114.118377, 22.573219]]]]}}, {"type": "Feature", "id": "way/1302649623", "properties": {"tags": {"building": "train_station", "building:levels": "0", "building:levels:underground": "2", "layer": "-1", "location": "underground", "name": "水贝站", "name:en": "Shuibei Station", "name:zh": "水贝站", "public_transport": "station", "start_date": "2011-06-28", "wikidata": "Q5941053", "wikipedia": "zh:水贝站"}, "heightStatus": "levels_only_unverified", "source": "OpenStreetMap", "license": "ODbL-1.0"}, "geometry": {"type": "MultiPolygon", "coordinates": [[[[114.1186654, 22.5770232], [114.1188909, 22.5770229], [114.1188907, 22.5768453], [114.120029, 22.5768438], [114.1200282, 22.5763275], [114.120482, 22.5763269], [114.1204821, 22.5763744], [114.1201049, 22.5763749], [114.1201056, 22.5768386], [114.1208298, 22.5768376], [114.1208299, 22.5769068], [114.1208849, 22.5769067], [114.120885, 22.5769826], [114.1208362, 22.5769827], [114.1208363, 22.5770709], [114.1205335, 22.5770713], [114.1205335, 22.5771102], [114.1198691, 22.5771111], [114.119869, 22.5770471], [114.11951, 22.5770475], [114.1195101, 22.5771064], [114.1186656, 22.5771075], [114.1186654, 22.5770232]]]]}}, {"type": "Feature", "id": "way/1421448038", "properties": {"tags": {"building": "yes", "name": "水贝环球商务中心"}, "heightStatus": "unknown", "source": "OpenStreetMap", "license": "ODbL-1.0"}, "geometry": {"type": "MultiPolygon", "coordinates": [[[[114.1192371, 22.5771541], [114.1195105, 22.5771529], [114.1196255, 22.5771895], [114.1197166, 22.5771895], [114.1197532, 22.5771895], [114.1198273, 22.5771623], [114.1201033, 22.57716], [114.1200892, 22.578125], [114.1195182, 22.5781226], [114.1192396, 22.5778949], [114.1192383, 22.577513], [114.1192371, 22.5771541]]]]}}, {"type": "Feature", "id": "way/1501114507", "properties": {"tags": {"building": "yes"}, "heightStatus": "unknown", "source": "OpenStreetMap", "license": "ODbL-1.0"}, "geometry": {"type": "MultiPolygon", "coordinates": [[[[114.1155632, 22.5742429], [114.1156292, 22.5742148], [114.1156572, 22.5742708], [114.1155911, 22.5742989], [114.1155632, 22.5742429]]]]}}, {"type": "Feature", "id": "way/1501114511", "properties": {"tags": {"building": "yes"}, "heightStatus": "unknown", "source": "OpenStreetMap", "license": "ODbL-1.0"}, "geometry": {"type": "MultiPolygon", "coordinates": [[[[114.1165867, 22.5742702], [114.1165908, 22.5742531], [114.1166044, 22.5742355], [114.1166249, 22.574225], [114.1166482, 22.5742236], [114.11667, 22.5742315], [114.1166859, 22.5742473], [114.116693, 22.5742679], [114.1166899, 22.5742893], [114.1166772, 22.5743074], [114.1166572, 22.5743187], [114.1166439, 22.5743213], [114.1166304, 22.5743206], [114.1166127, 22.5743144], [114.1165984, 22.5743029], [114.1165893, 22.5742875], [114.1165867, 22.5742702]]]]}}, {"type": "Feature", "id": "way/1501114512", "properties": {"tags": {"building": "yes"}, "heightStatus": "unknown", "source": "OpenStreetMap", "license": "ODbL-1.0"}, "geometry": {"type": "MultiPolygon", "coordinates": [[[[114.1161735, 22.5742907], [114.116174, 22.5742659], [114.1161834, 22.5742427], [114.1162006, 22.5742237], [114.116224, 22.574211], [114.1162506, 22.5742062], [114.1162775, 22.5742101], [114.1163013, 22.574222], [114.1163194, 22.5742407], [114.1163297, 22.5742639], [114.1163305, 22.5742909], [114.1163208, 22.5743163], [114.1163018, 22.5743367], [114.1162761, 22.5743495], [114.1162472, 22.5743528], [114.1162211, 22.5743471], [114.1161985, 22.5743337], [114.116182, 22.5743142], [114.1161735, 22.5742907]]]]}}, {"type": "Feature", "id": "way/1501130329", "properties": {"tags": {"building": "yes"}, "heightStatus": "unknown", "source": "OpenStreetMap", "license": "ODbL-1.0"}, "geometry": {"type": "MultiPolygon", "coordinates": [[[[114.1154737, 22.5728098], [114.1158933, 22.572799], [114.1159552, 22.5727974], [114.1159577, 22.572822], [114.115958, 22.5729162], [114.1159224, 22.5729179], [114.1159225, 22.5729466], [114.1158597, 22.5729482], [114.1158598, 22.5729583], [114.1157625, 22.5729608], [114.1157627, 22.5729864], [114.1156358, 22.5729878], [114.1156359, 22.5729113], [114.1156103, 22.5729116], [114.1156126, 22.5729687], [114.1154881, 22.5729685], [114.1154755, 22.5729498], [114.1154745, 22.5728552], [114.1154737, 22.5728098]]]]}}]}