{"type": "FeatureCollection", "features": [{"type": "Feature", "id": "way/1424388327", "properties": {"tags": {"building": "school"}, "heightStatus": "unknown", "source": "OpenStreetMap", "license": "ODbL-1.0"}, "geometry": {"type": "MultiPolygon", "coordinates": [[[[113.9258064, 22.6759324], [113.9260816, 22.6758186], [113.9261398, 22.6759383], [113.9258646, 22.6760521], [113.9258064, 22.6759324]]]]}}, {"type": "Feature", "id": "way/1424388328", "properties": {"tags": {"building": "school"}, "heightStatus": "unknown", "source": "OpenStreetMap", "license": "ODbL-1.0"}, "geometry": {"type": "MultiPolygon", "coordinates": [[[[113.9262445, 22.6743172], [113.9263369, 22.6742608], [113.9266191, 22.6746544], [113.9265267, 22.6747108], [113.9262445, 22.6743172]]]]}}, {"type": "Feature", "id": "way/1424388329", "properties": {"tags": {"building": "school"}, "heightStatus": "unknown", "source": "OpenStreetMap", "license": "ODbL-1.0"}, "geometry": {"type": "MultiPolygon", "coordinates": [[[[113.9258451, 22.6743555], [113.9260638, 22.6743449], [113.926077, 22.6745756], [113.9258583, 22.6745863], [113.9258451, 22.6743555]]]]}}, {"type": "Feature", "id": "way/1424388330", "properties": {"tags": {"building": "school"}, "heightStatus": "unknown", "source": "OpenStreetMap", "license": "ODbL-1.0"}, "geometry": {"type": "MultiPolygon", "coordinates": [[[[113.9258349, 22.6749264], [113.9259064, 22.6749229], [113.9259035, 22.6748728], [113.9258663, 22.6748746], [113.9258596, 22.674757], [113.9262688, 22.6747371], [113.9262755, 22.6748547], [113.9261167, 22.6748624], [113.926123, 22.6749731], [113.9260594, 22.6750224], [113.925841, 22.675033], [113.9258349, 22.6749264]]]]}}, {"type": "Feature", "id": "way/1424388331", "properties": {"tags": {"building": "dormitory"}, "heightStatus": "unknown", "source": "OpenStreetMap", "license": "ODbL-1.0"}, "geometry": {"type": "MultiPolygon", "coordinates": [[[[113.9257938, 22.6763442], [113.9258211, 22.6763309], [113.9258271, 22.6763414], [113.9258474, 22.6763314], [113.9258414, 22.6763209], [113.9258796, 22.6763022], [113.925875, 22.6762941], [113.9258998, 22.6762819], [113.9258786, 22.6762451], [113.9259088, 22.6762302], [113.9259138, 22.6762389], [113.9259441, 22.6762241], [113.9259631, 22.6762571], [113.9259916, 22.6762431], [113.9259726, 22.6762101], [113.926003, 22.6761952], [113.925998, 22.6761865], [113.9260282, 22.6761717], [113.9260494, 22.6762085], [113.9260742, 22.6761964], [113.9260789, 22.6762045], [113.9261171, 22.6761857], [113.9261232, 22.6761962], [113.9261435, 22.6761862], [113.9261375, 22.6761758], [113.9261647, 22.6761624], [113.9261861, 22.6761995], [113.9261992, 22.6761931], [113.9262139, 22.6762187], [113.9260599, 22.6762942], [113.9260795, 22.6763282], [113.9262335, 22.6762527], [113.9262482, 22.6762783], [113.9262352, 22.6762847], [113.9262565, 22.6763218], [113.9262293, 22.6763352], [113.9262232, 22.6763247], [113.9262029, 22.6763347], [113.9262089, 22.6763452], [113.9261707, 22.6763639], [113.9261754, 22.676372], [113.9261506, 22.6763842], [113.9261718, 22.676421], [113.9261415, 22.6764358], [113.9261365, 22.6764272], [113.9261062, 22.676442], [113.9260872, 22.676409], [113.9260587, 22.676423], [113.9260777, 22.676456], [113.9260474, 22.6764709], [113.9260524, 22.6764796], [113.9260221, 22.6764944], [113.9260009, 22.6764575], [113.9259761, 22.6764697], [113.9259715, 22.6764616], [113.9259332, 22.6764803], [113.9259272, 22.6764699], [113.9259068, 22.6764798], [113.9259129, 22.6764903], [113.9258856, 22.6765037], [113.9258642, 22.6764666], [113.9258512, 22.676473], [113.9258364, 22.6764474], [113.9259904, 22.6763719], [113.9259708, 22.6763379], [113.9258168, 22.6764133], [113.9258021, 22.6763878], [113.9258152, 22.6763814], [113.9257938, 22.6763442]]]]}}, {"type": "Feature", "id": "way/1424388343", "properties": {"tags": {"building": "house", "name": "D座", "name:zh": "D座"}, "heightStatus": "unknown", "source": "OpenStreetMap", "license": "ODbL-1.0"}, "geometry": {"type": "MultiPolygon", "coordinates": [[[[113.9259947, 22.677747], [113.9260573, 22.6777242], [113.9260823, 22.6777827], [113.9261129, 22.6777715], [113.9260798, 22.6776942], [113.9261702, 22.6776612], [113.9262033, 22.6777385], [113.9261744, 22.677749], [113.9262052, 22.6778208], [113.9262341, 22.6778102], [113.9262672, 22.6778875], [113.9261768, 22.6779205], [113.9261437, 22.6778432], [113.9261131, 22.6778544], [113.9261382, 22.6779129], [113.9260756, 22.6779357], [113.9260505, 22.6778772], [113.9260651, 22.6778719], [113.9260343, 22.6778002], [113.9260197, 22.6778055], [113.9259947, 22.677747]]]]}}, {"type": "Feature", "id": "way/1424388344", "properties": {"tags": {"building": "house", "name": "C座", "name:zh": "C座"}, "heightStatus": "unknown", "source": "OpenStreetMap", "license": "ODbL-1.0"}, "geometry": {"type": "MultiPolygon", "coordinates": [[[[113.9258758, 22.677458], [113.9259384, 22.6774352], [113.9259635, 22.6774937], [113.9259941, 22.6774825], [113.9259609, 22.6774052], [113.9260513, 22.6773722], [113.9260845, 22.6774495], [113.9260556, 22.67746], [113.9260863, 22.6775318], [113.9261152, 22.6775212], [113.9261484, 22.6775985], [113.926058, 22.6776315], [113.9260248, 22.6775542], [113.9259943, 22.6775654], [113.9260193, 22.6776239], [113.9259567, 22.6776467], [113.9259317, 22.6775882], [113.9259462, 22.6775829], [113.9259155, 22.6775112], [113.9259009, 22.6775165], [113.9258758, 22.677458]]]]}}, {"type": "Feature", "id": "way/1424388345", "properties": {"tags": {"building": "house", "name": "A座", "name:zh": "A座"}, "heightStatus": "unknown", "source": "OpenStreetMap", "license": "ODbL-1.0"}, "geometry": {"type": "MultiPolygon", "coordinates": [[[[113.9256335, 22.6768811], [113.9256961, 22.6768583], [113.9257212, 22.6769167], [113.9257517, 22.6769056], [113.9257186, 22.6768283], [113.925809, 22.6767953], [113.9258422, 22.6768726], [113.9258132, 22.6768831], [113.925844, 22.6769549], [113.9258729, 22.6769443], [113.925906, 22.6770216], [113.9258156, 22.6770546], [113.9257825, 22.6769773], [113.9257519, 22.6769885], [113.925777, 22.6770469], [113.9257144, 22.6770698], [113.9256893, 22.6770113], [113.9257039, 22.677006], [113.9256731, 22.6769343], [113.9256586, 22.6769396], [113.9256335, 22.6768811]]]]}}, {"type": "Feature", "id": "way/1424388346", "properties": {"tags": {"building": "house", "name": "B座", "name:zh": "B座"}, "heightStatus": "unknown", "source": "OpenStreetMap", "license": "ODbL-1.0"}, "geometry": {"type": "MultiPolygon", "coordinates": [[[[113.9257523, 22.6771701], [113.9258149, 22.6771473], [113.92584, 22.6772058], [113.9258706, 22.6771946], [113.9258374, 22.6771173], [113.9259279, 22.6770843], [113.925961, 22.6771616], [113.9259321, 22.6771721], [113.9259628, 22.6772439], [113.9259918, 22.6772333], [113.9260249, 22.6773106], [113.9259345, 22.6773436], [113.9259013, 22.6772663], [113.9258708, 22.6772775], [113.9258958, 22.6773359], [113.9258333, 22.6773588], [113.9258082, 22.6773003], [113.9258227, 22.677295], [113.925792, 22.6772233], [113.9257774, 22.6772286], [113.9257523, 22.6771701]]]]}}, {"type": "Feature", "id": "way/1424388356", "properties": {"tags": {"building": "industrial", "name": "B5栋", "name:zh": "B5栋"}, "heightStatus": "unknown", "source": "OpenStreetMap", "license": "ODbL-1.0"}, "geometry": {"type": "MultiPolygon", "coordinates": [[[[113.9238835, 22.6774723], [113.9239412, 22.6774692], [113.9240358, 22.6777455], [113.9239013, 22.6777528], [113.9238835, 22.6774723]]]]}}, {"type": "Feature", "id": "way/1424388357", "properties": {"tags": {"building": "industrial", "name": "B4栋", "name:zh": "B4栋"}, "heightStatus": "unknown", "source": "OpenStreetMap", "license": "ODbL-1.0"}, "geometry": {"type": "MultiPolygon", "coordinates": [[[[113.923916, 22.6777936], [113.9240211, 22.6777781], [113.9240796, 22.6781166], [113.9239744, 22.6781321], [113.923916, 22.6777936]]]]}}, {"type": "Feature", "id": "way/1424388358", "properties": {"tags": {"building": "industrial", "name": "B3栋", "name:zh": "B3栋"}, "heightStatus": "unknown", "source": "OpenStreetMap", "license": "ODbL-1.0"}, "geometry": {"type": "MultiPolygon", "coordinates": [[[[113.9239575, 22.6782104], [113.9240813, 22.6781715], [113.924192, 22.6784717], [113.9240682, 22.6785105], [113.9239575, 22.6782104]]]]}}, {"type": "Feature", "id": "way/1424388360", "properties": {"tags": {"building": "commercial", "name": "石岩主场B区", "shop": "mall"}, "heightStatus": "unknown", "source": "OpenStreetMap", "license": "ODbL-1.0"}, "geometry": {"type": "MultiPolygon", "coordinates": [[[[113.9240627, 22.6773084], [113.9244593, 22.6771771], [113.924501, 22.6772842], [113.9247202, 22.6772115], [113.9247049, 22.6771722], [113.9250749, 22.6770497], [113.9250795, 22.6770616], [113.9250958, 22.6770522], [113.9251134, 22.6770484], [113.9251313, 22.6770503], [113.9251475, 22.6770576], [113.9251602, 22.6770695], [113.9251672, 22.677083], [113.925242, 22.6770582], [113.9255228, 22.6777802], [113.9253506, 22.6778372], [113.9255335, 22.6783072], [113.9245748, 22.6786247], [113.9242608, 22.6778178], [113.9244037, 22.6777704], [113.9243596, 22.6776572], [113.9242168, 22.6777045], [113.9240627, 22.6773084]]]]}}, {"type": "Feature", "id": "way/1424388362", "properties": {"tags": {"building": "commercial", "name": "石岩主场A区", "shop": "mall"}, "heightStatus": "unknown", "source": "OpenStreetMap", "license": "ODbL-1.0"}, "geometry": {"type": "MultiPolygon", "coordinates": [[[[113.924657, 22.678836], [113.9256052, 22.6785176], [113.925785, 22.6789736], [113.9259638, 22.6789136], [113.9260487, 22.6791317], [113.9254524, 22.6793292], [113.9254024, 22.6792008], [113.9248678, 22.6793779], [113.924657, 22.678836]]]]}}, {"type": "Feature", "id": "way/1424388363", "properties": {"tags": {"building": "industrial", "name": "B2栋", "name:zh": "B2栋"}, "heightStatus": "unknown", "source": "OpenStreetMap", "license": "ODbL-1.0"}, "geometry": {"type": "MultiPolygon", "coordinates": [[[[113.9233193, 22.6773044], [113.9238168, 22.6772655], [113.9238275, 22.6773823], [113.9233301, 22.6774212], [113.9233193, 22.6773044]]]]}}, {"type": "Feature", "id": "way/1424388364", "properties": {"tags": {"building": "industrial", "name": "B1栋", "name:zh": "B1栋"}, "heightStatus": "unknown", "source": "OpenStreetMap", "license": "ODbL-1.0"}, "geometry": {"type": "MultiPolygon", "coordinates": [[[[113.9226904, 22.6773535], [113.9231988, 22.6773138], [113.9232096, 22.6774306], [113.9227011, 22.6774703], [113.9226904, 22.6773535]]]]}}, {"type": "Feature", "id": "way/1424388365", "properties": {"tags": {"building": "industrial", "name": "A1栋", "name:zh": "A1栋"}, "heightStatus": "unknown", "source": "OpenStreetMap", "license": "ODbL-1.0"}, "geometry": {"type": "MultiPolygon", "coordinates": [[[[113.9227118, 22.6775932], [113.9232202, 22.6775531], [113.923237, 22.6777347], [113.9227286, 22.6777748], [113.9227118, 22.6775932]]]]}}, {"type": "Feature", "id": "way/1424388366", "properties": {"tags": {"building": "industrial", "name": "A5栋", "name:zh": "A5栋"}, "heightStatus": "unknown", "source": "OpenStreetMap", "license": "ODbL-1.0"}, "geometry": {"type": "MultiPolygon", "coordinates": [[[[113.9233407, 22.6775429], [113.9238381, 22.6775038], [113.9238549, 22.6776854], [113.9233575, 22.6777245], [113.9233407, 22.6775429]]]]}}, {"type": "Feature", "id": "way/1424388367", "properties": {"tags": {"building": "industrial", "name": "A6栋", "name:zh": "A6栋"}, "heightStatus": "unknown", "source": "OpenStreetMap", "license": "ODbL-1.0"}, "geometry": {"type": "MultiPolygon", "coordinates": [[[[113.9233689, 22.6778174], [113.9238663, 22.6777782], [113.9238831, 22.6779598], [113.9233857, 22.677999], [113.9233689, 22.6778174]]]]}}, {"type": "Feature", "id": "way/1424388368", "properties": {"tags": {"building": "industrial", "name": "A2栋", "name:zh": "A2栋"}, "heightStatus": "unknown", "source": "OpenStreetMap", "license": "ODbL-1.0"}, "geometry": {"type": "MultiPolygon", "coordinates": [[[[113.92274, 22.6778676], [113.9232484, 22.6778276], [113.9232652, 22.6780092], [113.9227568, 22.6780492], [113.92274, 22.6778676]]]]}}, {"type": "Feature", "id": "way/1424388369", "properties": {"tags": {"building": "industrial", "name": "A3栋", "name:zh": "A3栋"}, "heightStatus": "unknown", "source": "OpenStreetMap", "license": "ODbL-1.0"}, "geometry": {"type": "MultiPolygon", "coordinates": [[[[113.9227641, 22.6781354], [113.9232725, 22.6780954], [113.9232893, 22.678277], [113.9227809, 22.678317], [113.9227641, 22.6781354]]]]}}, {"type": "Feature", "id": "way/1424388370", "properties": {"tags": {"building": "industrial", "name": "A7栋", "name:zh": "A7栋"}, "heightStatus": "unknown", "source": "OpenStreetMap", "license": "ODbL-1.0"}, "geometry": {"type": "MultiPolygon", "coordinates": [[[[113.9233929, 22.6780852], [113.9238903, 22.678046], [113.9239071, 22.6782276], [113.9234097, 22.6782668], [113.9233929, 22.6780852]]]]}}, {"type": "Feature", "id": "way/1424388371", "properties": {"tags": {"building": "industrial", "name": "A8栋", "name:zh": "A8栋"}, "heightStatus": "unknown", "source": "OpenStreetMap", "license": "ODbL-1.0"}, "geometry": {"type": "MultiPolygon", "coordinates": [[[[113.9234174, 22.6783501], [113.923915, 22.6783109], [113.9239282, 22.6784537], [113.9234306, 22.6784928], [113.9234174, 22.6783501]]]]}}, {"type": "Feature", "id": "way/1424388372", "properties": {"tags": {"building": "industrial", "name": "A4栋", "name:zh": "A4栋"}, "heightStatus": "unknown", "source": "OpenStreetMap", "license": "ODbL-1.0"}, "geometry": {"type": "MultiPolygon", "coordinates": [[[[113.9227885, 22.6783996], [113.9232969, 22.6783596], [113.9233102, 22.6785029], [113.9228018, 22.6785429], [113.9227885, 22.6783996]]]]}}, {"type": "Feature", "id": "way/1424390047", "properties": {"tags": {"building": "yes"}, "heightStatus": "unknown", "source": "OpenStreetMap", "license": "ODbL-1.0"}, "geometry": {"type": "MultiPolygon", "coordinates": [[[[113.9247814, 22.6794778], [113.9253597, 22.6792862], [113.9254002, 22.6793902], [113.9248218, 22.6795817], [113.9247814, 22.6794778]]]]}}, {"type": "Feature", "id": "way/1424522878", "properties": {"tags": {"building": "industrial"}, "heightStatus": "unknown", "source": "OpenStreetMap", "license": "ODbL-1.0"}, "geometry": {"type": "MultiPolygon", "coordinates": [[[[113.9271944, 22.6736962], [113.9273614, 22.6736075], [113.927663, 22.6740909], [113.927496, 22.6741796], [113.9271944, 22.6736962]]]]}}, {"type": "Feature", "id": "way/1424522906", "properties": {"tags": {"building": "industrial"}, "heightStatus": "unknown", "source": "OpenStreetMap", "license": "ODbL-1.0"}, "geometry": {"type": "MultiPolygon", "coordinates": [[[[113.9242378, 22.6748923], [113.9243713, 22.6746656], [113.9246319, 22.6747963], [113.9244984, 22.675023], [113.9242378, 22.6748923]]]]}}, {"type": "Feature", "id": "way/1424522907", "properties": {"tags": {"building": "industrial"}, "heightStatus": "unknown", "source": "OpenStreetMap", "license": "ODbL-1.0"}, "geometry": {"type": "MultiPolygon", "coordinates": [[[[113.9247242, 22.6748822], [113.9248285, 22.6747052], [113.925268, 22.6749256], [113.9252512, 22.674912], [113.9252425, 22.6748931], [113.9252436, 22.6748725], [113.9252543, 22.6748544], [113.9252724, 22.6748424], [113.9252944, 22.6748388], [113.9253158, 22.6748443], [113.9248848, 22.6746282], [113.924989, 22.6744512], [113.9254659, 22.6746903], [113.9252095, 22.6751255], [113.9247242, 22.6748822]]]]}}, {"type": "Feature", "id": "way/1424522908", "properties": {"tags": {"building": "industrial"}, "heightStatus": "unknown", "source": "OpenStreetMap", "license": "ODbL-1.0"}, "geometry": {"type": "MultiPolygon", "coordinates": [[[[113.9248025, 22.6740063], [113.9249129, 22.6738307], [113.9255849, 22.6741905], [113.9254744, 22.6743661], [113.9248025, 22.6740063]]]]}}, {"type": "Feature", "id": "way/1424522909", "properties": {"tags": {"building": "industrial"}, "heightStatus": "unknown", "source": "OpenStreetMap", "license": "ODbL-1.0"}, "geometry": {"type": "MultiPolygon", "coordinates": [[[[113.9250246, 22.6744034], [113.9251183, 22.6742444], [113.9255299, 22.6744508], [113.925426, 22.6746273], [113.9253565, 22.6745925], [113.9253668, 22.674575], [113.9250246, 22.6744034]]]]}}, {"type": "Feature", "id": "way/1424522910", "properties": {"tags": {"building": "industrial"}, "heightStatus": "unknown", "source": "OpenStreetMap", "license": "ODbL-1.0"}, "geometry": {"type": "MultiPolygon", "coordinates": [[[[113.9245539, 22.6751621], [113.9246681, 22.6749683], [113.9251575, 22.6752137], [113.9250434, 22.6754076], [113.9245539, 22.6751621]]]]}}, {"type": "Feature", "id": "way/1424522911", "properties": {"tags": {"building": "industrial"}, "heightStatus": "unknown", "source": "OpenStreetMap", "license": "ODbL-1.0"}, "geometry": {"type": "MultiPolygon", "coordinates": [[[[113.9244344, 22.6745586], [113.9247038, 22.6741011], [113.9249644, 22.6742318], [113.924695, 22.6746892], [113.9244344, 22.6745586]]]]}}, {"type": "Feature", "id": "way/1424522912", "properties": {"tags": {"building": "apartments", "name": "3栋", "name:zh": "3栋"}, "heightStatus": "unknown", "source": "OpenStreetMap", "license": "ODbL-1.0"}, "geometry": {"type": "MultiPolygon", "coordinates": [[[[113.9243831, 22.6735335], [113.9244381, 22.6734422], [113.9247416, 22.6735979], [113.9246865, 22.6736893], [113.9243831, 22.6735335]]]]}}, {"type": "Feature", "id": "way/1424522914", "properties": {"tags": {"building": "apartments", "name": "8栋", "name:zh": "8栋"}, "heightStatus": "unknown", "source": "OpenStreetMap", "license": "ODbL-1.0"}, "geometry": {"type": "MultiPolygon", "coordinates": [[[[113.9240827, 22.6736105], [113.9243186, 22.6734836], [113.9243596, 22.6735485], [113.9241237, 22.6736753], [113.9240827, 22.6736105]]]]}}, {"type": "Feature", "id": "way/1424522915", "properties": {"tags": {"building": "apartments", "name": "7栋", "name:zh": "7栋"}, "heightStatus": "unknown", "source": "OpenStreetMap", "license": "ODbL-1.0"}, "geometry": {"type": "MultiPolygon", "coordinates": [[[[113.9239451, 22.6736845], [113.9240827, 22.6736105], [113.9241237, 22.6736753], [113.9240863, 22.6736955], [113.9241158, 22.6737423], [113.9240563, 22.6737744], [113.9240267, 22.6737275], [113.923986, 22.6737494], [113.9239451, 22.6736845]]]]}}, {"type": "Feature", "id": "way/1424522916", "properties": {"tags": {"building": "apartments", "name": "6栋", "name:zh": "6栋"}, "heightStatus": "unknown", "source": "OpenStreetMap", "license": "ODbL-1.0"}, "geometry": {"type": "MultiPolygon", "coordinates": [[[[113.9238074, 22.6737585], [113.9239451, 22.6736845], [113.923986, 22.6737494], [113.9239454, 22.6737712], [113.923975, 22.6738181], [113.9239154, 22.6738501], [113.9238858, 22.6738032], [113.9238484, 22.6738234], [113.9238074, 22.6737585]]]]}}, {"type": "Feature", "id": "way/1424522917", "properties": {"tags": {"building": "apartments", "name": "5栋", "name:zh": "5栋"}, "heightStatus": "unknown", "source": "OpenStreetMap", "license": "ODbL-1.0"}, "geometry": {"type": "MultiPolygon", "coordinates": [[[[113.9236697, 22.6738325], [113.9238074, 22.6737585], [113.9238484, 22.6738234], [113.9238109, 22.6738435], [113.9238405, 22.6738904], [113.9237809, 22.6739224], [113.9237513, 22.6738755], [113.9237107, 22.6738974], [113.9236697, 22.6738325]]]]}}, {"type": "Feature", "id": "way/1424522919", "properties": {"tags": {"building": "house"}, "heightStatus": "unknown", "source": "OpenStreetMap", "license": "ODbL-1.0"}, "geometry": {"type": "MultiPolygon", "coordinates": [[[[113.9238916, 22.6745024], [113.9239445, 22.6744127], [113.9243141, 22.674598], [113.9242612, 22.6746878], [113.9238916, 22.6745024]]]]}}, {"type": "Feature", "id": "way/1424522920", "properties": {"tags": {"building": "house"}, "heightStatus": "unknown", "source": "OpenStreetMap", "license": "ODbL-1.0"}, "geometry": {"type": "MultiPolygon", "coordinates": [[[[113.9241063, 22.6741372], [113.9241591, 22.6740474], [113.9245287, 22.6742328], [113.9244759, 22.6743225], [113.9241063, 22.6741372]]]]}}, {"type": "Feature", "id": "way/1424522921", "properties": {"tags": {"building": "house"}, "heightStatus": "unknown", "source": "OpenStreetMap", "license": "ODbL-1.0"}, "geometry": {"type": "MultiPolygon", "coordinates": [[[[113.9240062, 22.6743266], [113.9240591, 22.6742368], [113.9244287, 22.6744222], [113.9243758, 22.6745119], [113.9240062, 22.6743266]]]]}}, {"type": "Feature", "id": "way/1424522922", "properties": {"tags": {"building": "house"}, "heightStatus": "unknown", "source": "OpenStreetMap", "license": "ODbL-1.0"}, "geometry": {"type": "MultiPolygon", "coordinates": [[[[113.9242164, 22.6739489], [113.9242693, 22.6738591], [113.9246389, 22.6740445], [113.924586, 22.6741342], [113.9242164, 22.6739489]]]]}}, {"type": "Feature", "id": "way/1424522923", "properties": {"tags": {"building": "house"}, "heightStatus": "unknown", "source": "OpenStreetMap", "license": "ODbL-1.0"}, "geometry": {"type": "MultiPolygon", "coordinates": [[[[113.9243164, 22.6737594], [113.9243693, 22.6736697], [113.9247389, 22.673855], [113.924686, 22.6739448], [113.9243164, 22.6737594]]]]}}, {"type": "Feature", "id": "way/1425224889", "properties": {"tags": {"building": "industrial"}, "heightStatus": "unknown", "source": "OpenStreetMap", "license": "ODbL-1.0"}, "geometry": {"type": "MultiPolygon", "coordinates": [[[[113.918817, 22.6723291], [113.9189808, 22.6719957], [113.918891, 22.6720016], [113.9188572, 22.6715621], [113.9194924, 22.6715205], [113.9195631, 22.6724399], [113.9188292, 22.672488], [113.918817, 22.6723291]]]]}}, {"type": "Feature", "id": "way/1425224890", "properties": {"tags": {"building": "industrial"}, "heightStatus": "unknown", "source": "OpenStreetMap", "license": "ODbL-1.0"}, "geometry": {"type": "MultiPolygon", "coordinates": [[[[113.9196452, 22.6711521], [113.9199701, 22.6711308], [113.9200375, 22.6720074], [113.9201355, 22.672001], [113.9201725, 22.6724813], [113.9197495, 22.672509], [113.9196452, 22.6711521]]]]}}, {"type": "Feature", "id": "way/1425224891", "properties": {"tags": {"building": "industrial"}, "heightStatus": "unknown", "source": "OpenStreetMap", "license": "ODbL-1.0"}, "geometry": {"type": "MultiPolygon", "coordinates": [[[[113.9186631, 22.6734703], [113.918706, 22.6727344], [113.9199672, 22.67268], [113.9201913, 22.6726683], [113.9199799, 22.6730289], [113.9186631, 22.6734703]]]]}}, {"type": "Feature", "id": "way/1425224893", "properties": {"tags": {"building": "industrial"}, "heightStatus": "unknown", "source": "OpenStreetMap", "license": "ODbL-1.0"}, "geometry": {"type": "MultiPolygon", "coordinates": [[[[113.9177234, 22.6727773], [113.9184104, 22.6727471], [113.918416, 22.6728579], [113.9184333, 22.6728632], [113.9184477, 22.6728736], [113.9184575, 22.6728879], [113.9184614, 22.6729044], [113.9184592, 22.6729211], [113.9184509, 22.6729362], [113.9184377, 22.6729478], [113.918421, 22.6729546], [113.9184268, 22.6730654], [113.9177399, 22.6730956], [113.9177234, 22.6727773]]]]}}, {"type": "Feature", "id": "way/1425224894", "properties": {"tags": {"building": "industrial"}, "heightStatus": "unknown", "source": "OpenStreetMap", "license": "ODbL-1.0"}, "geometry": {"type": "MultiPolygon", "coordinates": [[[[113.9180117, 22.6725218], [113.9181588, 22.6721726], [113.9185169, 22.6721568], [113.9185399, 22.6726026], [113.918017, 22.6726255], [113.9180117, 22.6725218]]]]}}, {"type": "Feature", "id": "way/1425224895", "properties": {"tags": {"building": "industrial"}, "heightStatus": "unknown", "source": "OpenStreetMap", "license": "ODbL-1.0"}, "geometry": {"type": "MultiPolygon", "coordinates": [[[[113.9186264, 22.6712942], [113.919436, 22.6712586], [113.919446, 22.6714533], [113.9186364, 22.6714889], [113.9186264, 22.6712942]]]]}}, {"type": "Feature", "id": "way/1425224896", "properties": {"tags": {"building": "industrial"}, "heightStatus": "unknown", "source": "OpenStreetMap", "license": "ODbL-1.0"}, "geometry": {"type": "MultiPolygon", "coordinates": [[[[113.9182958, 22.6719173], [113.9184032, 22.6716622], [113.9187418, 22.6716474], [113.9187601, 22.6720008], [113.9183012, 22.672021], [113.9182958, 22.6719173]]]]}}, {"type": "Feature", "id": "way/1425225590", "properties": {"tags": {"building": "apartments"}, "heightStatus": "unknown", "source": "OpenStreetMap", "license": "ODbL-1.0"}, "geometry": {"type": "MultiPolygon", "coordinates": [[[[113.9190092, 22.6754859], [113.9190551, 22.6753993], [113.9197289, 22.6757033], [113.919683, 22.6757899], [113.919613, 22.6757583], [113.9195519, 22.6758737], [113.9193897, 22.6758005], [113.9194508, 22.6756851], [113.9192414, 22.6755907], [113.9191803, 22.6757061], [113.9190181, 22.6756329], [113.9190792, 22.6755175], [113.9190092, 22.6754859]]]]}}, {"type": "Feature", "id": "way/1425226788", "properties": {"tags": {"building": "service"}, "heightStatus": "unknown", "source": "OpenStreetMap", "license": "ODbL-1.0"}, "geometry": {"type": "MultiPolygon", "coordinates": [[[[113.9223084, 22.6754475], [113.9226222, 22.675179], [113.9226924, 22.6752489], [113.9223786, 22.6755174], [113.9223084, 22.6754475]]]]}}, {"type": "Feature", "id": "way/1425226792", "properties": {"tags": {"building": "yes"}, "heightStatus": "unknown", "source": "OpenStreetMap", "license": "ODbL-1.0"}, "geometry": {"type": "MultiPolygon", "coordinates": [[[[113.922067, 22.6735134], [113.9221543, 22.6734386], [113.9227524, 22.6740325], [113.9226651, 22.6741074], [113.922067, 22.6735134]]]]}}, {"type": "Feature", "id": "way/1425226797", "properties": {"tags": {"building": "industrial"}, "heightStatus": "unknown", "source": "OpenStreetMap", "license": "ODbL-1.0"}, "geometry": {"type": "MultiPolygon", "coordinates": [[[[113.922671, 22.6747213], [113.9228608, 22.6743799], [113.9231319, 22.6745082], [113.9229422, 22.6748496], [113.922671, 22.6747213]]]]}}, {"type": "Feature", "id": "way/1425226799", "properties": {"tags": {"building": "apartments", "name": "锦驰益民公寓"}, "heightStatus": "unknown", "source": "OpenStreetMap", "license": "ODbL-1.0"}, "geometry": {"type": "MultiPolygon", "coordinates": [[[[113.9219597, 22.6777652], [113.922008, 22.6774039], [113.9221369, 22.6774186], [113.9220886, 22.6777799], [113.9219597, 22.6777652]]]]}}, {"type": "Feature", "id": "way/1425226800", "properties": {"tags": {"building": "hotel", "name": "金海悦酒店", "tourism": "hotel"}, "heightStatus": "unknown", "source": "OpenStreetMap", "license": "ODbL-1.0"}, "geometry": {"type": "MultiPolygon", "coordinates": [[[[113.9220232, 22.6772049], [113.9225015, 22.677196], [113.9225051, 22.6773604], [113.9220268, 22.6773692], [113.9220232, 22.6772049]]]]}}, {"type": "Feature", "id": "way/1425226801", "properties": {"tags": {"building": "industrial"}, "heightStatus": "unknown", "source": "OpenStreetMap", "license": "ODbL-1.0"}, "geometry": {"type": "MultiPolygon", "coordinates": [[[[113.9224007, 22.6776072], [113.9225551, 22.6776044], [113.922562, 22.6779208], [113.9224076, 22.6779236], [113.9224007, 22.6776072]]]]}}, {"type": "Feature", "id": "way/1425226802", "properties": {"tags": {"building": "industrial"}, "heightStatus": "unknown", "source": "OpenStreetMap", "license": "ODbL-1.0"}, "geometry": {"type": "MultiPolygon", "coordinates": [[[[113.9222181, 22.6780637], [113.9225686, 22.6780573], [113.922573, 22.6782611], [113.9222226, 22.6782676], [113.9222181, 22.6780637]]]]}}, {"type": "Feature", "id": "way/1425226803", "properties": {"tags": {"building": "industrial"}, "heightStatus": "unknown", "source": "OpenStreetMap", "license": "ODbL-1.0"}, "geometry": {"type": "MultiPolygon", "coordinates": [[[[113.9221257, 22.6783813], [113.9226164, 22.6783722], [113.9226202, 22.6785509], [113.9221296, 22.67856], [113.9221257, 22.6783813]]]]}}]}