{"type": "FeatureCollection", "features": [{"type": "Feature", "id": "way/269869448", "properties": {"tags": {"building": "industrial"}, "heightStatus": "unknown", "source": "OpenStreetMap", "license": "ODbL-1.0"}, "geometry": {"type": "MultiPolygon", "coordinates": [[[[113.9130766, 22.6452394], [113.9130928, 22.6448515], [113.9141748, 22.6448899], [113.9141586, 22.6452778], [113.9130766, 22.6452394]]]]}}, {"type": "Feature", "id": "way/269869450", "properties": {"tags": {"building": "industrial"}, "heightStatus": "unknown", "source": "OpenStreetMap", "license": "ODbL-1.0"}, "geometry": {"type": "MultiPolygon", "coordinates": [[[[113.9136139, 22.6446817], [113.9136298, 22.6440139], [113.9136457, 22.6433493], [113.9142031, 22.6433606], [113.9141985, 22.6435541], [113.9141855, 22.6440995], [113.9141713, 22.644693], [113.9136139, 22.6446817]]]]}}, {"type": "Feature", "id": "way/269869457", "properties": {"tags": {"building": "industrial"}, "heightStatus": "unknown", "source": "OpenStreetMap", "license": "ODbL-1.0"}, "geometry": {"type": "MultiPolygon", "coordinates": [[[[113.9157661, 22.6447127], [113.9157711, 22.6443422], [113.9157754, 22.6440285], [113.9159904, 22.6440309], [113.9159814, 22.6445192], [113.9162751, 22.64452], [113.9162724, 22.6447185], [113.9157661, 22.6447127]]]]}}, {"type": "Feature", "id": "way/269869459", "properties": {"tags": {"building": "industrial"}, "heightStatus": "unknown", "source": "OpenStreetMap", "license": "ODbL-1.0"}, "geometry": {"type": "MultiPolygon", "coordinates": [[[[113.9143602, 22.6452732], [113.9143678, 22.644897], [113.9154662, 22.644916], [113.9154586, 22.6452921], [113.9143602, 22.6452732]]]]}}, {"type": "Feature", "id": "way/269869470", "properties": {"tags": {"building": "industrial"}, "heightStatus": "unknown", "source": "OpenStreetMap", "license": "ODbL-1.0"}, "geometry": {"type": "MultiPolygon", "coordinates": [[[[113.9150678, 22.6447387], [113.9150768, 22.6442606], [113.9150936, 22.6433755], [113.9151032, 22.6428648], [113.9156115, 22.642873], [113.9156017, 22.6433916], [113.9155836, 22.6443489], [113.9155761, 22.6447469], [113.9150678, 22.6447387]]]]}}, {"type": "Feature", "id": "way/269869475", "properties": {"tags": {"building": "industrial"}, "heightStatus": "unknown", "source": "OpenStreetMap", "license": "ODbL-1.0"}, "geometry": {"type": "MultiPolygon", "coordinates": [[[[113.9143567, 22.6446894], [113.9143731, 22.6441028], [113.9143883, 22.6435579], [113.9143996, 22.643157], [113.9144068, 22.6428982], [113.9149005, 22.64291], [113.9148875, 22.6433752], [113.9148628, 22.6442573], [113.9148504, 22.6447011], [113.9143567, 22.6446894]]]]}}, {"type": "Feature", "id": "way/1278544817", "properties": {"tags": {"addr:housenumber": "2027", "addr:postcode": "518108", "addr:street": "松白路", "building": "commercial", "name": "龙辰发商务大厦", "name:en": "Longchenfa Buisiness Building", "name:zh": "龙辰发商务大厦", "name:zh-Hans": "龙辰发商务大厦"}, "heightStatus": "unknown", "source": "OpenStreetMap", "license": "ODbL-1.0"}, "geometry": {"type": "MultiPolygon", "coordinates": [[[[113.9146045, 22.6513672], [113.9146361, 22.6509851], [113.9147842, 22.6509955], [113.9147526, 22.6513776], [113.9146045, 22.6513672]]]]}}, {"type": "Feature", "id": "way/1278544818", "properties": {"tags": {"addr:housenumber": "2029", "addr:postcode": "518108", "addr:street": "松白路", "building": "yes", "tourism": "hotel"}, "heightStatus": "unknown", "source": "OpenStreetMap", "license": "ODbL-1.0"}, "geometry": {"type": "MultiPolygon", "coordinates": [[[[113.9144986, 22.6517316], [113.9145007, 22.6515755], [113.9146434, 22.6515066], [113.9147182, 22.6515075], [113.9147151, 22.6517341], [113.9144986, 22.6517316]]]]}}, {"type": "Feature", "id": "way/1278544819", "properties": {"tags": {"addr:housenumber": "2", "addr:postcode": "518108", "addr:street": "青塘路", "building": "yes"}, "heightStatus": "unknown", "source": "OpenStreetMap", "license": "ODbL-1.0"}, "geometry": {"type": "MultiPolygon", "coordinates": [[[[113.9141722, 22.6516993], [113.9143424, 22.6516468], [113.9143739, 22.6517441], [113.9141852, 22.6517421], [113.9141722, 22.6516993]]]]}}, {"type": "Feature", "id": "way/1308113030", "properties": {"tags": {"building": "industrial"}, "heightStatus": "unknown", "source": "OpenStreetMap", "license": "ODbL-1.0"}, "geometry": {"type": "MultiPolygon", "coordinates": [[[[113.9130294, 22.6446976], [113.9130356, 22.6438174], [113.9133574, 22.6438194], [113.913356, 22.6440136], [113.913351, 22.6446995], [113.9130294, 22.6446976]]]]}}, {"type": "Feature", "id": "way/1361170537", "properties": {"tags": {"building": "industrial"}, "heightStatus": "unknown", "source": "OpenStreetMap", "license": "ODbL-1.0"}, "geometry": {"type": "MultiPolygon", "coordinates": [[[[113.9134729, 22.651896], [113.9137642, 22.6518937], [113.9137692, 22.6524243], [113.9137766, 22.6532077], [113.9134857, 22.6532101], [113.9134803, 22.6526595], [113.9134729, 22.651896]]]]}}, {"type": "Feature", "id": "way/1361170538", "properties": {"tags": {"building": "industrial"}, "heightStatus": "unknown", "source": "OpenStreetMap", "license": "ODbL-1.0"}, "geometry": {"type": "MultiPolygon", "coordinates": [[[[113.9140506, 22.6519097], [113.9143471, 22.6519052], [113.9143643, 22.6528825], [113.914068, 22.6528869], [113.9140596, 22.6524176], [113.9140506, 22.6519097]]]]}}, {"type": "Feature", "id": "way/1361382269", "properties": {"tags": {"building": "industrial"}, "heightStatus": "unknown", "source": "OpenStreetMap", "license": "ODbL-1.0"}, "geometry": {"type": "MultiPolygon", "coordinates": [[[[113.9085892, 22.6520313], [113.9086624, 22.6517981], [113.9093693, 22.651987], [113.909456, 22.652263], [113.9085892, 22.6520313]]]]}}, {"type": "Feature", "id": "way/1361382270", "properties": {"tags": {"building": "industrial"}, "heightStatus": "unknown", "source": "OpenStreetMap", "license": "ODbL-1.0"}, "geometry": {"type": "MultiPolygon", "coordinates": [[[[113.9093962, 22.6516854], [113.9099173, 22.6513377], [113.9100606, 22.6515609], [113.9094598, 22.6519035], [113.9093962, 22.6516854]]]]}}, {"type": "Feature", "id": "way/1361382271", "properties": {"tags": {"building": "industrial"}, "heightStatus": "unknown", "source": "OpenStreetMap", "license": "ODbL-1.0"}, "geometry": {"type": "MultiPolygon", "coordinates": [[[[113.9096228, 22.6519371], [113.9097784, 22.6518485], [113.9100016, 22.6521826], [113.909846, 22.6522711], [113.9096228, 22.6519371]]]]}}, {"type": "Feature", "id": "way/1361382272", "properties": {"tags": {"building": "industrial"}, "heightStatus": "unknown", "source": "OpenStreetMap", "license": "ODbL-1.0"}, "geometry": {"type": "MultiPolygon", "coordinates": [[[[113.9094852, 22.6520149], [113.909551, 22.6519703], [113.9096073, 22.6521337], [113.9097183, 22.6521697], [113.9096916, 22.6522399], [113.9095282, 22.6521869], [113.9094852, 22.6520149]]]]}}, {"type": "Feature", "id": "way/1361382273", "properties": {"tags": {"building": "industrial"}, "heightStatus": "unknown", "source": "OpenStreetMap", "license": "ODbL-1.0"}, "geometry": {"type": "MultiPolygon", "coordinates": [[[[113.9098342, 22.6518157], [113.9099184, 22.6517685], [113.9101381, 22.6521027], [113.9100538, 22.6521499], [113.9098342, 22.6518157]]]]}}, {"type": "Feature", "id": "way/1361382274", "properties": {"tags": {"building": "industrial"}, "heightStatus": "unknown", "source": "OpenStreetMap", "license": "ODbL-1.0"}, "geometry": {"type": "MultiPolygon", "coordinates": [[[[113.9099782, 22.6517194], [113.9103758, 22.651501], [113.9104629, 22.6516362], [113.9104307, 22.6518948], [113.9103473, 22.6519406], [113.9103639, 22.6519664], [113.9101967, 22.6520582], [113.9099782, 22.6517194]]]]}}, {"type": "Feature", "id": "way/1361382275", "properties": {"tags": {"building": "industrial"}, "heightStatus": "unknown", "source": "OpenStreetMap", "license": "ODbL-1.0"}, "geometry": {"type": "MultiPolygon", "coordinates": [[[[113.9098966, 22.6512658], [113.9100647, 22.6511693], [113.9101016, 22.6511785], [113.9101255, 22.6511906], [113.9102055, 22.6513095], [113.9102379, 22.6512909], [113.9103278, 22.6514244], [113.9100939, 22.6515586], [113.9098966, 22.6512658]]]]}}, {"type": "Feature", "id": "way/1361608021", "properties": {"tags": {"building": "industrial"}, "heightStatus": "unknown", "source": "OpenStreetMap", "license": "ODbL-1.0"}, "geometry": {"type": "MultiPolygon", "coordinates": [[[[113.9169551, 22.6527966], [113.9169969, 22.6524344], [113.9170953, 22.6524441], [113.9170534, 22.6528063], [113.9169551, 22.6527966]]]]}}, {"type": "Feature", "id": "way/1361608023", "properties": {"tags": {"building": "industrial"}, "heightStatus": "unknown", "source": "OpenStreetMap", "license": "ODbL-1.0"}, "geometry": {"type": "MultiPolygon", "coordinates": [[[[113.9172401, 22.6528321], [113.9172819, 22.65247], [113.9173803, 22.6524796], [113.9173384, 22.6528418], [113.9172401, 22.6528321]]]]}}, {"type": "Feature", "id": "way/1361608025", "properties": {"tags": {"building": "commercial", "building:levels": "15", "name": "创维数字大厦"}, "heightStatus": "levels_only_unverified", "source": "OpenStreetMap", "license": "ODbL-1.0"}, "geometry": {"type": "MultiPolygon", "coordinates": [[[[113.9159509, 22.6469951], [113.916117, 22.6466848], [113.9167635, 22.6469814], [113.9167691, 22.6470645], [113.9168339, 22.6470943], [113.9168541, 22.6471017], [113.9168757, 22.6471037], [113.9168971, 22.6471001], [113.9169166, 22.6470912], [113.9169326, 22.6470776], [113.9171088, 22.6468781], [113.9173387, 22.6470515], [113.917147, 22.647268], [113.9170842, 22.6473192], [113.9170105, 22.6473558], [113.9169296, 22.6473758], [113.9168459, 22.6473782], [113.9167638, 22.6473629], [113.9166877, 22.6473307], [113.9159509, 22.6469951]]]]}}, {"type": "Feature", "id": "way/1361608026", "properties": {"tags": {"building": "dormitory"}, "heightStatus": "unknown", "source": "OpenStreetMap", "license": "ODbL-1.0"}, "geometry": {"type": "MultiPolygon", "coordinates": [[[[113.9155565, 22.646386], [113.9155574, 22.646306], [113.9159069, 22.646319], [113.9160378, 22.6460953], [113.9155671, 22.6460798], [113.9155736, 22.6458906], [113.9161796, 22.6459153], [113.9161827, 22.6460617], [113.9159414, 22.6464791], [113.9159069, 22.6464766], [113.915906, 22.6464995], [113.9156078, 22.6464962], [113.9156087, 22.6464807], [113.9155644, 22.6464799], [113.9155706, 22.646386], [113.9155565, 22.646386]]]]}}, {"type": "Feature", "id": "way/1361608027", "properties": {"tags": {"building": "dormitory", "name": "同济楼"}, "heightStatus": "unknown", "source": "OpenStreetMap", "license": "ODbL-1.0"}, "geometry": {"type": "MultiPolygon", "coordinates": [[[[113.9148709, 22.6472031], [113.9148737, 22.6471207], [113.915281, 22.6471323], [113.9155429, 22.6469205], [113.9148741, 22.6469031], [113.9148763, 22.6468293], [113.9149011, 22.64683], [113.9149048, 22.6467108], [113.9156551, 22.6467304], [113.9156471, 22.6469875], [113.9152649, 22.6472895], [113.9152637, 22.6473259], [113.9148874, 22.6473151], [113.9148911, 22.6472037], [113.9148709, 22.6472031]]]]}}, {"type": "Feature", "id": "way/1361608028", "properties": {"tags": {"building": "yes"}, "heightStatus": "unknown", "source": "OpenStreetMap", "license": "ODbL-1.0"}, "geometry": {"type": "MultiPolygon", "coordinates": [[[[113.9147796, 22.6461354], [113.9153453, 22.646144], [113.9153465, 22.6461656], [113.9153675, 22.6461667], [113.9153955, 22.646366], [113.9154177, 22.6463681], [113.91542, 22.6464005], [113.9153768, 22.6464015], [113.9153757, 22.6465007], [113.9148048, 22.6464888], [113.9148071, 22.6461957], [113.9147814, 22.6461979], [113.9147796, 22.6461354]]]]}}, {"type": "Feature", "id": "way/1361608029", "properties": {"tags": {"building": "apartments"}, "heightStatus": "unknown", "source": "OpenStreetMap", "license": "ODbL-1.0"}, "geometry": {"type": "MultiPolygon", "coordinates": [[[[113.9138026, 22.646351], [113.9138032, 22.6463178], [113.9138388, 22.6463183], [113.9138402, 22.6462276], [113.9142884, 22.6462338], [113.9145965, 22.6464024], [113.9145503, 22.6464743], [113.9145771, 22.6464889], [113.9145462, 22.646537], [113.9144607, 22.6464903], [113.9144424, 22.6465188], [113.9142374, 22.6464068], [113.9138922, 22.6464019], [113.913893, 22.6463522], [113.9138026, 22.646351]]]]}}, {"type": "Feature", "id": "way/1361608030", "properties": {"tags": {"building": "apartments"}, "heightStatus": "unknown", "source": "OpenStreetMap", "license": "ODbL-1.0"}, "geometry": {"type": "MultiPolygon", "coordinates": [[[[113.9138035, 22.6467685], [113.9138043, 22.6467376], [113.9138438, 22.6467385], [113.9138462, 22.6466479], [113.9143061, 22.6466584], [113.9147206, 22.6469073], [113.9146716, 22.6469768], [113.9146994, 22.6469935], [113.9146687, 22.647037], [113.914598, 22.6469946], [113.9145784, 22.6470224], [113.9142532, 22.6468274], [113.9138975, 22.6468192], [113.9138988, 22.6467707], [113.9138035, 22.6467685]]]]}}, {"type": "Feature", "id": "way/1361608031", "properties": {"tags": {"building": "apartments"}, "heightStatus": "unknown", "source": "OpenStreetMap", "license": "ODbL-1.0"}, "geometry": {"type": "MultiPolygon", "coordinates": [[[[113.9138205, 22.6471494], [113.9138244, 22.6470739], [113.9142804, 22.647094], [113.9146729, 22.6473172], [113.91461, 22.6474114], [113.9146366, 22.6474266], [113.9146107, 22.6474654], [113.9145836, 22.6474499], [113.9145732, 22.6474655], [113.914249, 22.6472805], [113.9138527, 22.6472629], [113.9138541, 22.6472355], [113.9138251, 22.6472342], [113.9138294, 22.6471498], [113.9138205, 22.6471494]]]]}}, {"type": "Feature", "id": "relation/18734014", "properties": {"tags": {"building": "apartments"}, "heightStatus": "unknown", "source": "OpenStreetMap", "license": "ODbL-1.0"}, "geometry": {"type": "MultiPolygon", "coordinates": [[[[113.9129343, 22.646422], [113.9129821, 22.646299], [113.9132228, 22.6463785], [113.9132739, 22.6462467], [113.9131103, 22.6461927], [113.9131411, 22.6461134], [113.9136912, 22.646295], [113.9136691, 22.6463522], [113.9136521, 22.6463465], [113.9136492, 22.6464031], [113.913696, 22.6464051], [113.9136883, 22.6465608], [113.9136493, 22.6465591], [113.9136474, 22.6465976], [113.9136849, 22.64661], [113.9136642, 22.6466633], [113.9129343, 22.646422]], [[113.913229, 22.6464381], [113.9134379, 22.6465123], [113.9135126, 22.6463333], [113.9133036, 22.6462591], [113.913229, 22.6464381]], [[113.9135504, 22.6465228], [113.9136043, 22.6465397], [113.9136053, 22.6463887], [113.9135504, 22.6465228]]]]}}, {"type": "Feature", "id": "relation/18734015", "properties": {"tags": {"building": "apartments"}, "heightStatus": "unknown", "source": "OpenStreetMap", "license": "ODbL-1.0"}, "geometry": {"type": "MultiPolygon", "coordinates": [[[[113.9127713, 22.6469079], [113.9128141, 22.6467904], [113.9130607, 22.6468668], [113.9131095, 22.6467326], [113.9128059, 22.6466386], [113.9128368, 22.6465537], [113.913722, 22.6468278], [113.9136998, 22.6468887], [113.913656, 22.6468751], [113.9136677, 22.6469215], [113.9137049, 22.6469217], [113.9137037, 22.6470906], [113.9136554, 22.6470903], [113.9136447, 22.6471195], [113.9136746, 22.6471288], [113.9136552, 22.647182], [113.9127713, 22.6469079]], [[113.9130679, 22.6469177], [113.9134484, 22.6470423], [113.9135159, 22.6468669], [113.9131354, 22.6467422], [113.9130679, 22.6469177]], [[113.9135558, 22.6470526], [113.9136078, 22.6470695], [113.9136069, 22.6469184], [113.9135558, 22.6470526]]]]}}, {"type": "Feature", "id": "way/1361608038", "properties": {"tags": {"building": "apartments"}, "heightStatus": "unknown", "source": "OpenStreetMap", "license": "ODbL-1.0"}, "geometry": {"type": "MultiPolygon", "coordinates": [[[[113.9128073, 22.6472308], [113.9129592, 22.6471687], [113.9131772, 22.647623], [113.9135298, 22.647679], [113.9134972, 22.6478536], [113.9130739, 22.6477864], [113.9128073, 22.6472308]]]]}}, {"type": "Feature", "id": "way/1361608039", "properties": {"tags": {"building": "apartments"}, "heightStatus": "unknown", "source": "OpenStreetMap", "license": "ODbL-1.0"}, "geometry": {"type": "MultiPolygon", "coordinates": [[[[113.9135475, 22.6478703], [113.9135787, 22.6477148], [113.9139335, 22.6477755], [113.9144289, 22.6475488], [113.9145069, 22.647694], [113.9139652, 22.6479419], [113.9135475, 22.6478703]]]]}}, {"type": "Feature", "id": "way/1424528411", "properties": {"tags": {"building": "house"}, "heightStatus": "unknown", "source": "OpenStreetMap", "license": "ODbL-1.0"}, "geometry": {"type": "MultiPolygon", "coordinates": [[[[113.9174826, 22.6448468], [113.9174988, 22.6448263], [113.9174993, 22.6448267], [113.9174831, 22.6448472], [113.9174826, 22.6448468]]]]}}, {"type": "Feature", "id": "way/1424528418", "properties": {"tags": {"building": "apartments", "name": "3号楼", "name:zh": "3号楼"}, "heightStatus": "unknown", "source": "OpenStreetMap", "license": "ODbL-1.0"}, "geometry": {"type": "MultiPolygon", "coordinates": [[[[113.9171562, 22.6462149], [113.9172767, 22.6460631], [113.9176593, 22.6463219], [113.9178449, 22.646088], [113.9180106, 22.6462001], [113.9177044, 22.6465857], [113.9171562, 22.6462149]]]]}}, {"type": "Feature", "id": "way/1424528423", "properties": {"tags": {"building": "apartments", "name": "5A号楼", "name:zh": "5A号楼"}, "heightStatus": "unknown", "source": "OpenStreetMap", "license": "ODbL-1.0"}, "geometry": {"type": "MultiPolygon", "coordinates": [[[[113.9169058, 22.645033], [113.9170761, 22.6448159], [113.9176821, 22.6452208], [113.9175117, 22.645438], [113.9169058, 22.645033]]]]}}, {"type": "Feature", "id": "way/1424528424", "properties": {"tags": {"building": "apartments", "name": "5B号楼", "name:zh": "5B号楼"}, "heightStatus": "unknown", "source": "OpenStreetMap", "license": "ODbL-1.0"}, "geometry": {"type": "MultiPolygon", "coordinates": [[[[113.917277, 22.6445599], [113.9174474, 22.6443427], [113.9180533, 22.6447477], [113.917883, 22.6449648], [113.917277, 22.6445599]]]]}}, {"type": "Feature", "id": "way/1424528425", "properties": {"tags": {"building": "apartments", "name": "4号楼", "name:zh": "4号楼"}, "heightStatus": "unknown", "source": "OpenStreetMap", "license": "ODbL-1.0"}, "geometry": {"type": "MultiPolygon", "coordinates": [[[[113.9164319, 22.6456574], [113.9167381, 22.6452717], [113.9167589, 22.6452858], [113.9172864, 22.6456425], [113.9171658, 22.6457944], [113.9167832, 22.6455356], [113.9165976, 22.6457694], [113.9164319, 22.6456574]]]]}}, {"type": "Feature", "id": "way/1462801512", "properties": {"tags": {"building": "apartments"}, "heightStatus": "unknown", "source": "OpenStreetMap", "license": "ODbL-1.0"}, "geometry": {"type": "MultiPolygon", "coordinates": [[[[113.9175914, 22.6504124], [113.9177371, 22.6503018], [113.9177903, 22.6503615], [113.9178086, 22.6503476], [113.9178661, 22.6504122], [113.9178266, 22.6504422], [113.9179776, 22.6506117], [113.9180669, 22.6505438], [113.9181893, 22.6506811], [113.9179559, 22.6508583], [113.9176277, 22.6504902], [113.9176474, 22.6504753], [113.9175914, 22.6504124]]]]}}]}