{"type": "FeatureCollection", "features": [{"type": "Feature", "id": "way/1469820770", "properties": {"tags": {"building": "yes"}, "heightStatus": "unknown", "source": "OpenStreetMap", "license": "ODbL-1.0"}, "geometry": {"type": "MultiPolygon", "coordinates": [[[[113.9073486, 22.7074555], [113.9074388, 22.7074227], [113.9074622, 22.7074776], [113.9073721, 22.7075104], [113.9073486, 22.7074555]]]]}}, {"type": "Feature", "id": "way/1469820773", "properties": {"tags": {"building": "yes"}, "heightStatus": "unknown", "source": "OpenStreetMap", "license": "ODbL-1.0"}, "geometry": {"type": "MultiPolygon", "coordinates": [[[[113.9065151, 22.7077889], [113.9065808, 22.7076686], [113.9067142, 22.7077306], [113.9066485, 22.7078509], [113.9065151, 22.7077889]]]]}}, {"type": "Feature", "id": "way/1469820774", "properties": {"tags": {"building": "yes"}, "heightStatus": "unknown", "source": "OpenStreetMap", "license": "ODbL-1.0"}, "geometry": {"type": "MultiPolygon", "coordinates": [[[[113.9074148, 22.7073667], [113.9074889, 22.7073398], [113.9075363, 22.7074506], [113.9074622, 22.7074776], [113.9074388, 22.7074227], [113.9074148, 22.7073667]]]]}}, {"type": "Feature", "id": "way/1469820775", "properties": {"tags": {"building": "yes"}, "heightStatus": "unknown", "source": "OpenStreetMap", "license": "ODbL-1.0"}, "geometry": {"type": "MultiPolygon", "coordinates": [[[[113.9073928, 22.7068785], [113.9074905, 22.7068476], [113.9075478, 22.7070022], [113.9074501, 22.7070331], [113.9073928, 22.7068785]]]]}}]}