{"type": "FeatureCollection", "features": [{"type": "Feature", "id": "way/1460398779", "properties": {"tags": {"addr:city": "新安街道", "addr:district": "宝安区", "addr:province": "广东省", "addr:street": "湖滨西路", "building": "fire_station", "name": "新乐社区小型消防站", "name:zh": "宝安区新安街道新乐社区小型消防站"}, "heightStatus": "unknown", "source": "OpenStreetMap", "license": "ODbL-1.0"}, "geometry": {"type": "MultiPolygon", "coordinates": [[[[113.8900285, 22.5445454], [113.8901093, 22.544462], [113.8901979, 22.5445352], [113.8901172, 22.5446186], [113.8900285, 22.5445454]]]]}}]}