{"type": "FeatureCollection", "features": [{"type": "Feature", "id": "way/301050043", "properties": {"tags": {"building": "yes"}, "heightStatus": "unknown", "source": "OpenStreetMap", "license": "ODbL-1.0"}, "geometry": {"type": "MultiPolygon", "coordinates": [[[[113.8841054, 22.6735839], [113.8844998, 22.6729254], [113.8860284, 22.6737049], [113.885634, 22.6743634], [113.8841054, 22.6735839]]]]}}, {"type": "Feature", "id": "way/1424705776", "properties": {"tags": {"building": "industrial"}, "heightStatus": "unknown", "source": "OpenStreetMap", "license": "ODbL-1.0"}, "geometry": {"type": "MultiPolygon", "coordinates": [[[[113.8873714, 22.6754959], [113.8874127, 22.6754096], [113.8879527, 22.6756296], [113.8880495, 22.6759772], [113.8879505, 22.6760007], [113.887866, 22.6756974], [113.8873714, 22.6754959]]]]}}, {"type": "Feature", "id": "way/1424705779", "properties": {"tags": {"building": "industrial"}, "heightStatus": "unknown", "source": "OpenStreetMap", "license": "ODbL-1.0"}, "geometry": {"type": "MultiPolygon", "coordinates": [[[[113.8871261, 22.6764385], [113.8871656, 22.676356], [113.8880384, 22.6767115], [113.8879989, 22.6767941], [113.8871261, 22.6764385]]]]}}, {"type": "Feature", "id": "way/1424705781", "properties": {"tags": {"building": "industrial"}, "heightStatus": "unknown", "source": "OpenStreetMap", "license": "ODbL-1.0"}, "geometry": {"type": "MultiPolygon", "coordinates": [[[[113.8860961, 22.6746986], [113.8863426, 22.6741822], [113.8875037, 22.6746539], [113.8872572, 22.6751704], [113.8860961, 22.6746986]]]]}}, {"type": "Feature", "id": "way/1424705782", "properties": {"tags": {"building": "industrial"}, "heightStatus": "unknown", "source": "OpenStreetMap", "license": "ODbL-1.0"}, "geometry": {"type": "MultiPolygon", "coordinates": [[[[113.8857529, 22.6754253], [113.8859994, 22.6749088], [113.8871605, 22.6753806], [113.886914, 22.675897], [113.8857529, 22.6754253]]]]}}]}