{"type": "FeatureCollection", "features": [{"type": "Feature", "id": "way/264915817", "properties": {"tags": {"building": "yes"}, "heightStatus": "unknown", "source": "OpenStreetMap", "license": "ODbL-1.0"}, "geometry": {"type": "MultiPolygon", "coordinates": [[[[113.8794825, 22.5553263], [113.8796062, 22.5552741], [113.879684, 22.5552245], [113.8797466, 22.5551809], [113.8797752, 22.5551527], [113.8797895, 22.555124], [113.8797966, 22.5550883], [113.8798029, 22.5550546], [113.8798047, 22.5549967], [113.8798029, 22.5549233], [113.8797922, 22.5548515], [113.8797788, 22.5547821], [113.87976, 22.5547103], [113.8797269, 22.5546152], [113.8797859, 22.5545954], [113.8798727, 22.5548242], [113.8799173, 22.554962], [113.8799468, 22.5550982], [113.8800944, 22.5551106], [113.8800685, 22.5551909], [113.8800363, 22.5552478], [113.8799988, 22.5552929], [113.8799724, 22.5552695], [113.8799424, 22.5552429], [113.8798664, 22.5551775], [113.8797913, 22.5552369], [113.8797242, 22.5552815], [113.8796447, 22.5553221], [113.879574, 22.5553509], [113.8795106, 22.5553692], [113.8794825, 22.5553263]]]]}}, {"type": "Feature", "id": "way/265289476", "properties": {"tags": {"building": "yes"}, "heightStatus": "unknown", "source": "OpenStreetMap", "license": "ODbL-1.0"}, "geometry": {"type": "MultiPolygon", "coordinates": [[[[113.8797376, 22.558733], [113.8800738, 22.5583909], [113.8801449, 22.5583185], [113.8804148, 22.5580438], [113.8806518, 22.5582425], [113.8804177, 22.5584807], [113.8802302, 22.5586716], [113.8799746, 22.5589316], [113.8797376, 22.558733]]]]}}, {"type": "Feature", "id": "way/265289482", "properties": {"tags": {"building": "yes"}, "heightStatus": "unknown", "source": "OpenStreetMap", "license": "ODbL-1.0"}, "geometry": {"type": "MultiPolygon", "coordinates": [[[[113.8801306, 22.557953], [113.8801727, 22.5579556], [113.8802176, 22.5579618], [113.880262, 22.5579704], [113.8803022, 22.5579828], [113.8803425, 22.5580001], [113.88038, 22.5580199], [113.8804148, 22.5580438], [113.8801449, 22.5583185], [113.8801306, 22.557953]]]]}}, {"type": "Feature", "id": "way/535309681", "properties": {"tags": {"addr:housename": "壹方中心", "addr:housename:en": "Unicenter", "addr:housename:zh": "壹方中心", "building": "commercial", "building:levels": "46", "building:material": "glass", "height": "225", "layer": "1", "name": "A座", "name:en": "Tower A", "name:zh": "A座", "ref": "A", "wikidata": "Q29837449"}, "heightStatus": "height_tag_unverified", "source": "OpenStreetMap", "license": "ODbL-1.0"}, "geometry": {"type": "MultiPolygon", "coordinates": [[[[113.881694, 22.5562956], [113.8817032, 22.5562662], [113.8817376, 22.556212], [113.8818098, 22.5561469], [113.8818685, 22.5561104], [113.8819002, 22.5561023], [113.8819261, 22.5561036], [113.8819558, 22.5561115], [113.8820268, 22.5561668], [113.882188, 22.5563189], [113.882238, 22.5563795], [113.8822482, 22.5564058], [113.882247, 22.5564332], [113.882236, 22.5564628], [113.8822049, 22.5565061], [113.8821407, 22.5565681], [113.882101, 22.5565949], [113.8820723, 22.556607], [113.8820364, 22.5566088], [113.8819997, 22.556599], [113.8819291, 22.5565478], [113.8817695, 22.5564033], [113.8817156, 22.5563464], [113.8816977, 22.5563197], [113.881694, 22.5562956]]]]}}, {"type": "Feature", "id": "way/535309682", "properties": {"tags": {"addr:housename": "壹方中心", "addr:housename:en": "Unicenter", "addr:housename:zh": "壹方中心", "building": "commercial", "building:levels": "32", "building:material": "glass", "height": "161.3", "layer": "1", "name": "B座", "name:en": "Tower B", "name:zh": "B座", "ref": "B"}, "heightStatus": "height_tag_unverified", "source": "OpenStreetMap", "license": "ODbL-1.0"}, "geometry": {"type": "MultiPolygon", "coordinates": [[[[113.8826818, 22.5563827], [113.8826891, 22.5563633], [113.8829433, 22.5561138], [113.8829648, 22.5561062], [113.8829909, 22.5561038], [113.8830156, 22.5561106], [113.8830978, 22.5561749], [113.8831633, 22.5562361], [113.8831725, 22.5562573], [113.8831729, 22.5562812], [113.8831618, 22.5563035], [113.8830754, 22.5563954], [113.8829801, 22.5564884], [113.8829039, 22.5565599], [113.8828734, 22.5565709], [113.8828524, 22.5565702], [113.8828202, 22.5565503], [113.882762, 22.5564959], [113.8826951, 22.5564313], [113.8826839, 22.5564088], [113.8826818, 22.5563827]]]]}}, {"type": "Feature", "id": "way/535309683", "properties": {"tags": {"addr:housename": "壹方中心", "addr:housename:en": "Unicenter", "addr:housename:zh": "壹方中心", "building": "apartments", "building:levels": "44", "building:material": "concrete", "height": "157.8", "layer": "1", "name": "7栋", "name:en": "Block 7", "name:zh": "7栋", "ref": "7"}, "heightStatus": "height_tag_unverified", "source": "OpenStreetMap", "license": "ODbL-1.0"}, "geometry": {"type": "MultiPolygon", "coordinates": [[[[113.8838533, 22.5553715], [113.8842913, 22.5549486], [113.8844364, 22.5550757], [113.8839985, 22.5555033], [113.8838533, 22.5553715]]]]}}, {"type": "Feature", "id": "way/535309684", "properties": {"tags": {"addr:housename": "壹方中心", "addr:housename:en": "Unicenter", "addr:housename:zh": "壹方中心", "building": "apartments", "building:levels": "50", "building:material": "concrete", "height": "181.8", "name": "6栋", "name:en": "Block 6", "name:zh": "6栋", "ref": "6"}, "heightStatus": "height_tag_unverified", "source": "OpenStreetMap", "license": "ODbL-1.0"}, "geometry": {"type": "MultiPolygon", "coordinates": [[[[113.8839864, 22.5541607], [113.8840706, 22.5540803], [113.8841361, 22.5541388], [113.8842289, 22.5540502], [113.8843448, 22.5541537], [113.8842528, 22.5542416], [113.884379, 22.5543543], [113.8844716, 22.5542659], [113.8845839, 22.5543662], [113.884492, 22.554454], [113.8845644, 22.5545187], [113.8844788, 22.5546004], [113.8839864, 22.5541607]]]]}}, {"type": "Feature", "id": "way/535309687", "properties": {"tags": {"addr:housename": "壹方中心", "addr:housename:en": "Unicenter", "addr:housename:zh": "壹方中心", "building": "apartments", "building:levels": "50", "building:material": "concrete", "height": "181.2", "layer": "1", "name": "3栋", "name:en": "Block 3", "name:zh": "3栋", "ref": "3"}, "heightStatus": "height_tag_unverified", "source": "OpenStreetMap", "license": "ODbL-1.0"}, "geometry": {"type": "MultiPolygon", "coordinates": [[[[113.8823541, 22.5545525], [113.8824753, 22.5544391], [113.8828078, 22.554742], [113.8826866, 22.5548554], [113.8823541, 22.5545525]]]]}}, {"type": "Feature", "id": "way/535309688", "properties": {"tags": {"addr:housename": "壹方中心", "addr:housename:en": "Unicenter", "addr:housename:zh": "壹方中心", "building": "apartments", "building:levels": "48", "building:material": "concrete", "height": "158.8", "layer": "1", "name": "2栋", "name:en": "Block 2", "name:zh": "2栋", "ref": "2"}, "heightStatus": "height_tag_unverified", "source": "OpenStreetMap", "license": "ODbL-1.0"}, "geometry": {"type": "MultiPolygon", "coordinates": [[[[113.8813715, 22.5545658], [113.8821126, 22.5545556], [113.8821141, 22.5546503], [113.8820043, 22.5546518], [113.8820051, 22.5547035], [113.8818304, 22.5547059], [113.8818295, 22.5546525], [113.8816466, 22.554655], [113.8816476, 22.5547158], [113.8814596, 22.5547184], [113.8814587, 22.5546646], [113.8813731, 22.5546658], [113.8813715, 22.5545658]]]]}}, {"type": "Feature", "id": "way/535309689", "properties": {"tags": {"addr:city": "深圳市", "addr:district": "宝安中心区", "addr:housenumber": "99", "addr:province": "广东省", "addr:street": "新湖路", "building": "yes", "building:levels": "5", "description": "前海壹方城地处宝安中心区核心地段，是集购物、餐饮、娱乐等多种业态于一体的大型商业综合体，总建筑面积36万平方米，为深圳单体体量最大的购物中心。", "name": "前海壹方城 Uniwalk", "name:en": "Uniwalk", "name:zh": "前海壹方城", "official_name": "前海壹方城", "old_name": "宝安壹方城", "operator": "鸿荣源集团", "operator:en": "HOROY GROUP", "shop": "mall", "start_date": "2017-10-28"}, "heightStatus": "levels_only_unverified", "source": "OpenStreetMap", "license": "ODbL-1.0"}, "geometry": {"type": "MultiPolygon", "coordinates": [[[[113.8812779, 22.5559673], [113.8813039, 22.555911], [113.881338, 22.5558772], [113.8813889, 22.5558415], [113.8814763, 22.5558096], [113.8815769, 22.5557834], [113.8816348, 22.5557589], [113.8817019, 22.5557008], [113.8817608, 22.5556463], [113.8818361, 22.5556125], [113.8818952, 22.5555992], [113.8819519, 22.5555975], [113.8820332, 22.5556013], [113.8820725, 22.5556085], [113.8821105, 22.5556182], [113.8821566, 22.5556339], [113.8822053, 22.5556532], [113.8822772, 22.5556895], [113.8823162, 22.5557048], [113.8823564, 22.5557158], [113.8824581, 22.5557101], [113.8825414, 22.5557101], [113.8826207, 22.5557101], [113.882702, 22.5556726], [113.8827529, 22.5556407], [113.8827874, 22.5556088], [113.882823, 22.5555703], [113.8828423, 22.5555318], [113.8828571, 22.5554893], [113.8828626, 22.5554511], [113.8828222, 22.5554326], [113.8827935, 22.5554098], [113.882765, 22.5553685], [113.8827508, 22.555314], [113.8827549, 22.5552727], [113.8828179, 22.5552014], [113.882891, 22.5551376], [113.8828667, 22.5551188], [113.8830041, 22.5549859], [113.8830967, 22.5548963], [113.883731, 22.554283], [113.8837733, 22.5542421], [113.8838078, 22.554264], [113.8838835, 22.554196], [113.8841364, 22.5539691], [113.8842289, 22.5540502], [113.8843448, 22.5541537], [113.8844716, 22.5542659], [113.8845839, 22.5543662], [113.8846209, 22.5544029], [113.8845548, 22.5544639], [113.8845779, 22.5544975], [113.8845829, 22.5545219], [113.8845713, 22.55455], [113.8845374, 22.5545898], [113.8845005, 22.5546325], [113.8844727, 22.5546667], [113.8844604, 22.554698], [113.8844604, 22.5547293], [113.8844697, 22.5547606], [113.8844943, 22.554789], [113.8845282, 22.5548089], [113.8845744, 22.5548288], [113.8845929, 22.5548545], [113.8845837, 22.5548971], [113.8845365, 22.5549545], [113.8844894, 22.5549876], [113.8844314, 22.5550262], [113.8844364, 22.5550757], [113.8839985, 22.5555033], [113.8838935, 22.5555999], [113.8838381, 22.5555999], [113.8837949, 22.5556825], [113.8837549, 22.555728], [113.8836994, 22.5557764], [113.8836439, 22.5558048], [113.8834652, 22.5559869], [113.8834652, 22.5560182], [113.8830754, 22.5563954], [113.8829801, 22.5564884], [113.8827306, 22.5567315], [113.8826672, 22.5567059], [113.882618, 22.5566954], [113.8825838, 22.5567002], [113.8825155, 22.5567212], [113.8824511, 22.5567282], [113.8824124, 22.556724], [113.8823866, 22.5567212], [113.8823221, 22.5567037], [113.8822804, 22.5567107], [113.8822235, 22.5567282], [113.8821628, 22.5567563], [113.8819291, 22.5565478], [113.8817695, 22.5564033], [113.8812779, 22.5559673]]]]}}, {"type": "Feature", "id": "way/535309690", "properties": {"tags": {"addr:housename": "壹方中心", "addr:housename:en": "Unicenter", "addr:housename:zh": "壹方中心", "building": "apartments", "building:levels": "50", "building:material": "concrete", "height": "181.2", "layer": "1", "name": "1栋", "name:en": "Block 1", "name:zh": "1栋", "ref": "1"}, "heightStatus": "height_tag_unverified", "source": "OpenStreetMap", "license": "ODbL-1.0"}, "geometry": {"type": "MultiPolygon", "coordinates": [[[[113.8810512, 22.5550356], [113.8812512, 22.5550308], [113.8812683, 22.5556192], [113.8810648, 22.5556206], [113.8810512, 22.5550356]]]]}}, {"type": "Feature", "id": "way/535309691", "properties": {"tags": {"building": "commercial", "building:levels": "5"}, "heightStatus": "levels_only_unverified", "source": "OpenStreetMap", "license": "ODbL-1.0"}, "geometry": {"type": "MultiPolygon", "coordinates": [[[[113.8810491, 22.5547279], [113.8812142, 22.5545661], [113.8813715, 22.5545658], [113.8821126, 22.5545556], [113.8821677, 22.5545546], [113.8823779, 22.5543604], [113.8824213, 22.5543008], [113.8824705, 22.554231], [113.8825427, 22.5541016], [113.8829916, 22.5536586], [113.8830061, 22.5536394], [113.8831212, 22.5537318], [113.8832639, 22.5536001], [113.8833735, 22.5535017], [113.883439, 22.5535603], [113.8835317, 22.5534717], [113.8835977, 22.5535306], [113.8836477, 22.5535752], [113.8837745, 22.5536874], [113.8838868, 22.5537877], [113.8837949, 22.5538755], [113.8838673, 22.5539401], [113.8837817, 22.5540218], [113.8837393, 22.5539839], [113.8836946, 22.5540241], [113.8835492, 22.5541548], [113.8835047, 22.5541841], [113.8834577, 22.5542081], [113.883394, 22.554231], [113.8833164, 22.5542611], [113.8832514, 22.554298], [113.8832032, 22.5543365], [113.8831693, 22.5543756], [113.8831412, 22.5544298], [113.8831212, 22.5544922], [113.8830925, 22.5545708], [113.8830481, 22.5546506], [113.8829782, 22.5547331], [113.8829434, 22.5547613], [113.8828939, 22.554801], [113.8828368, 22.5548342], [113.8827764, 22.5548616], [113.8826933, 22.5549082], [113.8825957, 22.5549937], [113.8825456, 22.5550677], [113.8825131, 22.5551301], [113.8824956, 22.5551925], [113.8824983, 22.5552526], [113.8825163, 22.5552593], [113.8825324, 22.5552694], [113.8825483, 22.555286], [113.8825589, 22.5553061], [113.8825629, 22.5553241], [113.8825625, 22.5553424], [113.8825578, 22.5553602], [113.8825481, 22.5553775], [113.8825343, 22.5553924], [113.8825148, 22.5554048], [113.8824891, 22.5554126], [113.8824629, 22.5554131], [113.8824376, 22.5554064], [113.8824155, 22.5553931], [113.8824006, 22.5553774], [113.8823905, 22.5553588], [113.8823091, 22.5553658], [113.8822528, 22.5553774], [113.8822028, 22.5553935], [113.8821577, 22.5554143], [113.8821177, 22.5554282], [113.8819137, 22.5554918], [113.8818599, 22.5554999], [113.8818024, 22.5555045], [113.8817373, 22.5554952], [113.8816122, 22.5554952], [113.8815221, 22.555516], [113.881452, 22.5555484], [113.8814195, 22.5555946], [113.8813744, 22.5556709], [113.8813294, 22.5557263], [113.8812793, 22.5557587], [113.8812293, 22.5557749], [113.8811792, 22.5557726], [113.8811317, 22.5557633], [113.8811292, 22.5557032], [113.8810666, 22.5557032], [113.8810648, 22.5556206], [113.8810512, 22.5550356], [113.881051, 22.5550093], [113.8810491, 22.5547279]]]]}}, {"type": "Feature", "id": "way/612863309", "properties": {"tags": {"addr:housename": "鸿荣源·尚都", "addr:housename:en": "Hongrongyuan Shangdu", "addr:housename:zh": "鸿荣源·尚都", "building": "apartments", "building:levels": "32", "layer": "1", "name": "1C栋", "name:en": "Block 1C", "name:zh": "1C栋"}, "heightStatus": "levels_only_unverified", "source": "OpenStreetMap", "license": "ODbL-1.0"}, "geometry": {"type": "MultiPolygon", "coordinates": [[[[113.8801064, 22.5611557], [113.8801877, 22.5610763], [113.8801161, 22.5610138], [113.8801377, 22.5609927], [113.8801234, 22.5609802], [113.8801701, 22.5609346], [113.8802832, 22.5610334], [113.8803067, 22.5610106], [113.8802912, 22.560997], [113.8803451, 22.5609443], [113.8804349, 22.5610227], [113.8803738, 22.5610823], [113.8804982, 22.561191], [113.8804307, 22.5612568], [113.8802997, 22.5611424], [113.8802802, 22.5611614], [113.8803377, 22.5612117], [113.8802588, 22.5612888], [113.8801064, 22.5611557]]]]}}, {"type": "Feature", "id": "way/612863310", "properties": {"tags": {"addr:housename": "鸿荣源·尚都", "addr:housename:en": "Hongrongyuan Shangdu", "addr:housename:zh": "鸿荣源·尚都", "building": "apartments", "building:levels": "32", "layer": "1", "name": "1B栋", "name:en": "Block 1B", "name:zh": "1B栋"}, "heightStatus": "levels_only_unverified", "source": "OpenStreetMap", "license": "ODbL-1.0"}, "geometry": {"type": "MultiPolygon", "coordinates": [[[[113.8801005, 22.5607778], [113.8801989, 22.5606773], [113.8801084, 22.5606017], [113.880215, 22.5604929], [113.8802958, 22.5605603], [113.8803992, 22.5604547], [113.8804418, 22.5605497], [113.8803582, 22.560635], [113.8804397, 22.5607031], [113.880354, 22.5607906], [113.8802863, 22.560734], [113.8801791, 22.5608435], [113.8801005, 22.5607778]]]]}}, {"type": "Feature", "id": "way/612863311", "properties": {"tags": {"addr:housename": "鸿荣源·尚都", "addr:housename:en": "Hongrongyuan Shangdu", "addr:housename:zh": "鸿荣源·尚都", "building": "apartments", "building:levels": "32", "layer": "1", "name": "1D栋", "name:en": "Block 1D", "name:zh": "1D栋"}, "heightStatus": "levels_only_unverified", "source": "OpenStreetMap", "license": "ODbL-1.0"}, "geometry": {"type": "MultiPolygon", "coordinates": [[[[113.8809077, 22.5608552], [113.8810557, 22.5607029], [113.8811176, 22.5607542], [113.8811698, 22.5607005], [113.881338, 22.56084], [113.8812082, 22.5609735], [113.8811326, 22.5609108], [113.8810622, 22.5609832], [113.8809077, 22.5608552]]]]}}, {"type": "Feature", "id": "way/612863312", "properties": {"tags": {"addr:street": "裕安一路", "alt_name": "宝安赛格", "building": "retail", "building:levels": "4", "name": "海格堡", "name:en": "theLOCO", "name:zh": "海格堡", "name:zh-Hans": "海格堡", "name:zh-Hant": "海格堡", "old_name": "宝安赛格电子市场", "old_name:en": "SEG Electronics Market Bao'an", "old_name:zh": "宝安赛格电子市场", "shop": "mall"}, "heightStatus": "levels_only_unverified", "source": "OpenStreetMap", "license": "ODbL-1.0"}, "geometry": {"type": "MultiPolygon", "coordinates": [[[[113.880073, 22.5606271], [113.8803687, 22.5603292], [113.8807428, 22.5603264], [113.8810984, 22.560621], [113.8813579, 22.5608359], [113.8809005, 22.5613071], [113.8808496, 22.561265], [113.8805805, 22.5612648], [113.8804036, 22.5614328], [113.8803757, 22.5614077], [113.8800895, 22.5611556], [113.8801617, 22.5610858], [113.8800886, 22.5610214], [113.8800871, 22.5607203], [113.8801309, 22.5606761], [113.880073, 22.5606271]]]]}}, {"type": "Feature", "id": "way/612863313", "properties": {"tags": {"addr:housename": "鸿荣源·尚都", "addr:housename:en": "Hongrongyuan Shangdu", "addr:housename:zh": "鸿荣源·尚都", "building": "apartments", "building:levels": "31", "name": "2G栋", "name:en": "Block 2G", "name:zh": "2G栋"}, "heightStatus": "levels_only_unverified", "source": "OpenStreetMap", "license": "ODbL-1.0"}, "geometry": {"type": "MultiPolygon", "coordinates": [[[[113.8819302, 22.5626346], [113.8820954, 22.5626332], [113.8820943, 22.5625175], [113.8822985, 22.5625158], [113.8822997, 22.5626435], [113.8822254, 22.5626441], [113.8822258, 22.5626804], [113.8823563, 22.5627776], [113.8822908, 22.5628525], [113.8821404, 22.5627405], [113.8819312, 22.5627422], [113.8819302, 22.5626346]]]]}}, {"type": "Feature", "id": "way/612863314", "properties": {"tags": {"addr:housename": "鸿荣源·尚都", "addr:housename:en": "Hongrongyuan Shangdu", "addr:housename:zh": "鸿荣源·尚都", "building": "apartments", "building:levels": "31", "name": "2F栋", "name:en": "Block 2F", "name:zh": "2F栋"}, "heightStatus": "levels_only_unverified", "source": "OpenStreetMap", "license": "ODbL-1.0"}, "geometry": {"type": "MultiPolygon", "coordinates": [[[[113.8814486, 22.5622044], [113.8816138, 22.5622031], [113.8816127, 22.5620873], [113.8818169, 22.5620856], [113.8818182, 22.5622133], [113.8817439, 22.5622139], [113.8817442, 22.5622502], [113.8818747, 22.5623475], [113.8818092, 22.5624224], [113.8816589, 22.5623103], [113.8814497, 22.562312], [113.8814486, 22.5622044]]]]}}, {"type": "Feature", "id": "way/612863315", "properties": {"tags": {"addr:housename": "鸿荣源·尚都", "addr:housename:en": "Hongrongyuan Shangdu", "addr:housename:zh": "鸿荣源·尚都", "building": "apartments", "building:levels": "31", "name": "2E栋", "name:en": "Block 2E", "name:zh": "2E栋"}, "heightStatus": "levels_only_unverified", "source": "OpenStreetMap", "license": "ODbL-1.0"}, "geometry": {"type": "MultiPolygon", "coordinates": [[[[113.8809597, 22.5616963], [113.8811096, 22.5616958], [113.8812156, 22.5615889], [113.8812954, 22.5616564], [113.881178, 22.5617748], [113.8812975, 22.5618758], [113.8812248, 22.5619491], [113.8811116, 22.5618535], [113.8809604, 22.561854], [113.8809597, 22.5616963]]]]}}, {"type": "Feature", "id": "way/612863316", "properties": {"tags": {"addr:housename": "鸿荣源·尚都", "addr:housename:en": "Hongrongyuan Shangdu", "addr:housename:zh": "鸿荣源·尚都", "building": "apartments", "building:levels": "31", "name": "2B栋", "name:en": "Block 2B", "name:zh": "2B栋"}, "heightStatus": "levels_only_unverified", "source": "OpenStreetMap", "license": "ODbL-1.0"}, "geometry": {"type": "MultiPolygon", "coordinates": [[[[113.8822575, 22.5620558], [113.8823578, 22.5620084], [113.8822683, 22.561847], [113.8823685, 22.5617996], [113.8824181, 22.5618892], [113.8825422, 22.5618306], [113.8825873, 22.5619119], [113.8825441, 22.5619323], [113.8826296, 22.5620866], [113.8825449, 22.5621266], [113.8824957, 22.5620378], [113.882299, 22.5621307], [113.8822575, 22.5620558]]]]}}, {"type": "Feature", "id": "way/612863317", "properties": {"tags": {"addr:housename": "鸿荣源·尚都", "addr:housename:en": "Hongrongyuan Shangdu", "addr:housename:zh": "鸿荣源·尚都", "building": "apartments", "building:levels": "31", "name": "2C栋", "name:en": "Block 2C", "name:zh": "2C栋"}, "heightStatus": "levels_only_unverified", "source": "OpenStreetMap", "license": "ODbL-1.0"}, "geometry": {"type": "MultiPolygon", "coordinates": [[[[113.8818517, 22.5617043], [113.8819531, 22.561659], [113.8818676, 22.5614957], [113.8819689, 22.5614505], [113.8820163, 22.5615411], [113.8821418, 22.561485], [113.8821849, 22.5615673], [113.8821412, 22.5615868], [113.8822229, 22.5617428], [113.8821372, 22.5617811], [113.8820902, 22.5616913], [113.8818913, 22.5617801], [113.8818517, 22.5617043]]]]}}, {"type": "Feature", "id": "way/612863318", "properties": {"tags": {"addr:housename": "鸿荣源·尚都", "addr:housename:en": "Hongrongyuan Shangdu", "addr:housename:zh": "鸿荣源·尚都", "building": "apartments", "building:levels": "31", "name": "2A栋", "name:en": "Block 2A", "name:zh": "2A栋"}, "heightStatus": "levels_only_unverified", "source": "OpenStreetMap", "license": "ODbL-1.0"}, "geometry": {"type": "MultiPolygon", "coordinates": [[[[113.8826789, 22.5624142], [113.8827795, 22.5623673], [113.882691, 22.5622054], [113.8827915, 22.5621586], [113.8828406, 22.5622484], [113.882965, 22.5621904], [113.8830096, 22.562272], [113.8829663, 22.5622922], [113.8830508, 22.5624469], [113.8829659, 22.5624865], [113.8829172, 22.5623974], [113.88272, 22.5624893], [113.8826789, 22.5624142]]]]}}, {"type": "Feature", "id": "way/612863319", "properties": {"tags": {"addr:housename": "鸿荣源·尚都", "addr:housename:en": "Hongrongyuan Shangdu", "addr:housename:zh": "鸿荣源·尚都", "building": "apartments", "building:levels": "31", "name": "2D栋", "name:en": "Block 2D", "name:zh": "2D栋"}, "heightStatus": "levels_only_unverified", "source": "OpenStreetMap", "license": "ODbL-1.0"}, "geometry": {"type": "MultiPolygon", "coordinates": [[[[113.8814409, 22.5613582], [113.8815584, 22.5612331], [113.8814939, 22.5612328], [113.8814945, 22.5611319], [113.8817378, 22.561133], [113.8817373, 22.5612284], [113.8816858, 22.5612282], [113.8818187, 22.561352], [113.8817488, 22.5614159], [113.8816522, 22.561326], [113.8816013, 22.5613285], [113.8815165, 22.5614188], [113.8814409, 22.5613582]]]]}}, {"type": "Feature", "id": "way/688293086", "properties": {"tags": {"amenity": "cafe", "building": "yes"}, "heightStatus": "unknown", "source": "OpenStreetMap", "license": "ODbL-1.0"}, "geometry": {"type": "MultiPolygon", "coordinates": [[[[113.8823855, 22.5553337], [113.8823891, 22.5553085], [113.8824009, 22.5552855], [113.8824198, 22.5552669], [113.8824439, 22.5552545], [113.882471, 22.5552496], [113.8824983, 22.5552526], [113.8825163, 22.5552593], [113.8825324, 22.5552694], [113.8825483, 22.555286], [113.8825589, 22.5553061], [113.8825629, 22.5553241], [113.8825625, 22.5553424], [113.8825578, 22.5553602], [113.8825481, 22.5553775], [113.8825343, 22.5553924], [113.8825148, 22.5554048], [113.8824891, 22.5554126], [113.8824629, 22.5554131], [113.8824376, 22.5554064], [113.8824155, 22.5553931], [113.8824006, 22.5553774], [113.8823905, 22.5553588], [113.8823855, 22.5553337]]]]}}, {"type": "Feature", "id": "way/763288818", "properties": {"tags": {"addr:housename": "龙光·天悦龙庭", "addr:housename:en": "Longguang Tianyue Longting", "addr:housename:zh": "龙光·天悦龙庭", "building": "apartments", "building:levels": "29", "layer": "1", "name": "瑞天阁", "name:en": "Ruitian Court", "name:zh": "瑞天阁"}, "heightStatus": "levels_only_unverified", "source": "OpenStreetMap", "license": "ODbL-1.0"}, "geometry": {"type": "MultiPolygon", "coordinates": [[[[113.8811256, 22.5601409], [113.8811539, 22.5600952], [113.8812949, 22.5601584], [113.8813215, 22.5601311], [113.8812986, 22.5601114], [113.8813663, 22.5600441], [113.8814787, 22.5601405], [113.881411, 22.5602078], [113.8813966, 22.5601955], [113.8813677, 22.5602241], [113.8814211, 22.5603043], [113.8814415, 22.5603207], [113.8813751, 22.5603885], [113.8813291, 22.5603484], [113.8812512, 22.5602488], [113.8811365, 22.5601951], [113.8811557, 22.5601605], [113.8811256, 22.5601409]]]]}}, {"type": "Feature", "id": "way/763288819", "properties": {"tags": {"addr:housename": "龙光·天悦龙庭", "addr:housename:en": "Longguang Tianyue Longting", "addr:housename:zh": "龙光·天悦龙庭", "building": "apartments", "building:levels": "29", "layer": "1", "name": "弘逸阁", "name:en": "Hongyi Court", "name:zh": "弘逸阁", "ref": "弘逸阁"}, "heightStatus": "levels_only_unverified", "source": "OpenStreetMap", "license": "ODbL-1.0"}, "geometry": {"type": "MultiPolygon", "coordinates": [[[[113.8813866, 22.5595], [113.8813872, 22.5594824], [113.8813935, 22.5594658], [113.8814047, 22.5594516], [113.8815123, 22.5593482], [113.8815095, 22.5591997], [113.8816538, 22.5591973], [113.8816562, 22.5593249], [113.881786, 22.5593228], [113.881788, 22.5594261], [113.8816758, 22.5594279], [113.8816042, 22.5594291], [113.8815011, 22.559528], [113.8814877, 22.5595404], [113.881471, 22.5595485], [113.8814524, 22.5595518], [113.8814336, 22.5595499], [113.8814162, 22.559543], [113.8814018, 22.5595317], [113.8813917, 22.559517], [113.8813866, 22.5595]]]]}}, {"type": "Feature", "id": "way/763288820", "properties": {"tags": {"addr:housename": "龙光·天悦龙庭", "addr:housename:en": "Longguang Tianyue Longting", "addr:housename:zh": "龙光·天悦龙庭", "building": "apartments", "building:levels": "29", "layer": "1", "name": "福瑶阁", "name:en": "Fuyao Court", "name:zh": "福瑶阁", "ref": "福瑶阁"}, "heightStatus": "levels_only_unverified", "source": "OpenStreetMap", "license": "ODbL-1.0"}, "geometry": {"type": "MultiPolygon", "coordinates": [[[[113.8819555, 22.5599394], [113.8819613, 22.5599222], [113.8819727, 22.5599075], [113.8820517, 22.5598288], [113.8820227, 22.5598026], [113.8820219, 22.5597329], [113.8822331, 22.5597309], [113.8822346, 22.5598117], [113.8822091, 22.559811], [113.8822148, 22.5598289], [113.882224, 22.5598409], [113.8822348, 22.5598501], [113.8822897, 22.559894], [113.8822764, 22.5599079], [113.8823019, 22.5599293], [113.8822397, 22.5599924], [113.8821627, 22.5599269], [113.8821118, 22.5599326], [113.8820639, 22.5599838], [113.882048, 22.5599963], [113.8820284, 22.5600033], [113.8820089, 22.5600039], [113.8819902, 22.5599989], [113.8819741, 22.5599887], [113.8819622, 22.5599744], [113.8819558, 22.5599574], [113.8819555, 22.5599394]]]]}}, {"type": "Feature", "id": "way/763288823", "properties": {"tags": {"building": "yes", "ref": "A区"}, "heightStatus": "unknown", "source": "OpenStreetMap", "license": "ODbL-1.0"}, "geometry": {"type": "MultiPolygon", "coordinates": [[[[113.8808317, 22.5599244], [113.8808688, 22.5598292], [113.8815095, 22.5591997], [113.8816538, 22.5591973], [113.8816562, 22.5593249], [113.881786, 22.5593228], [113.881788, 22.5594261], [113.8816758, 22.5594279], [113.8820219, 22.5597329], [113.8822331, 22.5597309], [113.8822346, 22.5598117], [113.8822348, 22.5598501], [113.8822897, 22.559894], [113.8823019, 22.5599293], [113.8822397, 22.5599924], [113.8820668, 22.5601638], [113.8818495, 22.56038], [113.8816865, 22.5605396], [113.881591, 22.5605903], [113.8815364, 22.5604965], [113.8815007, 22.5604628], [113.8814211, 22.5604285], [113.8813751, 22.5603885], [113.8813291, 22.5603484], [113.8812512, 22.5602488], [113.8811365, 22.5601951], [113.8811557, 22.5601605], [113.8811256, 22.5601409], [113.8811043, 22.5601164], [113.8810725, 22.5601295], [113.8809917, 22.5600007], [113.88094, 22.5599596], [113.8808317, 22.5599244]]]]}}, {"type": "Feature", "id": "way/763288824", "properties": {"tags": {"addr:housename": "龙光·天悦龙庭", "addr:housename:en": "Longguang Tianyue Longting", "addr:housename:zh": "龙光·天悦龙庭", "building": "apartments", "building:levels": "29", "layer": "1", "name": "福怡阁", "name:en": "Fuyi Court", "name:zh": "福怡阁", "ref": "福怡阁"}, "heightStatus": "levels_only_unverified", "source": "OpenStreetMap", "license": "ODbL-1.0"}, "geometry": {"type": "MultiPolygon", "coordinates": [[[[113.8824602, 22.5603679], [113.882466, 22.5603507], [113.8824774, 22.560336], [113.8825564, 22.5602573], [113.8825274, 22.5602311], [113.8825266, 22.5601614], [113.8827378, 22.5601594], [113.8827391, 22.5602356], [113.8827206, 22.5602365], [113.8827225, 22.5602513], [113.8827287, 22.5602641], [113.8827394, 22.560275], [113.8827944, 22.5603225], [113.8827811, 22.5603364], [113.8828066, 22.5603578], [113.882768, 22.5603969], [113.8827444, 22.5604209], [113.8826674, 22.5603554], [113.8826165, 22.5603611], [113.8825686, 22.5604123], [113.8825527, 22.5604248], [113.8825331, 22.5604318], [113.8825136, 22.5604324], [113.8824949, 22.5604274], [113.8824788, 22.5604172], [113.8824669, 22.5604029], [113.8824605, 22.5603859], [113.8824602, 22.5603679]]]]}}, {"type": "Feature", "id": "way/763288825", "properties": {"tags": {"addr:housename": "龙光·天悦龙庭", "addr:housename:en": "Longguang Tianyue Longting", "addr:housename:zh": "龙光·天悦龙庭", "building": "apartments", "building:levels": "29", "layer": "1", "name": "旭辉阁", "name:en": "Xuhui Court", "name:zh": "旭辉阁", "ref": "旭辉阁"}, "heightStatus": "levels_only_unverified", "source": "OpenStreetMap", "license": "ODbL-1.0"}, "geometry": {"type": "MultiPolygon", "coordinates": [[[[113.8828628, 22.5607833], [113.8828686, 22.5607661], [113.88288, 22.5607515], [113.882974, 22.5606574], [113.8829706, 22.5606357], [113.8829351, 22.5606025], [113.8829343, 22.560534], [113.8831584, 22.5605273], [113.8831595, 22.5606163], [113.8831335, 22.5606174], [113.8831381, 22.560639], [113.8831457, 22.5606561], [113.8831611, 22.5606702], [113.8832754, 22.5607678], [113.8831959, 22.5608446], [113.8830646, 22.5607339], [113.8829712, 22.5608277], [113.8829553, 22.5608403], [113.8829357, 22.5608472], [113.8829162, 22.5608479], [113.8828975, 22.5608429], [113.8828814, 22.5608327], [113.8828695, 22.5608184], [113.8828631, 22.5608013], [113.8828628, 22.5607833]]]]}}, {"type": "Feature", "id": "way/763288826", "properties": {"tags": {"addr:housename": "龙光·天悦龙庭", "addr:housename:en": "Longguang Tianyue Longting", "addr:housename:zh": "龙光·天悦龙庭", "building": "apartments", "building:levels": "29", "layer": "1", "name": "天悦阁", "name:en": "Tianyue Court", "name:zh": "天悦阁"}, "heightStatus": "levels_only_unverified", "source": "OpenStreetMap", "license": "ODbL-1.0"}, "geometry": {"type": "MultiPolygon", "coordinates": [[[[113.8824938, 22.5613394], [113.8825602, 22.5612716], [113.8825805, 22.5612879], [113.8826699, 22.5613246], [113.8827001, 22.561296], [113.8826783, 22.5612763], [113.88274, 22.561218], [113.8828566, 22.5613233], [113.8827949, 22.5613816], [113.8827713, 22.5613603], [113.8827398, 22.5613895], [113.8828052, 22.5614905], [113.8827096, 22.5615412], [113.882655, 22.5614474], [113.8826194, 22.5614137], [113.8825398, 22.5613794], [113.8824938, 22.5613394]]]]}}, {"type": "Feature", "id": "way/763288827", "properties": {"tags": {"addr:housename": "龙光·天悦龙庭", "addr:housename:en": "Longguang Tianyue Longting", "addr:housename:zh": "龙光·天悦龙庭", "building": "apartments", "building:levels": "29", "layer": "1", "name": "弘悦阁", "name:en": "Hongyue Court", "name:zh": "弘悦阁", "ref": "弘悦阁"}, "heightStatus": "levels_only_unverified", "source": "OpenStreetMap", "license": "ODbL-1.0"}, "geometry": {"type": "MultiPolygon", "coordinates": [[[[113.8819293, 22.5607418], [113.8820617, 22.5607382], [113.8820576, 22.5606172], [113.8822018, 22.5606132], [113.8822066, 22.5607617], [113.8823194, 22.5608602], [113.8823314, 22.5608739], [113.8823385, 22.5608902], [113.88234, 22.5609078], [113.8823358, 22.560925], [113.8823264, 22.5609401], [113.8823126, 22.5609521], [113.8822956, 22.5609597], [113.8822769, 22.5609625], [113.8822582, 22.56096], [113.8822411, 22.5609526], [113.8822271, 22.5609408], [113.882119, 22.5608465], [113.8819353, 22.5608516], [113.8819293, 22.5607418]]]]}}, {"type": "Feature", "id": "way/763288828", "properties": {"tags": {"addr:housename": "龙光·天悦龙庭", "addr:housename:en": "Longguang Tianyue Longting", "addr:housename:zh": "龙光·天悦龙庭", "building": "apartments", "building:levels": "29", "layer": "1", "name": "祥瑞阁", "name:en": "Xiangrui Court", "name:zh": "祥瑞阁"}, "heightStatus": "levels_only_unverified", "source": "OpenStreetMap", "license": "ODbL-1.0"}, "geometry": {"type": "MultiPolygon", "coordinates": [[[[113.883367, 22.5614523], [113.883409, 22.5614155], [113.8834621, 22.5613959], [113.8834851, 22.5613404], [113.8835035, 22.5612807], [113.8834018, 22.5612548], [113.8834262, 22.5611713], [113.8834503, 22.5610858], [113.8835557, 22.5611125], [113.8835743, 22.5610498], [113.8835826, 22.5610338], [113.8835959, 22.5610211], [113.8836129, 22.5610129], [113.8836291, 22.5610102], [113.8836454, 22.5610116], [113.8836608, 22.5610171], [113.8836739, 22.5610262], [113.8836839, 22.5610384], [113.8836899, 22.5610527], [113.8836914, 22.5610679], [113.8836884, 22.5610829], [113.8835736, 22.5614548], [113.8835452, 22.5615152], [113.8834904, 22.5615757], [113.883367, 22.5614523]]]]}}, {"type": "Feature", "id": "way/763288829", "properties": {"tags": {"building": "yes", "ref": "B区"}, "heightStatus": "unknown", "source": "OpenStreetMap", "license": "ODbL-1.0"}, "geometry": {"type": "MultiPolygon", "coordinates": [[[[113.8819293, 22.5607418], [113.8820576, 22.5606172], [113.8820927, 22.5605885], [113.88231, 22.5603723], [113.8825266, 22.5601614], [113.8827378, 22.5601594], [113.8827391, 22.5602356], [113.8827394, 22.560275], [113.8827944, 22.5603225], [113.8827811, 22.5603364], [113.8828066, 22.5603578], [113.882768, 22.5603969], [113.8829343, 22.560534], [113.8831584, 22.5605273], [113.8831595, 22.5606163], [113.8831611, 22.5606702], [113.8832754, 22.5607678], [113.8831959, 22.5608446], [113.883085, 22.5609517], [113.8832992, 22.5611407], [113.8834262, 22.5611713], [113.8834503, 22.5610858], [113.8835557, 22.5611125], [113.8835743, 22.5610498], [113.8835826, 22.5610338], [113.8835959, 22.5610211], [113.8836129, 22.5610129], [113.8836291, 22.5610102], [113.8836454, 22.5610116], [113.8836608, 22.5610171], [113.8836739, 22.5610262], [113.8836839, 22.5610384], [113.8836899, 22.5610527], [113.8836914, 22.5610679], [113.8836884, 22.5610829], [113.8835736, 22.5614548], [113.8835452, 22.5615152], [113.8834904, 22.5615757], [113.8834196, 22.5616247], [113.8833293, 22.561659], [113.8830105, 22.5617602], [113.8829955, 22.5617649], [113.8829798, 22.5617659], [113.8829643, 22.5617629], [113.8829498, 22.5617561], [113.8829379, 22.5617459], [113.8827096, 22.5615412], [113.882655, 22.5614474], [113.8826194, 22.5614137], [113.8825398, 22.5613794], [113.8824938, 22.5613394], [113.8824477, 22.5612993], [113.8823699, 22.5611996], [113.8822551, 22.5611459], [113.8819353, 22.5608516], [113.8819293, 22.5607418]]]]}}, {"type": "Feature", "id": "way/763288830", "properties": {"tags": {"building": "roof", "layer": "1"}, "heightStatus": "unknown", "source": "OpenStreetMap", "license": "ODbL-1.0"}, "geometry": {"type": "MultiPolygon", "coordinates": [[[[113.8818495, 22.56038], [113.8820668, 22.5601638], [113.88231, 22.5603723], [113.8820927, 22.5605885], [113.8818495, 22.56038]]]]}}, {"type": "Feature", "id": "way/763288832", "properties": {"tags": {"building": "kindergarten"}, "heightStatus": "unknown", "source": "OpenStreetMap", "license": "ODbL-1.0"}, "geometry": {"type": "MultiPolygon", "coordinates": [[[[113.8831516, 22.560985], [113.8834056, 22.5607394], [113.8836121, 22.5609215], [113.8834641, 22.5610645], [113.8833931, 22.5610018], [113.8832869, 22.5611044], [113.8831516, 22.560985]]]]}}, {"type": "Feature", "id": "way/771171614", "properties": {"tags": {"addr:housename": "正中·风临洲", "addr:housename:en": "Zhengzhong Fenglinzhou", "addr:housename:zh": "正中·风临洲", "building": "apartments", "building:levels": "24", "name": "A栋", "name:en": "Block A", "name:zh": "A栋"}, "heightStatus": "levels_only_unverified", "source": "OpenStreetMap", "license": "ODbL-1.0"}, "geometry": {"type": "MultiPolygon", "coordinates": [[[[113.8837108, 22.5617614], [113.8837969, 22.5616748], [113.8838733, 22.5617393], [113.8839323, 22.5616801], [113.8840568, 22.5617856], [113.8839979, 22.5618446], [113.8840739, 22.5619088], [113.8839876, 22.5619954], [113.8839119, 22.5619314], [113.8838638, 22.5619795], [113.8837393, 22.5618741], [113.8837873, 22.561826], [113.8837108, 22.5617614]]]]}}, {"type": "Feature", "id": "way/771171615", "properties": {"tags": {"addr:housename": "正中·风临洲", "addr:housename:en": "Zhengzhong Fenglinzhou", "addr:housename:zh": "正中·风临洲", "building": "apartments", "building:levels": "24", "name": "C栋", "name:en": "Block C", "name:zh": "C栋"}, "heightStatus": "levels_only_unverified", "source": "OpenStreetMap", "license": "ODbL-1.0"}, "geometry": {"type": "MultiPolygon", "coordinates": [[[[113.8843973, 22.562382], [113.8844836, 22.5622954], [113.8845595, 22.5623595], [113.8846146, 22.5623041], [113.884739, 22.5624097], [113.8846841, 22.5624648], [113.8847579, 22.5625272], [113.8846719, 22.562614], [113.8845978, 22.5625514], [113.884546, 22.5626035], [113.8844216, 22.5624979], [113.8844732, 22.5624461], [113.8843973, 22.562382]]]]}}, {"type": "Feature", "id": "way/1087868073", "properties": {"tags": {"addr:housename": "富通·好旺角", "addr:housename:en": "Futong Haowangjiao", "addr:housename:zh": "富通·好旺角", "building": "apartments", "building:levels": "40", "layer": "1", "name": "C2栋", "name:en": "Block C2", "name:zh": "C2栋"}, "heightStatus": "levels_only_unverified", "source": "OpenStreetMap", "license": "ODbL-1.0"}, "geometry": {"type": "MultiPolygon", "coordinates": [[[[113.8847186, 22.5606722], [113.8848247, 22.5606692], [113.8849901, 22.5606644], [113.8849973, 22.5608761], [113.8847258, 22.560884], [113.8847214, 22.5607543], [113.8847186, 22.5606722]]]]}}, {"type": "Feature", "id": "way/1087868075", "properties": {"tags": {"addr:housename": "富通·好旺角", "addr:housename:en": "Futong Haowangjiao", "addr:housename:zh": "富通·好旺角", "building": "apartments", "building:levels": "33", "layer": "1", "name": "C1栋", "name:en": "Block C1", "name:zh": "C1栋"}, "heightStatus": "levels_only_unverified", "source": "OpenStreetMap", "license": "ODbL-1.0"}, "geometry": {"type": "MultiPolygon", "coordinates": [[[[113.8843556, 22.5603265], [113.8844637, 22.5602173], [113.8845126, 22.5601679], [113.8845741, 22.5602217], [113.88463, 22.5601698], [113.8847742, 22.5603022], [113.8847183, 22.5603541], [113.8846783, 22.5603178], [113.8846639, 22.5603238], [113.8846642, 22.5603951], [113.8846643, 22.5604107], [113.8846238, 22.5604163], [113.8845811, 22.5604193], [113.8845358, 22.5604176], [113.8844978, 22.5604113], [113.8844975, 22.5603244], [113.8844803, 22.5603186], [113.8844194, 22.5603803], [113.8843556, 22.5603265]]]]}}, {"type": "Feature", "id": "way/1087868076", "properties": {"tags": {"addr:housename": "富通·好旺角", "addr:housename:en": "Futong Haowangjiao", "addr:housename:zh": "富通·好旺角", "building": "apartments", "building:levels": "19", "name": "B栋", "name:en": "Block B", "name:zh": "B栋"}, "heightStatus": "levels_only_unverified", "source": "OpenStreetMap", "license": "ODbL-1.0"}, "geometry": {"type": "MultiPolygon", "coordinates": [[[[113.8839656, 22.5600514], [113.8840781, 22.559943], [113.884178, 22.5600318], [113.8842102, 22.5600005], [113.8841095, 22.5599111], [113.8842204, 22.5598036], [113.8842316, 22.5598136], [113.8842891, 22.5598647], [113.8842572, 22.5598956], [113.8842893, 22.5599239], [113.8843386, 22.5598762], [113.8843988, 22.5599293], [113.8843795, 22.559948], [113.8843698, 22.5599699], [113.8843579, 22.5599906], [113.8843415, 22.5600101], [113.8843202, 22.5600271], [113.8842969, 22.5600405], [113.884272, 22.5600521], [113.8842374, 22.5600855], [113.884226, 22.5601098], [113.884212, 22.5601309], [113.8841948, 22.5601498], [113.8841711, 22.560169], [113.884147, 22.560183], [113.8841278, 22.5601916], [113.8841072, 22.5602116], [113.8840471, 22.5601586], [113.8840817, 22.560125], [113.8840473, 22.5600947], [113.8840313, 22.5601101], [113.8839656, 22.5600514]]]]}}, {"type": "Feature", "id": "way/1087868077", "properties": {"tags": {"addr:housename": "富通·好旺角", "addr:housename:en": "Futong Haowangjiao", "addr:housename:zh": "富通·好旺角", "building": "apartments", "building:levels": "19", "name": "A栋", "name:en": "Block A", "name:zh": "A栋"}, "heightStatus": "levels_only_unverified", "source": "OpenStreetMap", "license": "ODbL-1.0"}, "geometry": {"type": "MultiPolygon", "coordinates": [[[[113.8835385, 22.5604963], [113.8835569, 22.5604768], [113.8835655, 22.5604545], [113.8835764, 22.5604334], [113.8835917, 22.5604132], [113.8836122, 22.5603953], [113.8836348, 22.5603809], [113.8836591, 22.5603683], [113.883692, 22.5603334], [113.8837022, 22.5603088], [113.8837151, 22.560287], [113.8837314, 22.5602674], [113.8837541, 22.5602472], [113.8837775, 22.5602322], [113.8837962, 22.5602228], [113.8838158, 22.560202], [113.8838785, 22.5602524], [113.8838456, 22.5602874], [113.8838815, 22.5603162], [113.8838966, 22.5603002], [113.8839687, 22.5603595], [113.8838617, 22.5604726], [113.883754, 22.5603846], [113.8837233, 22.5604172], [113.8838318, 22.5605058], [113.8837264, 22.5606179], [113.8836513, 22.5605562], [113.8836816, 22.560524], [113.8836481, 22.5604971], [113.8836013, 22.5605468], [113.8835385, 22.5604963]]]]}}, {"type": "Feature", "id": "way/1087868078", "properties": {"tags": {"addr:housename": "富通·好旺角", "addr:housename:en": "Futong Haowangjiao", "addr:housename:zh": "富通·好旺角", "building": "apartments", "building:levels": "19", "name": "C3栋", "name:en": "Block C3", "name:zh": "C3栋"}, "heightStatus": "levels_only_unverified", "source": "OpenStreetMap", "license": "ODbL-1.0"}, "geometry": {"type": "MultiPolygon", "coordinates": [[[[113.8839549, 22.5608549], [113.884037, 22.5608528], [113.8840337, 22.5607439], [113.8841788, 22.5607402], [113.884182, 22.5608491], [113.8842856, 22.5608465], [113.8842823, 22.5607359], [113.8844238, 22.5607323], [113.884427, 22.5608417], [113.8845004, 22.5608398], [113.8845029, 22.5609161], [113.884428, 22.5609182], [113.8844045, 22.5609297], [113.8843803, 22.5609366], [113.8843538, 22.5609398], [113.8843257, 22.5609381], [113.8842989, 22.5609324], [113.884281, 22.5609259], [113.8842655, 22.5609176], [113.8841951, 22.5609188], [113.8841716, 22.5609302], [113.8841504, 22.5609368], [113.8841243, 22.5609427], [113.8840977, 22.560945], [113.8840662, 22.5609432], [113.8840384, 22.5609375], [113.8840182, 22.5609295], [113.8839573, 22.5609312], [113.8839549, 22.5608549]]]]}}, {"type": "Feature", "id": "way/1087920674", "properties": {"tags": {"addr:housename": "富通·好旺角", "addr:housename:en": "Futong Haowangjiao", "addr:housename:zh": "富通·好旺角", "building": "apartments", "building:levels": "29", "layer": "1", "name": "E栋", "name:en": "Block E", "name:zh": "E栋"}, "heightStatus": "levels_only_unverified", "source": "OpenStreetMap", "license": "ODbL-1.0"}, "geometry": {"type": "MultiPolygon", "coordinates": [[[[113.8847755, 22.5613181], [113.8848113, 22.5613165], [113.8848529, 22.5613147], [113.8848511, 22.5612796], [113.8848098, 22.5612813], [113.884806, 22.5612054], [113.8850004, 22.5611971], [113.8850042, 22.5612731], [113.8849567, 22.5612751], [113.8849585, 22.5613101], [113.8850055, 22.561308], [113.8850396, 22.5613065], [113.8850432, 22.5613838], [113.8847794, 22.5613942], [113.8847755, 22.5613181]]]]}}, {"type": "Feature", "id": "way/1087920675", "properties": {"tags": {"addr:housename": "富通·好旺角", "addr:housename:en": "Futong Haowangjiao", "addr:housename:zh": "富通·好旺角", "building": "apartments", "building:levels": "19", "layer": "1", "name": "D栋", "name:en": "Block D", "name:zh": "D栋"}, "heightStatus": "levels_only_unverified", "source": "OpenStreetMap", "license": "ODbL-1.0"}, "geometry": {"type": "MultiPolygon", "coordinates": [[[[113.8839537, 22.5613491], [113.8839739, 22.5613483], [113.8840109, 22.5613468], [113.884009, 22.5613058], [113.883972, 22.5613073], [113.8839685, 22.561233], [113.8841374, 22.5612263], [113.8841408, 22.5613007], [113.8841223, 22.5613015], [113.8841242, 22.5613422], [113.8842391, 22.5613376], [113.8842372, 22.5612969], [113.8842195, 22.5612976], [113.884216, 22.5612233], [113.8843613, 22.5612176], [113.8843648, 22.561292], [113.8843486, 22.5612926], [113.8843505, 22.5613332], [113.8844648, 22.5613286], [113.8844629, 22.5612881], [113.8844444, 22.5612889], [113.884441, 22.5612145], [113.8846169, 22.5612076], [113.8846203, 22.5612821], [113.8845641, 22.5612843], [113.8845659, 22.5613245], [113.8846406, 22.5613215], [113.8846442, 22.5613996], [113.8839573, 22.5614269], [113.8839537, 22.5613491]]]]}}, {"type": "Feature", "id": "way/1087920676", "properties": {"tags": {"building": "retail", "building:levels": "2"}, "heightStatus": "levels_only_unverified", "source": "OpenStreetMap", "license": "ODbL-1.0"}, "geometry": {"type": "MultiPolygon", "coordinates": [[[[113.8842316, 22.5598136], [113.8842536, 22.5597903], [113.8847918, 22.5602629], [113.8848435, 22.5603182], [113.8848889, 22.560377], [113.8849218, 22.5604331], [113.8849562, 22.5604991], [113.8849823, 22.5605632], [113.8849982, 22.5606204], [113.8850082, 22.5606845], [113.8850157, 22.5608982], [113.8846461, 22.5609075], [113.8846405, 22.5607558], [113.8847214, 22.5607543], [113.8847186, 22.5606722], [113.8848247, 22.5606692], [113.8848173, 22.560641], [113.8848047, 22.5606035], [113.8847825, 22.5605522], [113.8847588, 22.5605085], [113.8847307, 22.5604648], [113.8846642, 22.5603951], [113.8846643, 22.5604107], [113.8846238, 22.5604163], [113.8845811, 22.5604193], [113.8845358, 22.5604176], [113.8844978, 22.5604113], [113.8844975, 22.5603244], [113.8844803, 22.5603186], [113.8844194, 22.5603803], [113.8843556, 22.5603265], [113.8844637, 22.5602173], [113.884272, 22.5600521], [113.8842969, 22.5600405], [113.8843202, 22.5600271], [113.8843415, 22.5600101], [113.8843579, 22.5599906], [113.8843698, 22.5599699], [113.8843795, 22.559948], [113.8843988, 22.5599293], [113.8843386, 22.5598762], [113.8842893, 22.5599239], [113.8842572, 22.5598956], [113.8842891, 22.5598647], [113.8842316, 22.5598136]]]]}}, {"type": "Feature", "id": "way/1087920677", "properties": {"tags": {"building": "retail", "building:levels": "4"}, "heightStatus": "levels_only_unverified", "source": "OpenStreetMap", "license": "ODbL-1.0"}, "geometry": {"type": "MultiPolygon", "coordinates": [[[[113.8839537, 22.5613491], [113.8839739, 22.5613483], [113.883972, 22.5613073], [113.8839685, 22.561233], [113.8839634, 22.5611224], [113.885029, 22.5610803], [113.8850396, 22.5613065], [113.8850432, 22.5613838], [113.8847794, 22.5613942], [113.8846442, 22.5613996], [113.8839573, 22.5614269], [113.8839537, 22.5613491]]]]}}, {"type": "Feature", "id": "way/1087920680", "properties": {"tags": {"building": "residential", "building:levels": "28"}, "heightStatus": "levels_only_unverified", "source": "OpenStreetMap", "license": "ODbL-1.0"}, "geometry": {"type": "MultiPolygon", "coordinates": [[[[113.8846375, 22.561727], [113.8846522, 22.5617267], [113.8846497, 22.5616319], [113.8847532, 22.5616296], [113.8847555, 22.5617191], [113.8848935, 22.5617164], [113.8848913, 22.5616262], [113.8850092, 22.5616238], [113.8850147, 22.5618573], [113.8848954, 22.5618597], [113.8848949, 22.5618398], [113.8847587, 22.5618426], [113.8847592, 22.5618615], [113.884641, 22.5618641], [113.8846375, 22.561727]]]]}}, {"type": "Feature", "id": "way/1089624223", "properties": {"tags": {"addr:housename": "菁英趣庭", "addr:housename:en": "Jingying Quting", "addr:housename:zh": "菁英趣庭", "building": "apartments", "building:levels": "24", "name": "4栋", "name:en": "Block 4", "name:zh": "4栋"}, "heightStatus": "levels_only_unverified", "source": "OpenStreetMap", "license": "ODbL-1.0"}, "geometry": {"type": "MultiPolygon", "coordinates": [[[[113.8840291, 22.5626876], [113.8840799, 22.5626395], [113.8841078, 22.5626646], [113.8842278, 22.5626632], [113.8842417, 22.5626757], [113.8842627, 22.5626559], [113.884376, 22.5627579], [113.884355, 22.5627777], [113.884369, 22.5627903], [113.8843705, 22.5629011], [113.8843984, 22.5629262], [113.8843475, 22.5629743], [113.8842639, 22.5628991], [113.8841892, 22.5629], [113.8841883, 22.562831], [113.8841136, 22.5628319], [113.8841126, 22.5627629], [113.8840291, 22.5626876]]]]}}, {"type": "Feature", "id": "way/1188423348", "properties": {"tags": {"addr:housename": "宏发领域", "addr:housename:en": "Hongfa Lingyu", "addr:housename:zh": "宏发领域", "building": "apartments", "building:levels": "29", "layer": "1", "name": "6栋", "name:en": "Block 6", "name:zh": "6栋"}, "heightStatus": "levels_only_unverified", "source": "OpenStreetMap", "license": "ODbL-1.0"}, "geometry": {"type": "MultiPolygon", "coordinates": [[[[113.8843552, 22.5565855], [113.8844664, 22.5564795], [113.8844648, 22.5563788], [113.8850283, 22.5563715], [113.8850299, 22.5564721], [113.8851482, 22.5565708], [113.8850764, 22.5566442], [113.8849962, 22.5565772], [113.8849687, 22.5566053], [113.8848565, 22.5565117], [113.8848559, 22.5564743], [113.8846455, 22.5564771], [113.884646, 22.5565068], [113.884524, 22.5566232], [113.8844899, 22.5565927], [113.8844287, 22.5566511], [113.8843552, 22.5565855]]]]}}, {"type": "Feature", "id": "way/1188423349", "properties": {"tags": {"addr:city": "深圳市", "addr:country": "CN", "addr:district": "宝安中心区", "addr:housenumber": "1004", "addr:neighborhood": "海旺社区", "addr:postcode": "518133", "addr:province": "广东省", "addr:street": "创业一路", "addr:subdistrict": "新安街道", "building": "commercial", "building:levels": "29", "layer": "1", "name": "宏发中心大厦", "name:en": "Hongfa Center Tower", "name:zh": "宏发中心大厦", "name:zh-Hans": "宏发中心大厦", "name:zh-Hant": "宏發中心大廈"}, "heightStatus": "levels_only_unverified", "source": "OpenStreetMap", "license": "ODbL-1.0"}, "geometry": {"type": "MultiPolygon", "coordinates": [[[[113.8831695, 22.5577875], [113.883174, 22.5576341], [113.8835831, 22.5572377], [113.8837211, 22.5573592], [113.8833858, 22.557684], [113.8833813, 22.5577475], [113.883608, 22.5579471], [113.8834856, 22.5580656], [113.8831695, 22.5577875]]]]}}, {"type": "Feature", "id": "way/1188423350", "properties": {"tags": {"addr:housename": "宏发领域", "addr:housename:en": "Hongfa Lingyu", "addr:housename:zh": "宏发领域", "building": "apartments", "building:levels": "29", "layer": "1", "name": "3栋", "name:en": "Block 3", "name:zh": "3栋"}, "heightStatus": "levels_only_unverified", "source": "OpenStreetMap", "license": "ODbL-1.0"}, "geometry": {"type": "MultiPolygon", "coordinates": [[[[113.8837168, 22.5581227], [113.8839678, 22.5581202], [113.8841739, 22.5579163], [113.8843002, 22.5580251], [113.8840491, 22.5582735], [113.8837186, 22.5582768], [113.8837168, 22.5581227]]]]}}, {"type": "Feature", "id": "way/1188423351", "properties": {"tags": {"addr:housename": "宏发领域", "addr:housename:en": "Hongfa Lingyu", "addr:housename:zh": "宏发领域", "building": "apartments", "building:levels": "29", "layer": "1", "name": "5栋", "name:en": "Block 5", "name:zh": "5栋"}, "heightStatus": "levels_only_unverified", "source": "OpenStreetMap", "license": "ODbL-1.0"}, "geometry": {"type": "MultiPolygon", "coordinates": [[[[113.8838421, 22.5570191], [113.883986, 22.5570161], [113.8839831, 22.5568964], [113.8841507, 22.556893], [113.8842158, 22.5568917], [113.8842177, 22.556973], [113.8841472, 22.5569744], [113.8841485, 22.5570278], [113.8841767, 22.5570296], [113.8842073, 22.5570386], [113.8842344, 22.5570539], [113.8842583, 22.5570766], [113.8842724, 22.5570979], [113.884284, 22.5571234], [113.8842892, 22.5571515], [113.8842864, 22.5571763], [113.8842711, 22.5571995], [113.8842474, 22.5572145], [113.8842199, 22.5572193], [113.8841902, 22.5572142], [113.8841598, 22.5572011], [113.8841337, 22.5571831], [113.8841115, 22.55716], [113.8840947, 22.5571328], [113.8840867, 22.557107], [113.8840843, 22.5570831], [113.884052, 22.5570838], [113.8840524, 22.5571005], [113.8838442, 22.5571048], [113.8838421, 22.5570191]]]]}}, {"type": "Feature", "id": "way/1188423352", "properties": {"tags": {"addr:housename": "宏发领域", "addr:housename:en": "Hongfa Lingyu", "addr:housename:zh": "宏发领域", "building": "apartments", "building:levels": "29", "layer": "1", "name": "2栋", "name:en": "Block 2", "name:zh": "2栋"}, "heightStatus": "levels_only_unverified", "source": "OpenStreetMap", "license": "ODbL-1.0"}, "geometry": {"type": "MultiPolygon", "coordinates": [[[[113.8842237, 22.557721], [113.884319, 22.557626], [113.8844065, 22.557701], [113.8843841, 22.5577233], [113.8844029, 22.5577394], [113.8845198, 22.5576229], [113.8846044, 22.5576953], [113.8843427, 22.5579559], [113.8842582, 22.5578835], [113.8843537, 22.5577883], [113.884335, 22.5577723], [113.8843112, 22.5577959], [113.8842237, 22.557721]]]]}}, {"type": "Feature", "id": "way/1188423353", "properties": {"tags": {"addr:housename": "宏发领域", "addr:housename:en": "Hongfa Lingyu", "addr:housename:zh": "宏发领域", "building": "apartments", "building:levels": "29", "layer": "1", "name": "1B栋", "name:en": "Block 1B", "name:zh": "1B栋"}, "heightStatus": "levels_only_unverified", "source": "OpenStreetMap", "license": "ODbL-1.0"}, "geometry": {"type": "MultiPolygon", "coordinates": [[[[113.8848403, 22.5573068], [113.8849214, 22.5572292], [113.8848878, 22.5571993], [113.8849915, 22.5571], [113.8850251, 22.5571299], [113.8851061, 22.5570522], [113.885202, 22.5571376], [113.8851209, 22.5572152], [113.8851534, 22.557244], [113.8850496, 22.5573434], [113.8850172, 22.5573146], [113.8849362, 22.5573922], [113.8848403, 22.5573068]]]]}}, {"type": "Feature", "id": "way/1188423354", "properties": {"tags": {"addr:housename": "宏发领域", "addr:housename:en": "Hongfa Lingyu", "addr:housename:zh": "宏发领域", "building": "apartments", "building:levels": "29", "layer": "1", "name": "7栋", "name:en": "Block 7", "name:zh": "7栋"}, "heightStatus": "levels_only_unverified", "source": "OpenStreetMap", "license": "ODbL-1.0"}, "geometry": {"type": "MultiPolygon", "coordinates": [[[[113.8851682, 22.5567629], [113.8852316, 22.5567025], [113.8853395, 22.5567991], [113.8854216, 22.5567209], [113.8855835, 22.5568659], [113.885511, 22.556935], [113.8854637, 22.5568926], [113.885271, 22.5570761], [113.8851851, 22.5569992], [113.8852814, 22.5569075], [113.8851901, 22.5568257], [113.8852135, 22.5568034], [113.8851682, 22.5567629]]]]}}, {"type": "Feature", "id": "way/1188423355", "properties": {"tags": {"building": "commercial", "building:levels": "3"}, "heightStatus": "levels_only_unverified", "source": "OpenStreetMap", "license": "ODbL-1.0"}, "geometry": {"type": "MultiPolygon", "coordinates": [[[[113.8831343, 22.5578012], [113.8831358, 22.5576331], [113.8836303, 22.5571634], [113.8836789, 22.5572069], [113.8838404, 22.5571911], [113.8838168, 22.556986], [113.8847414, 22.5561045], [113.8855921, 22.5568654], [113.883959, 22.5584227], [113.8838619, 22.5584377], [113.8831343, 22.5578012]]]]}}, {"type": "Feature", "id": "way/1206570697", "properties": {"tags": {"addr:housename": "天御豪庭", "addr:housename:en": "Tianyu Haoting", "addr:housename:zh": "天御豪庭", "building": "apartments", "building:levels": "29", "layer": "1", "name": "4栋", "name:en": "Block 4", "name:zh": "4栋", "ref": "4"}, "heightStatus": "levels_only_unverified", "source": "OpenStreetMap", "license": "ODbL-1.0"}, "geometry": {"type": "MultiPolygon", "coordinates": [[[[113.8850551, 22.5559053], [113.8854772, 22.5554865], [113.8855733, 22.5555691], [113.8851513, 22.555988], [113.8850551, 22.5559053]]]]}}, {"type": "Feature", "id": "way/1206570698", "properties": {"tags": {"addr:housename": "天御豪庭", "addr:housename:en": "Tianyu Haoting", "addr:housename:zh": "天御豪庭", "building": "apartments", "building:levels": "29", "layer": "1", "name": "2栋", "name:en": "Block 2", "name:zh": "2栋", "ref": "2"}, "heightStatus": "levels_only_unverified", "source": "OpenStreetMap", "license": "ODbL-1.0"}, "geometry": {"type": "MultiPolygon", "coordinates": [[[[113.8858713, 22.5562885], [113.8862934, 22.5558697], [113.8863895, 22.5559522], [113.8859675, 22.5563711], [113.8858713, 22.5562885]]]]}}, {"type": "Feature", "id": "way/1206570699", "properties": {"tags": {"addr:housename": "天御豪庭", "addr:housename:en": "Tianyu Haoting", "addr:housename:zh": "天御豪庭", "building": "apartments", "building:levels": "29", "layer": "1", "name": "1栋", "name:en": "Block 1", "name:zh": "1栋", "ref": "1"}, "heightStatus": "levels_only_unverified", "source": "OpenStreetMap", "license": "ODbL-1.0"}, "geometry": {"type": "MultiPolygon", "coordinates": [[[[113.8854019, 22.5562666], [113.885502, 22.5561677], [113.8857734, 22.5564022], [113.8856734, 22.556501], [113.8854019, 22.5562666]]]]}}, {"type": "Feature", "id": "way/1206570700", "properties": {"tags": {"building": "yes"}, "heightStatus": "unknown", "source": "OpenStreetMap", "license": "ODbL-1.0"}, "geometry": {"type": "MultiPolygon", "coordinates": [[[[113.8850033, 22.5559489], [113.8856749, 22.5552856], [113.8864517, 22.5559563], [113.8858396, 22.556561], [113.885717, 22.5565654], [113.8850033, 22.5559489]]]]}}, {"type": "Feature", "id": "way/1206570703", "properties": {"tags": {"addr:housename": "泰华·梧桐村", "addr:housename:en": "Taihua Wutongcun Estate", "addr:housename:zh": "泰华·梧桐村", "building": "apartments", "building:levels": "20", "name": "1栋", "name:en": "Block 1", "name:zh": "1栋"}, "heightStatus": "levels_only_unverified", "source": "OpenStreetMap", "license": "ODbL-1.0"}, "geometry": {"type": "MultiPolygon", "coordinates": [[[[113.8852636, 22.5540216], [113.8854557, 22.5538347], [113.8856231, 22.5539813], [113.8854309, 22.5541683], [113.8852636, 22.5540216]]]]}}, {"type": "Feature", "id": "way/1213221622", "properties": {"tags": {"addr:housename": "鸿荣源·西城上筑", "addr:housename:en": "Horoy Xicheng Shangzhu", "addr:housename:zh": "鸿荣源·西城上筑", "building": "residential", "building:levels": "30", "name": "1C座", "name:en": "Block 1C", "name:zh": "1C座", "ref": "1C"}, "heightStatus": "levels_only_unverified", "source": "OpenStreetMap", "license": "ODbL-1.0"}, "geometry": {"type": "MultiPolygon", "coordinates": [[[[113.8863911, 22.559661], [113.8864798, 22.5596597], [113.8864794, 22.5596365], [113.8865668, 22.5596352], [113.8865999, 22.5595902], [113.8865379, 22.5595514], [113.886599, 22.5594682], [113.8867897, 22.5595875], [113.8867453, 22.559648], [113.8867283, 22.5596374], [113.886712, 22.5596596], [113.8866881, 22.5596446], [113.8866783, 22.5596579], [113.8866786, 22.5596752], [113.8867417, 22.5596743], [113.8867427, 22.5597353], [113.8866948, 22.559736], [113.8866951, 22.5597552], [113.8866288, 22.5597561], [113.8866283, 22.5597274], [113.8865125, 22.5597291], [113.8865129, 22.5597562], [113.8863928, 22.559758], [113.8863911, 22.559661]]]]}}, {"type": "Feature", "id": "way/1213221623", "properties": {"tags": {"addr:housename": "鸿荣源·西城上筑", "addr:housename:en": "Horoy Xicheng Shangzhu", "addr:housename:zh": "鸿荣源·西城上筑", "building": "residential", "building:levels": "30", "name": "2B座", "name:en": "Block 2B", "name:zh": "2B座", "ref": "2B"}, "heightStatus": "levels_only_unverified", "source": "OpenStreetMap", "license": "ODbL-1.0"}, "geometry": {"type": "MultiPolygon", "coordinates": [[[[113.886947, 22.5596463], [113.8870357, 22.559645], [113.8870353, 22.5596218], [113.8871228, 22.5596205], [113.8871558, 22.5595755], [113.8870938, 22.5595368], [113.887155, 22.5594535], [113.8873456, 22.5595728], [113.8873012, 22.5596333], [113.8872843, 22.5596227], [113.8872679, 22.5596449], [113.887244, 22.5596299], [113.8872343, 22.5596432], [113.8872346, 22.5596605], [113.8872976, 22.5596596], [113.8872986, 22.5597206], [113.8872507, 22.5597213], [113.887251, 22.5597405], [113.8871847, 22.5597414], [113.8871842, 22.5597127], [113.8870684, 22.5597144], [113.8870689, 22.5597415], [113.8869487, 22.5597433], [113.886947, 22.5596463]]]]}}, {"type": "Feature", "id": "way/1213221624", "properties": {"tags": {"addr:housename": "鸿荣源·西城上筑", "addr:housename:en": "Hongrongyuan Xicheng Shangzhu", "addr:housename:zh": "鸿荣源·西城上筑", "building": "residential", "building:levels": "30", "name": "3D座", "name:en": "Block 3D", "name:zh": "3D座", "ref": "3D"}, "heightStatus": "levels_only_unverified", "source": "OpenStreetMap", "license": "ODbL-1.0"}, "geometry": {"type": "MultiPolygon", "coordinates": [[[[113.8874513, 22.5596409], [113.8875314, 22.5596058], [113.8875207, 22.5595849], [113.8875997, 22.5595503], [113.8876096, 22.5594966], [113.8875358, 22.559485], [113.8875541, 22.5593859], [113.8877812, 22.5594216], [113.8877679, 22.5594936], [113.8877477, 22.5594904], [113.8877428, 22.5595169], [113.8877143, 22.5595124], [113.8877114, 22.5595282], [113.8877194, 22.5595439], [113.8877764, 22.559519], [113.8878047, 22.5595741], [113.8877614, 22.5595931], [113.8877703, 22.5596104], [113.8877103, 22.5596366], [113.887697, 22.5596106], [113.8875923, 22.5596564], [113.8876049, 22.559681], [113.8874963, 22.5597285], [113.8874513, 22.5596409]]]]}}, {"type": "Feature", "id": "way/1213221625", "properties": {"tags": {"addr:housename": "鸿荣源·西城上筑", "addr:housename:en": "Horoy Xicheng Shangzhu", "addr:housename:zh": "鸿荣源·西城上筑", "building": "residential", "building:levels": "30", "name": "3C座", "name:en": "Block 3C", "name:zh": "3C座", "ref": "3C"}, "heightStatus": "levels_only_unverified", "source": "OpenStreetMap", "license": "ODbL-1.0"}, "geometry": {"type": "MultiPolygon", "coordinates": [[[[113.8878656, 22.5592208], [113.8880265, 22.559064], [113.8880863, 22.5591163], [113.8880722, 22.5591301], [113.8880933, 22.5591485], [113.8880734, 22.5591679], [113.8880839, 22.559177], [113.8881009, 22.5591604], [113.8881191, 22.5591763], [113.8881366, 22.5591592], [113.8881832, 22.5592], [113.8881117, 22.5592698], [113.8881729, 22.5593233], [113.888137, 22.5593583], [113.8881553, 22.5593742], [113.8881264, 22.5594024], [113.8880722, 22.5593551], [113.8879862, 22.559439], [113.8879174, 22.5593789], [113.8880058, 22.5592925], [113.8880035, 22.5592604], [113.8879915, 22.5592498], [113.8879476, 22.5592926], [113.8878656, 22.5592208]]]]}}, {"type": "Feature", "id": "way/1213221626", "properties": {"tags": {"addr:housename": "鸿荣源·西城上筑", "addr:housename:en": "Horoy Xicheng Shangzhu", "addr:housename:zh": "鸿荣源·西城上筑", "building": "residential", "building:levels": "30", "name": "1B座", "name:en": "Block 1B", "name:zh": "1B座", "ref": "1B"}, "heightStatus": "levels_only_unverified", "source": "OpenStreetMap", "license": "ODbL-1.0"}, "geometry": {"type": "MultiPolygon", "coordinates": [[[[113.8859106, 22.5594392], [113.8859508, 22.5594387], [113.8859493, 22.5593365], [113.886029, 22.5593355], [113.886028, 22.5592716], [113.8861403, 22.5592702], [113.8861398, 22.559237], [113.8861621, 22.5592367], [113.8862013, 22.5592363], [113.8862015, 22.5592515], [113.8862044, 22.5594472], [113.886124, 22.5594482], [113.8861249, 22.5595106], [113.8860969, 22.5595109], [113.8860973, 22.5595432], [113.8860395, 22.5595439], [113.8860393, 22.5595315], [113.885912, 22.5595331], [113.8859106, 22.5594392]]]]}}, {"type": "Feature", "id": "way/1213221627", "properties": {"tags": {"addr:housename": "鸿荣源·西城上筑", "addr:housename:en": "Horoy Xicheng Shangzhu", "addr:housename:zh": "鸿荣源·西城上筑", "building": "residential", "building:levels": "30", "name": "1A座", "name:en": "Block 1A", "name:zh": "1A座", "ref": "1A"}, "heightStatus": "levels_only_unverified", "source": "OpenStreetMap", "license": "ODbL-1.0"}, "geometry": {"type": "MultiPolygon", "coordinates": [[[[113.8861344, 22.559045], [113.8862061, 22.5590434], [113.886205, 22.5589993], [113.8861943, 22.5589996], [113.8861931, 22.5589523], [113.8863998, 22.5589479], [113.8864011, 22.5590006], [113.8863824, 22.559001], [113.8863829, 22.5590207], [113.8863432, 22.5590215], [113.8863437, 22.5590415], [113.8864163, 22.5590399], [113.8864177, 22.5590952], [113.8864065, 22.5590955], [113.8864076, 22.5591389], [113.8863344, 22.5591405], [113.886334, 22.5591244], [113.8863116, 22.5591249], [113.8863107, 22.55909], [113.8862689, 22.5591324], [113.8862718, 22.55925], [113.8862015, 22.5592515], [113.8862013, 22.5592363], [113.8861621, 22.5592367], [113.8861603, 22.5591615], [113.8861715, 22.5591612], [113.8861708, 22.5591343], [113.8861366, 22.559135], [113.8861344, 22.559045]]]]}}, {"type": "Feature", "id": "way/1213221628", "properties": {"tags": {"addr:housename": "鸿荣源·西城上筑", "addr:housename:en": "Horoy Xicheng Shangzhu", "addr:housename:zh": "鸿荣源·西城上筑", "building": "residential", "building:levels": "30", "name": "2A座", "name:en": "Block 2A", "name:zh": "2A座", "ref": "1B"}, "heightStatus": "levels_only_unverified", "source": "OpenStreetMap", "license": "ODbL-1.0"}, "geometry": {"type": "MultiPolygon", "coordinates": [[[[113.886941, 22.558871], [113.8870239, 22.5587871], [113.8869964, 22.5587639], [113.8869837, 22.5587768], [113.8869476, 22.5587464], [113.8870734, 22.5586192], [113.8871242, 22.5586621], [113.8871031, 22.5586835], [113.8871195, 22.5586973], [113.8871926, 22.5586234], [113.8872632, 22.5586829], [113.8872197, 22.5587269], [113.8872319, 22.5587373], [113.887184, 22.5587858], [113.8871479, 22.5587554], [113.8871373, 22.5587661], [113.8871379, 22.558823], [113.8871483, 22.5588318], [113.8871743, 22.5588054], [113.8871904, 22.558819], [113.8872014, 22.5588079], [113.8872552, 22.5588532], [113.8871058, 22.5590042], [113.8870382, 22.5589472], [113.8870712, 22.5589139], [113.8870454, 22.5588921], [113.8870093, 22.5589286], [113.886941, 22.558871]]]]}}, {"type": "Feature", "id": "way/1213221629", "properties": {"tags": {"addr:housename": "鸿荣源·西城上筑", "addr:housename:en": "Horoy Xicheng Shangzhu", "addr:housename:zh": "鸿荣源·西城上筑", "building": "residential", "building:levels": "30", "name": "3A座", "name:en": "Block 3A", "name:zh": "3A座", "ref": "3A 3B"}, "heightStatus": "levels_only_unverified", "source": "OpenStreetMap", "license": "ODbL-1.0"}, "geometry": {"type": "MultiPolygon", "coordinates": [[[[113.8872724, 22.5584625], [113.8873564, 22.5583737], [113.8873856, 22.5583972], [113.8874079, 22.5583734], [113.8873872, 22.5583705], [113.8873969, 22.5583118], [113.8875791, 22.5583374], [113.8875704, 22.5583906], [113.887539, 22.5583862], [113.887534, 22.558417], [113.8876336, 22.558431], [113.8876203, 22.5585118], [113.8874968, 22.5584944], [113.8874993, 22.5584792], [113.8874861, 22.5584672], [113.887456, 22.5584954], [113.8874711, 22.5585091], [113.8874692, 22.5585242], [113.8874928, 22.5585268], [113.8874828, 22.5586027], [113.8873218, 22.5585847], [113.8873316, 22.5585102], [113.8872724, 22.5584625]]]]}}, {"type": "Feature", "id": "way/1213221630", "properties": {"tags": {"building": "apartments", "building:levels": "30", "layer": "1", "name": "2栋"}, "heightStatus": "levels_only_unverified", "source": "OpenStreetMap", "license": "ODbL-1.0"}, "geometry": {"type": "MultiPolygon", "coordinates": [[[[113.8843878, 22.5585013], [113.884452, 22.5584435], [113.8844956, 22.5584849], [113.8845398, 22.5584451], [113.884481, 22.5584259], [113.8845066, 22.5583589], [113.8847004, 22.5584223], [113.8846581, 22.5585326], [113.8847198, 22.5585528], [113.8847025, 22.558598], [113.8848612, 22.55865], [113.8848164, 22.5587669], [113.8848891, 22.5587907], [113.8848707, 22.5588387], [113.8850377, 22.5588933], [113.885007, 22.5589733], [113.8850752, 22.5590383], [113.8850659, 22.5590466], [113.8850041, 22.5591019], [113.8849464, 22.5590468], [113.8848935, 22.5590941], [113.8847404, 22.5589483], [113.8847993, 22.5588955], [113.8848445, 22.5589385], [113.8848665, 22.5589187], [113.8847716, 22.5588285], [113.8847172, 22.5588772], [113.8845628, 22.5587305], [113.8846251, 22.5586746], [113.8846702, 22.5587174], [113.8846935, 22.5586964], [113.8845883, 22.5585967], [113.884537, 22.5586428], [113.8843878, 22.5585013]]]]}}, {"type": "Feature", "id": "way/1213221631", "properties": {"tags": {"building": "apartments", "building:levels": "30", "layer": "1", "name": "3栋"}, "heightStatus": "levels_only_unverified", "source": "OpenStreetMap", "license": "ODbL-1.0"}, "geometry": {"type": "MultiPolygon", "coordinates": [[[[113.8852618, 22.5594145], [113.8853319, 22.5593311], [113.8852924, 22.5592559], [113.8854337, 22.5591926], [113.8854097, 22.5591469], [113.8854791, 22.5591158], [113.8854205, 22.5590042], [113.8855721, 22.5589364], [113.8855494, 22.5588932], [113.8856083, 22.5588669], [113.8855629, 22.5587803], [113.8857509, 22.5586962], [113.8857833, 22.5587579], [113.8857385, 22.558778], [113.8857712, 22.5588015], [113.8858095, 22.558756], [113.8858845, 22.5588099], [113.8857498, 22.5589695], [113.8856934, 22.5589289], [113.8856433, 22.5589883], [113.8856036, 22.5590353], [113.8856257, 22.5590511], [113.8856653, 22.559004], [113.8857373, 22.5590557], [113.8855988, 22.5592201], [113.8855389, 22.5591771], [113.8854572, 22.5592741], [113.8854791, 22.5592898], [113.8855188, 22.5592426], [113.8855857, 22.5592905], [113.8854495, 22.5594524], [113.8853913, 22.5594105], [113.8853405, 22.559471], [113.8852618, 22.5594145]]]]}}, {"type": "Feature", "id": "way/1213221632", "properties": {"tags": {"building": "apartments", "building:levels": "31", "layer": "1", "name": "1栋"}, "heightStatus": "levels_only_unverified", "source": "OpenStreetMap", "license": "ODbL-1.0"}, "geometry": {"type": "MultiPolygon", "coordinates": [[[[113.8847204, 22.5581295], [113.8848041, 22.5581267], [113.8848007, 22.5580428], [113.8850026, 22.5580359], [113.8850062, 22.5581261], [113.8850837, 22.5581234], [113.8850872, 22.5582116], [113.8850097, 22.5582142], [113.8850135, 22.5583071], [113.8848117, 22.558314], [113.8848077, 22.5582147], [113.884724, 22.5582175], [113.8847204, 22.5581295]]]]}}, {"type": "Feature", "id": "way/1213221634", "properties": {"tags": {"building": "retail", "building:levels": "3"}, "heightStatus": "levels_only_unverified", "source": "OpenStreetMap", "license": "ODbL-1.0"}, "geometry": {"type": "MultiPolygon", "coordinates": [[[[113.8842328, 22.5586004], [113.8847712, 22.558044], [113.8848007, 22.5580428], [113.8850026, 22.5580359], [113.8850837, 22.5581234], [113.8850872, 22.5582116], [113.8850097, 22.5582142], [113.8850135, 22.5583071], [113.8848117, 22.558314], [113.8847004, 22.5584223], [113.8846581, 22.5585326], [113.8847198, 22.5585528], [113.8847025, 22.558598], [113.8848612, 22.55865], [113.8848164, 22.5587669], [113.8848891, 22.5587907], [113.8848707, 22.5588387], [113.8850377, 22.5588933], [113.885007, 22.5589733], [113.8850752, 22.5590383], [113.8850659, 22.5590466], [113.8852924, 22.5592559], [113.8854337, 22.5591926], [113.8854097, 22.5591469], [113.8854791, 22.5591158], [113.8854205, 22.5590042], [113.8855721, 22.5589364], [113.8855494, 22.5588932], [113.8856083, 22.5588669], [113.8855629, 22.5587803], [113.8857509, 22.5586962], [113.8857833, 22.5587579], [113.8857385, 22.558778], [113.8857712, 22.5588015], [113.8858095, 22.558756], [113.8858845, 22.5588099], [113.8857498, 22.5589695], [113.8856934, 22.5589289], [113.8856433, 22.5589883], [113.8856653, 22.559004], [113.8857373, 22.5590557], [113.8857806, 22.5590894], [113.8854458, 22.5596314], [113.8853905, 22.5596348], [113.8842328, 22.5586004]]]]}}, {"type": "Feature", "id": "way/1213221635", "properties": {"tags": {"building": "kindergarten"}, "heightStatus": "unknown", "source": "OpenStreetMap", "license": "ODbL-1.0"}, "geometry": {"type": "MultiPolygon", "coordinates": [[[[113.8850767, 22.558379], [113.8852213, 22.5582364], [113.8855789, 22.5585457], [113.8854843, 22.558639], [113.885457, 22.5586546], [113.8854282, 22.5586601], [113.8853976, 22.5586606], [113.8853659, 22.5586536], [113.8853393, 22.5586386], [113.8853145, 22.558619], [113.885333, 22.5586007], [113.8850767, 22.558379]]]]}}, {"type": "Feature", "id": "way/1213748127", "properties": {"tags": {"building": "school"}, "heightStatus": "unknown", "source": "OpenStreetMap", "license": "ODbL-1.0"}, "geometry": {"type": "MultiPolygon", "coordinates": [[[[113.8867909, 22.5580546], [113.8868484, 22.5579956], [113.8869955, 22.5581178], [113.8869962, 22.5582076], [113.8868571, 22.5583504], [113.8867913, 22.5582957], [113.8867909, 22.5580546]]]]}}, {"type": "Feature", "id": "relation/16449515", "properties": {"tags": {"building": "school"}, "heightStatus": "unknown", "source": "OpenStreetMap", "license": "ODbL-1.0"}, "geometry": {"type": "MultiPolygon", "coordinates": [[[[113.8856359, 22.5581959], [113.8857605, 22.5580751], [113.8860872, 22.5580806], [113.886088, 22.5580221], [113.8860472, 22.5580219], [113.8860477, 22.5579439], [113.8860892, 22.5579441], [113.8860901, 22.5578796], [113.8859152, 22.5578767], [113.8859171, 22.5577795], [113.8860915, 22.5577823], [113.8860939, 22.5576215], [113.8859145, 22.5576193], [113.8859165, 22.5574831], [113.8861928, 22.5574865], [113.8861908, 22.5576227], [113.8861398, 22.5576221], [113.8861375, 22.5577831], [113.8866064, 22.5577908], [113.8866046, 22.557888], [113.8861361, 22.5578803], [113.8861351, 22.5579443], [113.8862009, 22.5579447], [113.8862004, 22.5580227], [113.886134, 22.5580223], [113.8861331, 22.5580814], [113.8866951, 22.5580909], [113.886693, 22.5581891], [113.8861317, 22.5581791], [113.8861307, 22.5582475], [113.8861982, 22.558248], [113.8861975, 22.558326], [113.8861295, 22.5583254], [113.8861284, 22.5584041], [113.8866829, 22.5584131], [113.886681, 22.5585128], [113.8866517, 22.5585123], [113.886651, 22.5585375], [113.8865626, 22.5585871], [113.8861116, 22.558579], [113.8860442, 22.5585341], [113.886045, 22.5585028], [113.8859872, 22.5585019], [113.8859208, 22.5584441], [113.8856359, 22.5581959]], [[113.8859749, 22.5583917], [113.8859895, 22.5584019], [113.8860824, 22.5584034], [113.8860836, 22.558325], [113.8860441, 22.5583246], [113.8859749, 22.5583917]], [[113.886045, 22.5582468], [113.8860847, 22.5582471], [113.8860857, 22.5581783], [113.8860456, 22.5581776], [113.886045, 22.5582468]]]]}}, {"type": "Feature", "id": "way/1287934575", "properties": {"tags": {"addr:district": "宝安中心区", "building": "kindergarten", "building:levels": "3", "name": "新城幼儿园(集团)都市名荟幼儿园", "name:zh": "新城幼儿园（集团）都市名荟幼儿园"}, "heightStatus": "levels_only_unverified", "source": "OpenStreetMap", "license": "ODbL-1.0"}, "geometry": {"type": "MultiPolygon", "coordinates": [[[[113.8876526, 22.5540256], [113.8877723, 22.5539094], [113.8880481, 22.5541518], [113.8878791, 22.5543157], [113.88774, 22.5541934], [113.8878038, 22.5541315], [113.8877158, 22.5540541], [113.8877012, 22.5540683], [113.8876526, 22.5540256]]]]}}, {"type": "Feature", "id": "way/1287934587", "properties": {"tags": {"addr:housename": "新锦安·壹号公馆", "addr:housename:en": "Xin Jin’an No.1 Mansion", "addr:housename:zh": "新锦安·壹号公馆", "building": "apartments", "building:levels": "44", "name": "1A栋", "name:en": "Block 1A", "name:zh": "1A栋", "ref": "1A"}, "heightStatus": "levels_only_unverified", "source": "OpenStreetMap", "license": "ODbL-1.0"}, "geometry": {"type": "MultiPolygon", "coordinates": [[[[113.8884234, 22.5546249], [113.8885173, 22.5545343], [113.888803, 22.5547868], [113.8887091, 22.5548775], [113.8886149, 22.5547942], [113.888553, 22.5548539], [113.8884601, 22.5547718], [113.8885219, 22.554712], [113.8884234, 22.5546249]]]]}}, {"type": "Feature", "id": "relation/17948361", "properties": {"tags": {"building": "train_station", "building:levels": "0", "building:levels:underground": "3", "layer": "-1", "location": "underground", "name": "宝安中心站", "name:en": "Bao'an Center Station", "name:zh": "宝安中心站", "public_transport": "station", "start_date": "2011-06-15", "wikidata": "Q1012590", "wikipedia": "zh:宝安中心站"}, "heightStatus": "levels_only_unverified", "source": "OpenStreetMap", "license": "ODbL-1.0"}, "geometry": {"type": "MultiPolygon", "coordinates": [[[[113.8815019, 22.5582446], [113.8815986, 22.5581588], [113.8816139, 22.5581736], [113.8820825, 22.5577611], [113.8819814, 22.5576618], [113.8816624, 22.5579454], [113.8816187, 22.5579013], [113.8820247, 22.5575494], [113.8819018, 22.5574317], [113.8819048, 22.5573797], [113.8818291, 22.5573043], [113.8816522, 22.5574555], [113.8816802, 22.5574782], [113.8816344, 22.5575167], [113.8815149, 22.5574038], [113.8818467, 22.557113], [113.8820204, 22.5572799], [113.8820773, 22.5572811], [113.8821993, 22.5573988], [113.8823649, 22.5572433], [113.8821531, 22.5570388], [113.8821917, 22.5570047], [113.8823766, 22.5571856], [113.882634, 22.5571832], [113.8826885, 22.5572288], [113.8828932, 22.5570513], [113.8828808, 22.5570387], [113.882977, 22.5569554], [113.8832822, 22.5572539], [113.8833476, 22.5571969], [113.8833902, 22.5572383], [113.8831484, 22.5574454], [113.8831075, 22.5574055], [113.8831723, 22.5573473], [113.8831617, 22.5573371], [113.8829717, 22.5575064], [113.8829983, 22.5575342], [113.8829586, 22.5575672], [113.8829342, 22.5575422], [113.8828792, 22.5575892], [113.883228, 22.5579277], [113.8831853, 22.5579652], [113.883155, 22.5579361], [113.8827978, 22.5582503], [113.8826274, 22.5580817], [113.8825668, 22.5580826], [113.8824491, 22.5579635], [113.8824046, 22.5580023], [113.8827097, 22.5582973], [113.8826652, 22.5583367], [113.8823658, 22.5580356], [113.8819974, 22.5583655], [113.8819511, 22.5583224], [113.8822774, 22.5580448], [113.8821697, 22.5579425], [113.8817701, 22.5582953], [113.8819396, 22.5584621], [113.8819453, 22.5584562], [113.8819603, 22.5584727], [113.8819799, 22.5584555], [113.8820066, 22.5584822], [113.8819849, 22.5584979], [113.8820053, 22.5585159], [113.881889, 22.5586165], [113.8815019, 22.5582446]], [[113.8822383, 22.5574463], [113.8823433, 22.5575435], [113.8826445, 22.5572788], [113.8826279, 22.5572651], [113.8824632, 22.5572573], [113.8822383, 22.5574463]], [[113.8826277, 22.5578227], [113.8827482, 22.5579401], [113.8827443, 22.5579941], [113.8828103, 22.5580561], [113.8830534, 22.5578465], [113.8828427, 22.5576415], [113.8826277, 22.5578227]]]]}}, {"type": "Feature", "id": "way/1317817161", "properties": {"tags": {"building": "train_station", "building:levels": "0", "building:levels:underground": "2", "layer": "-1", "location": "underground", "name": "翻身站", "name:en": "Fanshen Station", "name:zh": "翻身站", "public_transport": "station", "start_date": "2011-06-22", "wikidata": "Q5434107", "wikipedia": "zh:翻身站"}, "heightStatus": "levels_only_unverified", "source": "OpenStreetMap", "license": "ODbL-1.0"}, "geometry": {"type": "MultiPolygon", "coordinates": [[[[113.8874943, 22.5625075], [113.8878346, 22.5621804], [113.8882091, 22.5625126], [113.8883097, 22.5624159], [113.8880821, 22.5622139], [113.8881194, 22.562178], [113.8882028, 22.562252], [113.888221, 22.5622345], [113.8884082, 22.5624006], [113.8882458, 22.5625567], [113.8885904, 22.5628625], [113.8887137, 22.562744], [113.8889853, 22.562985], [113.8889439, 22.5630248], [113.888715, 22.5628217], [113.8886354, 22.5628982], [113.8890069, 22.5632278], [113.8891142, 22.5631247], [113.8893089, 22.5632975], [113.8892174, 22.5633854], [113.8893211, 22.5634774], [113.8890557, 22.5637325], [113.8888614, 22.5635601], [113.8889815, 22.5634447], [113.8885682, 22.5630779], [113.8884737, 22.5631687], [113.8886377, 22.5633143], [113.8886012, 22.5633494], [113.8883337, 22.5631121], [113.8884621, 22.5629888], [113.8881168, 22.5626824], [113.8879532, 22.5628396], [113.8877133, 22.5626268], [113.8876727, 22.5626658], [113.8874943, 22.5625075]]]]}}, {"type": "Feature", "id": "way/1349166318", "properties": {"tags": {"building": "kindergarten"}, "heightStatus": "unknown", "source": "OpenStreetMap", "license": "ODbL-1.0"}, "geometry": {"type": "MultiPolygon", "coordinates": [[[[113.8876353, 22.5581193], [113.8876912, 22.5580632], [113.8876643, 22.5580404], [113.8877429, 22.5579615], [113.888084, 22.5582512], [113.8880744, 22.5582608], [113.8881776, 22.5583485], [113.8880765, 22.55845], [113.8880019, 22.5583866], [113.8880219, 22.5583665], [113.8877622, 22.5581458], [113.8877184, 22.5581899], [113.8877031, 22.5581769], [113.8876353, 22.5581193]]]]}}, {"type": "Feature", "id": "way/1349166319", "properties": {"tags": {"building": "pavilion", "building:levels": "1", "name": "海旺羽毛球馆"}, "heightStatus": "levels_only_unverified", "source": "OpenStreetMap", "license": "ODbL-1.0"}, "geometry": {"type": "MultiPolygon", "coordinates": [[[[113.8878946, 22.5587905], [113.8882635, 22.5584297], [113.8884914, 22.5586261], [113.8881157, 22.5589811], [113.8878946, 22.5587905]]]]}}, {"type": "Feature", "id": "way/1442107794", "properties": {"tags": {"addr:housename": "天御豪庭", "addr:housename:en": "Tianyu Haoting", "addr:housename:zh": "天御豪庭", "building": "apartments", "layer": "1", "name": "3栋", "name:en": "Block 3", "name:zh": "3栋", "ref": "3"}, "heightStatus": "unknown", "source": "OpenStreetMap", "license": "ODbL-1.0"}, "geometry": {"type": "MultiPolygon", "coordinates": [[[[113.8857124, 22.5554856], [113.8857993, 22.5553997], [113.8860439, 22.5556106], [113.885957, 22.5556965], [113.8857124, 22.5554856]]]]}}, {"type": "Feature", "id": "way/1442585152", "properties": {"tags": {"addr:housename": "龙光·天悦龙庭", "addr:housename:en": "Longguang Tianyue Longting", "addr:housename:zh": "龙光·天悦龙庭", "building": "apartments", "building:levels": "29", "layer": "1", "name": "瑞峰阁", "name:en": "Ruifeng Court", "name:zh": "瑞峰阁"}, "heightStatus": "levels_only_unverified", "source": "OpenStreetMap", "license": "ODbL-1.0"}, "geometry": {"type": "MultiPolygon", "coordinates": [[[[113.8813751, 22.5603885], [113.8814415, 22.5603207], [113.8814618, 22.560337], [113.8815513, 22.5603737], [113.8815815, 22.5603452], [113.8815596, 22.5603254], [113.8816213, 22.5602671], [113.881738, 22.5603724], [113.8816763, 22.5604307], [113.8816527, 22.5604094], [113.8816211, 22.5604386], [113.8816865, 22.5605396], [113.881591, 22.5605903], [113.8815364, 22.5604965], [113.8815007, 22.5604628], [113.8814211, 22.5604285], [113.8813751, 22.5603885]]]]}}, {"type": "Feature", "id": "way/1442585153", "properties": {"tags": {"addr:housename": "龙光·天悦龙庭", "addr:housename:en": "Longguang Tianyue Longting", "addr:housename:zh": "龙光·天悦龙庭", "building": "apartments", "building:levels": "29", "layer": "1", "name": "雍华阁", "name:en": "Yonghua Court", "name:zh": "雍华阁"}, "heightStatus": "levels_only_unverified", "source": "OpenStreetMap", "license": "ODbL-1.0"}, "geometry": {"type": "MultiPolygon", "coordinates": [[[[113.8808317, 22.5599244], [113.8808688, 22.5598292], [113.8809828, 22.5598663], [113.8810943, 22.5597575], [113.8811095, 22.5597467], [113.8811274, 22.5597405], [113.8811466, 22.5597395], [113.8811652, 22.5597439], [113.8811815, 22.5597531], [113.8811942, 22.5597665], [113.8812023, 22.559784], [113.8812039, 22.5598031], [113.8811988, 22.5598216], [113.8811876, 22.5598376], [113.8810761, 22.5599444], [113.8811486, 22.5600445], [113.8811539, 22.5600952], [113.8811256, 22.5601409], [113.8811043, 22.5601164], [113.8810725, 22.5601295], [113.8809917, 22.5600007], [113.88094, 22.5599596], [113.8808317, 22.5599244]]]]}}, {"type": "Feature", "id": "way/1442585154", "properties": {"tags": {"addr:housename": "龙光·天悦龙庭", "addr:housename:en": "Longguang Tianyue Longting", "addr:housename:zh": "龙光·天悦龙庭", "building": "apartments", "building:levels": "29", "layer": "1", "name": "天龙阁", "name:en": "Tianlong Court", "name:zh": "天龙阁"}, "heightStatus": "levels_only_unverified", "source": "OpenStreetMap", "license": "ODbL-1.0"}, "geometry": {"type": "MultiPolygon", "coordinates": [[[[113.8822551, 22.5611459], [113.8823028, 22.5610605], [113.8824136, 22.5611092], [113.8824402, 22.561082], [113.8824172, 22.5610623], [113.882485, 22.5609949], [113.8825974, 22.5610913], [113.8825296, 22.5611587], [113.8825152, 22.5611463], [113.8824863, 22.561175], [113.8825398, 22.5612552], [113.8825602, 22.5612716], [113.8824938, 22.5613394], [113.8824477, 22.5612993], [113.8823699, 22.5611996], [113.8822551, 22.5611459]]]]}}, {"type": "Feature", "id": "way/1442585155", "properties": {"tags": {"addr:housename": "龙光·天悦龙庭", "addr:housename:en": "Longguang Tianyue Longting", "addr:housename:zh": "龙光·天悦龙庭", "building": "apartments", "building:levels": "29", "layer": "1", "name": "祥云阁", "name:en": "Xiangyun Court", "name:zh": "祥云阁"}, "heightStatus": "levels_only_unverified", "source": "OpenStreetMap", "license": "ODbL-1.0"}, "geometry": {"type": "MultiPolygon", "coordinates": [[[[113.8829248, 22.5617171], [113.8829255, 22.5617007], [113.8829315, 22.5616851], [113.8829413, 22.5616728], [113.8829545, 22.5616634], [113.8829699, 22.5616577], [113.8830232, 22.5616465], [113.8829855, 22.5615473], [113.8831613, 22.5614912], [113.8831966, 22.561592], [113.8833152, 22.5615512], [113.883332, 22.561492], [113.883367, 22.5614523], [113.8834904, 22.5615757], [113.8834196, 22.5616247], [113.8833293, 22.561659], [113.8830105, 22.5617602], [113.8829955, 22.5617649], [113.8829798, 22.5617659], [113.8829643, 22.5617629], [113.8829498, 22.5617561], [113.8829379, 22.5617459], [113.8829294, 22.561733], [113.8829248, 22.5617171]]]]}}, {"type": "Feature", "id": "way/1442585156", "properties": {"tags": {"addr:housename": "正中·风临洲", "addr:housename:en": "Zhengzhong Fenglinzhou", "addr:housename:zh": "正中·风临洲", "building": "apartments", "building:levels": "24", "name": "B栋", "name:en": "Block B", "name:zh": "B栋"}, "heightStatus": "levels_only_unverified", "source": "OpenStreetMap", "license": "ODbL-1.0"}, "geometry": {"type": "MultiPolygon", "coordinates": [[[[113.8839876, 22.5619954], [113.8840739, 22.5619088], [113.8841497, 22.561973], [113.8842048, 22.5619175], [113.8843293, 22.562023], [113.8842745, 22.5620782], [113.8843483, 22.5621407], [113.8842621, 22.5622275], [113.8841881, 22.5621648], [113.8841363, 22.562217], [113.8840118, 22.5621115], [113.8840634, 22.5620596], [113.8839876, 22.5619954]]]]}}, {"type": "Feature", "id": "way/1442585157", "properties": {"tags": {"addr:housename": "菁英趣庭", "addr:housename:en": "Jingying Quting", "addr:housename:zh": "菁英趣庭", "building": "apartments", "building:levels": "24", "name": "5栋", "name:en": "Block 5", "name:zh": "5栋"}, "heightStatus": "levels_only_unverified", "source": "OpenStreetMap", "license": "ODbL-1.0"}, "geometry": {"type": "MultiPolygon", "coordinates": [[[[113.8837106, 22.5624009], [113.8837615, 22.5623528], [113.8837893, 22.5623779], [113.883799, 22.5623777], [113.8839094, 22.5623765], [113.8839233, 22.562389], [113.8839442, 22.5623692], [113.8840575, 22.5624712], [113.8840366, 22.562491], [113.8840505, 22.5625036], [113.8840521, 22.5626144], [113.8840799, 22.5626395], [113.8840291, 22.5626876], [113.8839455, 22.5626124], [113.8838708, 22.5626133], [113.8838698, 22.5625443], [113.8837952, 22.5625452], [113.8837942, 22.5624762], [113.8837435, 22.5624306], [113.8837106, 22.5624009]]]]}}, {"type": "Feature", "id": "way/1442585158", "properties": {"tags": {"addr:housename": "菁英趣庭", "addr:housename:en": "Jingying Quting", "addr:housename:zh": "菁英趣庭", "building": "apartments", "building:levels": "24", "name": "6栋", "name:en": "Block 6", "name:zh": "6栋"}, "heightStatus": "levels_only_unverified", "source": "OpenStreetMap", "license": "ODbL-1.0"}, "geometry": {"type": "MultiPolygon", "coordinates": [[[[113.8833922, 22.5621142], [113.883443, 22.5620661], [113.8834709, 22.5620912], [113.8835909, 22.5620897], [113.8836048, 22.5621023], [113.8836258, 22.5620825], [113.8837391, 22.5621845], [113.8837182, 22.5622043], [113.8837321, 22.5622169], [113.8837336, 22.5623277], [113.8837615, 22.5623528], [113.8837106, 22.5624009], [113.883627, 22.5623257], [113.8835524, 22.5623266], [113.8835514, 22.5622576], [113.8834767, 22.5622585], [113.8834758, 22.5621895], [113.8833922, 22.5621142]]]]}}, {"type": "Feature", "id": "way/1442585160", "properties": {"tags": {"addr:housename": "鸿荣源·尚都", "addr:housename:en": "Hongrongyuan Shangdu", "addr:housename:zh": "鸿荣源·尚都", "building": "apartments", "building:levels": "31", "name": "2K栋", "name:en": "Block 2K", "name:zh": "2K栋"}, "heightStatus": "levels_only_unverified", "source": "OpenStreetMap", "license": "ODbL-1.0"}, "geometry": {"type": "MultiPolygon", "coordinates": [[[[113.8827071, 22.5628394], [113.8827748, 22.5627739], [113.8828178, 22.5628119], [113.882874, 22.5627575], [113.882983, 22.5628536], [113.8830788, 22.5627609], [113.8831575, 22.5628301], [113.8828143, 22.5631624], [113.882734, 22.5630917], [113.8828576, 22.562972], [113.8827071, 22.5628394]]]]}}, {"type": "Feature", "id": "way/1442585161", "properties": {"tags": {"addr:housename": "鸿荣源·尚都", "addr:housename:en": "Hongrongyuan Shangdu", "addr:housename:zh": "鸿荣源·尚都", "building": "apartments", "building:levels": "32", "layer": "1", "name": "1A栋", "name:en": "Block 1A", "name:zh": "1A栋"}, "heightStatus": "levels_only_unverified", "source": "OpenStreetMap", "license": "ODbL-1.0"}, "geometry": {"type": "MultiPolygon", "coordinates": [[[[113.8803992, 22.5604547], [113.8805734, 22.5604546], [113.8805733, 22.560335], [113.8807326, 22.5603349], [113.8807326, 22.5604458], [113.8808695, 22.5604457], [113.8808696, 22.5605483], [113.8807102, 22.5605484], [113.8807103, 22.5606499], [113.880579, 22.56065], [113.8805789, 22.5605496], [113.8804418, 22.5605497], [113.8803992, 22.5604547]]]]}}, {"type": "Feature", "id": "way/1443027750", "properties": {"tags": {"addr:housename": "鸿荣源·西城上筑", "addr:housename:en": "Horoy Xicheng Shangzhu", "addr:housename:zh": "鸿荣源·西城上筑", "building": "residential", "building:levels": "30", "name": "3B座", "name:en": "Block 3B", "name:zh": "3B座", "ref": "3A 3B"}, "heightStatus": "levels_only_unverified", "source": "OpenStreetMap", "license": "ODbL-1.0"}, "geometry": {"type": "MultiPolygon", "coordinates": [[[[113.8876203, 22.5585118], [113.8876336, 22.558431], [113.8877255, 22.5584464], [113.8877314, 22.5584147], [113.8876995, 22.5584096], [113.8877099, 22.5583537], [113.8878761, 22.55838], [113.8878679, 22.558424], [113.8880019, 22.5585395], [113.887868, 22.5586719], [113.8877397, 22.5585613], [113.8877714, 22.5585299], [113.8878051, 22.558559], [113.8878136, 22.5585506], [113.8877557, 22.5585008], [113.8877515, 22.5585284], [113.8876203, 22.5585118]]]]}}, {"type": "Feature", "id": "way/1443027751", "properties": {"tags": {"addr:housename": "宏发领域", "addr:housename:en": "Hongfa Lingyu", "addr:housename:zh": "宏发领域", "building": "apartments", "building:levels": "29", "layer": "1", "name": "1A栋", "name:en": "Block 1A", "name:zh": "1A栋"}, "heightStatus": "levels_only_unverified", "source": "OpenStreetMap", "license": "ODbL-1.0"}, "geometry": {"type": "MultiPolygon", "coordinates": [[[[113.8845746, 22.5575614], [113.8846556, 22.5574838], [113.884622, 22.5574539], [113.8847257, 22.5573546], [113.8847593, 22.5573845], [113.8848403, 22.5573068], [113.8849362, 22.5573922], [113.8848552, 22.5574698], [113.8848876, 22.5574986], [113.8847839, 22.557598], [113.8847515, 22.5575692], [113.8846705, 22.5576468], [113.8845746, 22.5575614]]]]}}, {"type": "Feature", "id": "relation/19753561", "properties": {"tags": {"building": "school", "layer": "1"}, "heightStatus": "unknown", "source": "OpenStreetMap", "license": "ODbL-1.0"}, "geometry": {"type": "MultiPolygon", "coordinates": [[[[113.8829062, 22.5598386], [113.8832785, 22.5594949], [113.8833522, 22.5594951], [113.8836838, 22.5597932], [113.88363, 22.5598449], [113.8835259, 22.5597526], [113.8834232, 22.5598526], [113.8834714, 22.5598949], [113.8833366, 22.5600261], [113.8835171, 22.5601842], [113.8834471, 22.5602523], [113.8832625, 22.5600906], [113.8831938, 22.5601575], [113.8829089, 22.559908], [113.8829062, 22.5598386]], [[113.8830479, 22.5598742], [113.8830981, 22.5599178], [113.8831182, 22.559898], [113.8832129, 22.5599801], [113.8834765, 22.5597207], [113.8833317, 22.5595951], [113.8830479, 22.5598742]]]]}}, {"type": "Feature", "id": "way/1444642438", "properties": {"tags": {"building": "school"}, "heightStatus": "unknown", "source": "OpenStreetMap", "license": "ODbL-1.0"}, "geometry": {"type": "MultiPolygon", "coordinates": [[[[113.883441, 22.5600266], [113.88363, 22.5598449], [113.8836838, 22.5597932], [113.8838278, 22.5599209], [113.883585, 22.5601543], [113.883441, 22.5600266]]]]}}, {"type": "Feature", "id": "way/1445717632", "properties": {"tags": {"addr:housename": "宝新花园", "addr:housename:en": "Baoxin Garden", "addr:housename:zh": "宝新花园", "building": "apartments", "name": "C栋", "name:en": "Block C", "name:zh": "C栋"}, "heightStatus": "unknown", "source": "OpenStreetMap", "license": "ODbL-1.0"}, "geometry": {"type": "MultiPolygon", "coordinates": [[[[113.8885412, 22.5617255], [113.8886122, 22.5616571], [113.8885439, 22.5615967], [113.8886169, 22.5615263], [113.8885439, 22.5614617], [113.8886149, 22.5613933], [113.8885464, 22.5613327], [113.8886179, 22.5612637], [113.8885493, 22.5612029], [113.8886534, 22.5611025], [113.8887386, 22.5611778], [113.8886676, 22.5612463], [113.888667, 22.5612468], [113.888736, 22.5613079], [113.8886651, 22.5613763], [113.8887333, 22.5614367], [113.8886603, 22.5615071], [113.8887333, 22.5615717], [113.8886624, 22.5616401], [113.8887307, 22.5617005], [113.8886265, 22.5618009], [113.8885412, 22.5617255]]]]}}, {"type": "Feature", "id": "way/1445717644", "properties": {"tags": {"addr:housename": "海云轩", "addr:housename:en": "Haiyun Xuan", "addr:housename:zh": "海云轩", "building": "apartments", "name": "2栋", "name:en": "Block 2", "name:zh": "2栋"}, "heightStatus": "unknown", "source": "OpenStreetMap", "license": "ODbL-1.0"}, "geometry": {"type": "MultiPolygon", "coordinates": [[[[113.888572, 22.5607393], [113.8887784, 22.5605378], [113.8888579, 22.5606073], [113.8888279, 22.5606365], [113.8889189, 22.5607159], [113.8888161, 22.5608162], [113.8887252, 22.5607368], [113.8886515, 22.5608087], [113.888572, 22.5607393]]]]}}, {"type": "Feature", "id": "way/1447643436", "properties": {"tags": {"building": "kindergarten"}, "heightStatus": "unknown", "source": "OpenStreetMap", "license": "ODbL-1.0"}, "geometry": {"type": "MultiPolygon", "coordinates": [[[[113.8875418, 22.5581695], [113.8875464, 22.5581541], [113.8875523, 22.5581441], [113.8875623, 22.5581347], [113.8875746, 22.558128], [113.8875867, 22.5581241], [113.8875985, 22.5581212], [113.8876112, 22.5581196], [113.8876268, 22.5581186], [113.8876353, 22.5581193], [113.8877031, 22.5581769], [113.8877005, 22.5581896], [113.8876905, 22.5582045], [113.8876782, 22.5582158], [113.8876612, 22.5582271], [113.8876434, 22.5582344], [113.8876227, 22.5582366], [113.8876017, 22.558236], [113.8875873, 22.5582329], [113.887574, 22.5582276], [113.8875633, 22.5582203], [113.8875515, 22.5582074], [113.887545, 22.5581973], [113.8875418, 22.5581836], [113.8875418, 22.5581695]]]]}}, {"type": "Feature", "id": "way/1459728184", "properties": {"tags": {"building": "yes", "layer": "-1"}, "heightStatus": "unknown", "source": "OpenStreetMap", "license": "ODbL-1.0"}, "geometry": {"type": "MultiPolygon", "coordinates": [[[[113.8859493, 22.5574835], [113.8859503, 22.5574], [113.8859553, 22.5573775], [113.8859679, 22.5573577], [113.8859865, 22.5573426], [113.8860095, 22.5573337], [113.8860343, 22.557332], [113.8860584, 22.5573376], [113.8860793, 22.55735], [113.8860948, 22.5573679], [113.8861035, 22.5573895], [113.8861043, 22.5574124], [113.886103, 22.5574854], [113.8859493, 22.5574835]]]]}}]}