{"type": "FeatureCollection", "features": [{"type": "Feature", "id": "way/1424705821", "properties": {"tags": {"building": "yes"}, "heightStatus": "unknown", "source": "OpenStreetMap", "license": "ODbL-1.0"}, "geometry": {"type": "MultiPolygon", "coordinates": [[[[113.8766636, 22.6740112], [113.8766714, 22.6739267], [113.8767762, 22.673935], [113.8767684, 22.6740194], [113.8766636, 22.6740112]]]]}}, {"type": "Feature", "id": "way/1424705822", "properties": {"tags": {"building": "yes"}, "heightStatus": "unknown", "source": "OpenStreetMap", "license": "ODbL-1.0"}, "geometry": {"type": "MultiPolygon", "coordinates": [[[[113.8770631, 22.6740426], [113.8770709, 22.6739581], [113.8771748, 22.6739663], [113.877167, 22.6740507], [113.8770631, 22.6740426]]]]}}, {"type": "Feature", "id": "way/1424705823", "properties": {"tags": {"building": "yes"}, "heightStatus": "unknown", "source": "OpenStreetMap", "license": "ODbL-1.0"}, "geometry": {"type": "MultiPolygon", "coordinates": [[[[113.8768135, 22.6740229], [113.8768213, 22.6739385], [113.8768747, 22.6739427], [113.876878, 22.6739061], [113.8769481, 22.6739117], [113.8769448, 22.6739482], [113.8769981, 22.6739524], [113.8769903, 22.6740368], [113.8768135, 22.6740229]]]]}}, {"type": "Feature", "id": "way/1424705824", "properties": {"tags": {"building": "yes"}, "heightStatus": "unknown", "source": "OpenStreetMap", "license": "ODbL-1.0"}, "geometry": {"type": "MultiPolygon", "coordinates": [[[[113.8766571, 22.675003], [113.8766671, 22.6748948], [113.8767689, 22.6749028], [113.876773, 22.6748591], [113.876877, 22.6748672], [113.876873, 22.674911], [113.8769748, 22.674919], [113.8769649, 22.6750272], [113.876863, 22.6750192], [113.8768599, 22.6750527], [113.8767559, 22.6750445], [113.876759, 22.675011], [113.8766571, 22.675003]]]]}}, {"type": "Feature", "id": "way/1424705825", "properties": {"tags": {"building": "yes"}, "heightStatus": "unknown", "source": "OpenStreetMap", "license": "ODbL-1.0"}, "geometry": {"type": "MultiPolygon", "coordinates": [[[[113.8769726, 22.6744964], [113.8769847, 22.6743644], [113.8770745, 22.6743714], [113.8770623, 22.6745035], [113.8769726, 22.6744964]]]]}}, {"type": "Feature", "id": "way/1424705826", "properties": {"tags": {"building": "yes"}, "heightStatus": "unknown", "source": "OpenStreetMap", "license": "ODbL-1.0"}, "geometry": {"type": "MultiPolygon", "coordinates": [[[[113.877002, 22.6741769], [113.8770112, 22.6740778], [113.8771009, 22.6740848], [113.8770918, 22.674184], [113.877002, 22.6741769]]]]}}, {"type": "Feature", "id": "way/1424705827", "properties": {"tags": {"building": "yes"}, "heightStatus": "unknown", "source": "OpenStreetMap", "license": "ODbL-1.0"}, "geometry": {"type": "MultiPolygon", "coordinates": [[[[113.8766865, 22.6741521], [113.8766957, 22.674053], [113.8767854, 22.67406], [113.8767763, 22.6741592], [113.8766865, 22.6741521]]]]}}, {"type": "Feature", "id": "way/1424705828", "properties": {"tags": {"building": "yes"}, "heightStatus": "unknown", "source": "OpenStreetMap", "license": "ODbL-1.0"}, "geometry": {"type": "MultiPolygon", "coordinates": [[[[113.8766571, 22.6744716], [113.8766692, 22.6743396], [113.876759, 22.6743466], [113.8767468, 22.6744787], [113.8766571, 22.6744716]]]]}}, {"type": "Feature", "id": "way/1424705829", "properties": {"tags": {"building": "yes"}, "heightStatus": "unknown", "source": "OpenStreetMap", "license": "ODbL-1.0"}, "geometry": {"type": "MultiPolygon", "coordinates": [[[[113.8767894, 22.674284], [113.8767964, 22.6742087], [113.8769732, 22.6742226], [113.8769662, 22.6742979], [113.8767894, 22.674284]]]]}}, {"type": "Feature", "id": "way/1424705830", "properties": {"tags": {"building": "yes"}, "heightStatus": "unknown", "source": "OpenStreetMap", "license": "ODbL-1.0"}, "geometry": {"type": "MultiPolygon", "coordinates": [[[[113.876755, 22.6746574], [113.8767656, 22.6745422], [113.8769424, 22.6745561], [113.8769318, 22.6746713], [113.876755, 22.6746574]]]]}}, {"type": "Feature", "id": "way/1424705831", "properties": {"tags": {"building": "yes"}, "heightStatus": "unknown", "source": "OpenStreetMap", "license": "ODbL-1.0"}, "geometry": {"type": "MultiPolygon", "coordinates": [[[[113.8770342, 22.6748844], [113.8770493, 22.6747213], [113.8771673, 22.6747306], [113.8771523, 22.6748937], [113.8770342, 22.6748844]]]]}}, {"type": "Feature", "id": "way/1424705832", "properties": {"tags": {"building": "yes"}, "heightStatus": "unknown", "source": "OpenStreetMap", "license": "ODbL-1.0"}, "geometry": {"type": "MultiPolygon", "coordinates": [[[[113.8764968, 22.6748422], [113.8765119, 22.6746791], [113.87663, 22.6746884], [113.8766149, 22.6748515], [113.8764968, 22.6748422]]]]}}, {"type": "Feature", "id": "way/1424705833", "properties": {"tags": {"building": "yes"}, "heightStatus": "unknown", "source": "OpenStreetMap", "license": "ODbL-1.0"}, "geometry": {"type": "MultiPolygon", "coordinates": [[[[113.877796, 22.6742995], [113.8779086, 22.674202], [113.8781406, 22.67443], [113.8780281, 22.6745275], [113.877796, 22.6742995]]]]}}, {"type": "Feature", "id": "way/1424705834", "properties": {"tags": {"building": "yes"}, "heightStatus": "unknown", "source": "OpenStreetMap", "license": "ODbL-1.0"}, "geometry": {"type": "MultiPolygon", "coordinates": [[[[113.8776631, 22.6746155], [113.8777859, 22.6745091], [113.8779404, 22.6746609], [113.8778175, 22.6747673], [113.8776631, 22.6746155]]]]}}, {"type": "Feature", "id": "way/1424705835", "properties": {"tags": {"building": "yes"}, "heightStatus": "unknown", "source": "OpenStreetMap", "license": "ODbL-1.0"}, "geometry": {"type": "MultiPolygon", "coordinates": [[[[113.8779067, 22.6748355], [113.8779759, 22.6747756], [113.8781402, 22.674937], [113.8782177, 22.6752796], [113.8781248, 22.6752975], [113.8780527, 22.674979], [113.8779067, 22.6748355]]]]}}, {"type": "Feature", "id": "way/1424705837", "properties": {"tags": {"building": "industrial"}, "heightStatus": "unknown", "source": "OpenStreetMap", "license": "ODbL-1.0"}, "geometry": {"type": "MultiPolygon", "coordinates": [[[[113.8745562, 22.6708043], [113.8745705, 22.6707072], [113.874841, 22.6707413], [113.8748266, 22.6708384], [113.8745562, 22.6708043]]]]}}, {"type": "Feature", "id": "way/1424705838", "properties": {"tags": {"building": "industrial"}, "heightStatus": "unknown", "source": "OpenStreetMap", "license": "ODbL-1.0"}, "geometry": {"type": "MultiPolygon", "coordinates": [[[[113.8745099, 22.6710187], [113.8745311, 22.6708753], [113.8748076, 22.6709102], [113.8747864, 22.6710536], [113.8745099, 22.6710187]]]]}}, {"type": "Feature", "id": "way/1424705839", "properties": {"tags": {"building": "industrial"}, "heightStatus": "unknown", "source": "OpenStreetMap", "license": "ODbL-1.0"}, "geometry": {"type": "MultiPolygon", "coordinates": [[[[113.8739494, 22.6707912], [113.8739689, 22.6706598], [113.8744544, 22.6707211], [113.8744349, 22.6708525], [113.8739494, 22.6707912]]]]}}, {"type": "Feature", "id": "way/1424705840", "properties": {"tags": {"building": "industrial"}, "heightStatus": "unknown", "source": "OpenStreetMap", "license": "ODbL-1.0"}, "geometry": {"type": "MultiPolygon", "coordinates": [[[[113.8738309, 22.6710537], [113.8738555, 22.6708874], [113.874341, 22.6709486], [113.8743164, 22.671115], [113.8738309, 22.6710537]]]]}}]}