{"type": "FeatureCollection", "features": [{"type": "Feature", "id": "way/1360050654", "properties": {"tags": {"building": "industrial"}, "heightStatus": "unknown", "source": "OpenStreetMap", "license": "ODbL-1.0"}, "geometry": {"type": "MultiPolygon", "coordinates": [[[[113.8691649, 22.798535], [113.8692139, 22.7985332], [113.8692132, 22.7985152], [113.8696302, 22.7985007], [113.8696354, 22.7986273], [113.8696079, 22.7986282], [113.8696088, 22.7986496], [113.8691799, 22.7986645], [113.8691773, 22.7986002], [113.8691676, 22.7986006], [113.8691649, 22.798535]]]]}}, {"type": "Feature", "id": "way/1360050659", "properties": {"tags": {"building": "industrial"}, "heightStatus": "unknown", "source": "OpenStreetMap", "license": "ODbL-1.0"}, "geometry": {"type": "MultiPolygon", "coordinates": [[[[113.8697748, 22.7980233], [113.8697836, 22.7979524], [113.8700867, 22.7979846], [113.8700778, 22.7980555], [113.8697748, 22.7980233]]]]}}, {"type": "Feature", "id": "way/1447332257", "properties": {"tags": {"building": "yes"}, "heightStatus": "unknown", "source": "OpenStreetMap", "license": "ODbL-1.0"}, "geometry": {"type": "MultiPolygon", "coordinates": [[[[113.870412, 22.7993336], [113.870608, 22.7993228], [113.8706163, 22.7994495], [113.8704202, 22.7994604], [113.870412, 22.7993336]]]]}}, {"type": "Feature", "id": "way/1447332258", "properties": {"tags": {"building": "yes"}, "heightStatus": "unknown", "source": "OpenStreetMap", "license": "ODbL-1.0"}, "geometry": {"type": "MultiPolygon", "coordinates": [[[[113.8707045, 22.7993396], [113.8707681, 22.7993349], [113.8707703, 22.7993603], [113.8709254, 22.7993488], [113.8709353, 22.7994624], [113.8708317, 22.7994701], [113.8708356, 22.7995139], [113.8707204, 22.7995224], [113.8707045, 22.7993396]]]]}}, {"type": "Feature", "id": "way/1447332259", "properties": {"tags": {"building": "yes"}, "heightStatus": "unknown", "source": "OpenStreetMap", "license": "ODbL-1.0"}, "geometry": {"type": "MultiPolygon", "coordinates": [[[[113.8709514, 22.7993709], [113.8710895, 22.7993619], [113.8711033, 22.7995441], [113.8709654, 22.7995531], [113.8709514, 22.7993709]]]]}}, {"type": "Feature", "id": "way/1447332260", "properties": {"tags": {"building": "yes"}, "heightStatus": "unknown", "source": "OpenStreetMap", "license": "ODbL-1.0"}, "geometry": {"type": "MultiPolygon", "coordinates": [[[[113.870734, 22.7996118], [113.870937, 22.7996015], [113.8709415, 22.7996762], [113.8707385, 22.7996865], [113.870734, 22.7996118]]]]}}, {"type": "Feature", "id": "way/1447332261", "properties": {"tags": {"building": "yes", "historic": "building"}, "heightStatus": "unknown", "source": "OpenStreetMap", "license": "ODbL-1.0"}, "geometry": {"type": "MultiPolygon", "coordinates": [[[[113.8699767, 22.8006569], [113.8701115, 22.800371], [113.8702247, 22.8004163], [113.8700899, 22.8007022], [113.8699767, 22.8006569]]]]}}, {"type": "Feature", "id": "way/1447332262", "properties": {"tags": {"building": "yes", "historic": "building"}, "heightStatus": "unknown", "source": "OpenStreetMap", "license": "ODbL-1.0"}, "geometry": {"type": "MultiPolygon", "coordinates": [[[[113.8707509, 22.8004701], [113.870848, 22.8001947], [113.870964, 22.8002294], [113.8708669, 22.8005049], [113.8707509, 22.8004701]]]]}}]}