{"type": "FeatureCollection", "features": [{"type": "Feature", "id": "way/1424612021", "properties": {"tags": {"building": "school"}, "heightStatus": "unknown", "source": "OpenStreetMap", "license": "ODbL-1.0"}, "geometry": {"type": "MultiPolygon", "coordinates": [[[[113.8618433, 22.6612471], [113.8620115, 22.6608371], [113.862132, 22.6608792], [113.8620089, 22.6611795], [113.8621837, 22.661397], [113.862408, 22.6612436], [113.8625008, 22.661359], [113.8621347, 22.6616096], [113.8618433, 22.6612471]]]]}}, {"type": "Feature", "id": "way/1424612023", "properties": {"tags": {"building": "apartments"}, "heightStatus": "unknown", "source": "OpenStreetMap", "license": "ODbL-1.0"}, "geometry": {"type": "MultiPolygon", "coordinates": [[[[113.8621883, 22.6605889], [113.8622999, 22.6604669], [113.8623596, 22.6605134], [113.8623355, 22.6605397], [113.8623982, 22.6605348], [113.8623697, 22.6605126], [113.86242, 22.6604576], [113.8625522, 22.6605605], [113.8625061, 22.660611], [113.8624817, 22.660592], [113.8624598, 22.6606158], [113.8625266, 22.6606679], [113.8624947, 22.6607028], [113.8624748, 22.6606873], [113.8624685, 22.6606942], [113.8624344, 22.6606676], [113.8624239, 22.6606791], [113.8623967, 22.6606579], [113.862412, 22.6606411], [113.862396, 22.6606286], [113.8623547, 22.6606318], [113.8623412, 22.6606466], [113.8623593, 22.6606608], [113.8623363, 22.6606859], [113.8623239, 22.6606763], [113.8622951, 22.6607077], [113.8622876, 22.6607019], [113.8622709, 22.6607202], [113.8622331, 22.6606908], [113.8622894, 22.6606291], [113.8622636, 22.660609], [113.862243, 22.6606315], [113.8621883, 22.6605889]]]]}}, {"type": "Feature", "id": "way/1424612024", "properties": {"tags": {"building": "apartments"}, "heightStatus": "unknown", "source": "OpenStreetMap", "license": "ODbL-1.0"}, "geometry": {"type": "MultiPolygon", "coordinates": [[[[113.8626787, 22.660845], [113.8627597, 22.6608147], [113.862747, 22.6607858], [113.8627174, 22.6607969], [113.8626905, 22.6607357], [113.8628508, 22.6606756], [113.8628801, 22.6607424], [113.8628456, 22.6607553], [113.8629035, 22.6607779], [113.8628895, 22.660746], [113.8629618, 22.6607189], [113.8630269, 22.6608668], [113.8629606, 22.6608917], [113.8629486, 22.6608644], [113.8629173, 22.6608761], [113.8629501, 22.6609508], [113.8629043, 22.660968], [113.8628945, 22.6609458], [113.8628854, 22.6609492], [113.8628686, 22.660911], [113.8628536, 22.6609167], [113.8628402, 22.6608862], [113.8628622, 22.660878], [113.8628543, 22.66086], [113.8628161, 22.6608451], [113.8627967, 22.6608524], [113.8628056, 22.6608727], [113.8627726, 22.6608851], [113.8627665, 22.6608712], [113.8627251, 22.6608867], [113.8627214, 22.6608783], [113.8626974, 22.6608874], [113.8626787, 22.660845]]]]}}, {"type": "Feature", "id": "way/1424612025", "properties": {"tags": {"building": "apartments"}, "heightStatus": "unknown", "source": "OpenStreetMap", "license": "ODbL-1.0"}, "geometry": {"type": "MultiPolygon", "coordinates": [[[[113.86292, 22.6603082], [113.8630594, 22.6602137], [113.8631056, 22.6602718], [113.8630755, 22.6602921], [113.8631377, 22.6603009], [113.8631156, 22.6602732], [113.8631785, 22.6602305], [113.863281, 22.6603592], [113.8632233, 22.6603983], [113.8632044, 22.6603745], [113.8631771, 22.660393], [113.8632289, 22.660458], [113.863189, 22.660485], [113.8631736, 22.6604657], [113.8631657, 22.6604711], [113.8631393, 22.6604379], [113.8631262, 22.6604467], [113.8631051, 22.6604202], [113.8631242, 22.6604073], [113.8631118, 22.6603916], [113.8630709, 22.6603859], [113.8630539, 22.6603973], [113.863068, 22.660415], [113.8630393, 22.6604345], [113.8630297, 22.6604224], [113.8629937, 22.6604468], [113.8629879, 22.6604395], [113.862967, 22.6604537], [113.8629377, 22.6604169], [113.8630081, 22.6603691], [113.862988, 22.660344], [113.8629623, 22.6603614], [113.86292, 22.6603082]]]]}}, {"type": "Feature", "id": "way/1424612026", "properties": {"tags": {"building": "apartments"}, "heightStatus": "unknown", "source": "OpenStreetMap", "license": "ODbL-1.0"}, "geometry": {"type": "MultiPolygon", "coordinates": [[[[113.8631387, 22.6598399], [113.8632781, 22.6597454], [113.8633244, 22.6598035], [113.8632943, 22.6598238], [113.8633565, 22.6598326], [113.8633344, 22.6598049], [113.8633973, 22.6597622], [113.8634997, 22.6598909], [113.8634421, 22.6599299], [113.8634232, 22.6599062], [113.8633959, 22.6599247], [113.8634477, 22.6599897], [113.8634078, 22.6600167], [113.8633924, 22.6599974], [113.8633845, 22.6600028], [113.863358, 22.6599696], [113.863345, 22.6599784], [113.8633239, 22.6599519], [113.863343, 22.659939], [113.8633306, 22.6599233], [113.8632897, 22.6599176], [113.8632727, 22.659929], [113.8632868, 22.6599467], [113.8632581, 22.6599662], [113.8632485, 22.6599541], [113.8632125, 22.6599785], [113.8632067, 22.6599712], [113.8631857, 22.6599854], [113.8631564, 22.6599486], [113.8632269, 22.6599008], [113.8632068, 22.6598757], [113.8631811, 22.6598931], [113.8631387, 22.6598399]]]]}}, {"type": "Feature", "id": "way/1424612027", "properties": {"tags": {"building": "apartments"}, "heightStatus": "unknown", "source": "OpenStreetMap", "license": "ODbL-1.0"}, "geometry": {"type": "MultiPolygon", "coordinates": [[[[113.8634114, 22.6593863], [113.8635508, 22.6592918], [113.863597, 22.6593499], [113.863567, 22.6593703], [113.8636291, 22.659379], [113.8636071, 22.6593513], [113.86367, 22.6593086], [113.8637724, 22.6594373], [113.8637147, 22.6594764], [113.8636958, 22.6594526], [113.8636686, 22.6594711], [113.8637203, 22.6595361], [113.8636804, 22.6595632], [113.863665, 22.6595438], [113.8636571, 22.6595492], [113.8636307, 22.659516], [113.8636176, 22.6595249], [113.8635966, 22.6594984], [113.8636157, 22.6594854], [113.8636032, 22.6594698], [113.8635623, 22.659464], [113.8635454, 22.6594755], [113.8635594, 22.6594931], [113.8635307, 22.6595126], [113.8635211, 22.6595005], [113.8634852, 22.6595249], [113.8634793, 22.6595176], [113.8634584, 22.6595318], [113.8634291, 22.659495], [113.8634995, 22.6594473], [113.8634795, 22.6594221], [113.8634538, 22.6594395], [113.8634114, 22.6593863]]]]}}, {"type": "Feature", "id": "way/1424612028", "properties": {"tags": {"building": "apartments"}, "heightStatus": "unknown", "source": "OpenStreetMap", "license": "ODbL-1.0"}, "geometry": {"type": "MultiPolygon", "coordinates": [[[[113.8626448, 22.6590469], [113.8627842, 22.6589524], [113.8628304, 22.6590105], [113.8628004, 22.6590308], [113.8628625, 22.6590396], [113.8628405, 22.6590119], [113.8629034, 22.6589692], [113.8630058, 22.6590979], [113.8629481, 22.6591369], [113.8629292, 22.6591132], [113.862902, 22.6591317], [113.8629537, 22.6591967], [113.8629138, 22.6592237], [113.8628984, 22.6592044], [113.8628905, 22.6592098], [113.8628641, 22.6591766], [113.862851, 22.6591854], [113.8628299, 22.6591589], [113.8628491, 22.659146], [113.8628366, 22.6591303], [113.8627957, 22.6591246], [113.8627788, 22.659136], [113.8627928, 22.6591537], [113.8627641, 22.6591732], [113.8627545, 22.6591611], [113.8627185, 22.6591855], [113.8627127, 22.6591782], [113.8626918, 22.6591924], [113.8626625, 22.6591556], [113.8627329, 22.6591078], [113.8627129, 22.6590827], [113.8626872, 22.6591001], [113.8626448, 22.6590469]]]]}}, {"type": "Feature", "id": "way/1424612029", "properties": {"tags": {"building": "apartments"}, "heightStatus": "unknown", "source": "OpenStreetMap", "license": "ODbL-1.0"}, "geometry": {"type": "MultiPolygon", "coordinates": [[[[113.862232, 22.660021], [113.8623714, 22.6599265], [113.8624177, 22.6599845], [113.8623876, 22.6600049], [113.8624498, 22.6600137], [113.8624277, 22.6599859], [113.8624906, 22.6599433], [113.862593, 22.6600719], [113.8625354, 22.660111], [113.8625165, 22.6600873], [113.8624892, 22.6601058], [113.862541, 22.6601708], [113.8625011, 22.6601978], [113.8624857, 22.6601785], [113.8624778, 22.6601838], [113.8624513, 22.6601506], [113.8624383, 22.6601595], [113.8624172, 22.660133], [113.8624363, 22.66012], [113.8624239, 22.6601044], [113.862383, 22.6600986], [113.862366, 22.6601101], [113.8623801, 22.6601278], [113.8623514, 22.6601472], [113.8623418, 22.6601352], [113.8623058, 22.6601596], [113.8623, 22.6601523], [113.862279, 22.6601665], [113.8622497, 22.6601297], [113.8623202, 22.6600819], [113.8623001, 22.6600568], [113.8622744, 22.6600742], [113.862232, 22.660021]]]]}}, {"type": "Feature", "id": "way/1424612030", "properties": {"tags": {"building": "apartments"}, "heightStatus": "unknown", "source": "OpenStreetMap", "license": "ODbL-1.0"}, "geometry": {"type": "MultiPolygon", "coordinates": [[[[113.8624033, 22.659513], [113.8625427, 22.6594185], [113.862589, 22.6594765], [113.8625589, 22.6594969], [113.8626211, 22.6595057], [113.862599, 22.6594779], [113.8626619, 22.6594353], [113.8627643, 22.6595639], [113.8627067, 22.659603], [113.8626878, 22.6595793], [113.8626605, 22.6595978], [113.8627122, 22.6596628], [113.8626724, 22.6596898], [113.862657, 22.6596705], [113.8626491, 22.6596758], [113.8626226, 22.6596426], [113.8626096, 22.6596515], [113.8625885, 22.659625], [113.8626076, 22.659612], [113.8625952, 22.6595964], [113.8625542, 22.6595906], [113.8625373, 22.6596021], [113.8625514, 22.6596198], [113.8625227, 22.6596392], [113.8625131, 22.6596272], [113.8624771, 22.6596516], [113.8624713, 22.6596443], [113.8624503, 22.6596585], [113.862421, 22.6596217], [113.8624914, 22.6595739], [113.8624714, 22.6595488], [113.8624457, 22.6595662], [113.8624033, 22.659513]]]]}}, {"type": "Feature", "id": "way/1463046606", "properties": {"tags": {"building": "yes", "name": "深圳市九围股份合作有限公司", "office": "company"}, "heightStatus": "unknown", "source": "OpenStreetMap", "license": "ODbL-1.0"}, "geometry": {"type": "MultiPolygon", "coordinates": [[[[113.8600321, 22.6531325], [113.8601833, 22.65308], [113.8601936, 22.6531054], [113.8602507, 22.6530856], [113.8602856, 22.6531712], [113.8602132, 22.6531963], [113.8602231, 22.6532205], [113.8600872, 22.6532676], [113.8600321, 22.6531325]]]]}}, {"type": "Feature", "id": "way/1463046612", "properties": {"tags": {"building": "yes"}, "heightStatus": "unknown", "source": "OpenStreetMap", "license": "ODbL-1.0"}, "geometry": {"type": "MultiPolygon", "coordinates": [[[[113.8596783, 22.6583642], [113.8597626, 22.6582956], [113.8598522, 22.658284], [113.8600792, 22.6585219], [113.8599383, 22.6586365], [113.8596783, 22.6583642]]]]}}]}