{"type": "FeatureCollection", "features": [{"type": "Feature", "id": "way/840161722", "properties": {"tags": {"building": "residential"}, "heightStatus": "unknown", "source": "OpenStreetMap", "license": "ODbL-1.0"}, "geometry": {"type": "MultiPolygon", "coordinates": [[[[113.8553764, 22.8062232], [113.8555023, 22.8061818], [113.8554708, 22.8060741], [113.8556124, 22.8060492], [113.8556327, 22.8061652], [113.8558957, 22.8061756], [113.8559114, 22.8060741], [113.8560462, 22.8061114], [113.8560373, 22.8062191], [113.8561339, 22.8062688], [113.8561069, 22.8063621], [113.8558709, 22.806275], [113.8556484, 22.8062647], [113.8554214, 22.8063268], [113.8553764, 22.8062232]]]]}}, {"type": "Feature", "id": "way/840161723", "properties": {"tags": {"building": "residential"}, "heightStatus": "unknown", "source": "OpenStreetMap", "license": "ODbL-1.0"}, "geometry": {"type": "MultiPolygon", "coordinates": [[[[113.8552213, 22.8057405], [113.8553562, 22.8056887], [113.8553292, 22.805583], [113.8554618, 22.8055581], [113.8554821, 22.8056721], [113.8557765, 22.8056804], [113.85579, 22.8055706], [113.8559316, 22.8055913], [113.8559091, 22.8057135], [113.856017, 22.8057695], [113.8559788, 22.8058586], [113.8557653, 22.8057674], [113.8554708, 22.8057653], [113.855255, 22.805842], [113.8552213, 22.8057405]]]]}}, {"type": "Feature", "id": "way/1445991283", "properties": {"tags": {"building": "school"}, "heightStatus": "unknown", "source": "OpenStreetMap", "license": "ODbL-1.0"}, "geometry": {"type": "MultiPolygon", "coordinates": [[[[113.8548253, 22.8074238], [113.8552823, 22.8074239], [113.8555014, 22.8074239], [113.8555012, 22.8081095], [113.8558609, 22.8081096], [113.8558609, 22.8082412], [113.8554778, 22.8082411], [113.8554777, 22.8084489], [113.855842, 22.8084489], [113.8558419, 22.8085187], [113.8553345, 22.8085185], [113.8553348, 22.8078455], [113.854833, 22.8078453], [113.8548331, 22.8077441], [113.8553264, 22.8077443], [113.8553265, 22.8075618], [113.8548253, 22.8075617], [113.8548253, 22.8074238]]]]}}, {"type": "Feature", "id": "way/1445991296", "properties": {"tags": {"building": "industrial"}, "heightStatus": "unknown", "source": "OpenStreetMap", "license": "ODbL-1.0"}, "geometry": {"type": "MultiPolygon", "coordinates": [[[[113.8540631, 22.8106106], [113.8551109, 22.8104777], [113.8552167, 22.8111859], [113.8541689, 22.811319], [113.8540631, 22.8106106]]]]}}, {"type": "Feature", "id": "way/1445991297", "properties": {"tags": {"building": "industrial"}, "heightStatus": "unknown", "source": "OpenStreetMap", "license": "ODbL-1.0"}, "geometry": {"type": "MultiPolygon", "coordinates": [[[[113.8541913, 22.8115457], [113.8548855, 22.8114623], [113.8549315, 22.8117876], [113.8542373, 22.8118711], [113.8541913, 22.8115457]]]]}}, {"type": "Feature", "id": "way/1445991298", "properties": {"tags": {"building": "industrial"}, "heightStatus": "unknown", "source": "OpenStreetMap", "license": "ODbL-1.0"}, "geometry": {"type": "MultiPolygon", "coordinates": [[[[113.853979, 22.8120508], [113.8551306, 22.811903], [113.8552166, 22.8124731], [113.8540651, 22.8126208], [113.853979, 22.8120508]]]]}}, {"type": "Feature", "id": "way/1445991299", "properties": {"tags": {"building": "industrial"}, "heightStatus": "unknown", "source": "OpenStreetMap", "license": "ODbL-1.0"}, "geometry": {"type": "MultiPolygon", "coordinates": [[[[113.8541206, 22.8129933], [113.8549507, 22.8128881], [113.8549187, 22.8126734], [113.8552035, 22.8126373], [113.855333, 22.8135048], [113.8548827, 22.813562], [113.8542923, 22.8133316], [113.8541561, 22.8132313], [113.8541206, 22.8129933]]]]}}, {"type": "Feature", "id": "way/1445991300", "properties": {"tags": {"building": "industrial"}, "heightStatus": "unknown", "source": "OpenStreetMap", "license": "ODbL-1.0"}, "geometry": {"type": "MultiPolygon", "coordinates": [[[[113.8551334, 22.8089661], [113.8556201, 22.8088987], [113.8557622, 22.8097695], [113.8552753, 22.809837], [113.8551334, 22.8089661]]]]}}, {"type": "Feature", "id": "way/1445991301", "properties": {"tags": {"building": "office", "layer": "2"}, "heightStatus": "unknown", "source": "OpenStreetMap", "license": "ODbL-1.0"}, "geometry": {"type": "MultiPolygon", "coordinates": [[[[113.8546753, 22.8091213], [113.8547544, 22.8091398], [113.8549645, 22.8091122], [113.855078, 22.8098471], [113.8548557, 22.8098756], [113.8547839, 22.8099223], [113.8547906, 22.8098333], [113.854804, 22.8097307], [113.8548, 22.809596], [113.8547812, 22.80946], [113.8547544, 22.8093512], [113.8547155, 22.8092202], [113.8546753, 22.8091213]]]]}}, {"type": "Feature", "id": "way/1445991330", "properties": {"tags": {"amenity": "community_centre", "building": "yes", "community_centre": "community_hall", "name": "燕川社区居委会"}, "heightStatus": "unknown", "source": "OpenStreetMap", "license": "ODbL-1.0"}, "geometry": {"type": "MultiPolygon", "coordinates": [[[[113.8586245, 22.8094047], [113.8588093, 22.8094014], [113.8588154, 22.8097007], [113.8586307, 22.8097039], [113.8586245, 22.8094047]]]]}}, {"type": "Feature", "id": "way/1445999534", "properties": {"tags": {"building": "yes"}, "heightStatus": "unknown", "source": "OpenStreetMap", "license": "ODbL-1.0"}, "geometry": {"type": "MultiPolygon", "coordinates": [[[[113.855695, 22.810385], [113.8558105, 22.8103714], [113.8558689, 22.8107935], [113.8557535, 22.8108071], [113.855695, 22.810385]]]]}}, {"type": "Feature", "id": "way/1446195789", "properties": {"tags": {"building": "yes"}, "heightStatus": "unknown", "source": "OpenStreetMap", "license": "ODbL-1.0"}, "geometry": {"type": "MultiPolygon", "coordinates": [[[[113.8552926, 22.8120827], [113.8553253, 22.8119014], [113.8554301, 22.8119175], [113.8553973, 22.8120988], [113.8552926, 22.8120827]]]]}}, {"type": "Feature", "id": "way/1447082444", "properties": {"tags": {"building": "yes"}, "heightStatus": "unknown", "source": "OpenStreetMap", "license": "ODbL-1.0"}, "geometry": {"type": "MultiPolygon", "coordinates": [[[[113.8589934, 22.8063862], [113.8591285, 22.8063373], [113.8592089, 22.8065258], [113.8594652, 22.8065284], [113.8594641, 22.806619], [113.859091, 22.8066152], [113.8589934, 22.8063862]]]]}}, {"type": "Feature", "id": "way/1447082445", "properties": {"tags": {"building": "yes"}, "heightStatus": "unknown", "source": "OpenStreetMap", "license": "ODbL-1.0"}, "geometry": {"type": "MultiPolygon", "coordinates": [[[[113.8594935, 22.8066376], [113.8594936, 22.8065621], [113.8596537, 22.8065623], [113.8596536, 22.8066248], [113.8596536, 22.8066378], [113.8594935, 22.8066376]]]]}}, {"type": "Feature", "id": "way/1447082447", "properties": {"tags": {"building": "yes"}, "heightStatus": "unknown", "source": "OpenStreetMap", "license": "ODbL-1.0"}, "geometry": {"type": "MultiPolygon", "coordinates": [[[[113.8594645, 22.8062593], [113.8596078, 22.8061986], [113.8596541, 22.8062914], [113.8595108, 22.8063521], [113.8594645, 22.8062593]]]]}}, {"type": "Feature", "id": "way/1447332271", "properties": {"tags": {"building": "office"}, "heightStatus": "unknown", "source": "OpenStreetMap", "license": "ODbL-1.0"}, "geometry": {"type": "MultiPolygon", "coordinates": [[[[113.8593178, 22.812822], [113.8593188, 22.8124001], [113.8594618, 22.8124004], [113.8594607, 22.8128223], [113.8593178, 22.812822]]]]}}, {"type": "Feature", "id": "way/1447332272", "properties": {"tags": {"building": "office"}, "heightStatus": "unknown", "source": "OpenStreetMap", "license": "ODbL-1.0"}, "geometry": {"type": "MultiPolygon", "coordinates": [[[[113.8593289, 22.8128625], [113.8594674, 22.8128618], [113.8594695, 22.8131929], [113.8593308, 22.8131936], [113.8593289, 22.8128625]]]]}}]}