{"type": "FeatureCollection", "features": [{"type": "Feature", "id": "way/1303653403", "properties": {"tags": {"building": "yes", "leisure": "sports_hall"}, "heightStatus": "unknown", "source": "OpenStreetMap", "license": "ODbL-1.0"}, "geometry": {"type": "MultiPolygon", "coordinates": [[[[113.8591993, 22.7620089], [113.8598965, 22.7618799], [113.8600093, 22.7623989], [113.8593121, 22.7625277], [113.8591993, 22.7620089]]]]}}, {"type": "Feature", "id": "way/1303653404", "properties": {"tags": {"building": "yes", "leisure": "sports_hall"}, "heightStatus": "unknown", "source": "OpenStreetMap", "license": "ODbL-1.0"}, "geometry": {"type": "MultiPolygon", "coordinates": [[[[113.8580224, 22.7621754], [113.858674, 22.7620489], [113.8587878, 22.7620864], [113.858922, 22.7626748], [113.8587732, 22.7627037], [113.858652, 22.7621724], [113.8580484, 22.7622895], [113.8580224, 22.7621754]]]]}}, {"type": "Feature", "id": "way/1358664312", "properties": {"tags": {"building": "industrial"}, "heightStatus": "unknown", "source": "OpenStreetMap", "license": "ODbL-1.0"}, "geometry": {"type": "MultiPolygon", "coordinates": [[[[113.8589851, 22.7650055], [113.8593848, 22.7648297], [113.8596099, 22.765265], [113.8592103, 22.7654407], [113.8589851, 22.7650055]]]]}}, {"type": "Feature", "id": "way/1358664313", "properties": {"tags": {"building": "industrial"}, "heightStatus": "unknown", "source": "OpenStreetMap", "license": "ODbL-1.0"}, "geometry": {"type": "MultiPolygon", "coordinates": [[[[113.8587379, 22.7645881], [113.8589154, 22.7645129], [113.8589692, 22.7646209], [113.8589179, 22.7646426], [113.8589706, 22.7647484], [113.8588445, 22.7648019], [113.8587379, 22.7645881]]]]}}, {"type": "Feature", "id": "way/1358664314", "properties": {"tags": {"building": "industrial"}, "heightStatus": "unknown", "source": "OpenStreetMap", "license": "ODbL-1.0"}, "geometry": {"type": "MultiPolygon", "coordinates": [[[[113.8592997, 22.7643172], [113.8596137, 22.7642091], [113.8598567, 22.7643778], [113.8598161, 22.7644275], [113.8596121, 22.7642858], [113.8593268, 22.7643841], [113.8592997, 22.7643172]]]]}}, {"type": "Feature", "id": "way/1358959494", "properties": {"tags": {"building": "industrial"}, "heightStatus": "unknown", "source": "OpenStreetMap", "license": "ODbL-1.0"}, "geometry": {"type": "MultiPolygon", "coordinates": [[[[113.8580992, 22.7603292], [113.8587258, 22.76024], [113.8587409, 22.7603302], [113.8587149, 22.7603339], [113.858721, 22.7603703], [113.858648, 22.7603806], [113.85866, 22.7604527], [113.85833, 22.7604995], [113.858386, 22.7608349], [113.8588425, 22.7607702], [113.8588746, 22.7609625], [113.8582112, 22.7610502], [113.8581704, 22.7607801], [113.8581387, 22.7607503], [113.8581199, 22.7606989], [113.8581262, 22.7606459], [113.8581441, 22.760595], [113.8580992, 22.7603292]]]]}}, {"type": "Feature", "id": "way/1358959507", "properties": {"tags": {"building": "industrial"}, "heightStatus": "unknown", "source": "OpenStreetMap", "license": "ODbL-1.0"}, "geometry": {"type": "MultiPolygon", "coordinates": [[[[113.8581743, 22.7611383], [113.8582733, 22.7611175], [113.8582879, 22.7611763], [113.8590453, 22.7610169], [113.8590694, 22.761114], [113.858213, 22.7612944], [113.8581743, 22.7611383]]]]}}, {"type": "Feature", "id": "way/1358959508", "properties": {"tags": {"building": "industrial"}, "heightStatus": "unknown", "source": "OpenStreetMap", "license": "ODbL-1.0"}, "geometry": {"type": "MultiPolygon", "coordinates": [[[[113.8591103, 22.761008], [113.8597659, 22.7608663], [113.8597877, 22.7609518], [113.8591321, 22.7610937], [113.8591103, 22.761008]]]]}}, {"type": "Feature", "id": "way/1448539897", "properties": {"tags": {"building": "apartments"}, "heightStatus": "unknown", "source": "OpenStreetMap", "license": "ODbL-1.0"}, "geometry": {"type": "MultiPolygon", "coordinates": [[[[113.8514051, 22.7668921], [113.8514849, 22.7668913], [113.8514852, 22.7669128], [113.8515123, 22.7669125], [113.8515118, 22.7668719], [113.8514735, 22.7668723], [113.8514729, 22.7668192], [113.8514939, 22.766819], [113.8514935, 22.7667846], [113.8516146, 22.7667834], [113.851615, 22.7668177], [113.851636, 22.7668175], [113.8516366, 22.7668707], [113.8515983, 22.766871], [113.8515988, 22.7669116], [113.8516259, 22.7669113], [113.8516257, 22.7668898], [113.8517055, 22.766889], [113.8517069, 22.7670104], [113.8516271, 22.7670112], [113.851627, 22.7670022], [113.8516123, 22.7670024], [113.851612, 22.7669697], [113.8515922, 22.7669699], [113.851592, 22.7669514], [113.85152, 22.7669521], [113.8515203, 22.7669706], [113.8515005, 22.7669708], [113.8515009, 22.7670035], [113.8514863, 22.7670037], [113.8514864, 22.7670126], [113.8514065, 22.7670135], [113.8514051, 22.7668921]]]]}}, {"type": "Feature", "id": "way/1448539898", "properties": {"tags": {"building": "apartments"}, "heightStatus": "unknown", "source": "OpenStreetMap", "license": "ODbL-1.0"}, "geometry": {"type": "MultiPolygon", "coordinates": [[[[113.8508122, 22.7668388], [113.8511601, 22.7668026], [113.8511756, 22.766929], [113.8510463, 22.7669425], [113.8510524, 22.7669923], [113.8510059, 22.7669972], [113.8510123, 22.7670491], [113.8508402, 22.767067], [113.8508122, 22.7668388]]]]}}, {"type": "Feature", "id": "way/1448539905", "properties": {"tags": {"building": "school"}, "heightStatus": "unknown", "source": "OpenStreetMap", "license": "ODbL-1.0"}, "geometry": {"type": "MultiPolygon", "coordinates": [[[[113.8558393, 22.7648955], [113.8558441, 22.7647168], [113.8559582, 22.7647194], [113.8559566, 22.7647791], [113.8561145, 22.7647827], [113.8561113, 22.7649017], [113.8558393, 22.7648955]]]]}}, {"type": "Feature", "id": "way/1448539906", "properties": {"tags": {"building": "school"}, "heightStatus": "unknown", "source": "OpenStreetMap", "license": "ODbL-1.0"}, "geometry": {"type": "MultiPolygon", "coordinates": [[[[113.8558228, 22.7655128], [113.8558363, 22.7650084], [113.8561592, 22.7650157], [113.8561457, 22.7655201], [113.8558228, 22.7655128]]]]}}, {"type": "Feature", "id": "relation/19808265", "properties": {"tags": {"building": "school"}, "heightStatus": "unknown", "source": "OpenStreetMap", "license": "ODbL-1.0"}, "geometry": {"type": "MultiPolygon", "coordinates": [[[[113.8555141, 22.7664484], [113.8555326, 22.7657603], [113.8556128, 22.7657622], [113.855605, 22.7660487], [113.8561998, 22.7660624], [113.8562056, 22.7658518], [113.8561699, 22.765851], [113.8561712, 22.7658027], [113.855766, 22.7657933], [113.8557721, 22.7655686], [113.8559983, 22.7655738], [113.8559997, 22.7655227], [113.8562334, 22.7655281], [113.856232, 22.7655792], [113.8562595, 22.7655799], [113.8562547, 22.7657571], [113.8566654, 22.7657666], [113.8566545, 22.7661688], [113.8560917, 22.7661558], [113.856089, 22.7662564], [113.8562453, 22.7662599], [113.8562431, 22.7663437], [113.8564364, 22.7663481], [113.8567132, 22.766261], [113.8567007, 22.7662273], [113.8567684, 22.7662061], [113.856791, 22.7662673], [113.8570914, 22.7662741], [113.8570895, 22.7663441], [113.8568171, 22.7663379], [113.856821, 22.7663483], [113.856569, 22.7664275], [113.8565395, 22.7663477], [113.8564471, 22.7663768], [113.85643, 22.7663764], [113.8564288, 22.7664219], [113.8563581, 22.7664676], [113.8555141, 22.7664484]], [[113.8555976, 22.7663409], [113.8560358, 22.7663508], [113.856038, 22.7662683], [113.8559566, 22.7662665], [113.8559579, 22.7662168], [113.8560393, 22.7662187], [113.856041, 22.7661546], [113.855603, 22.7661444], [113.8555976, 22.7663409]], [[113.8562548, 22.7660637], [113.856546, 22.7660705], [113.8565518, 22.7658599], [113.8562605, 22.7658531], [113.8562548, 22.7660637]]]]}}, {"type": "Feature", "id": "way/1448539908", "properties": {"tags": {"addr:city": "深圳市", "addr:country": "CN", "addr:district": "宝安区", "addr:housenumber": "36", "addr:province": "广东省", "addr:street": "东方大道", "addr:subdistrict": "松岗街道", "building": "retail", "name": "东方新天地", "name:en": "One East", "name:zh": "东方新天地", "name:zh-Hans": "东方新天地", "name:zh-Hant": "東方新天地", "shop": "mall"}, "heightStatus": "unknown", "source": "OpenStreetMap", "license": "ODbL-1.0"}, "geometry": {"type": "MultiPolygon", "coordinates": [[[[113.852616, 22.7644091], [113.8527053, 22.7634782], [113.8529881, 22.7632467], [113.8537373, 22.7630578], [113.8537883, 22.7630475], [113.8538404, 22.7630444], [113.8538925, 22.7630486], [113.8539432, 22.7630598], [113.854255, 22.763121], [113.8545829, 22.763103], [113.8545802, 22.7632847], [113.8545796, 22.7633231], [113.8545741, 22.7641122], [113.8545604, 22.7641938], [113.8542566, 22.764149], [113.8539595, 22.764204], [113.8538171, 22.7642304], [113.8535308, 22.7642834], [113.8532444, 22.7643364], [113.8530196, 22.7643781], [113.8527935, 22.7644199], [113.85266, 22.7644447], [113.8526463, 22.7644456], [113.8526332, 22.7644416], [113.8526228, 22.7644332], [113.8526167, 22.7644218], [113.852616, 22.7644091]]]]}}, {"type": "Feature", "id": "way/1448539909", "properties": {"tags": {"addr:housename": "联投东方华府·一期", "addr:housename:en": "Lian Tou Dongfang Huafu Phase I", "addr:housename:zh": "联投东方华府·一期", "building": "apartments", "layer": "1", "name": "5栋", "name:en": "Block 5", "name:zh": "5栋"}, "heightStatus": "unknown", "source": "OpenStreetMap", "license": "ODbL-1.0"}, "geometry": {"type": "MultiPolygon", "coordinates": [[[[113.8539421, 22.764125], [113.8540559, 22.7641038], [113.8540473, 22.7640648], [113.8540187, 22.7640701], [113.8539976, 22.7639738], [113.8541502, 22.7639453], [113.8541713, 22.7640417], [113.8541427, 22.764047], [113.8541512, 22.764086], [113.8542549, 22.7640667], [113.8542566, 22.764149], [113.8539595, 22.764204], [113.8539421, 22.764125]]]]}}, {"type": "Feature", "id": "way/1448539910", "properties": {"tags": {"addr:housename": "联投东方华府·一期", "addr:housename:en": "Lian Tou Dongfang Huafu Phase I", "addr:housename:zh": "联投东方华府·一期", "building": "apartments", "layer": "1", "name": "4栋", "name:en": "Block 4", "name:zh": "4栋"}, "heightStatus": "unknown", "source": "OpenStreetMap", "license": "ODbL-1.0"}, "geometry": {"type": "MultiPolygon", "coordinates": [[[[113.8542549, 22.7640667], [113.8543817, 22.7640848], [113.8543883, 22.7640454], [113.8543594, 22.7640413], [113.8543757, 22.7639442], [113.8545296, 22.7639661], [113.8545133, 22.7640633], [113.8544844, 22.7640592], [113.8544778, 22.7640985], [113.8545741, 22.7641122], [113.8545604, 22.7641938], [113.8542566, 22.764149], [113.8542549, 22.7640667]]]]}}, {"type": "Feature", "id": "way/1448539911", "properties": {"tags": {"addr:housename": "联投东方华府·一期", "addr:housename:en": "Lian Tou Dongfang Huafu Phase I", "addr:housename:zh": "联投东方华府·一期", "building": "apartments", "layer": "1", "name": "6栋", "name:en": "Block 6", "name:zh": "6栋"}, "heightStatus": "unknown", "source": "OpenStreetMap", "license": "ODbL-1.0"}, "geometry": {"type": "MultiPolygon", "coordinates": [[[[113.8535128, 22.7642009], [113.8536082, 22.7641832], [113.8535997, 22.7641441], [113.853571, 22.7641494], [113.85355, 22.764053], [113.8537026, 22.7640247], [113.8537236, 22.764121], [113.853695, 22.7641263], [113.8537035, 22.7641653], [113.8537991, 22.7641476], [113.8538171, 22.7642304], [113.8535308, 22.7642834], [113.8535128, 22.7642009]]]]}}, {"type": "Feature", "id": "way/1448539912", "properties": {"tags": {"addr:housename": "联投东方华府·一期", "addr:housename:en": "Lian Tou Dongfang Huafu Phase I", "addr:housename:zh": "联投东方华府·一期", "building": "apartments", "layer": "1", "name": "7栋", "name:en": "Block 7", "name:zh": "7栋"}, "heightStatus": "unknown", "source": "OpenStreetMap", "license": "ODbL-1.0"}, "geometry": {"type": "MultiPolygon", "coordinates": [[[[113.8532265, 22.7642542], [113.8533219, 22.7642365], [113.8533134, 22.7641975], [113.8532846, 22.7642028], [113.8532636, 22.7641064], [113.8534163, 22.7640781], [113.8534373, 22.7641744], [113.8534087, 22.7641797], [113.8534172, 22.7642186], [113.8535128, 22.7642009], [113.8535308, 22.7642834], [113.8532444, 22.7643364], [113.8532265, 22.7642542]]]]}}, {"type": "Feature", "id": "way/1448539913", "properties": {"tags": {"addr:housename": "联投东方华府·一期", "addr:housename:en": "Lian Tou Dongfang Huafu Phase I", "addr:housename:zh": "联投东方华府·一期", "building": "apartments", "layer": "1", "name": "8栋", "name:en": "Block 8", "name:zh": "8栋"}, "heightStatus": "unknown", "source": "OpenStreetMap", "license": "ODbL-1.0"}, "geometry": {"type": "MultiPolygon", "coordinates": [[[[113.8526806, 22.7642054], [113.8527766, 22.7640774], [113.852816, 22.7641025], [113.852807, 22.7641145], [113.8528314, 22.7641301], [113.8528135, 22.764154], [113.8528271, 22.7641627], [113.8528186, 22.764174], [113.8528429, 22.7641895], [113.8528857, 22.7641823], [113.8529025, 22.7641599], [113.8528902, 22.7641521], [113.8528996, 22.7641395], [113.8528736, 22.764123], [113.8528905, 22.7641005], [113.8528775, 22.7640922], [113.8529048, 22.7640558], [113.8530436, 22.7641443], [113.8529995, 22.7642032], [113.8529818, 22.7641919], [113.8529465, 22.7642389], [113.8529683, 22.7642527], [113.8529797, 22.7642374], [113.853028, 22.7642682], [113.8530165, 22.7642834], [113.8530682, 22.7643164], [113.8530196, 22.7643781], [113.8529136, 22.7643127], [113.8529189, 22.7643056], [113.8528932, 22.7642892], [113.8528883, 22.7642646], [113.852872, 22.7642674], [113.8528769, 22.764292], [113.8528591, 22.7643157], [113.8528668, 22.7643206], [113.8527935, 22.7644199], [113.8527236, 22.7643744], [113.8527593, 22.7643268], [113.8527428, 22.7643162], [113.8527761, 22.7642717], [113.8527927, 22.7642823], [113.8528077, 22.7642623], [113.8527567, 22.7642298], [113.8527444, 22.7642461], [113.8526806, 22.7642054]]]]}}, {"type": "Feature", "id": "way/1448539914", "properties": {"tags": {"addr:housename": "联投东方华府·一期", "addr:housename:en": "Lian Tou Dongfang Huafu Phase I", "addr:housename:zh": "联投东方华府·一期", "building": "apartments", "layer": "1", "name": "9栋", "name:en": "Block 9", "name:zh": "9栋"}, "heightStatus": "unknown", "source": "OpenStreetMap", "license": "ODbL-1.0"}, "geometry": {"type": "MultiPolygon", "coordinates": [[[[113.8527616, 22.7635512], [113.8529411, 22.7634024], [113.8529219, 22.7633827], [113.8530135, 22.7633068], [113.8530809, 22.7633759], [113.8530441, 22.7634064], [113.8531008, 22.7634646], [113.8531386, 22.7634333], [113.8532013, 22.7634976], [113.8529301, 22.7637225], [113.8528673, 22.7636581], [113.8529853, 22.7635604], [113.8529426, 22.7635166], [113.8528239, 22.763615], [113.8527616, 22.7635512]]]]}}, {"type": "Feature", "id": "way/1448539915", "properties": {"tags": {"addr:housename": "联投东方华府·一期", "addr:housename:en": "Lian Tou Dongfang Huafu Phase I", "addr:housename:zh": "联投东方华府·一期", "building": "apartments", "layer": "1", "name": "3栋", "name:en": "Block 3", "name:zh": "3栋"}, "heightStatus": "unknown", "source": "OpenStreetMap", "license": "ODbL-1.0"}, "geometry": {"type": "MultiPolygon", "coordinates": [[[[113.8541764, 22.763318], [113.854177, 22.7632796], [113.8541867, 22.7632797], [113.854187, 22.7632553], [113.8542132, 22.7632556], [113.8542144, 22.7631737], [113.854546, 22.7631779], [113.8545447, 22.7632598], [113.8545709, 22.7632602], [113.8545706, 22.7632846], [113.8545802, 22.7632847], [113.8545796, 22.7633231], [113.85457, 22.763323], [113.8545694, 22.7633614], [113.8545303, 22.7633609], [113.8545305, 22.7633475], [113.8544986, 22.7633471], [113.854499, 22.7633207], [113.8544672, 22.7633203], [113.8544676, 22.7632943], [113.8544558, 22.7632942], [113.8544562, 22.7632702], [113.8544196, 22.7632697], [113.8544191, 22.7632994], [113.8543376, 22.7632983], [113.854338, 22.7632687], [113.8543014, 22.7632682], [113.854301, 22.7632922], [113.8542892, 22.763292], [113.8542889, 22.763318], [113.8542571, 22.7633176], [113.8542568, 22.7633441], [113.8542248, 22.7633436], [113.8542246, 22.763357], [113.8541855, 22.7633565], [113.8541861, 22.7633181], [113.8541764, 22.763318]]]]}}, {"type": "Feature", "id": "way/1448539916", "properties": {"tags": {"addr:housename": "联投东方华府·一期", "addr:housename:en": "Lian Tou Dongfang Huafu Phase I", "addr:housename:zh": "联投东方华府·一期", "building": "apartments", "layer": "1", "name": "2栋", "name:en": "Block 2", "name:zh": "2栋"}, "heightStatus": "unknown", "source": "OpenStreetMap", "license": "ODbL-1.0"}, "geometry": {"type": "MultiPolygon", "coordinates": [[[[113.8536554, 22.7632512], [113.8536649, 22.7632494], [113.8536595, 22.7632254], [113.8536851, 22.7632205], [113.853667, 22.7631403], [113.8539916, 22.763078], [113.8540097, 22.7631583], [113.8540353, 22.7631534], [113.8540407, 22.7631773], [113.8540502, 22.7631755], [113.8540587, 22.7632131], [113.8540492, 22.7632149], [113.8540577, 22.7632524], [113.8540194, 22.7632598], [113.8540165, 22.7632467], [113.8539852, 22.7632527], [113.8539793, 22.7632268], [113.8539483, 22.7632328], [113.8539426, 22.7632074], [113.853931, 22.7632096], [113.8539257, 22.7631861], [113.8538898, 22.763193], [113.8538964, 22.763222], [113.8538166, 22.7632373], [113.85381, 22.7632083], [113.8537742, 22.7632151], [113.8537795, 22.7632387], [113.8537679, 22.7632409], [113.8537736, 22.7632663], [113.8537426, 22.7632722], [113.8537484, 22.7632981], [113.8537171, 22.7633041], [113.8537201, 22.7633172], [113.8536818, 22.7633245], [113.8536733, 22.763287], [113.8536639, 22.7632888], [113.8536554, 22.7632512]]]]}}, {"type": "Feature", "id": "way/1448539917", "properties": {"tags": {"addr:housename": "联投东方华府·一期", "addr:housename:en": "Lian Tou Dongfang Huafu Phase I", "addr:housename:zh": "联投东方华府·一期", "building": "apartments", "layer": "1", "name": "1栋", "name:en": "Block 1", "name:zh": "1栋"}, "heightStatus": "unknown", "source": "OpenStreetMap", "license": "ODbL-1.0"}, "geometry": {"type": "MultiPolygon", "coordinates": [[[[113.8532607, 22.7633269], [113.8532701, 22.7633251], [113.8532647, 22.7633012], [113.8532904, 22.7632962], [113.8532723, 22.763216], [113.8535969, 22.7631537], [113.853615, 22.763234], [113.8536406, 22.7632291], [113.853646, 22.763253], [113.8536554, 22.7632512], [113.8536639, 22.7632888], [113.8536545, 22.7632906], [113.8536629, 22.7633282], [113.8536247, 22.7633355], [113.8536217, 22.7633224], [113.8535904, 22.7633284], [113.8535846, 22.7633025], [113.8535536, 22.7633085], [113.8535478, 22.7632831], [113.8535363, 22.7632853], [113.853531, 22.7632618], [113.8534951, 22.7632687], [113.8535017, 22.7632977], [113.8534218, 22.763313], [113.8534153, 22.763284], [113.8533794, 22.7632909], [113.8533847, 22.7633144], [113.8533732, 22.7633166], [113.8533789, 22.763342], [113.8533478, 22.7633479], [113.8533537, 22.7633738], [113.8533224, 22.7633798], [113.8533253, 22.7633929], [113.8532871, 22.7634002], [113.8532786, 22.7633627], [113.8532692, 22.7633645], [113.8532607, 22.7633269]]]]}}, {"type": "Feature", "id": "way/1448539920", "properties": {"tags": {"building": "apartments"}, "heightStatus": "unknown", "source": "OpenStreetMap", "license": "ODbL-1.0"}, "geometry": {"type": "MultiPolygon", "coordinates": [[[[113.8508076, 22.7627337], [113.8509581, 22.7625791], [113.8509474, 22.7625702], [113.8509599, 22.7625573], [113.8509519, 22.7625272], [113.8508676, 22.7625461], [113.8508488, 22.7624749], [113.851053, 22.762429], [113.8510718, 22.7625003], [113.851041, 22.7625072], [113.8510499, 22.7625408], [113.8510794, 22.7625652], [113.8511283, 22.7625664], [113.8511278, 22.7625835], [113.8511626, 22.7625843], [113.8511602, 22.762668], [113.8510269, 22.7626649], [113.8510277, 22.762636], [113.8510117, 22.7626228], [113.8509436, 22.7626927], [113.8509728, 22.7627169], [113.85089, 22.7628019], [113.8508076, 22.7627337]]]]}}, {"type": "Feature", "id": "way/1448539921", "properties": {"tags": {"building": "apartments"}, "heightStatus": "unknown", "source": "OpenStreetMap", "license": "ODbL-1.0"}, "geometry": {"type": "MultiPolygon", "coordinates": [[[[113.8511934, 22.7618818], [113.8514045, 22.7618092], [113.8513995, 22.7617968], [113.851417, 22.7617907], [113.8514252, 22.7617606], [113.8513885, 22.7617522], [113.8514121, 22.7616647], [113.8515685, 22.7617005], [113.8515449, 22.7617881], [113.8515141, 22.761781], [113.8515051, 22.7618146], [113.8515189, 22.7618489], [113.8515616, 22.7618708], [113.8515526, 22.7618858], [113.8515829, 22.7619014], [113.8515388, 22.7619745], [113.8514223, 22.7619146], [113.8514375, 22.7618894], [113.85143, 22.7618709], [113.8513345, 22.7619037], [113.8513481, 22.7619375], [113.851232, 22.7619774], [113.8511934, 22.7618818]]]]}}, {"type": "Feature", "id": "way/1448539922", "properties": {"tags": {"building": "apartments"}, "heightStatus": "unknown", "source": "OpenStreetMap", "license": "ODbL-1.0"}, "geometry": {"type": "MultiPolygon", "coordinates": [[[[113.8513697, 22.7625316], [113.8515808, 22.762459], [113.8515758, 22.7624466], [113.8515933, 22.7624406], [113.8516015, 22.7624104], [113.8515648, 22.762402], [113.8515884, 22.7623145], [113.8517448, 22.7623504], [113.8517212, 22.7624379], [113.8516904, 22.7624308], [113.8516814, 22.7624644], [113.8516952, 22.7624987], [113.8517379, 22.7625207], [113.8517289, 22.7625356], [113.8517592, 22.7625512], [113.8517151, 22.7626243], [113.8515986, 22.7625645], [113.8516138, 22.7625393], [113.8516063, 22.7625207], [113.8515108, 22.7625535], [113.8515244, 22.7625874], [113.8514083, 22.7626273], [113.8513697, 22.7625316]]]]}}, {"type": "Feature", "id": "way/1448539923", "properties": {"tags": {"building": "apartments"}, "heightStatus": "unknown", "source": "OpenStreetMap", "license": "ODbL-1.0"}, "geometry": {"type": "MultiPolygon", "coordinates": [[[[113.8502092, 22.7627963], [113.8502654, 22.762767], [113.8502562, 22.762752], [113.8502988, 22.7627298], [113.8503123, 22.7626954], [113.850303, 22.7626619], [113.8502723, 22.7626692], [113.8502479, 22.7625818], [113.850404, 22.7625448], [113.8504284, 22.7626322], [113.8503918, 22.7626409], [113.8504002, 22.7626709], [113.8504178, 22.7626768], [113.8504129, 22.7626893], [113.8506246, 22.7627604], [113.8505867, 22.7628563], [113.8504703, 22.7628172], [113.8504837, 22.7627833], [113.8503879, 22.7627512], [113.8503806, 22.7627698], [113.850396, 22.7627949], [113.8502799, 22.7628555], [113.850269, 22.7628378], [113.8502431, 22.7628514], [113.8502092, 22.7627963]]]]}}, {"type": "Feature", "id": "way/1448539928", "properties": {"tags": {"addr:housename": "联投东方华府·二期", "addr:housename:en": "Lian Tou Dongfang Huafu Phase II", "addr:housename:zh": "联投东方华府·二期", "building": "apartments", "name": "1-3栋", "name:en": "Block 1-3", "name:zh": "1-3栋"}, "heightStatus": "unknown", "source": "OpenStreetMap", "license": "ODbL-1.0"}, "geometry": {"type": "MultiPolygon", "coordinates": [[[[113.8509043, 22.7639237], [113.8509073, 22.763834], [113.8509541, 22.7638354], [113.8509556, 22.7637899], [113.8509374, 22.7637893], [113.8509386, 22.7637533], [113.8509622, 22.763754], [113.8509636, 22.7637147], [113.8509985, 22.7637157], [113.8509981, 22.7637261], [113.8510487, 22.7637276], [113.8510478, 22.7637551], [113.8511974, 22.7637594], [113.8511983, 22.7637319], [113.8512489, 22.7637333], [113.8512492, 22.7637229], [113.8512841, 22.7637239], [113.8512828, 22.7637632], [113.8513064, 22.7637639], [113.8513052, 22.7637999], [113.851287, 22.7637994], [113.8512854, 22.7638449], [113.8513322, 22.7638463], [113.8513292, 22.7639359], [113.8512541, 22.7639338], [113.8512542, 22.7639285], [113.851232, 22.7639278], [113.8512345, 22.7638553], [113.8511601, 22.7638531], [113.8511591, 22.7638828], [113.8510776, 22.7638804], [113.8510786, 22.7638508], [113.8510042, 22.7638486], [113.8510018, 22.7639212], [113.8509796, 22.7639206], [113.8509794, 22.7639259], [113.8509043, 22.7639237]]]]}}, {"type": "Feature", "id": "way/1448539929", "properties": {"tags": {"addr:housename": "联投东方华府·二期", "addr:housename:en": "Lian Tou Dongfang Huafu Phase II", "addr:housename:zh": "联投东方华府·二期", "building": "apartments", "name": "1-2栋", "name:en": "Block 1-2", "name:zh": "1-2栋"}, "heightStatus": "unknown", "source": "OpenStreetMap", "license": "ODbL-1.0"}, "geometry": {"type": "MultiPolygon", "coordinates": [[[[113.8502359, 22.7639736], [113.850265, 22.7639557], [113.8502713, 22.7639644], [113.8503134, 22.7639385], [113.8503299, 22.7639615], [113.8504545, 22.763885], [113.850438, 22.7638621], [113.8504801, 22.7638362], [113.8504739, 22.7638276], [113.8505029, 22.7638098], [113.8505265, 22.7638424], [113.850531, 22.7638397], [113.8505673, 22.7638899], [113.8505383, 22.7639077], [113.8505513, 22.7639257], [113.8506021, 22.7638945], [113.8506168, 22.7639149], [113.8506248, 22.76391], [113.8506479, 22.7639419], [113.8506398, 22.7639469], [113.8506629, 22.7639788], [113.8506303, 22.7639988], [113.8506223, 22.7639877], [113.8505957, 22.764004], [113.8505798, 22.7639819], [113.8505534, 22.7639981], [113.8505378, 22.7639765], [113.850528, 22.7639826], [113.8505136, 22.7639626], [113.8504831, 22.7639813], [113.8505009, 22.764006], [113.850433, 22.7640477], [113.8504152, 22.7640229], [113.8503847, 22.7640417], [113.8503991, 22.7640617], [113.8503893, 22.7640677], [113.8504049, 22.7640893], [113.8503785, 22.7641055], [113.8503944, 22.7641275], [113.8503678, 22.7641438], [113.8503758, 22.7641549], [113.8503432, 22.7641749], [113.8503202, 22.764143], [113.8503122, 22.7641479], [113.8502891, 22.7641159], [113.8502971, 22.764111], [113.8502824, 22.7640906], [113.8503332, 22.7640595], [113.8503202, 22.7640415], [113.8502912, 22.7640592], [113.850255, 22.764009], [113.8502595, 22.7640063], [113.8502359, 22.7639736]]]]}}, {"type": "Feature", "id": "way/1448539931", "properties": {"tags": {"addr:city": "深圳市", "addr:country": "CN", "addr:district": "宝安区", "addr:housenumber": "46", "addr:postcode": "518105", "addr:province": "广东省", "addr:street": "东方大道", "addr:subdistrict": "松岗街道", "building": "hotel", "name": "深圳联投东方万怡酒店", "name:en": "Courtyard by Marriott Shenzhen Bao’an", "name:zh": "深圳联投东方万怡酒店", "name:zh-Hans": "深圳联投东方万怡酒店", "name:zh-Hant": "深圳聯投東方萬怡酒店", "tourism": "hotel"}, "heightStatus": "unknown", "source": "OpenStreetMap", "license": "ODbL-1.0"}, "geometry": {"type": "MultiPolygon", "coordinates": [[[[113.8514878, 22.7636782], [113.8519375, 22.7634673], [113.8520687, 22.7637053], [113.851619, 22.7639162], [113.8514878, 22.7636782]]]]}}, {"type": "Feature", "id": "way/1448539932", "properties": {"tags": {"addr:housename": "联投东方华府·二期", "addr:housename:en": "Lian Tou Dongfang Huafu Phase II", "addr:housename:zh": "联投东方华府·二期", "building": "apartments", "name": "2-3栋", "name:en": "Block 2-3", "name:zh": "2-3栋"}, "heightStatus": "unknown", "source": "OpenStreetMap", "license": "ODbL-1.0"}, "geometry": {"type": "MultiPolygon", "coordinates": [[[[113.851502, 22.7663787], [113.8515067, 22.7662962], [113.8515483, 22.7662982], [113.8515495, 22.7662779], [113.851594, 22.7662801], [113.8515928, 22.7663004], [113.8516215, 22.7663017], [113.8516242, 22.7662534], [113.8515974, 22.7662521], [113.8516034, 22.7661467], [113.8517359, 22.7661531], [113.85173, 22.7662584], [113.8517032, 22.7662572], [113.8517005, 22.7663055], [113.8517291, 22.7663069], [113.8517302, 22.7662866], [113.8517748, 22.7662887], [113.8517736, 22.7663091], [113.8518361, 22.7663121], [113.8518315, 22.7663945], [113.851502, 22.7663787]]]]}}, {"type": "Feature", "id": "way/1448539933", "properties": {"tags": {"addr:housename": "联投东方华府·二期", "addr:housename:en": "Lian Tou Dongfang Huafu Phase II", "addr:housename:zh": "联投东方华府·二期", "building": "apartments", "name": "2-4栋", "name:en": "Block 2-4", "name:zh": "2-4栋"}, "heightStatus": "unknown", "source": "OpenStreetMap", "license": "ODbL-1.0"}, "geometry": {"type": "MultiPolygon", "coordinates": [[[[113.8511726, 22.7663628], [113.8511773, 22.7662804], [113.8512398, 22.7662834], [113.8512409, 22.7662631], [113.8512855, 22.7662652], [113.8512843, 22.7662855], [113.8513129, 22.7662869], [113.8513157, 22.7662385], [113.8512889, 22.7662372], [113.8512948, 22.7661318], [113.8514274, 22.7661382], [113.8514214, 22.7662436], [113.8513946, 22.7662423], [113.8513919, 22.7662907], [113.8514205, 22.7662921], [113.8514217, 22.7662718], [113.8514662, 22.7662739], [113.8514651, 22.7662942], [113.8515067, 22.7662962], [113.851502, 22.7663787], [113.8511726, 22.7663628]]]]}}, {"type": "Feature", "id": "way/1448539934", "properties": {"tags": {"addr:housename": "联投东方华府·二期", "addr:housename:en": "Lian Tou Dongfang Huafu Phase II", "addr:housename:zh": "联投东方华府·二期", "building": "apartments", "name": "1-5栋", "name:en": "Block 1-5", "name:zh": "1-5栋"}, "heightStatus": "unknown", "source": "OpenStreetMap", "license": "ODbL-1.0"}, "geometry": {"type": "MultiPolygon", "coordinates": [[[[113.8516641, 22.7645461], [113.8517123, 22.764509], [113.8516994, 22.7644947], [113.8517443, 22.76446], [113.8517573, 22.7644743], [113.8517775, 22.7644586], [113.8517377, 22.7644148], [113.8517212, 22.7644276], [113.8516714, 22.7643727], [113.8518009, 22.7642728], [113.8518317, 22.7643067], [113.8518195, 22.7643161], [113.8518386, 22.764337], [113.8518143, 22.7643557], [113.851825, 22.7643674], [113.8518135, 22.7643763], [113.8518325, 22.7643972], [113.8518758, 22.7644007], [113.8518984, 22.7643832], [113.8518889, 22.7643727], [113.8519016, 22.7643629], [113.8518813, 22.7643405], [113.851904, 22.764323], [113.8518939, 22.7643118], [113.8519307, 22.7642834], [113.852039, 22.7644028], [113.8519795, 22.7644488], [113.8519656, 22.7644335], [113.8519181, 22.7644702], [113.8519351, 22.7644888], [113.8519505, 22.7644769], [113.8519881, 22.7645184], [113.8519078, 22.7645804], [113.8518651, 22.7645333], [113.8518722, 22.7645277], [113.8518522, 22.7645056], [113.8518546, 22.7644807], [113.851838, 22.7644793], [113.8518356, 22.7645043], [113.8518117, 22.7645228], [113.8518176, 22.7645294], [113.8517184, 22.764606], [113.8516641, 22.7645461]]]]}}, {"type": "Feature", "id": "way/1448539935", "properties": {"tags": {"addr:housename": "联投东方华府·二期", "addr:housename:en": "Lian Tou Dongfang Huafu Phase II", "addr:housename:zh": "联投东方华府·二期", "building": "apartments", "name": "5栋", "name:en": "Block 5", "name:zh": "5栋"}, "heightStatus": "unknown", "source": "OpenStreetMap", "license": "ODbL-1.0"}, "geometry": {"type": "MultiPolygon", "coordinates": [[[[113.8509511, 22.7644779], [113.8510616, 22.7643926], [113.8509836, 22.7643066], [113.8511131, 22.7642067], [113.8511438, 22.7642406], [113.8511317, 22.7642499], [113.8511507, 22.7642709], [113.8511265, 22.7642896], [113.8511372, 22.7643013], [113.8511257, 22.7643102], [113.8511447, 22.7643311], [113.851188, 22.7643346], [113.8512035, 22.7643226], [113.8511737, 22.7642897], [113.8512371, 22.7642408], [113.8513352, 22.764349], [113.8512718, 22.7643979], [113.851258, 22.7643827], [113.8512303, 22.764404], [113.8512472, 22.7644227], [113.8512627, 22.7644108], [113.8513258, 22.7644803], [113.8512454, 22.7645423], [113.8511508, 22.764438], [113.8511237, 22.7644589], [113.851134, 22.7644702], [113.8510826, 22.7645098], [113.851093, 22.7645213], [113.85106, 22.7645467], [113.8510277, 22.7645112], [113.8510004, 22.7645322], [113.8509511, 22.7644779]]]]}}, {"type": "Feature", "id": "way/1448539936", "properties": {"tags": {"addr:housename": "联投东方华府·二期", "addr:housename:en": "Lian Tou Dongfang Huafu Phase II", "addr:housename:zh": "联投东方华府·二期", "building": "apartments", "name": "4栋", "name:en": "Block 4", "name:zh": "4栋"}, "heightStatus": "unknown", "source": "OpenStreetMap", "license": "ODbL-1.0"}, "geometry": {"type": "MultiPolygon", "coordinates": [[[[113.8508995, 22.7650639], [113.8509477, 22.7650267], [113.8509348, 22.7650125], [113.8509797, 22.7649778], [113.8509927, 22.764992], [113.8510129, 22.7649764], [113.8509732, 22.7649326], [113.8509566, 22.7649453], [113.8509068, 22.7648904], [113.8510363, 22.7647905], [113.8510671, 22.7648245], [113.8510549, 22.7648338], [113.851074, 22.7648548], [113.8510497, 22.7648735], [113.8510604, 22.7648852], [113.8510489, 22.764894], [113.8510679, 22.7649149], [113.8511112, 22.7649185], [113.8511338, 22.764901], [113.8511243, 22.7648904], [113.851137, 22.7648806], [113.8511167, 22.7648583], [113.8511394, 22.7648407], [113.8511293, 22.7648296], [113.8511661, 22.7648012], [113.8512744, 22.7649206], [113.8512149, 22.7649665], [113.851201, 22.7649513], [113.8511535, 22.7649879], [113.8511705, 22.7650066], [113.8511859, 22.7649947], [113.8512235, 22.7650362], [113.8512081, 22.7650481], [113.8512484, 22.7650925], [113.8511835, 22.7651425], [113.8511005, 22.765051], [113.8511076, 22.7650455], [113.8510876, 22.7650234], [113.85109, 22.7649984], [113.8510734, 22.7649971], [113.851071, 22.765022], [113.8510471, 22.7650405], [113.851053, 22.7650471], [113.8509538, 22.7651237], [113.8508995, 22.7650639]]]]}}, {"type": "Feature", "id": "way/1448539937", "properties": {"tags": {"addr:housename": "联投东方华府·二期", "addr:housename:en": "Lian Tou Dongfang Huafu Phase II", "addr:housename:zh": "联投东方华府·二期", "building": "apartments", "name": "2-1栋", "name:en": "Block 2-1", "name:zh": "2-1栋"}, "heightStatus": "unknown", "source": "OpenStreetMap", "license": "ODbL-1.0"}, "geometry": {"type": "MultiPolygon", "coordinates": [[[[113.8515982, 22.7651801], [113.8516464, 22.765143], [113.8516335, 22.7651287], [113.8516785, 22.765094], [113.8516914, 22.7651083], [113.8517116, 22.7650926], [113.8516719, 22.7650488], [113.8516553, 22.7650616], [113.8516055, 22.7650067], [113.851735, 22.7649068], [113.8517658, 22.7649407], [113.8517537, 22.7649501], [113.8517727, 22.764971], [113.8517485, 22.7649897], [113.8517591, 22.7650014], [113.8517476, 22.7650103], [113.8517666, 22.7650312], [113.8518099, 22.7650347], [113.8518326, 22.7650172], [113.851823, 22.7650067], [113.8518357, 22.7649969], [113.8518154, 22.7649745], [113.8518382, 22.764957], [113.851828, 22.7649458], [113.8518648, 22.7649174], [113.8519731, 22.7650368], [113.8519136, 22.7650827], [113.8518998, 22.7650675], [113.8518522, 22.7651042], [113.8518692, 22.7651228], [113.8518846, 22.7651109], [113.8519223, 22.7651524], [113.8518419, 22.7652144], [113.8517992, 22.7651673], [113.8518064, 22.7651617], [113.8517863, 22.7651396], [113.8517887, 22.7651147], [113.8517722, 22.7651133], [113.8517697, 22.7651383], [113.8517458, 22.7651568], [113.8517518, 22.7651634], [113.8516525, 22.7652399], [113.8515982, 22.7651801]]]]}}, {"type": "Feature", "id": "way/1448539938", "properties": {"tags": {"addr:housename": "联投东方华府·二期", "addr:housename:en": "Lian Tou Dongfang Huafu Phase II", "addr:housename:zh": "联投东方华府·二期", "building": "apartments", "name": "2-2栋", "name:en": "Block 2-2", "name:zh": "2-2栋"}, "heightStatus": "unknown", "source": "OpenStreetMap", "license": "ODbL-1.0"}, "geometry": {"type": "MultiPolygon", "coordinates": [[[[113.8515285, 22.7658083], [113.8515767, 22.7657712], [113.8515637, 22.7657569], [113.8516087, 22.7657222], [113.8516216, 22.7657365], [113.8516419, 22.7657208], [113.8516021, 22.765677], [113.8515856, 22.7656898], [113.8515358, 22.7656349], [113.8516653, 22.765535], [113.851696, 22.7655689], [113.8516839, 22.7655783], [113.8517029, 22.7655992], [113.8516787, 22.7656179], [113.8516894, 22.7656296], [113.8516779, 22.7656385], [113.8516969, 22.7656594], [113.8517402, 22.7656629], [113.8517628, 22.7656454], [113.8517532, 22.7656349], [113.8517659, 22.7656251], [113.8517457, 22.7656027], [113.8517684, 22.7655852], [113.8517583, 22.765574], [113.8517951, 22.7655456], [113.8519034, 22.765665], [113.8518439, 22.765711], [113.85183, 22.7656957], [113.8517825, 22.7657324], [113.8517994, 22.765751], [113.8518149, 22.7657391], [113.8518525, 22.7657806], [113.8518371, 22.7657925], [113.8518774, 22.7658369], [113.8518125, 22.765887], [113.8517295, 22.7657955], [113.8517366, 22.7657899], [113.8517166, 22.7657678], [113.851719, 22.7657429], [113.8517024, 22.7657415], [113.8517, 22.7657665], [113.851676, 22.765785], [113.851682, 22.7657916], [113.8515828, 22.7658682], [113.8515285, 22.7658083]]]]}}, {"type": "Feature", "id": "way/1448539939", "properties": {"tags": {"addr:housename": "联投东方华府·二期", "addr:housename:en": "Lian Tou Dongfang Huafu Phase II", "addr:housename:zh": "联投东方华府·二期", "building": "apartments", "name": "3栋", "name:en": "Block 3", "name:zh": "3栋"}, "heightStatus": "unknown", "source": "OpenStreetMap", "license": "ODbL-1.0"}, "geometry": {"type": "MultiPolygon", "coordinates": [[[[113.8508402, 22.7656217], [113.8508884, 22.7655845], [113.8508755, 22.7655703], [113.8509205, 22.7655356], [113.8509334, 22.7655498], [113.8509536, 22.7655342], [113.8509139, 22.7654904], [113.8508973, 22.7655031], [113.8508475, 22.7654482], [113.850977, 22.7653483], [113.8510078, 22.7653823], [113.8509957, 22.7653916], [113.8510147, 22.7654126], [113.8509905, 22.7654313], [113.8510011, 22.765443], [113.8509896, 22.7654518], [113.8510086, 22.7654727], [113.8510519, 22.7654763], [113.8510746, 22.7654588], [113.851065, 22.7654482], [113.8510777, 22.7654384], [113.8510574, 22.7654161], [113.8510802, 22.7653986], [113.85107, 22.7653874], [113.8511068, 22.765359], [113.8512151, 22.7654784], [113.8511556, 22.7655243], [113.8511418, 22.7655091], [113.8510942, 22.7655457], [113.8511112, 22.7655644], [113.8511266, 22.7655525], [113.8511643, 22.765594], [113.8511488, 22.7656059], [113.8511891, 22.7656503], [113.8511243, 22.7657003], [113.8510412, 22.7656088], [113.8510484, 22.7656033], [113.8510283, 22.7655812], [113.8510307, 22.7655562], [113.8510142, 22.7655549], [113.8510118, 22.7655798], [113.8509878, 22.7655983], [113.8509938, 22.7656049], [113.8508945, 22.7656815], [113.8508402, 22.7656217]]]]}}, {"type": "Feature", "id": "way/1448540004", "properties": {"tags": {"building": "apartments"}, "heightStatus": "unknown", "source": "OpenStreetMap", "license": "ODbL-1.0"}, "geometry": {"type": "MultiPolygon", "coordinates": [[[[113.8526906, 22.7695217], [113.8527844, 22.7695202], [113.852783, 22.7694429], [113.8528858, 22.7694413], [113.852887, 22.7695032], [113.853048, 22.7695007], [113.8530497, 22.7695944], [113.8529075, 22.7695966], [113.8529077, 22.769612], [113.8526923, 22.7696154], [113.8526906, 22.7695217]]]]}}, {"type": "Feature", "id": "way/1448540005", "properties": {"tags": {"building": "apartments"}, "heightStatus": "unknown", "source": "OpenStreetMap", "license": "ODbL-1.0"}, "geometry": {"type": "MultiPolygon", "coordinates": [[[[113.8532077, 22.769555], [113.8532954, 22.7695536], [113.8532947, 22.7695188], [113.8532655, 22.7695192], [113.8532642, 22.7694453], [113.8534385, 22.7694426], [113.8534398, 22.7695165], [113.8534106, 22.769517], [113.8534112, 22.7695518], [113.8534989, 22.7695505], [113.8535006, 22.7696454], [113.8532094, 22.7696499], [113.8532077, 22.769555]]]]}}, {"type": "Feature", "id": "way/1448540006", "properties": {"tags": {"building": "apartments"}, "heightStatus": "unknown", "source": "OpenStreetMap", "license": "ODbL-1.0"}, "geometry": {"type": "MultiPolygon", "coordinates": [[[[113.8542743, 22.7695176], [113.854362, 22.7695162], [113.8543614, 22.7694814], [113.8543321, 22.7694818], [113.8543308, 22.7694079], [113.8545051, 22.7694052], [113.8545064, 22.7694791], [113.8544772, 22.7694796], [113.8544779, 22.7695145], [113.8545655, 22.7695131], [113.8545673, 22.769608], [113.8542761, 22.7696126], [113.8542743, 22.7695176]]]]}}, {"type": "Feature", "id": "way/1448540014", "properties": {"tags": {"building": "apartments"}, "heightStatus": "unknown", "source": "OpenStreetMap", "license": "ODbL-1.0"}, "geometry": {"type": "MultiPolygon", "coordinates": [[[[113.8543086, 22.7689103], [113.854406, 22.7689087], [113.8544055, 22.7688832], [113.8543763, 22.7688836], [113.8543742, 22.7687669], [113.8545407, 22.7687643], [113.8545429, 22.768881], [113.8545136, 22.7688815], [113.8545141, 22.7689071], [113.8546115, 22.7689056], [113.8546132, 22.7689959], [113.8545158, 22.7689974], [113.8545166, 22.7690441], [113.854614, 22.7690426], [113.8546159, 22.7691429], [113.8543129, 22.7691476], [113.8543111, 22.7690473], [113.8544085, 22.7690458], [113.8544077, 22.7689991], [113.8543102, 22.7690006], [113.8543086, 22.7689103]]]]}}, {"type": "Feature", "id": "way/1448540015", "properties": {"tags": {"building": "apartments"}, "heightStatus": "unknown", "source": "OpenStreetMap", "license": "ODbL-1.0"}, "geometry": {"type": "MultiPolygon", "coordinates": [[[[113.8540057, 22.768915], [113.8541031, 22.7689135], [113.8541026, 22.7688879], [113.8540734, 22.7688883], [113.8540712, 22.7687716], [113.8542378, 22.768769], [113.8542399, 22.7688857], [113.8542107, 22.7688862], [113.8542112, 22.7689118], [113.8543086, 22.7689103], [113.8543102, 22.7690006], [113.8540073, 22.7690053], [113.8540057, 22.768915]]]]}}, {"type": "Feature", "id": "way/1448540016", "properties": {"tags": {"building": "apartments"}, "heightStatus": "unknown", "source": "OpenStreetMap", "license": "ODbL-1.0"}, "geometry": {"type": "MultiPolygon", "coordinates": [[[[113.8537027, 22.7689197], [113.8538001, 22.7689182], [113.8537997, 22.7688926], [113.8537704, 22.768893], [113.8537683, 22.7687763], [113.8539349, 22.7687737], [113.853937, 22.7688904], [113.8539078, 22.7688909], [113.8539082, 22.7689165], [113.8540057, 22.768915], [113.8540073, 22.7690053], [113.8539099, 22.7690068], [113.8539107, 22.7690535], [113.8540082, 22.769052], [113.85401, 22.7691523], [113.8537071, 22.769157], [113.8537052, 22.7690567], [113.8538026, 22.7690552], [113.8538018, 22.7690085], [113.8537044, 22.76901], [113.8537027, 22.7689197]]]]}}, {"type": "Feature", "id": "way/1448540022", "properties": {"tags": {"building": "apartments"}, "heightStatus": "unknown", "source": "OpenStreetMap", "license": "ODbL-1.0"}, "geometry": {"type": "MultiPolygon", "coordinates": [[[[113.8539831, 22.7695221], [113.8540708, 22.7695208], [113.8540701, 22.7694859], [113.8540409, 22.7694864], [113.8540396, 22.7694124], [113.8542139, 22.7694097], [113.8542152, 22.7694837], [113.854186, 22.7694841], [113.8541867, 22.769519], [113.8542743, 22.7695176], [113.8542761, 22.7696126], [113.8539848, 22.7696171], [113.8539831, 22.7695221]]]]}}, {"type": "Feature", "id": "way/1448540023", "properties": {"tags": {"building": "apartments"}, "heightStatus": "unknown", "source": "OpenStreetMap", "license": "ODbL-1.0"}, "geometry": {"type": "MultiPolygon", "coordinates": [[[[113.8536919, 22.7695267], [113.8537796, 22.7695253], [113.8537789, 22.7694904], [113.8537497, 22.7694909], [113.8537484, 22.769417], [113.8539227, 22.7694143], [113.853924, 22.7694882], [113.8538948, 22.7694886], [113.8538954, 22.7695235], [113.8539831, 22.7695221], [113.8539848, 22.7696171], [113.8536936, 22.7696216], [113.8536919, 22.7695267]]]]}}, {"type": "Feature", "id": "way/1448540033", "properties": {"tags": {"addr:housename": "璟荟名庭", "addr:housename:en": "Jinghui Mingting", "addr:housename:zh": "璟荟名庭", "building": "apartments", "building:levels": "26", "name": "2B栋", "name:en": "Block 2B", "name:zh": "2B栋"}, "heightStatus": "levels_only_unverified", "source": "OpenStreetMap", "license": "ODbL-1.0"}, "geometry": {"type": "MultiPolygon", "coordinates": [[[[113.8522615, 22.7689678], [113.8524189, 22.7689591], [113.8524247, 22.7690488], [113.8523546, 22.7690527], [113.8523598, 22.7691332], [113.8524299, 22.7691293], [113.8524388, 22.7692662], [113.8522815, 22.7692749], [113.8522615, 22.7689678]]]]}}, {"type": "Feature", "id": "way/1448540052", "properties": {"tags": {"addr:housename": "璟荟名庭", "addr:housename:en": "Jinghui Mingting", "addr:housename:zh": "璟荟名庭", "building": "apartments", "building:levels": "32", "name": "1C栋", "name:en": "Block 1C", "name:zh": "1C栋"}, "heightStatus": "levels_only_unverified", "source": "OpenStreetMap", "license": "ODbL-1.0"}, "geometry": {"type": "MultiPolygon", "coordinates": [[[[113.8505753, 22.76911], [113.8506277, 22.76905], [113.8506905, 22.7690967], [113.8507198, 22.7690632], [113.8506857, 22.7690378], [113.8507384, 22.7689776], [113.8508529, 22.7690627], [113.8508001, 22.7691231], [113.8507831, 22.7691106], [113.850754, 22.7691439], [113.8508089, 22.7691847], [113.8507563, 22.7692449], [113.8507011, 22.7692039], [113.8506542, 22.7692575], [113.8505907, 22.7692103], [113.8506378, 22.7691564], [113.8505753, 22.76911]]]]}}, {"type": "Feature", "id": "way/1448540053", "properties": {"tags": {"addr:housename": "璟荟名庭", "addr:housename:en": "Jinghui Mingting", "addr:housename:zh": "璟荟名庭", "building": "apartments", "building:levels": "32", "name": "1D栋", "name:en": "Block 1D", "name:zh": "1D栋"}, "heightStatus": "levels_only_unverified", "source": "OpenStreetMap", "license": "ODbL-1.0"}, "geometry": {"type": "MultiPolygon", "coordinates": [[[[113.8513068, 22.7691016], [113.8513592, 22.7690417], [113.851422, 22.7690883], [113.8514513, 22.7690548], [113.8514172, 22.7690295], [113.8514352, 22.7690089], [113.8514201, 22.7689977], [113.8514548, 22.768958], [113.8515997, 22.7690657], [113.8515647, 22.7691057], [113.8515495, 22.7690943], [113.8515316, 22.7691148], [113.8515147, 22.7691022], [113.8514855, 22.7691355], [113.8515404, 22.7691763], [113.8514878, 22.7692365], [113.8514326, 22.7691955], [113.8513858, 22.7692492], [113.8513222, 22.769202], [113.8513694, 22.769148], [113.8513068, 22.7691016]]]]}}, {"type": "Feature", "id": "way/1448540056", "properties": {"tags": {"building": "commercial"}, "heightStatus": "unknown", "source": "OpenStreetMap", "license": "ODbL-1.0"}, "geometry": {"type": "MultiPolygon", "coordinates": [[[[113.8526842, 22.7689788], [113.8532233, 22.7689482], [113.8532309, 22.7690625], [113.8526918, 22.7690931], [113.8526842, 22.7689788]]]]}}, {"type": "Feature", "id": "way/1448540057", "properties": {"tags": {"building": "commercial"}, "heightStatus": "unknown", "source": "OpenStreetMap", "license": "ODbL-1.0"}, "geometry": {"type": "MultiPolygon", "coordinates": [[[[113.8526622, 22.7691701], [113.85358, 22.769118], [113.8535909, 22.769281], [113.8526731, 22.7693331], [113.8526622, 22.7691701]]]]}}, {"type": "Feature", "id": "way/1448540058", "properties": {"tags": {"building": "commercial"}, "heightStatus": "unknown", "source": "OpenStreetMap", "license": "ODbL-1.0"}, "geometry": {"type": "MultiPolygon", "coordinates": [[[[113.852631, 22.768703], [113.8535488, 22.7686509], [113.8535606, 22.7688279], [113.8526428, 22.76888], [113.852631, 22.768703]]]]}}, {"type": "Feature", "id": "way/1448540059", "properties": {"tags": {"addr:housename": "汇智时代广场", "addr:housename:en": "Huizhi Times Square", "addr:housename:zh": "汇智时代广场", "building": "commercial", "name": "C座", "name:en": "Block C", "name:zh": "C座"}, "heightStatus": "unknown", "source": "OpenStreetMap", "license": "ODbL-1.0"}, "geometry": {"type": "MultiPolygon", "coordinates": [[[[113.8556877, 22.7670309], [113.8556906, 22.7668391], [113.8561732, 22.7668454], [113.8561702, 22.7670372], [113.8556877, 22.7670309]]]]}}, {"type": "Feature", "id": "way/1448540060", "properties": {"tags": {"addr:housename": "汇智时代广场", "addr:housename:en": "Huizhi Times Square", "addr:housename:zh": "汇智时代广场", "building": "commercial", "name": "B座", "name:en": "Block B", "name:zh": "B座"}, "heightStatus": "unknown", "source": "OpenStreetMap", "license": "ODbL-1.0"}, "geometry": {"type": "MultiPolygon", "coordinates": [[[[113.8561022, 22.7675553], [113.856108, 22.7671825], [113.8562402, 22.7671842], [113.8562345, 22.7675571], [113.8561022, 22.7675553]]]]}}, {"type": "Feature", "id": "way/1448540061", "properties": {"tags": {"addr:housename": "汇智时代广场", "addr:housename:en": "Huizhi Times Square", "addr:housename:zh": "汇智时代广场", "building": "commercial", "name": "A座", "name:en": "Block A", "name:zh": "A座"}, "heightStatus": "unknown", "source": "OpenStreetMap", "license": "ODbL-1.0"}, "geometry": {"type": "MultiPolygon", "coordinates": [[[[113.8556689, 22.7679113], [113.855672, 22.7677094], [113.8562492, 22.7677169], [113.8562461, 22.7679189], [113.8556689, 22.7679113]]]]}}]}