{"type": "FeatureCollection", "features": [{"type": "Feature", "id": "way/1365534871", "properties": {"tags": {"building": "yes"}, "heightStatus": "unknown", "source": "OpenStreetMap", "license": "ODbL-1.0"}, "geometry": {"type": "MultiPolygon", "coordinates": [[[[113.8428097, 22.7020886], [113.8430394, 22.7019861], [113.8432955, 22.7024742], [113.8430657, 22.7025768], [113.8428097, 22.7020886]]]]}}, {"type": "Feature", "id": "way/1365534872", "properties": {"tags": {"building": "yes"}, "heightStatus": "unknown", "source": "OpenStreetMap", "license": "ODbL-1.0"}, "geometry": {"type": "MultiPolygon", "coordinates": [[[[113.8433803, 22.7031983], [113.8435458, 22.7031338], [113.8437355, 22.7035485], [113.84357, 22.703613], [113.8433803, 22.7031983]]]]}}, {"type": "Feature", "id": "way/1365534873", "properties": {"tags": {"building": "yes"}, "heightStatus": "unknown", "source": "OpenStreetMap", "license": "ODbL-1.0"}, "geometry": {"type": "MultiPolygon", "coordinates": [[[[113.843109, 22.7026809], [113.8433391, 22.7025845], [113.8435477, 22.7030079], [113.8433177, 22.7031043], [113.843109, 22.7026809]]]]}}, {"type": "Feature", "id": "way/1365534874", "properties": {"tags": {"building": "yes"}, "heightStatus": "unknown", "source": "OpenStreetMap", "license": "ODbL-1.0"}, "geometry": {"type": "MultiPolygon", "coordinates": [[[[113.8453411, 22.7031651], [113.8453421, 22.7029262], [113.8454282, 22.7029265], [113.8454273, 22.7031653], [113.8453411, 22.7031651]]]]}}, {"type": "Feature", "id": "way/1365534875", "properties": {"tags": {"building": "yes"}, "heightStatus": "unknown", "source": "OpenStreetMap", "license": "ODbL-1.0"}, "geometry": {"type": "MultiPolygon", "coordinates": [[[[113.8462624, 22.7027489], [113.8462647, 22.7026289], [113.846714, 22.7026363], [113.8467117, 22.7027564], [113.8462624, 22.7027489]]]]}}, {"type": "Feature", "id": "way/1365534876", "properties": {"tags": {"building": "yes"}, "heightStatus": "unknown", "source": "OpenStreetMap", "license": "ODbL-1.0"}, "geometry": {"type": "MultiPolygon", "coordinates": [[[[113.8450956, 22.7027279], [113.8450991, 22.7025104], [113.8459225, 22.7025215], [113.8459191, 22.702739], [113.8450956, 22.7027279]]]]}}, {"type": "Feature", "id": "way/1365534877", "properties": {"tags": {"building": "yes"}, "heightStatus": "unknown", "source": "OpenStreetMap", "license": "ODbL-1.0"}, "geometry": {"type": "MultiPolygon", "coordinates": [[[[113.8458856, 22.7048017], [113.8459387, 22.7046023], [113.845983, 22.7046123], [113.8459299, 22.7048118], [113.8458856, 22.7048017]]]]}}, {"type": "Feature", "id": "way/1365534878", "properties": {"tags": {"building": "yes"}, "heightStatus": "unknown", "source": "OpenStreetMap", "license": "ODbL-1.0"}, "geometry": {"type": "MultiPolygon", "coordinates": [[[[113.8452458, 22.7044002], [113.8452471, 22.704321], [113.8456515, 22.7043267], [113.8456502, 22.7044059], [113.8452458, 22.7044002]]]]}}, {"type": "Feature", "id": "way/1446415808", "properties": {"tags": {"building": "construction", "construction": "apartments"}, "heightStatus": "unknown", "source": "OpenStreetMap", "license": "ODbL-1.0"}, "geometry": {"type": "MultiPolygon", "coordinates": [[[[113.8495198, 22.7020905], [113.8499102, 22.7019002], [113.849984, 22.7020292], [113.8495937, 22.7022194], [113.8495198, 22.7020905]]]]}}, {"type": "Feature", "id": "relation/19776441", "properties": {"tags": {"building": "construction", "construction": "industrial"}, "heightStatus": "unknown", "source": "OpenStreetMap", "license": "ODbL-1.0"}, "geometry": {"type": "MultiPolygon", "coordinates": [[[[113.8483319, 22.7026486], [113.8486731, 22.7024824], [113.848715, 22.7025555], [113.8490408, 22.7023968], [113.8492436, 22.702751], [113.849319, 22.7027143], [113.8495798, 22.7031696], [113.8488039, 22.7035477], [113.8486526, 22.7032835], [113.8485758, 22.7030745], [113.8483319, 22.7026486]], [[113.8488058, 22.7029327], [113.8489412, 22.7031691], [113.8491377, 22.7030733], [113.8490024, 22.7028369], [113.8488058, 22.7029327]]]]}}, {"type": "Feature", "id": "relation/19776440", "properties": {"tags": {"building": "construction"}, "heightStatus": "unknown", "source": "OpenStreetMap", "license": "ODbL-1.0"}, "geometry": {"type": "MultiPolygon", "coordinates": [[[[113.848866, 22.7040245], [113.8490428, 22.7039384], [113.8489662, 22.7038046], [113.849557, 22.7035167], [113.8495896, 22.7035737], [113.8497684, 22.7034865], [113.8500029, 22.7038961], [113.8498274, 22.7039816], [113.8498752, 22.7040651], [113.8491043, 22.7044407], [113.848866, 22.7040245]], [[113.8492991, 22.7038373], [113.8494171, 22.7040434], [113.8496351, 22.7039371], [113.8495171, 22.703731], [113.8492991, 22.7038373]]]]}}, {"type": "Feature", "id": "way/1446415815", "properties": {"tags": {"addr:housename": "新桥东先进制造产业园", "addr:housename:en": "Hengchang Rong High‑tech Industrial Park", "addr:housename:zh": "新桥东先进制造产业园", "building": "terrace", "building:levels": "21", "name": "2栋", "name:en": "Block 2", "name:zh": "2栋"}, "heightStatus": "levels_only_unverified", "source": "OpenStreetMap", "license": "ODbL-1.0"}, "geometry": {"type": "MultiPolygon", "coordinates": [[[[113.8469712, 22.7038512], [113.8477025, 22.7034882], [113.847853, 22.7037462], [113.8477758, 22.7037845], [113.847822, 22.7038636], [113.847245, 22.70415], [113.8471989, 22.7040709], [113.8471217, 22.7041092], [113.8469712, 22.7038512]]]]}}, {"type": "Feature", "id": "way/1446415816", "properties": {"tags": {"addr:housename": "新桥东先进制造产业园", "addr:housename:en": "Hengchang Rong High‑tech Industrial Park", "addr:housename:zh": "新桥东先进制造产业园", "building": "terrace", "building:levels": "15", "name": "1B栋", "name:en": "Block 1B", "name:zh": "1B栋"}, "heightStatus": "levels_only_unverified", "source": "OpenStreetMap", "license": "ODbL-1.0"}, "geometry": {"type": "MultiPolygon", "coordinates": [[[[113.8475057, 22.7047412], [113.8482286, 22.7043823], [113.8484317, 22.7047306], [113.8477088, 22.7050894], [113.8475057, 22.7047412]]]]}}, {"type": "Feature", "id": "way/1446415817", "properties": {"tags": {"addr:housename": "新桥东先进制造产业园", "addr:housename:en": "Hengchang Rong High‑tech Industrial Park", "addr:housename:zh": "新桥东先进制造产业园", "building": "terrace", "building:levels": "12", "name": "1A栋", "name:en": "Block 1A", "name:zh": "1A栋"}, "heightStatus": "levels_only_unverified", "source": "OpenStreetMap", "license": "ODbL-1.0"}, "geometry": {"type": "MultiPolygon", "coordinates": [[[[113.846382, 22.7050026], [113.846758, 22.704816], [113.8468936, 22.7050485], [113.8472727, 22.7048603], [113.8474759, 22.7052085], [113.8467207, 22.7055833], [113.846382, 22.7050026]]]]}}, {"type": "Feature", "id": "way/1446424653", "properties": {"tags": {"building": "industrial"}, "heightStatus": "unknown", "source": "OpenStreetMap", "license": "ODbL-1.0"}, "geometry": {"type": "MultiPolygon", "coordinates": [[[[113.8423779, 22.7037622], [113.8427436, 22.7035367], [113.8428027, 22.7036184], [113.8425246, 22.7037899], [113.8425771, 22.7038624], [113.8428553, 22.7036909], [113.8429145, 22.7037726], [113.8426363, 22.7039441], [113.8426979, 22.7040291], [113.8429761, 22.7038576], [113.8430264, 22.7039271], [113.8426607, 22.7041525], [113.8423779, 22.7037622]]]]}}, {"type": "Feature", "id": "way/1446424654", "properties": {"tags": {"building": "industrial"}, "heightStatus": "unknown", "source": "OpenStreetMap", "license": "ODbL-1.0"}, "geometry": {"type": "MultiPolygon", "coordinates": [[[[113.8426727, 22.7045581], [113.8429699, 22.7044148], [113.8430693, 22.7043668], [113.8431203, 22.7044567], [113.8427237, 22.7046481], [113.8426727, 22.7045581]]]]}}, {"type": "Feature", "id": "way/1446424655", "properties": {"tags": {"building": "industrial"}, "heightStatus": "unknown", "source": "OpenStreetMap", "license": "ODbL-1.0"}, "geometry": {"type": "MultiPolygon", "coordinates": [[[[113.8421054, 22.7047385], [113.8425331, 22.7045321], [113.8426269, 22.7046976], [113.8421992, 22.704904], [113.8421054, 22.7047385]]]]}}, {"type": "Feature", "id": "way/1446424656", "properties": {"tags": {"building": "industrial"}, "heightStatus": "unknown", "source": "OpenStreetMap", "license": "ODbL-1.0"}, "geometry": {"type": "MultiPolygon", "coordinates": [[[[113.8415724, 22.7049599], [113.842, 22.7047535], [113.8421066, 22.7049414], [113.8416789, 22.7051478], [113.8415724, 22.7049599]]]]}}, {"type": "Feature", "id": "way/1446424657", "properties": {"tags": {"building": "industrial"}, "heightStatus": "unknown", "source": "OpenStreetMap", "license": "ODbL-1.0"}, "geometry": {"type": "MultiPolygon", "coordinates": [[[[113.8408707, 22.7047429], [113.8412738, 22.7044944], [113.8413274, 22.7045683], [113.8409242, 22.7048169], [113.8408707, 22.7047429]]]]}}, {"type": "Feature", "id": "way/1446424658", "properties": {"tags": {"building": "industrial"}, "heightStatus": "unknown", "source": "OpenStreetMap", "license": "ODbL-1.0"}, "geometry": {"type": "MultiPolygon", "coordinates": [[[[113.841896, 22.7040593], [113.8422683, 22.7038298], [113.8425511, 22.7042201], [113.8424637, 22.704274], [113.8422332, 22.7039559], [113.8419484, 22.7041315], [113.841896, 22.7040593]]]]}}, {"type": "Feature", "id": "way/1446424659", "properties": {"tags": {"building": "industrial"}, "heightStatus": "unknown", "source": "OpenStreetMap", "license": "ODbL-1.0"}, "geometry": {"type": "MultiPolygon", "coordinates": [[[[113.84137, 22.7043758], [113.8417322, 22.7041526], [113.8419065, 22.7043932], [113.8415444, 22.7046164], [113.8414853, 22.7045349], [113.8417624, 22.7043641], [113.8417082, 22.7042892], [113.8414311, 22.7044601], [113.84137, 22.7043758]]]]}}, {"type": "Feature", "id": "way/1446424662", "properties": {"tags": {"building": "industrial"}, "heightStatus": "unknown", "source": "OpenStreetMap", "license": "ODbL-1.0"}, "geometry": {"type": "MultiPolygon", "coordinates": [[[[113.8400121, 22.7044073], [113.8403844, 22.7041778], [113.8405078, 22.704348], [113.8401355, 22.7045776], [113.8400121, 22.7044073]]]]}}, {"type": "Feature", "id": "way/1446424663", "properties": {"tags": {"building": "industrial"}, "heightStatus": "unknown", "source": "OpenStreetMap", "license": "ODbL-1.0"}, "geometry": {"type": "MultiPolygon", "coordinates": [[[[113.841155, 22.7040884], [113.8415273, 22.7038588], [113.8416506, 22.7040291], [113.8412783, 22.7042586], [113.841155, 22.7040884]]]]}}, {"type": "Feature", "id": "way/1446424664", "properties": {"tags": {"building": "industrial"}, "heightStatus": "unknown", "source": "OpenStreetMap", "license": "ODbL-1.0"}, "geometry": {"type": "MultiPolygon", "coordinates": [[[[113.8409667, 22.7038285], [113.841339, 22.7035989], [113.8414623, 22.7037692], [113.8410901, 22.7039988], [113.8409667, 22.7038285]]]]}}, {"type": "Feature", "id": "way/1446424665", "properties": {"tags": {"building": "industrial"}, "heightStatus": "unknown", "source": "OpenStreetMap", "license": "ODbL-1.0"}, "geometry": {"type": "MultiPolygon", "coordinates": [[[[113.8405901, 22.7033087], [113.8409624, 22.7030792], [113.8410858, 22.7032494], [113.8407135, 22.703479], [113.8405901, 22.7033087]]]]}}, {"type": "Feature", "id": "way/1446424666", "properties": {"tags": {"building": "industrial"}, "heightStatus": "unknown", "source": "OpenStreetMap", "license": "ODbL-1.0"}, "geometry": {"type": "MultiPolygon", "coordinates": [[[[113.8404797, 22.7041228], [113.8408519, 22.7038933], [113.8409753, 22.7040635], [113.840603, 22.7042931], [113.8404797, 22.7041228]]]]}}, {"type": "Feature", "id": "way/1446424667", "properties": {"tags": {"building": "industrial"}, "heightStatus": "unknown", "source": "OpenStreetMap", "license": "ODbL-1.0"}, "geometry": {"type": "MultiPolygon", "coordinates": [[[[113.8407784, 22.7035686], [113.8411507, 22.7033391], [113.841274, 22.7035093], [113.8409018, 22.7037389], [113.8407784, 22.7035686]]]]}}, {"type": "Feature", "id": "way/1446424668", "properties": {"tags": {"building": "industrial"}, "heightStatus": "unknown", "source": "OpenStreetMap", "license": "ODbL-1.0"}, "geometry": {"type": "MultiPolygon", "coordinates": [[[[113.8401031, 22.703603], [113.8404754, 22.7033735], [113.8405987, 22.7035438], [113.8402264, 22.7037733], [113.8401031, 22.703603]]]]}}, {"type": "Feature", "id": "way/1446424669", "properties": {"tags": {"building": "industrial"}, "heightStatus": "unknown", "source": "OpenStreetMap", "license": "ODbL-1.0"}, "geometry": {"type": "MultiPolygon", "coordinates": [[[[113.8402914, 22.7038629], [113.8406637, 22.7036334], [113.840787, 22.7038037], [113.8404147, 22.7040332], [113.8402914, 22.7038629]]]]}}, {"type": "Feature", "id": "way/1446424670", "properties": {"tags": {"building": "industrial"}, "heightStatus": "unknown", "source": "OpenStreetMap", "license": "ODbL-1.0"}, "geometry": {"type": "MultiPolygon", "coordinates": [[[[113.8421678, 22.7034678], [113.84254, 22.7032382], [113.8426634, 22.7034085], [113.8422911, 22.703638], [113.8421678, 22.7034678]]]]}}, {"type": "Feature", "id": "way/1446424671", "properties": {"tags": {"building": "industrial"}, "heightStatus": "unknown", "source": "OpenStreetMap", "license": "ODbL-1.0"}, "geometry": {"type": "MultiPolygon", "coordinates": [[[[113.8419795, 22.7032079], [113.8423518, 22.7029783], [113.8424751, 22.7031486], [113.8421028, 22.7033781], [113.8419795, 22.7032079]]]]}}, {"type": "Feature", "id": "way/1446424672", "properties": {"tags": {"building": "industrial"}, "heightStatus": "unknown", "source": "OpenStreetMap", "license": "ODbL-1.0"}, "geometry": {"type": "MultiPolygon", "coordinates": [[[[113.8416029, 22.7026881], [113.8419752, 22.7024585], [113.8420985, 22.7026288], [113.8417262, 22.7028584], [113.8416029, 22.7026881]]]]}}, {"type": "Feature", "id": "way/1446424673", "properties": {"tags": {"building": "industrial"}, "heightStatus": "unknown", "source": "OpenStreetMap", "license": "ODbL-1.0"}, "geometry": {"type": "MultiPolygon", "coordinates": [[[[113.8417912, 22.702948], [113.8421635, 22.7027184], [113.8422868, 22.7028887], [113.8419145, 22.7031182], [113.8417912, 22.702948]]]]}}, {"type": "Feature", "id": "way/1446424674", "properties": {"tags": {"building": "industrial"}, "heightStatus": "unknown", "source": "OpenStreetMap", "license": "ODbL-1.0"}, "geometry": {"type": "MultiPolygon", "coordinates": [[[[113.8411158, 22.7029824], [113.8414881, 22.7027529], [113.8416115, 22.7029231], [113.8412392, 22.7031527], [113.8411158, 22.7029824]]]]}}, {"type": "Feature", "id": "way/1446424675", "properties": {"tags": {"building": "industrial"}, "heightStatus": "unknown", "source": "OpenStreetMap", "license": "ODbL-1.0"}, "geometry": {"type": "MultiPolygon", "coordinates": [[[[113.8413041, 22.7032423], [113.8416764, 22.7030128], [113.8417998, 22.703183], [113.8414275, 22.7034126], [113.8413041, 22.7032423]]]]}}, {"type": "Feature", "id": "way/1446424676", "properties": {"tags": {"building": "industrial"}, "heightStatus": "unknown", "source": "OpenStreetMap", "license": "ODbL-1.0"}, "geometry": {"type": "MultiPolygon", "coordinates": [[[[113.8416807, 22.7037621], [113.842053, 22.7035326], [113.8421764, 22.7037028], [113.8418041, 22.7039324], [113.8416807, 22.7037621]]]]}}, {"type": "Feature", "id": "way/1446424677", "properties": {"tags": {"building": "industrial"}, "heightStatus": "unknown", "source": "OpenStreetMap", "license": "ODbL-1.0"}, "geometry": {"type": "MultiPolygon", "coordinates": [[[[113.8414924, 22.7035022], [113.8418647, 22.7032727], [113.8419881, 22.7034429], [113.8416158, 22.7036725], [113.8414924, 22.7035022]]]]}}, {"type": "Feature", "id": "way/1447983906", "properties": {"tags": {"building": "industrial"}, "heightStatus": "unknown", "source": "OpenStreetMap", "license": "ODbL-1.0"}, "geometry": {"type": "MultiPolygon", "coordinates": [[[[113.8408125, 22.7001523], [113.8410491, 22.7000072], [113.8411463, 22.7001419], [113.8409096, 22.7002871], [113.8408125, 22.7001523]]]]}}, {"type": "Feature", "id": "way/1447983907", "properties": {"tags": {"building": "industrial"}, "heightStatus": "unknown", "source": "OpenStreetMap", "license": "ODbL-1.0"}, "geometry": {"type": "MultiPolygon", "coordinates": [[[[113.8403207, 22.700454], [113.8407505, 22.7001904], [113.8408476, 22.7003251], [113.8404179, 22.7005888], [113.8403207, 22.700454]]]]}}, {"type": "Feature", "id": "way/1447983913", "properties": {"tags": {"building": "industrial"}, "heightStatus": "unknown", "source": "OpenStreetMap", "license": "ODbL-1.0"}, "geometry": {"type": "MultiPolygon", "coordinates": [[[[113.8413405, 22.7021353], [113.8418381, 22.7018301], [113.8419065, 22.701925], [113.841409, 22.7022302], [113.8413405, 22.7021353]]]]}}, {"type": "Feature", "id": "way/1447983914", "properties": {"tags": {"building": "industrial"}, "heightStatus": "unknown", "source": "OpenStreetMap", "license": "ODbL-1.0"}, "geometry": {"type": "MultiPolygon", "coordinates": [[[[113.8400725, 22.7009428], [113.8408978, 22.7004364], [113.8410984, 22.7007147], [113.8402731, 22.701221], [113.8400725, 22.7009428]]]]}}, {"type": "Feature", "id": "way/1447983916", "properties": {"tags": {"building": "industrial"}, "heightStatus": "unknown", "source": "OpenStreetMap", "license": "ODbL-1.0"}, "geometry": {"type": "MultiPolygon", "coordinates": [[[[113.8403165, 22.701285], [113.8411418, 22.7007787], [113.8412926, 22.7009878], [113.8407188, 22.7013398], [113.8412648, 22.7020973], [113.8410133, 22.7022516], [113.8403165, 22.701285]]]]}}, {"type": "Feature", "id": "way/1447983917", "properties": {"tags": {"building": "industrial"}, "heightStatus": "unknown", "source": "OpenStreetMap", "license": "ODbL-1.0"}, "geometry": {"type": "MultiPolygon", "coordinates": [[[[113.8405141, 22.7026705], [113.8409639, 22.7023946], [113.8410311, 22.7024878], [113.8405813, 22.7027637], [113.8405141, 22.7026705]]]]}}, {"type": "Feature", "id": "way/1447983918", "properties": {"tags": {"building": "industrial"}, "heightStatus": "unknown", "source": "OpenStreetMap", "license": "ODbL-1.0"}, "geometry": {"type": "MultiPolygon", "coordinates": [[[[113.8401179, 22.7027083], [113.8402969, 22.7025985], [113.8403527, 22.7026758], [113.8401737, 22.7027857], [113.8401179, 22.7027083]]]]}}, {"type": "Feature", "id": "way/1447983920", "properties": {"tags": {"building": "industrial"}, "heightStatus": "unknown", "source": "OpenStreetMap", "license": "ODbL-1.0"}, "geometry": {"type": "MultiPolygon", "coordinates": [[[[113.840245, 22.7022914], [113.8407001, 22.7020122], [113.8408247, 22.702185], [113.8403696, 22.7024642], [113.840245, 22.7022914]]]]}}, {"type": "Feature", "id": "way/1447983921", "properties": {"tags": {"building": "industrial"}, "heightStatus": "unknown", "source": "OpenStreetMap", "license": "ODbL-1.0"}, "geometry": {"type": "MultiPolygon", "coordinates": [[[[113.8400524, 22.7019911], [113.8405075, 22.7017119], [113.8406321, 22.7018848], [113.840177, 22.702164], [113.8400524, 22.7019911]]]]}}, {"type": "Feature", "id": "way/1447983942", "properties": {"tags": {"building": "industrial"}, "heightStatus": "unknown", "source": "OpenStreetMap", "license": "ODbL-1.0"}, "geometry": {"type": "MultiPolygon", "coordinates": [[[[113.8401618, 22.6996797], [113.8402993, 22.6995989], [113.84025, 22.6995274], [113.8405627, 22.6993437], [113.8409715, 22.6999357], [113.8405212, 22.7002003], [113.8401618, 22.6996797]]]]}}, {"type": "Feature", "id": "way/1454830504", "properties": {"tags": {"addr:housenumber": "3号", "addr:street": "南浦路", "building": "apartments"}, "heightStatus": "unknown", "source": "OpenStreetMap", "license": "ODbL-1.0"}, "geometry": {"type": "MultiPolygon", "coordinates": [[[[113.8439908, 22.7060578], [113.8442235, 22.705998], [113.8443553, 22.7064344], [113.8441227, 22.7064943], [113.8439908, 22.7060578]]]]}}]}