{"type": "FeatureCollection", "features": [{"type": "Feature", "id": "way/316865175", "properties": {"tags": {"barrier": "toll_booth", "building": "yes", "layer": "1", "name": "新桥收费站", "name:en": "Xinqiao Toll Gate", "name:zh": "新桥收费站"}, "heightStatus": "unknown", "source": "OpenStreetMap", "license": "ODbL-1.0"}, "geometry": {"type": "MultiPolygon", "coordinates": [[[[113.8464906, 22.7369796], [113.8465422, 22.7368096], [113.8474588, 22.737046], [113.8474073, 22.737216], [113.8464906, 22.7369796]]]]}}, {"type": "Feature", "id": "way/316865186", "properties": {"tags": {"barrier": "toll_booth", "building": "yes", "layer": "1", "name": "新桥收费站", "name:en": "Xinqiao Toll Gate", "name:zh": "新桥收费站"}, "heightStatus": "unknown", "source": "OpenStreetMap", "license": "ODbL-1.0"}, "geometry": {"type": "MultiPolygon", "coordinates": [[[[113.844404, 22.7357606], [113.8444539, 22.7355963], [113.8453677, 22.7358326], [113.8453178, 22.7359969], [113.844404, 22.7357606]]]]}}]}