{"type": "FeatureCollection", "features": [{"type": "Feature", "id": "way/1365534867", "properties": {"tags": {"building": "yes"}, "heightStatus": "unknown", "source": "OpenStreetMap", "license": "ODbL-1.0"}, "geometry": {"type": "MultiPolygon", "coordinates": [[[[113.843044, 22.7316109], [113.8435188, 22.7314699], [113.8435909, 22.7316765], [113.8431162, 22.7318175], [113.843044, 22.7316109]]]]}}, {"type": "Feature", "id": "way/1365534868", "properties": {"tags": {"building": "yes"}, "heightStatus": "unknown", "source": "OpenStreetMap", "license": "ODbL-1.0"}, "geometry": {"type": "MultiPolygon", "coordinates": [[[[113.8429648, 22.7327673], [113.8429782, 22.7323764], [113.8432369, 22.732384], [113.8432234, 22.7327749], [113.8429648, 22.7327673]]]]}}, {"type": "Feature", "id": "way/1365534869", "properties": {"tags": {"building": "yes"}, "heightStatus": "unknown", "source": "OpenStreetMap", "license": "ODbL-1.0"}, "geometry": {"type": "MultiPolygon", "coordinates": [[[[113.8429546, 22.7332197], [113.8429895, 22.7328338], [113.8432208, 22.7328515], [113.8431859, 22.7332375], [113.8429546, 22.7332197]]]]}}, {"type": "Feature", "id": "way/1365534870", "properties": {"tags": {"building": "yes"}, "heightStatus": "unknown", "source": "OpenStreetMap", "license": "ODbL-1.0"}, "geometry": {"type": "MultiPolygon", "coordinates": [[[[113.8429305, 22.7337043], [113.8429466, 22.7333159], [113.8431779, 22.733324], [113.8431618, 22.7337124], [113.8429305, 22.7337043]]]]}}]}