{"type": "FeatureCollection", "features": [{"type": "Feature", "id": "way/1436119307", "properties": {"tags": {"building": "industrial"}, "heightStatus": "unknown", "source": "OpenStreetMap", "license": "ODbL-1.0"}, "geometry": {"type": "MultiPolygon", "coordinates": [[[[113.8473172, 22.5981687], [113.8473715, 22.5980019], [113.8476866, 22.5980893], [113.84752, 22.5986011], [113.8474157, 22.5985722], [113.8475281, 22.5982272], [113.8473172, 22.5981687]]]]}}, {"type": "Feature", "id": "way/1436119308", "properties": {"tags": {"building": "industrial"}, "heightStatus": "unknown", "source": "OpenStreetMap", "license": "ODbL-1.0"}, "geometry": {"type": "MultiPolygon", "coordinates": [[[[113.8470872, 22.5986759], [113.8471153, 22.5985895], [113.8474891, 22.5986933], [113.8474097, 22.5989373], [113.8473046, 22.5989081], [113.8473559, 22.5987505], [113.8470872, 22.5986759]]]]}}, {"type": "Feature", "id": "way/1436119309", "properties": {"tags": {"building": "industrial"}, "heightStatus": "unknown", "source": "OpenStreetMap", "license": "ODbL-1.0"}, "geometry": {"type": "MultiPolygon", "coordinates": [[[[113.8461363, 22.5989783], [113.8469839, 22.5986688], [113.8470234, 22.598761], [113.8461758, 22.5990705], [113.8461363, 22.5989783]]]]}}, {"type": "Feature", "id": "way/1436119310", "properties": {"tags": {"building": "industrial"}, "heightStatus": "unknown", "source": "OpenStreetMap", "license": "ODbL-1.0"}, "geometry": {"type": "MultiPolygon", "coordinates": [[[[113.8467827, 22.5984434], [113.8470598, 22.5977115], [113.847287, 22.5977848], [113.84701, 22.5985167], [113.8467827, 22.5984434]]]]}}, {"type": "Feature", "id": "way/1436119311", "properties": {"tags": {"building": "industrial"}, "heightStatus": "unknown", "source": "OpenStreetMap", "license": "ODbL-1.0"}, "geometry": {"type": "MultiPolygon", "coordinates": [[[[113.8462275, 22.5986168], [113.8466973, 22.5973754], [113.84692, 22.5974472], [113.8464501, 22.5986886], [113.8462275, 22.5986168]]]]}}, {"type": "Feature", "id": "way/1436592127", "properties": {"tags": {"addr:housename": "固戍花园", "addr:housename:en": "Gushu Garden", "addr:housename:zh": "固戍花园", "building": "apartments", "building:levels": "13", "name": "15栋", "name:en": "Block 15", "name:zh": "15栋", "name:zh-Hans": "15栋", "name:zh-Hant": "15棟"}, "heightStatus": "levels_only_unverified", "source": "OpenStreetMap", "license": "ODbL-1.0"}, "geometry": {"type": "MultiPolygon", "coordinates": [[[[113.8402541, 22.5937259], [113.8402896, 22.593655], [113.8403603, 22.5936852], [113.8403832, 22.5936396], [113.8403614, 22.5936303], [113.8404011, 22.593551], [113.8404408, 22.5935679], [113.840447, 22.5935556], [113.840565, 22.5936063], [113.8405589, 22.5936183], [113.8406434, 22.5936544], [113.8406036, 22.5937339], [113.8405366, 22.5937052], [113.8405136, 22.593751], [113.8406185, 22.5937957], [113.840583, 22.5938666], [113.8404604, 22.5938142], [113.8404526, 22.5938298], [113.8403345, 22.5937793], [113.8403424, 22.5937636], [113.8402541, 22.5937259]]]]}}, {"type": "Feature", "id": "way/1436592128", "properties": {"tags": {"addr:housename": "固戍花园", "addr:housename:en": "Gushu Garden", "addr:housename:zh": "固戍花园", "building": "apartments", "building:levels": "13", "name": "南1栋", "name:en": "South Block 1", "name:zh": "南1栋"}, "heightStatus": "levels_only_unverified", "source": "OpenStreetMap", "license": "ODbL-1.0"}, "geometry": {"type": "MultiPolygon", "coordinates": [[[[113.8402881, 22.5928493], [113.840307, 22.592793], [113.840293, 22.592789], [113.8403315, 22.5926742], [113.8403453, 22.5926782], [113.8403664, 22.5926153], [113.840457, 22.5926411], [113.8404416, 22.5926871], [113.8404696, 22.5926951], [113.840485, 22.5926491], [113.8405597, 22.5926705], [113.8405386, 22.5927333], [113.8405566, 22.5927384], [113.8405181, 22.5928532], [113.8405002, 22.5928481], [113.8404706, 22.5929363], [113.8403959, 22.5929149], [113.8404196, 22.5928442], [113.8403916, 22.5928362], [113.8403785, 22.5928752], [113.8402881, 22.5928493]]]]}}, {"type": "Feature", "id": "way/1436592129", "properties": {"tags": {"addr:housename": "固戍花园", "addr:housename:en": "Gushu Garden", "addr:housename:zh": "固戍花园", "building": "apartments", "building:levels": "13", "name": "南2栋", "name:en": "South Block 2", "name:zh": "南2栋"}, "heightStatus": "levels_only_unverified", "source": "OpenStreetMap", "license": "ODbL-1.0"}, "geometry": {"type": "MultiPolygon", "coordinates": [[[[113.8401882, 22.5931468], [113.8402093, 22.5930839], [113.8401955, 22.59308], [113.840234, 22.5929652], [113.8402479, 22.5929692], [113.8402668, 22.5929128], [113.8403572, 22.5929387], [113.8403441, 22.5929777], [113.8403722, 22.5929857], [113.8403959, 22.5929149], [113.8404706, 22.5929363], [113.840441, 22.5930245], [113.840459, 22.5930296], [113.8404205, 22.5931444], [113.8404026, 22.5931393], [113.8403815, 22.5932021], [113.8403068, 22.5931807], [113.8403222, 22.5931348], [113.8402942, 22.5931268], [113.8402788, 22.5931727], [113.8401882, 22.5931468]]]]}}, {"type": "Feature", "id": "way/1436612995", "properties": {"tags": {"addr:housename": "华万工业园", "addr:housename:en": "Huwan Industrial Park", "addr:housename:zh": "华万工业园", "building": "industrial", "name": "E栋", "name:en": "Block E", "name:zh": "E栋"}, "heightStatus": "unknown", "source": "OpenStreetMap", "license": "ODbL-1.0"}, "geometry": {"type": "MultiPolygon", "coordinates": [[[[113.848811, 22.5915287], [113.8489228, 22.5914197], [113.8488872, 22.5913886], [113.8489611, 22.5913166], [113.8490663, 22.5914086], [113.8488805, 22.5915895], [113.848811, 22.5915287]]]]}}, {"type": "Feature", "id": "way/1436612997", "properties": {"tags": {"building": "apartments"}, "heightStatus": "unknown", "source": "OpenStreetMap", "license": "ODbL-1.0"}, "geometry": {"type": "MultiPolygon", "coordinates": [[[[113.8491677, 22.5904884], [113.8491826, 22.5903393], [113.8496287, 22.5903775], [113.8496137, 22.5905265], [113.8491677, 22.5904884]]]]}}, {"type": "Feature", "id": "way/1436612998", "properties": {"tags": {"building": "apartments"}, "heightStatus": "unknown", "source": "OpenStreetMap", "license": "ODbL-1.0"}, "geometry": {"type": "MultiPolygon", "coordinates": [[[[113.8490088, 22.5906896], [113.849016, 22.5906185], [113.8490547, 22.5906218], [113.8490579, 22.5905901], [113.8492814, 22.5906092], [113.8492782, 22.5906409], [113.849317, 22.5906442], [113.8493099, 22.5907153], [113.8490088, 22.5906896]]]]}}, {"type": "Feature", "id": "way/1436612999", "properties": {"tags": {"addr:housename": "华万工业园", "addr:housename:en": "Huwan Industrial Park", "addr:housename:zh": "华万工业园", "building": "industrial", "name": "D栋", "name:en": "Block D", "name:zh": "D栋"}, "heightStatus": "unknown", "source": "OpenStreetMap", "license": "ODbL-1.0"}, "geometry": {"type": "MultiPolygon", "coordinates": [[[[113.8490277, 22.5911667], [113.8490365, 22.5910789], [113.8494611, 22.5906616], [113.8495833, 22.5906721], [113.8495744, 22.5907599], [113.8491498, 22.5911771], [113.8490277, 22.5911667]]]]}}, {"type": "Feature", "id": "way/1436613000", "properties": {"tags": {"addr:housename": "华万工业园", "addr:housename:en": "Huwan Industrial Park", "addr:housename:zh": "华万工业园", "building": "industrial", "name": "F栋", "name:en": "Block F", "name:zh": "F栋"}, "heightStatus": "unknown", "source": "OpenStreetMap", "license": "ODbL-1.0"}, "geometry": {"type": "MultiPolygon", "coordinates": [[[[113.8481895, 22.5903571], [113.8481995, 22.5902573], [113.8490933, 22.5903337], [113.8490833, 22.5904335], [113.8481895, 22.5903571]]]]}}, {"type": "Feature", "id": "way/1436613001", "properties": {"tags": {"addr:housename": "华万工业园", "addr:housename:en": "Huwan Industrial Park", "addr:housename:zh": "华万工业园", "building": "industrial", "name": "A栋", "name:en": "Block A", "name:zh": "A栋"}, "heightStatus": "unknown", "source": "OpenStreetMap", "license": "ODbL-1.0"}, "geometry": {"type": "MultiPolygon", "coordinates": [[[[113.8482144, 22.5906807], [113.8482325, 22.5904998], [113.8488573, 22.5905532], [113.8488392, 22.5907341], [113.8485771, 22.5907117], [113.8482853, 22.5906868], [113.8482144, 22.5906807]]]]}}, {"type": "Feature", "id": "way/1436613002", "properties": {"tags": {"addr:housename": "华万工业园", "addr:housename:en": "Huwan Industrial Park", "addr:housename:zh": "华万工业园", "building": "industrial", "name": "B栋", "name:en": "Block B", "name:zh": "B栋"}, "heightStatus": "unknown", "source": "OpenStreetMap", "license": "ODbL-1.0"}, "geometry": {"type": "MultiPolygon", "coordinates": [[[[113.8482286, 22.5912516], [113.8482853, 22.5906868], [113.8485771, 22.5907117], [113.8485205, 22.5912765], [113.8482286, 22.5912516]]]]}}, {"type": "Feature", "id": "way/1436613003", "properties": {"tags": {"addr:housename": "华万工业园", "addr:housename:en": "Huwan Industrial Park", "addr:housename:zh": "华万工业园", "building": "industrial", "name": "C栋", "name:en": "Block C", "name:zh": "C栋"}, "heightStatus": "unknown", "source": "OpenStreetMap", "license": "ODbL-1.0"}, "geometry": {"type": "MultiPolygon", "coordinates": [[[[113.8481413, 22.5914267], [113.8481594, 22.5912456], [113.8482286, 22.5912516], [113.8485205, 22.5912765], [113.8487842, 22.5912991], [113.8487661, 22.5914801], [113.8481413, 22.5914267]]]]}}, {"type": "Feature", "id": "way/1444637164", "properties": {"tags": {"addr:housename": "京基智农·山海上园", "addr:housename:en": "Kingkey Zhinong Shanhai Shangyuan", "addr:housename:zh": "京基智农·山海上园", "building": "apartments", "name": "5A栋", "name:en": "Block 5A", "name:zh": "5A栋"}, "heightStatus": "unknown", "source": "OpenStreetMap", "license": "ODbL-1.0"}, "geometry": {"type": "MultiPolygon", "coordinates": [[[[113.8494039, 22.5939182], [113.8494161, 22.5939165], [113.8494058, 22.5938543], [113.8494817, 22.5938436], [113.8494754, 22.5938056], [113.8494946, 22.5938029], [113.8494873, 22.593759], [113.8496399, 22.5937375], [113.8496472, 22.5937813], [113.8496664, 22.5937786], [113.8496779, 22.5938478], [113.849726, 22.593841], [113.8497394, 22.5939221], [113.8496627, 22.593933], [113.8496651, 22.5939475], [113.8496072, 22.5939557], [113.8496048, 22.5939412], [113.8495247, 22.5939525], [113.8495296, 22.5939818], [113.8495126, 22.5939842], [113.8495185, 22.5940197], [113.8494972, 22.5940228], [113.8495001, 22.5940405], [113.8494381, 22.5940493], [113.8494278, 22.5939871], [113.8494156, 22.5939888], [113.8494039, 22.5939182]]]]}}, {"type": "Feature", "id": "way/1444637165", "properties": {"tags": {"addr:housename": "京基智农·山海上园", "addr:housename:en": "Kingkey Zhinong Shanhai Shangyuan", "addr:housename:zh": "京基智农·山海上园", "building": "apartments", "name": "3A栋", "name:en": "Block 3A", "name:zh": "3A栋"}, "heightStatus": "unknown", "source": "OpenStreetMap", "license": "ODbL-1.0"}, "geometry": {"type": "MultiPolygon", "coordinates": [[[[113.8488242, 22.5944021], [113.8488281, 22.5943307], [113.8488405, 22.5943313], [113.8488439, 22.5942685], [113.8489206, 22.5942721], [113.8489227, 22.5942337], [113.8489421, 22.5942346], [113.8489446, 22.5941903], [113.8490987, 22.5941975], [113.8490963, 22.5942419], [113.8491157, 22.5942428], [113.8491119, 22.5943127], [113.8491545, 22.5943147], [113.849163, 22.5943761], [113.8491338, 22.5943747], [113.8491326, 22.5943958], [113.8490784, 22.5943933], [113.8490776, 22.5944079], [113.8490191, 22.5944052], [113.8490199, 22.5943905], [113.848939, 22.5943868], [113.8489373, 22.5944164], [113.8489202, 22.5944156], [113.8489182, 22.5944515], [113.8488967, 22.5944505], [113.8488957, 22.5944684], [113.8488331, 22.5944655], [113.8488365, 22.5944027], [113.8488242, 22.5944021]]]]}}, {"type": "Feature", "id": "way/1444637166", "properties": {"tags": {"addr:housename": "京基智农·山海上园", "addr:housename:en": "Kingkey Zhinong Shanhai Shangyuan", "addr:housename:zh": "京基智农·山海上园", "building": "apartments", "name": "5B栋", "name:en": "Block 5B", "name:zh": "5B栋"}, "heightStatus": "unknown", "source": "OpenStreetMap", "license": "ODbL-1.0"}, "geometry": {"type": "MultiPolygon", "coordinates": [[[[113.849726, 22.593841], [113.8497729, 22.5938344], [113.8497614, 22.5937652], [113.8497807, 22.5937625], [113.8497734, 22.5937186], [113.8499259, 22.593697], [113.8499332, 22.5937409], [113.8499525, 22.5937382], [113.8499588, 22.5937761], [113.8500346, 22.5937654], [113.8500449, 22.5938276], [113.8500572, 22.5938258], [113.8500689, 22.5938965], [113.8500567, 22.5938982], [113.850067, 22.5939604], [113.850005, 22.5939691], [113.850002, 22.5939514], [113.8499807, 22.5939544], [113.8499748, 22.5939189], [113.8499579, 22.5939213], [113.849953, 22.5938919], [113.8498729, 22.5939033], [113.8498753, 22.5939178], [113.8498174, 22.593926], [113.849815, 22.5939114], [113.8497394, 22.5939221], [113.849726, 22.593841]]]]}}, {"type": "Feature", "id": "way/1444637167", "properties": {"tags": {"building": "apartments"}, "heightStatus": "unknown", "source": "OpenStreetMap", "license": "ODbL-1.0"}, "geometry": {"type": "MultiPolygon", "coordinates": [[[[113.8487931, 22.5933508], [113.8488298, 22.5931874], [113.8488948, 22.5931998], [113.8488909, 22.5932174], [113.8489249, 22.5932239], [113.8489309, 22.5931969], [113.8489106, 22.593193], [113.8489201, 22.5931504], [113.8490748, 22.59318], [113.8490613, 22.5932401], [113.8490423, 22.5932364], [113.8490345, 22.5932708], [113.8491217, 22.5932875], [113.8491076, 22.5933503], [113.8490131, 22.5933323], [113.8490205, 22.5932993], [113.848974, 22.5933276], [113.848967, 22.5933587], [113.8489921, 22.5933635], [113.8489796, 22.593419], [113.8488884, 22.5934015], [113.8488994, 22.5933528], [113.8488621, 22.5933456], [113.8488582, 22.5933632], [113.8487931, 22.5933508]]]]}}, {"type": "Feature", "id": "way/1444637168", "properties": {"tags": {"building": "apartments"}, "heightStatus": "unknown", "source": "OpenStreetMap", "license": "ODbL-1.0"}, "geometry": {"type": "MultiPolygon", "coordinates": [[[[113.8484727, 22.5937391], [113.8485093, 22.5935757], [113.8485744, 22.5935881], [113.8485704, 22.5936057], [113.8486044, 22.5936122], [113.8486105, 22.5935852], [113.8485901, 22.5935813], [113.8485997, 22.5935387], [113.8487543, 22.5935683], [113.8487409, 22.5936284], [113.8487218, 22.5936247], [113.8487141, 22.5936591], [113.8488013, 22.5936758], [113.8487872, 22.5937386], [113.8486927, 22.5937206], [113.8487001, 22.5936876], [113.8486536, 22.5937159], [113.8486466, 22.593747], [113.8486716, 22.5937518], [113.8486592, 22.5938073], [113.848568, 22.5937898], [113.8485789, 22.5937411], [113.8485417, 22.5937339], [113.8485377, 22.5937515], [113.8484727, 22.5937391]]]]}}, {"type": "Feature", "id": "way/1444637169", "properties": {"tags": {"building": "apartments"}, "heightStatus": "unknown", "source": "OpenStreetMap", "license": "ODbL-1.0"}, "geometry": {"type": "MultiPolygon", "coordinates": [[[[113.8481482, 22.594144], [113.8481848, 22.5939806], [113.8482499, 22.593993], [113.8482459, 22.5940106], [113.8482799, 22.5940171], [113.848286, 22.5939901], [113.8482656, 22.5939862], [113.8482752, 22.5939436], [113.8484298, 22.5939732], [113.8484164, 22.5940332], [113.8483973, 22.5940296], [113.8483896, 22.594064], [113.8484768, 22.5940807], [113.8484627, 22.5941435], [113.8483682, 22.5941255], [113.8483756, 22.5940925], [113.8483291, 22.5941207], [113.8483221, 22.5941519], [113.8483471, 22.5941567], [113.8483347, 22.5942121], [113.8482435, 22.5941947], [113.8482545, 22.594146], [113.8482172, 22.5941388], [113.8482132, 22.5941564], [113.8481482, 22.594144]]]]}}, {"type": "Feature", "id": "way/1444637170", "properties": {"tags": {"addr:housename": "京基智农·山海上园", "addr:housename:en": "Kingkey Zhinong Shanhai Shangyuan", "addr:housename:zh": "京基智农·山海上园", "building": "apartments", "name": "2A栋", "name:en": "Block 2A", "name:zh": "2A栋"}, "heightStatus": "unknown", "source": "OpenStreetMap", "license": "ODbL-1.0"}, "geometry": {"type": "MultiPolygon", "coordinates": [[[[113.8490648, 22.5952599], [113.8491529, 22.5950856], [113.8492291, 22.5951185], [113.8492014, 22.5951734], [113.8492421, 22.5951909], [113.8492778, 22.5951203], [113.8492426, 22.5951052], [113.8492706, 22.5950498], [113.8494665, 22.5951342], [113.8494386, 22.5951896], [113.8494017, 22.5951737], [113.8493874, 22.595202], [113.8494634, 22.5952347], [113.8494298, 22.5953012], [113.8494079, 22.5952917], [113.8493961, 22.5953152], [113.8491773, 22.595221], [113.8491411, 22.5952928], [113.8490648, 22.5952599]]]]}}, {"type": "Feature", "id": "way/1444637171", "properties": {"tags": {"addr:housename": "京基智农·山海上园", "addr:housename:en": "Kingkey Zhinong Shanhai Shangyuan", "addr:housename:zh": "京基智农·山海上园", "building": "apartments", "name": "2B栋", "name:en": "Block 2B", "name:zh": "2B栋"}, "heightStatus": "unknown", "source": "OpenStreetMap", "license": "ODbL-1.0"}, "geometry": {"type": "MultiPolygon", "coordinates": [[[[113.8494298, 22.5953012], [113.8494634, 22.5952347], [113.8495394, 22.5952674], [113.8495537, 22.5952391], [113.8495168, 22.5952232], [113.8495447, 22.5951679], [113.8497407, 22.5952522], [113.8497127, 22.5953076], [113.8496776, 22.5952925], [113.8496667, 22.595314], [113.8497074, 22.5953315], [113.849715, 22.5953165], [113.8497681, 22.5953394], [113.8496749, 22.595524], [113.8495907, 22.5954878], [113.8496276, 22.5954149], [113.8494398, 22.5953341], [113.8494517, 22.5953106], [113.8494298, 22.5953012]]]]}}, {"type": "Feature", "id": "way/1444637172", "properties": {"tags": {"addr:housename": "京基智农·山海上园", "addr:housename:en": "Kingkey Zhinong Shanhai Shangyuan", "addr:housename:zh": "京基智农·山海上园", "building": "apartments", "name": "1B栋", "name:en": "Block 1B", "name:zh": "1B栋"}, "heightStatus": "unknown", "source": "OpenStreetMap", "license": "ODbL-1.0"}, "geometry": {"type": "MultiPolygon", "coordinates": [[[[113.8487314, 22.5948435], [113.8488146, 22.594834], [113.8488104, 22.594803], [113.84877, 22.5948077], [113.8487619, 22.594747], [113.8489765, 22.5947225], [113.8489846, 22.5947831], [113.8489462, 22.5947875], [113.8489493, 22.5948111], [113.8489939, 22.594806], [113.8489917, 22.5947896], [113.8490499, 22.5947829], [113.849077, 22.5949851], [113.8489848, 22.5949956], [113.8489741, 22.5949158], [113.8487686, 22.5949393], [113.8487651, 22.5949136], [113.8487411, 22.5949163], [113.8487314, 22.5948435]]]]}}, {"type": "Feature", "id": "way/1444637173", "properties": {"tags": {"addr:housename": "京基智农·山海上园", "addr:housename:en": "Kingkey Zhinong Shanhai Shangyuan", "addr:housename:zh": "京基智农·山海上园", "building": "apartments", "name": "1A栋", "name:en": "Block 1A", "name:zh": "1A栋"}, "heightStatus": "unknown", "source": "OpenStreetMap", "license": "ODbL-1.0"}, "geometry": {"type": "MultiPolygon", "coordinates": [[[[113.8484116, 22.5948939], [113.8484697, 22.5948872], [113.8484741, 22.5949199], [113.8485187, 22.5949148], [113.8485083, 22.5948376], [113.8484699, 22.594842], [113.8484618, 22.5947813], [113.8486763, 22.5947568], [113.8486844, 22.5948174], [113.848644, 22.5948221], [113.8486482, 22.594853], [113.8487314, 22.5948435], [113.8487411, 22.5949163], [113.8487172, 22.5949191], [113.8487206, 22.5949448], [113.8484811, 22.5949721], [113.8484887, 22.5950288], [113.8484305, 22.5950354], [113.8484116, 22.5948939]]]]}}, {"type": "Feature", "id": "way/1444637174", "properties": {"tags": {"addr:housename": "京基智农·山海上园", "addr:housename:en": "Kingkey Zhinong Shanhai Shangyuan", "addr:housename:zh": "京基智农·山海上园", "building": "apartments", "name": "3B栋", "name:en": "Block 3B", "name:zh": "3B栋"}, "heightStatus": "unknown", "source": "OpenStreetMap", "license": "ODbL-1.0"}, "geometry": {"type": "MultiPolygon", "coordinates": [[[[113.8491545, 22.5943147], [113.8491953, 22.5943029], [113.8491728, 22.5942361], [113.8491913, 22.5942308], [113.849177, 22.5941884], [113.8493244, 22.594146], [113.8493387, 22.5941883], [113.8493573, 22.594183], [113.8493696, 22.5942196], [113.8494429, 22.5941985], [113.8494632, 22.5942586], [113.849475, 22.5942552], [113.8494981, 22.5943234], [113.8494863, 22.5943268], [113.8495065, 22.5943868], [113.8494467, 22.5944041], [113.8494409, 22.5943869], [113.8494203, 22.5943928], [113.8494087, 22.5943585], [113.8493923, 22.5943633], [113.8493828, 22.5943349], [113.8493054, 22.5943572], [113.8493102, 22.5943712], [113.8492542, 22.5943873], [113.8492495, 22.5943733], [113.8491977, 22.5943882], [113.8491909, 22.594368], [113.849163, 22.5943761], [113.8491545, 22.5943147]]]]}}, {"type": "Feature", "id": "way/1444637175", "properties": {"tags": {"building": "apartments"}, "heightStatus": "unknown", "source": "OpenStreetMap", "license": "ODbL-1.0"}, "geometry": {"type": "MultiPolygon", "coordinates": [[[[113.8478103, 22.594437], [113.8478297, 22.5944366], [113.8478295, 22.5944273], [113.8479073, 22.5944259], [113.8479054, 22.5943393], [113.8480756, 22.5943361], [113.8480775, 22.5944227], [113.8481553, 22.5944212], [113.8481555, 22.5944305], [113.848175, 22.5944301], [113.8481783, 22.5945796], [113.8481588, 22.5945799], [113.848159, 22.5945874], [113.8480812, 22.5945888], [113.8480854, 22.594778], [113.8479152, 22.5947812], [113.847911, 22.594592], [113.8478332, 22.5945935], [113.847833, 22.5945861], [113.8478136, 22.5945864], [113.8478103, 22.594437]]]]}}, {"type": "Feature", "id": "way/1444637176", "properties": {"tags": {"addr:housename": "京基智农·山海公馆", "addr:housename:en": "Kingkey Hillside Mansion", "addr:housename:zh": "京基智农·山海公馆", "building": "apartments", "name": "C座", "name:en": "Block C", "name:zh": "C座"}, "heightStatus": "unknown", "source": "OpenStreetMap", "license": "ODbL-1.0"}, "geometry": {"type": "MultiPolygon", "coordinates": [[[[113.8495624, 22.5931586], [113.8495701, 22.5929217], [113.8496815, 22.5929248], [113.8496831, 22.5928756], [113.8497764, 22.5928782], [113.8497748, 22.5929274], [113.8498515, 22.5929296], [113.8498438, 22.5931665], [113.8497797, 22.5931647], [113.8497786, 22.5932], [113.8496141, 22.5931955], [113.8496153, 22.5931601], [113.8495624, 22.5931586]]]]}}, {"type": "Feature", "id": "way/1444637177", "properties": {"tags": {"addr:housename": "京基智农·山海公馆", "addr:housename:en": "Kingkey Hillside Mansion", "addr:housename:zh": "京基智农·山海公馆", "building": "apartments", "name": "D座", "name:en": "Block D", "name:zh": "D座"}, "heightStatus": "unknown", "source": "OpenStreetMap", "license": "ODbL-1.0"}, "geometry": {"type": "MultiPolygon", "coordinates": [[[[113.8491625, 22.5928226], [113.8493497, 22.5926288], [113.8495682, 22.5926349], [113.8495592, 22.5929094], [113.8492547, 22.5929009], [113.8491625, 22.5928226]]]]}}, {"type": "Feature", "id": "way/1444637179", "properties": {"tags": {"addr:housename": "京基智农·山海公馆", "addr:housename:en": "Kingkey Hillside Mansion", "addr:housename:zh": "京基智农·山海公馆", "building": "apartments", "name": "A座", "name:en": "Block A", "name:zh": "A座"}, "heightStatus": "unknown", "source": "OpenStreetMap", "license": "ODbL-1.0"}, "geometry": {"type": "MultiPolygon", "coordinates": [[[[113.8496199, 22.5925042], [113.8496252, 22.5923615], [113.8496852, 22.5923634], [113.8496871, 22.592314], [113.8497464, 22.5923159], [113.8497495, 22.5922325], [113.8498504, 22.5922357], [113.8498472, 22.5923242], [113.8498872, 22.5923255], [113.84988, 22.5925205], [113.8498399, 22.5925193], [113.8498353, 22.5926443], [113.8496783, 22.5926393], [113.8496812, 22.5925604], [113.8496563, 22.5925597], [113.8496583, 22.5925054], [113.8496199, 22.5925042]]]]}}]}