{"type": "FeatureCollection", "features": [{"type": "Feature", "id": "way/757855603", "properties": {"tags": {"building": "yes", "man_made": "works", "name": "Liangfeng molding trial"}, "heightStatus": "unknown", "source": "OpenStreetMap", "license": "ODbL-1.0"}, "geometry": {"type": "MultiPolygon", "coordinates": [[[[113.8451386, 22.7438939], [113.8456145, 22.7438155], [113.8456951, 22.7442319], [113.8452192, 22.7443102], [113.8451386, 22.7438939]]]]}}, {"type": "Feature", "id": "way/1365534921", "properties": {"tags": {"building": "yes"}, "heightStatus": "unknown", "source": "OpenStreetMap", "license": "ODbL-1.0"}, "geometry": {"type": "MultiPolygon", "coordinates": [[[[113.8483566, 22.7440109], [113.8495647, 22.743997], [113.8495714, 22.7444859], [113.8483632, 22.7444999], [113.8483566, 22.7440109]]]]}}, {"type": "Feature", "id": "way/1365534922", "properties": {"tags": {"building": "yes"}, "heightStatus": "unknown", "source": "OpenStreetMap", "license": "ODbL-1.0"}, "geometry": {"type": "MultiPolygon", "coordinates": [[[[113.8461988, 22.7440743], [113.8466805, 22.7439974], [113.8467226, 22.7442218], [113.8462409, 22.7442987], [113.8461988, 22.7440743]]]]}}, {"type": "Feature", "id": "way/1365534923", "properties": {"tags": {"building": "yes"}, "heightStatus": "unknown", "source": "OpenStreetMap", "license": "ODbL-1.0"}, "geometry": {"type": "MultiPolygon", "coordinates": [[[[113.8462581, 22.7443511], [113.8467171, 22.7442689], [113.8467606, 22.7444754], [113.8463016, 22.7445576], [113.8462581, 22.7443511]]]]}}, {"type": "Feature", "id": "way/1365534924", "properties": {"tags": {"building": "yes"}, "heightStatus": "unknown", "source": "OpenStreetMap", "license": "ODbL-1.0"}, "geometry": {"type": "MultiPolygon", "coordinates": [[[[113.8457659, 22.7439499], [113.8460114, 22.7439052], [113.8461062, 22.7443477], [113.8458608, 22.7443925], [113.8457659, 22.7439499]]]]}}, {"type": "Feature", "id": "way/1365534925", "properties": {"tags": {"building": "yes"}, "heightStatus": "unknown", "source": "OpenStreetMap", "license": "ODbL-1.0"}, "geometry": {"type": "MultiPolygon", "coordinates": [[[[113.8476691, 22.7437495], [113.8480675, 22.7436856], [113.8482704, 22.7447613], [113.847872, 22.7448252], [113.8476691, 22.7437495]]]]}}, {"type": "Feature", "id": "way/1365534926", "properties": {"tags": {"building": "yes"}, "heightStatus": "unknown", "source": "OpenStreetMap", "license": "ODbL-1.0"}, "geometry": {"type": "MultiPolygon", "coordinates": [[[[113.8468256, 22.7439666], [113.8475577, 22.7438581], [113.8476122, 22.7441711], [113.8468801, 22.7442795], [113.8468256, 22.7439666]]]]}}, {"type": "Feature", "id": "way/1365534927", "properties": {"tags": {"building": "yes"}, "heightStatus": "unknown", "source": "OpenStreetMap", "license": "ODbL-1.0"}, "geometry": {"type": "MultiPolygon", "coordinates": [[[[113.8468504, 22.7443681], [113.8476489, 22.7442475], [113.8476956, 22.7445104], [113.8468971, 22.7446311], [113.8468504, 22.7443681]]]]}}, {"type": "Feature", "id": "way/1365534928", "properties": {"tags": {"building": "yes"}, "heightStatus": "unknown", "source": "OpenStreetMap", "license": "ODbL-1.0"}, "geometry": {"type": "MultiPolygon", "coordinates": [[[[113.8463363, 22.7448968], [113.8468124, 22.7448303], [113.8468497, 22.7450579], [113.8463737, 22.7451243], [113.8463363, 22.7448968]]]]}}, {"type": "Feature", "id": "way/1365534929", "properties": {"tags": {"building": "yes"}, "heightStatus": "unknown", "source": "OpenStreetMap", "license": "ODbL-1.0"}, "geometry": {"type": "MultiPolygon", "coordinates": [[[[113.8463028, 22.7446694], [113.8467693, 22.7445994], [113.8468042, 22.7447972], [113.8463376, 22.7448672], [113.8463028, 22.7446694]]]]}}, {"type": "Feature", "id": "way/1365534930", "properties": {"tags": {"building": "yes"}, "heightStatus": "unknown", "source": "OpenStreetMap", "license": "ODbL-1.0"}, "geometry": {"type": "MultiPolygon", "coordinates": [[[[113.8452344, 22.7443602], [113.8457143, 22.7442815], [113.8457952, 22.744701], [113.8453154, 22.7447798], [113.8452344, 22.7443602]]]]}}, {"type": "Feature", "id": "way/1365534931", "properties": {"tags": {"building": "yes"}, "heightStatus": "unknown", "source": "OpenStreetMap", "license": "ODbL-1.0"}, "geometry": {"type": "MultiPolygon", "coordinates": [[[[113.8453419, 22.7448442], [113.8457952, 22.7447725], [113.845873, 22.7451908], [113.8454197, 22.7452625], [113.8453419, 22.7448442]]]]}}, {"type": "Feature", "id": "way/1365534932", "properties": {"tags": {"building": "yes"}, "heightStatus": "unknown", "source": "OpenStreetMap", "license": "ODbL-1.0"}, "geometry": {"type": "MultiPolygon", "coordinates": [[[[113.845903, 22.7444979], [113.8461436, 22.7444649], [113.8462134, 22.7448978], [113.8459727, 22.7449308], [113.845903, 22.7444979]]]]}}, {"type": "Feature", "id": "way/1365534933", "properties": {"tags": {"building": "yes"}, "heightStatus": "unknown", "source": "OpenStreetMap", "license": "ODbL-1.0"}, "geometry": {"type": "MultiPolygon", "coordinates": [[[[113.8447637, 22.7444163], [113.8450963, 22.7443618], [113.8451439, 22.7446092], [113.8448113, 22.7446636], [113.8447637, 22.7444163]]]]}}]}