{"type": "FeatureCollection", "features": [{"type": "Feature", "id": "way/644590546", "properties": {"tags": {"amenity": "townhall", "building": "yes", "name": "松岗街道办事处", "old_name": "松岗镇政府"}, "heightStatus": "unknown", "source": "OpenStreetMap", "license": "ODbL-1.0"}, "geometry": {"type": "MultiPolygon", "coordinates": [[[[113.8427463, 22.7677574], [113.8428553, 22.7675998], [113.8435202, 22.7679908], [113.8434112, 22.7681484], [113.8427463, 22.7677574]]]]}}, {"type": "Feature", "id": "way/1303653420", "properties": {"tags": {"addr:city": "深圳市", "addr:country": "CN", "addr:district": "宝安区", "addr:housenumber": "1", "addr:postcode": "518101", "addr:province": "广东省", "addr:street": "楼岗大道", "addr:subdistrict": "松岗街道", "building": "retail", "name": "天虹商场 (松岗店)", "name:en": "Rainbow Department Store (Songgang Branch)", "name:zh": "天虹商场 (松岗店)", "name:zh-Hans": "天虹商场 (松岗店)", "name:zh-Hant": "天虹商場 (松崗店)", "shop": "mall"}, "heightStatus": "unknown", "source": "OpenStreetMap", "license": "ODbL-1.0"}, "geometry": {"type": "MultiPolygon", "coordinates": [[[[113.8454239, 22.7673478], [113.8455583, 22.7666408], [113.8457159, 22.7666544], [113.8457842, 22.7666967], [113.8458574, 22.7667313], [113.8459346, 22.7667576], [113.8460146, 22.7667754], [113.8460963, 22.7667843], [113.8461786, 22.7667843], [113.8462603, 22.7667753], [113.8463403, 22.7667575], [113.8464175, 22.7667311], [113.8464907, 22.7666965], [113.846559, 22.7666542], [113.8466214, 22.7666047], [113.846677, 22.7665488], [113.846725, 22.7664872], [113.8467649, 22.7664208], [113.8467959, 22.7663505], [113.8468175, 22.7662772], [113.8468345, 22.766109], [113.8468229, 22.7660349], [113.8468045, 22.7659622], [113.8467771, 22.7658919], [113.846741, 22.7658251], [113.8466967, 22.7657625], [113.8466448, 22.7657051], [113.846586, 22.7656537], [113.8465212, 22.7656089], [113.8464512, 22.7655714], [113.8463769, 22.7655416], [113.8462993, 22.76552], [113.8462196, 22.7655069], [113.8461387, 22.7655024], [113.8460579, 22.7655066], [113.845978, 22.7655194], [113.8459004, 22.7655407], [113.8456586, 22.7655175], [113.8456801, 22.7653152], [113.8458578, 22.7648407], [113.8459341, 22.7647515], [113.8460957, 22.7647138], [113.8461901, 22.7646917], [113.8463517, 22.764654], [113.8464824, 22.7646235], [113.8464063, 22.7653221], [113.8464682, 22.7653278], [113.8477007, 22.7654419], [113.8475124, 22.7671717], [113.846356, 22.7670647], [113.8462845, 22.767721], [113.8461878, 22.7677116], [113.8459155, 22.767685], [113.845926, 22.7675934], [113.8455785, 22.7675595], [113.8454239, 22.7673478]]]]}}, {"type": "Feature", "id": "way/1448539885", "properties": {"tags": {"building": "apartments"}, "heightStatus": "unknown", "source": "OpenStreetMap", "license": "ODbL-1.0"}, "geometry": {"type": "MultiPolygon", "coordinates": [[[[113.8474518, 22.7649167], [113.8474609, 22.7648399], [113.8474718, 22.764841], [113.8474782, 22.7647874], [113.8475859, 22.7647984], [113.8475796, 22.7648519], [113.8476345, 22.7648575], [113.8476409, 22.7648039], [113.8477373, 22.7648136], [113.8477178, 22.764977], [113.8476212, 22.7649672], [113.8476253, 22.7649325], [113.8475704, 22.7649269], [113.8475629, 22.7649899], [113.8475206, 22.7649856], [113.8475216, 22.7649777], [113.8474771, 22.7649732], [113.8474795, 22.7649529], [113.8474585, 22.7649508], [113.8474624, 22.7649177], [113.8474518, 22.7649167]]]]}}, {"type": "Feature", "id": "way/1448539886", "properties": {"tags": {"building": "apartments"}, "heightStatus": "unknown", "source": "OpenStreetMap", "license": "ODbL-1.0"}, "geometry": {"type": "MultiPolygon", "coordinates": [[[[113.8474244, 22.7651453], [113.8474371, 22.7650392], [113.8474478, 22.7650403], [113.8474518, 22.7650072], [113.8474728, 22.7650094], [113.8474752, 22.7649891], [113.8475197, 22.7649936], [113.8475206, 22.7649856], [113.8475629, 22.7649899], [113.8475531, 22.7650717], [113.8476081, 22.7650773], [113.8476145, 22.7650237], [113.847711, 22.7650334], [113.8476881, 22.7652262], [113.8475916, 22.7652164], [113.847598, 22.7651629], [113.847543, 22.7651573], [113.8475366, 22.7652109], [113.8474289, 22.7652], [113.8474353, 22.7651464], [113.8474244, 22.7651453]]]]}}, {"type": "Feature", "id": "way/1448539888", "properties": {"tags": {"building": "office"}, "heightStatus": "unknown", "source": "OpenStreetMap", "license": "ODbL-1.0"}, "geometry": {"type": "MultiPolygon", "coordinates": [[[[113.8467307, 22.7650946], [113.8467452, 22.7649725], [113.8471077, 22.7650091], [113.8470932, 22.7651312], [113.8467307, 22.7650946]]]]}}, {"type": "Feature", "id": "way/1448539889", "properties": {"tags": {"building": "office"}, "heightStatus": "unknown", "source": "OpenStreetMap", "license": "ODbL-1.0"}, "geometry": {"type": "MultiPolygon", "coordinates": [[[[113.8467678, 22.7647822], [113.8467827, 22.7646566], [113.8471452, 22.7646932], [113.8471303, 22.7648188], [113.8467678, 22.7647822]]]]}}, {"type": "Feature", "id": "way/1448539895", "properties": {"tags": {"building": "hotel"}, "heightStatus": "unknown", "source": "OpenStreetMap", "license": "ODbL-1.0"}, "geometry": {"type": "MultiPolygon", "coordinates": [[[[113.846582, 22.7676281], [113.846632, 22.7672069], [113.8468451, 22.7672284], [113.8468184, 22.7674525], [113.847175, 22.7674885], [113.8472016, 22.7672644], [113.8474146, 22.7672859], [113.8473646, 22.7677071], [113.846582, 22.7676281]]]]}}, {"type": "Feature", "id": "way/1448539924", "properties": {"tags": {"building": "apartments"}, "heightStatus": "unknown", "source": "OpenStreetMap", "license": "ODbL-1.0"}, "geometry": {"type": "MultiPolygon", "coordinates": [[[[113.8496089, 22.7629762], [113.8497573, 22.7628198], [113.8497464, 22.762811], [113.8497587, 22.762798], [113.8497504, 22.762768], [113.8497138, 22.7627766], [113.8496894, 22.7626893], [113.8498455, 22.7626523], [113.8498699, 22.7627397], [113.8498392, 22.7627469], [113.8498485, 22.7627804], [113.8498783, 22.7628046], [113.8499273, 22.7628051], [113.849927, 22.7628223], [113.8499916, 22.762823], [113.8499907, 22.7628863], [113.8499609, 22.7628859], [113.8499606, 22.7629063], [113.8498272, 22.7629048], [113.8498276, 22.7628759], [113.8498115, 22.7628629], [113.8497444, 22.7629336], [113.8497738, 22.7629574], [113.8496922, 22.7630434], [113.8496089, 22.7629762]]]]}}, {"type": "Feature", "id": "way/1448539925", "properties": {"tags": {"addr:housename": "联投东方华府·三期", "addr:housename:en": "Lian Tou Dongfang Huafu Phase III", "addr:housename:zh": "联投东方华府·三期", "building": "apartments", "name": "1-3栋", "name:en": "Block 1-3", "name:zh": "1-3栋"}, "heightStatus": "unknown", "source": "OpenStreetMap", "license": "ODbL-1.0"}, "geometry": {"type": "MultiPolygon", "coordinates": [[[[113.8483983, 22.7631658], [113.8484274, 22.7631605], [113.8484238, 22.7631436], [113.8485114, 22.7631274], [113.8485119, 22.7630644], [113.8484802, 22.7630642], [113.848481, 22.7629739], [113.8486422, 22.7629752], [113.8486414, 22.7630654], [113.8486036, 22.7630651], [113.8486031, 22.7631269], [113.8486964, 22.7631456], [113.8486925, 22.7631625], [113.8487215, 22.7631683], [113.8487069, 22.7632303], [113.8486779, 22.7632245], [113.8486732, 22.7632444], [113.848577, 22.7632251], [113.8485877, 22.7631794], [113.8485323, 22.7631812], [113.8485418, 22.7632249], [113.8484453, 22.7632427], [113.8484409, 22.7632227], [113.8484118, 22.7632281], [113.8483983, 22.7631658]]]]}}, {"type": "Feature", "id": "way/1448539926", "properties": {"tags": {"addr:housename": "联投东方华府·三期", "addr:housename:en": "Lian Tou Dongfang Huafu Phase III", "addr:housename:zh": "联投东方华府·三期", "building": "apartments", "name": "1-1栋", "name:en": "Block 1-1", "name:zh": "1-1栋"}, "heightStatus": "unknown", "source": "OpenStreetMap", "license": "ODbL-1.0"}, "geometry": {"type": "MultiPolygon", "coordinates": [[[[113.8474389, 22.7630246], [113.8474684, 22.763021], [113.8474659, 22.7630039], [113.8475145, 22.762998], [113.8475411, 22.7629709], [113.8475462, 22.7629367], [113.8475147, 22.7629327], [113.8475279, 22.7628433], [113.8476876, 22.7628634], [113.8476744, 22.7629528], [113.847637, 22.7629481], [113.8476325, 22.7629788], [113.8476464, 22.7629904], [113.8476367, 22.7630003], [113.847774, 22.763115], [113.8476997, 22.7631907], [113.8476375, 22.7631387], [113.8476638, 22.763112], [113.8475882, 22.7630489], [113.8475738, 22.7630636], [113.8475779, 22.7630922], [113.8474803, 22.7631041], [113.8474774, 22.763084], [113.847448, 22.7630876], [113.8474389, 22.7630246]]]]}}, {"type": "Feature", "id": "way/1448539927", "properties": {"tags": {"addr:housename": "联投东方华府·三期", "addr:housename:en": "Lian Tou Dongfang Huafu Phase III", "addr:housename:zh": "联投东方华府·三期", "building": "apartments", "name": "1-2栋", "name:en": "Block 1-2", "name:zh": "1-2栋"}, "heightStatus": "unknown", "source": "OpenStreetMap", "license": "ODbL-1.0"}, "geometry": {"type": "MultiPolygon", "coordinates": [[[[113.8479275, 22.7631457], [113.8479564, 22.7631393], [113.847952, 22.7631225], [113.8479996, 22.7631119], [113.8480229, 22.7630824], [113.848024, 22.7630478], [113.8479924, 22.763047], [113.8479953, 22.7629568], [113.8481563, 22.7629612], [113.8481534, 22.7630514], [113.8481157, 22.7630503], [113.8481147, 22.7630814], [113.8481298, 22.7630916], [113.8481213, 22.7631023], [113.848271, 22.763203], [113.8482058, 22.7632855], [113.848138, 22.7632399], [113.8481611, 22.7632107], [113.8480787, 22.7631553], [113.848066, 22.7631713], [113.8480734, 22.7631995], [113.8479777, 22.7632208], [113.8479725, 22.763201], [113.8479437, 22.7632075], [113.8479275, 22.7631457]]]]}}, {"type": "Feature", "id": "way/1448539930", "properties": {"tags": {"addr:housename": "联投东方华府·二期", "addr:housename:en": "Lian Tou Dongfang Huafu Phase II", "addr:housename:zh": "联投东方华府·二期", "building": "apartments", "name": "1-1栋", "name:en": "Block 1-1", "name:zh": "1-1栋"}, "heightStatus": "unknown", "source": "OpenStreetMap", "license": "ODbL-1.0"}, "geometry": {"type": "MultiPolygon", "coordinates": [[[[113.8496129, 22.7641746], [113.8496153, 22.7641362], [113.8496249, 22.7641367], [113.8496264, 22.7641123], [113.8496873, 22.7641155], [113.8496887, 22.7640939], [113.8496539, 22.7640921], [113.8496576, 22.7640319], [113.849663, 22.7640321], [113.8496654, 22.763993], [113.8497003, 22.7639948], [113.8496997, 22.7640052], [113.8497502, 22.7640078], [113.8497485, 22.7640353], [113.8498979, 22.7640431], [113.8498996, 22.7640156], [113.8499501, 22.7640183], [113.8499508, 22.7640079], [113.8499856, 22.7640097], [113.8499832, 22.7640489], [113.8499886, 22.7640492], [113.8499849, 22.7641094], [113.8499502, 22.7641076], [113.8499488, 22.7641292], [113.8500097, 22.7641324], [113.8500082, 22.7641568], [113.8500178, 22.7641573], [113.8500155, 22.7641957], [113.8500059, 22.7641952], [113.8500035, 22.7642334], [113.8499645, 22.7642314], [113.8499653, 22.7642181], [113.8499334, 22.7642164], [113.849935, 22.76419], [113.8499034, 22.7641883], [113.849905, 22.7641624], [113.8498932, 22.7641618], [113.8498946, 22.7641378], [113.8498581, 22.7641359], [113.8498562, 22.7641656], [113.8497748, 22.7641613], [113.8497767, 22.7641317], [113.8497401, 22.7641298], [113.8497386, 22.7641537], [113.8497268, 22.7641531], [113.8497252, 22.764179], [113.8496936, 22.7641773], [113.849692, 22.7642038], [113.84966, 22.7642021], [113.8496592, 22.7642154], [113.8496202, 22.7642134], [113.8496226, 22.7641751], [113.8496129, 22.7641746]]]]}}, {"type": "Feature", "id": "way/1448539941", "properties": {"tags": {"building": "apartments", "layer": "1"}, "heightStatus": "unknown", "source": "OpenStreetMap", "license": "ODbL-1.0"}, "geometry": {"type": "MultiPolygon", "coordinates": [[[[113.8459155, 22.767685], [113.845926, 22.7675934], [113.8460016, 22.7676007], [113.846007, 22.7675532], [113.8459315, 22.7675458], [113.8459421, 22.7674534], [113.8462144, 22.7674799], [113.8462038, 22.7675724], [113.8461282, 22.767565], [113.8461228, 22.7676126], [113.8461983, 22.7676199], [113.8461878, 22.7677116], [113.8459155, 22.767685]]]]}}, {"type": "Feature", "id": "way/1448539942", "properties": {"tags": {"building": "apartments", "layer": "1"}, "heightStatus": "unknown", "source": "OpenStreetMap", "license": "ODbL-1.0"}, "geometry": {"type": "MultiPolygon", "coordinates": [[[[113.8464121, 22.7669868], [113.846423, 22.7668948], [113.8465392, 22.7669066], [113.8465449, 22.7668591], [113.8464287, 22.7668473], [113.8464396, 22.7667553], [113.8467882, 22.7667905], [113.8467772, 22.7668825], [113.846661, 22.7668708], [113.8466554, 22.7669183], [113.8467716, 22.7669301], [113.8467606, 22.7670221], [113.8464121, 22.7669868]]]]}}, {"type": "Feature", "id": "way/1448539943", "properties": {"tags": {"building": "apartments", "layer": "1"}, "heightStatus": "unknown", "source": "OpenStreetMap", "license": "ODbL-1.0"}, "geometry": {"type": "MultiPolygon", "coordinates": [[[[113.8465742, 22.7656016], [113.8465851, 22.7655096], [113.8467013, 22.7655214], [113.846707, 22.7654739], [113.8465908, 22.7654621], [113.8466017, 22.7653701], [113.8469503, 22.7654053], [113.8469393, 22.7654973], [113.8468231, 22.7654856], [113.8468175, 22.7655331], [113.8469337, 22.7655449], [113.8469227, 22.7656369], [113.8465742, 22.7656016]]]]}}, {"type": "Feature", "id": "way/1448539946", "properties": {"tags": {"building": "apartments", "layer": "1"}, "heightStatus": "unknown", "source": "OpenStreetMap", "license": "ODbL-1.0"}, "geometry": {"type": "MultiPolygon", "coordinates": [[[[113.8468084, 22.7663529], [113.8468175, 22.7662772], [113.8468959, 22.7662853], [113.8469061, 22.766201], [113.8469992, 22.7662105], [113.8469759, 22.766403], [113.847058, 22.7664114], [113.8470477, 22.7664967], [113.8468203, 22.7664732], [113.8468295, 22.7663971], [113.8468821, 22.7664025], [113.8468871, 22.766361], [113.8468084, 22.7663529]]]]}}, {"type": "Feature", "id": "way/1448539947", "properties": {"tags": {"building": "apartments", "layer": "1"}, "heightStatus": "unknown", "source": "OpenStreetMap", "license": "ODbL-1.0"}, "geometry": {"type": "MultiPolygon", "coordinates": [[[[113.8468345, 22.766109], [113.8468437, 22.7660328], [113.8469251, 22.7660412], [113.8469301, 22.7659996], [113.8468772, 22.7659942], [113.8468865, 22.7659178], [113.8471139, 22.7659412], [113.8471036, 22.7660261], [113.8470225, 22.7660178], [113.8469992, 22.7662105], [113.8469061, 22.766201], [113.8469163, 22.7661174], [113.8468345, 22.766109]]]]}}, {"type": "Feature", "id": "way/1448539948", "properties": {"tags": {"building": "apartments", "layer": "1"}, "heightStatus": "unknown", "source": "OpenStreetMap", "license": "ODbL-1.0"}, "geometry": {"type": "MultiPolygon", "coordinates": [[[[113.8472073, 22.7669], [113.8472158, 22.7668286], [113.8474783, 22.7668552], [113.8474698, 22.7669265], [113.8473729, 22.7669167], [113.8473679, 22.7669587], [113.8474164, 22.7669636], [113.8474063, 22.7670481], [113.8472407, 22.7670314], [113.8472507, 22.7669469], [113.8472991, 22.7669518], [113.8473041, 22.7669098], [113.8472073, 22.7669]]]]}}, {"type": "Feature", "id": "way/1448539949", "properties": {"tags": {"building": "apartments", "layer": "1"}, "heightStatus": "unknown", "source": "OpenStreetMap", "license": "ODbL-1.0"}, "geometry": {"type": "MultiPolygon", "coordinates": [[[[113.8469448, 22.7668735], [113.8469532, 22.7668021], [113.8472158, 22.7668286], [113.8472073, 22.7669], [113.8471104, 22.7668902], [113.8471054, 22.7669322], [113.8471539, 22.7669371], [113.8471438, 22.7670216], [113.8469781, 22.7670048], [113.8469882, 22.7669203], [113.8470366, 22.7669252], [113.8470416, 22.7668832], [113.8469448, 22.7668735]]]]}}, {"type": "Feature", "id": "way/1448539950", "properties": {"tags": {"building": "apartments", "layer": "1"}, "heightStatus": "unknown", "source": "OpenStreetMap", "license": "ODbL-1.0"}, "geometry": {"type": "MultiPolygon", "coordinates": [[[[113.8473312, 22.7656204], [113.8473397, 22.765549], [113.8474366, 22.7655588], [113.8474416, 22.7655168], [113.8473931, 22.7655119], [113.8474032, 22.7654274], [113.8475688, 22.7654442], [113.8475588, 22.7655287], [113.8475104, 22.7655238], [113.8475054, 22.7655657], [113.8476022, 22.7655755], [113.8475937, 22.7656469], [113.8473312, 22.7656204]]]]}}, {"type": "Feature", "id": "way/1448539951", "properties": {"tags": {"building": "apartments", "layer": "1"}, "heightStatus": "unknown", "source": "OpenStreetMap", "license": "ODbL-1.0"}, "geometry": {"type": "MultiPolygon", "coordinates": [[[[113.8470687, 22.7655938], [113.8470772, 22.7655225], [113.8471741, 22.7655322], [113.847179, 22.7654903], [113.8471306, 22.7654854], [113.8471407, 22.7654009], [113.8473063, 22.7654176], [113.8472963, 22.7655021], [113.8472479, 22.7654972], [113.8472429, 22.7655392], [113.8473397, 22.765549], [113.8473312, 22.7656204], [113.8470687, 22.7655938]]]]}}, {"type": "Feature", "id": "way/1448539952", "properties": {"tags": {"building": "apartments", "layer": "1"}, "heightStatus": "unknown", "source": "OpenStreetMap", "license": "ODbL-1.0"}, "geometry": {"type": "MultiPolygon", "coordinates": [[[[113.8455665, 22.7674342], [113.845574, 22.767364], [113.8457301, 22.7673781], [113.8457326, 22.7673547], [113.8458199, 22.7673625], [113.8458068, 22.7674858], [113.8459145, 22.7674956], [113.8459061, 22.7675742], [113.8457807, 22.7675629], [113.8457848, 22.7675243], [113.8457334, 22.7675197], [113.8457293, 22.7675583], [113.8455913, 22.7675458], [113.8456028, 22.7674375], [113.8455665, 22.7674342]]]]}}, {"type": "Feature", "id": "way/1448539953", "properties": {"tags": {"building": "apartments", "layer": "1"}, "heightStatus": "unknown", "source": "OpenStreetMap", "license": "ODbL-1.0"}, "geometry": {"type": "MultiPolygon", "coordinates": [[[[113.8455542, 22.7667826], [113.8455616, 22.7667124], [113.8457178, 22.7667265], [113.8457203, 22.7667031], [113.8458076, 22.766711], [113.8457945, 22.7668343], [113.8459021, 22.766844], [113.8458938, 22.7669227], [113.8457684, 22.7669114], [113.8457725, 22.7668728], [113.845721, 22.7668681], [113.8457169, 22.7669067], [113.845579, 22.7668943], [113.8455905, 22.7667859], [113.8455542, 22.7667826]]]]}}, {"type": "Feature", "id": "way/1448539954", "properties": {"tags": {"building": "apartments", "layer": "1"}, "heightStatus": "unknown", "source": "OpenStreetMap", "license": "ODbL-1.0"}, "geometry": {"type": "MultiPolygon", "coordinates": [[[[113.8457016, 22.7653319], [113.845709, 22.7652617], [113.8458652, 22.7652758], [113.8458677, 22.7652524], [113.8459549, 22.7652603], [113.8459419, 22.7653836], [113.8460495, 22.7653933], [113.8460411, 22.765472], [113.8459158, 22.7654606], [113.8459199, 22.7654221], [113.8458684, 22.7654174], [113.8458643, 22.765456], [113.8457263, 22.7654435], [113.8457378, 22.7653352], [113.8457016, 22.7653319]]]]}}, {"type": "Feature", "id": "way/1448539955", "properties": {"tags": {"building": "apartments", "layer": "1"}, "heightStatus": "unknown", "source": "OpenStreetMap", "license": "ODbL-1.0"}, "geometry": {"type": "MultiPolygon", "coordinates": [[[[113.8461768, 22.7648261], [113.8462712, 22.7648041], [113.84626, 22.7647631], [113.8462128, 22.7647742], [113.8461901, 22.7646917], [113.8463517, 22.764654], [113.8463743, 22.7647364], [113.8463271, 22.7647475], [113.8463384, 22.7647884], [113.8464328, 22.7647663], [113.8464519, 22.7648359], [113.8461959, 22.7648957], [113.8461768, 22.7648261]]]]}}, {"type": "Feature", "id": "way/1448539956", "properties": {"tags": {"building": "apartments", "layer": "1"}, "heightStatus": "unknown", "source": "OpenStreetMap", "license": "ODbL-1.0"}, "geometry": {"type": "MultiPolygon", "coordinates": [[[[113.8459208, 22.7648859], [113.8460153, 22.7648639], [113.846004, 22.7648229], [113.8459568, 22.764834], [113.8459341, 22.7647515], [113.8460957, 22.7647138], [113.8461183, 22.7647962], [113.8460711, 22.7648073], [113.8460824, 22.7648482], [113.8461768, 22.7648261], [113.8461959, 22.7648957], [113.8459399, 22.7649555], [113.8459208, 22.7648859]]]]}}, {"type": "Feature", "id": "way/1448539957", "properties": {"tags": {"building": "kindergarten"}, "heightStatus": "unknown", "source": "OpenStreetMap", "license": "ODbL-1.0"}, "geometry": {"type": "MultiPolygon", "coordinates": [[[[113.8464174, 22.7692866], [113.8464293, 22.7691808], [113.84662, 22.7691991], [113.8466081, 22.7693048], [113.846499, 22.7692944], [113.8464903, 22.7693719], [113.8466052, 22.7693829], [113.8466092, 22.7693475], [113.8471892, 22.7694029], [113.8471765, 22.7695156], [113.8465965, 22.7694602], [113.8465927, 22.7694948], [113.8464393, 22.7694801], [113.8464606, 22.7692907], [113.8464174, 22.7692866]]]]}}, {"type": "Feature", "id": "way/1448539963", "properties": {"tags": {"building": "apartments"}, "heightStatus": "unknown", "source": "OpenStreetMap", "license": "ODbL-1.0"}, "geometry": {"type": "MultiPolygon", "coordinates": [[[[113.847393, 22.7693274], [113.8473999, 22.7692637], [113.847496, 22.7692725], [113.8474998, 22.7692373], [113.8473984, 22.769228], [113.8474034, 22.7691812], [113.8474536, 22.7691858], [113.8474556, 22.7691672], [113.8474765, 22.7691691], [113.8474775, 22.7691592], [113.8475667, 22.7691674], [113.8475657, 22.7691773], [113.8476044, 22.7691809], [113.8475974, 22.7692457], [113.8475583, 22.7692421], [113.8475543, 22.7692787], [113.8476664, 22.769289], [113.8476703, 22.7692524], [113.8476312, 22.7692488], [113.8476382, 22.769184], [113.8476769, 22.7691875], [113.847678, 22.7691776], [113.8477672, 22.7691858], [113.8477661, 22.7691957], [113.847787, 22.7691976], [113.847785, 22.7692162], [113.8478352, 22.7692208], [113.8478301, 22.7692676], [113.8477286, 22.7692583], [113.8477248, 22.7692935], [113.847821, 22.7693023], [113.8478141, 22.769366], [113.8477471, 22.7693599], [113.8477454, 22.7693752], [113.8476366, 22.7693652], [113.8476383, 22.7693494], [113.8475689, 22.769343], [113.8475672, 22.7693589], [113.8474584, 22.7693489], [113.84746, 22.7693336], [113.847393, 22.7693274]]]]}}, {"type": "Feature", "id": "way/1448539965", "properties": {"tags": {"building": "apartments"}, "heightStatus": "unknown", "source": "OpenStreetMap", "license": "ODbL-1.0"}, "geometry": {"type": "MultiPolygon", "coordinates": [[[[113.8478871, 22.7693755], [113.8478939, 22.7693118], [113.8479901, 22.7693206], [113.8479939, 22.7692854], [113.8478924, 22.7692761], [113.8478974, 22.7692293], [113.8479476, 22.7692339], [113.8479496, 22.7692153], [113.8479705, 22.7692172], [113.8479716, 22.7692073], [113.8480608, 22.7692155], [113.8480597, 22.7692254], [113.8480984, 22.769229], [113.8480914, 22.7692938], [113.8480523, 22.7692902], [113.8480484, 22.7693268], [113.8481604, 22.7693371], [113.8481643, 22.7693005], [113.8481253, 22.7692969], [113.8481323, 22.7692321], [113.848171, 22.7692356], [113.848172, 22.7692257], [113.8482612, 22.7692339], [113.8482601, 22.7692438], [113.8482811, 22.7692457], [113.8482791, 22.7692643], [113.8483292, 22.7692689], [113.8483242, 22.7693157], [113.8482227, 22.7693064], [113.8482189, 22.7693416], [113.848315, 22.7693504], [113.8483082, 22.7694141], [113.8482411, 22.769408], [113.8482395, 22.7694233], [113.8481307, 22.7694133], [113.8481324, 22.7693975], [113.848063, 22.7693911], [113.8480612, 22.7694069], [113.8479524, 22.769397], [113.8479541, 22.7693817], [113.8478871, 22.7693755]]]]}}, {"type": "Feature", "id": "way/1448539993", "properties": {"tags": {"building": "yes"}, "heightStatus": "unknown", "source": "OpenStreetMap", "license": "ODbL-1.0"}, "geometry": {"type": "MultiPolygon", "coordinates": [[[[113.8464308, 22.7688151], [113.8464394, 22.7687388], [113.8464651, 22.7685108], [113.8465244, 22.7684664], [113.848158, 22.7686226], [113.848332, 22.7688202], [113.8483214, 22.7689143], [113.8483129, 22.7689906], [113.8480459, 22.7689651], [113.847779, 22.7689395], [113.8476883, 22.768935], [113.847379, 22.7689055], [113.8470698, 22.7688759], [113.8469647, 22.7688662], [113.8466978, 22.7688406], [113.8464308, 22.7688151]]]]}}, {"type": "Feature", "id": "way/1448539994", "properties": {"tags": {"addr:housename": "集信大厦", "addr:housename:en": "Jixin Building", "addr:housename:zh": "集信大厦", "building": "apartments", "layer": "1", "name": "C栋", "name:en": "Block C", "name:zh": "C栋"}, "heightStatus": "unknown", "source": "OpenStreetMap", "license": "ODbL-1.0"}, "geometry": {"type": "MultiPolygon", "coordinates": [[[[113.8470698, 22.7688759], [113.8470783, 22.7687996], [113.8471365, 22.7688052], [113.8471418, 22.7687578], [113.8471612, 22.7687596], [113.8471663, 22.7687144], [113.8471469, 22.7687125], [113.8471545, 22.7686454], [113.8472029, 22.76865], [113.8472045, 22.7686356], [113.8473006, 22.7686448], [113.847299, 22.7686592], [113.8473475, 22.7686638], [113.8473399, 22.768731], [113.8473205, 22.7687291], [113.8473154, 22.7687744], [113.8473348, 22.7687762], [113.8473295, 22.7688236], [113.8473876, 22.7688292], [113.847379, 22.7689055], [113.8470698, 22.7688759]]]]}}, {"type": "Feature", "id": "way/1448539995", "properties": {"tags": {"addr:housename": "集信大厦", "addr:housename:en": "Jixin Building", "addr:housename:zh": "集信大厦", "building": "apartments", "layer": "1", "name": "D栋", "name:en": "Block D", "name:zh": "D栋"}, "heightStatus": "unknown", "source": "OpenStreetMap", "license": "ODbL-1.0"}, "geometry": {"type": "MultiPolygon", "coordinates": [[[[113.847379, 22.7689055], [113.8473876, 22.7688292], [113.8474458, 22.7688348], [113.8474511, 22.7687873], [113.8474705, 22.7687892], [113.8474756, 22.7687439], [113.8474562, 22.7687421], [113.8474637, 22.7686749], [113.8475122, 22.7686796], [113.8475138, 22.7686651], [113.8476099, 22.7686743], [113.8476083, 22.7686888], [113.8476567, 22.7686934], [113.8476492, 22.7687605], [113.8476298, 22.7687587], [113.8476247, 22.768804], [113.8476441, 22.7688058], [113.8476388, 22.7688532], [113.8476969, 22.7688588], [113.8476883, 22.768935], [113.847379, 22.7689055]]]]}}, {"type": "Feature", "id": "way/1448539996", "properties": {"tags": {"addr:housename": "集信大厦", "addr:housename:en": "Jixin Building", "addr:housename:zh": "集信大厦", "building": "apartments", "layer": "1", "name": "E栋", "name:en": "Block E", "name:zh": "E栋"}, "heightStatus": "unknown", "source": "OpenStreetMap", "license": "ODbL-1.0"}, "geometry": {"type": "MultiPolygon", "coordinates": [[[[113.847779, 22.7689395], [113.8477876, 22.7688633], [113.8478554, 22.7688697], [113.8478619, 22.7688119], [113.8478425, 22.76881], [113.8478512, 22.768733], [113.8478996, 22.7687377], [113.8479015, 22.7687215], [113.8479746, 22.7687285], [113.8479728, 22.7687447], [113.8480212, 22.7687493], [113.8480126, 22.7688263], [113.8479932, 22.7688244], [113.8479867, 22.7688823], [113.8480545, 22.7688888], [113.8480459, 22.7689651], [113.847779, 22.7689395]]]]}}, {"type": "Feature", "id": "way/1448539997", "properties": {"tags": {"addr:housename": "集信大厦", "addr:housename:en": "Jixin Building", "addr:housename:zh": "集信大厦", "building": "apartments", "layer": "1", "name": "F栋", "name:en": "Block F", "name:zh": "F栋"}, "heightStatus": "unknown", "source": "OpenStreetMap", "license": "ODbL-1.0"}, "geometry": {"type": "MultiPolygon", "coordinates": [[[[113.8480459, 22.7689651], [113.8480545, 22.7688888], [113.8481223, 22.7688953], [113.8481289, 22.7688374], [113.8481095, 22.7688355], [113.8481181, 22.7687586], [113.8481666, 22.7687632], [113.8481684, 22.768747], [113.8482415, 22.768754], [113.8482397, 22.7687702], [113.8482882, 22.7687748], [113.8482795, 22.7688518], [113.8482601, 22.76885], [113.8482536, 22.7689078], [113.8483214, 22.7689143], [113.8483129, 22.7689906], [113.8480459, 22.7689651]]]]}}, {"type": "Feature", "id": "way/1448539998", "properties": {"tags": {"addr:housename": "集信大厦", "addr:housename:en": "Jixin Building", "addr:housename:zh": "集信大厦", "building": "apartments", "layer": "1", "name": "B栋", "name:en": "Block B", "name:zh": "B栋"}, "heightStatus": "unknown", "source": "OpenStreetMap", "license": "ODbL-1.0"}, "geometry": {"type": "MultiPolygon", "coordinates": [[[[113.8466978, 22.7688406], [113.8467063, 22.7687644], [113.8467742, 22.7687708], [113.8467807, 22.768713], [113.8467613, 22.7687111], [113.84677, 22.7686341], [113.8468184, 22.7686388], [113.8468202, 22.7686226], [113.8468934, 22.7686296], [113.8468915, 22.7686458], [113.84694, 22.7686504], [113.8469313, 22.7687274], [113.8469119, 22.7687255], [113.8469054, 22.7687834], [113.8469733, 22.7687899], [113.8469647, 22.7688662], [113.8466978, 22.7688406]]]]}}, {"type": "Feature", "id": "way/1448539999", "properties": {"tags": {"addr:housename": "集信大厦", "addr:housename:en": "Jixin Building", "addr:housename:zh": "集信大厦", "building": "apartments", "layer": "1", "name": "A栋", "name:en": "Block A", "name:zh": "A栋"}, "heightStatus": "unknown", "source": "OpenStreetMap", "license": "ODbL-1.0"}, "geometry": {"type": "MultiPolygon", "coordinates": [[[[113.8464308, 22.7688151], [113.8464394, 22.7687388], [113.8465072, 22.7687453], [113.8465138, 22.7686874], [113.8464944, 22.7686856], [113.846503, 22.7686086], [113.8465515, 22.7686132], [113.8465533, 22.7685971], [113.8466264, 22.768604], [113.8466246, 22.7686202], [113.8466731, 22.7686249], [113.8466644, 22.7687018], [113.846645, 22.7687], [113.8466385, 22.7687579], [113.8467063, 22.7687644], [113.8466978, 22.7688406], [113.8464308, 22.7688151]]]]}}]}