{"type": "FeatureCollection", "features": [{"type": "Feature", "id": "way/1091268216", "properties": {"tags": {"building": "apartments", "building:levels": "23", "building:material": "glass", "height": "103.9", "layer": "2", "source": "http://pnr.sz.gov.cn/xxgk/gggs/content/post_7968653.html"}, "heightStatus": "height_tag_unverified", "source": "OpenStreetMap", "license": "ODbL-1.0"}, "geometry": {"type": "MultiPolygon", "coordinates": [[[[113.847485, 22.5747355], [113.8477005, 22.5745605], [113.8477585, 22.5745669], [113.8479721, 22.5747892], [113.8477285, 22.5749888], [113.8475549, 22.5748082], [113.847485, 22.5747355]]]]}}, {"type": "Feature", "id": "way/1091268217", "properties": {"tags": {"building": "apartments", "building:levels": "23", "building:material": "glass", "height": "103.9", "layer": "2", "source": "http://pnr.sz.gov.cn/xxgk/gggs/content/post_7968653.html"}, "heightStatus": "height_tag_unverified", "source": "OpenStreetMap", "license": "ODbL-1.0"}, "geometry": {"type": "MultiPolygon", "coordinates": [[[[113.8478193, 22.5750822], [113.848063, 22.5748829], [113.8482974, 22.5751274], [113.8480536, 22.5753266], [113.8478193, 22.5750822]]]]}}, {"type": "Feature", "id": "way/1091268218", "properties": {"tags": {"building": "apartments", "building:levels": "17", "building:material": "glass", "height": "101", "layer": "2", "source": "http://pnr.sz.gov.cn/xxgk/gggs/content/post_7968653.html"}, "heightStatus": "height_tag_unverified", "source": "OpenStreetMap", "license": "ODbL-1.0"}, "geometry": {"type": "MultiPolygon", "coordinates": [[[[113.8481071, 22.5754401], [113.8483832, 22.5752171], [113.8485896, 22.5754349], [113.8485883, 22.575451], [113.8483216, 22.5756665], [113.8481071, 22.5754401]]]]}}, {"type": "Feature", "id": "way/1091268219", "properties": {"tags": {"building": "commercial", "building:levels": "21", "building:material": "glass", "height": "102.9", "layer": "2", "source": "http://pnr.sz.gov.cn/xxgk/gggs/content/post_7968653.html"}, "heightStatus": "height_tag_unverified", "source": "OpenStreetMap", "license": "ODbL-1.0"}, "geometry": {"type": "MultiPolygon", "coordinates": [[[[113.8469656, 22.5751643], [113.8473443, 22.574852], [113.8473658, 22.5748742], [113.8473845, 22.5748588], [113.8474492, 22.5749256], [113.8473749, 22.5749871], [113.8474244, 22.575038], [113.8474985, 22.5749765], [113.8475582, 22.5750382], [113.8475391, 22.575054], [113.8475621, 22.5750778], [113.8471833, 22.5753901], [113.8471609, 22.5753669], [113.8471396, 22.5753844], [113.8470803, 22.5753231], [113.8471568, 22.5752597], [113.8471073, 22.5752088], [113.847031, 22.5752721], [113.846966, 22.5752049], [113.8469876, 22.5751871], [113.8469656, 22.5751643]]]]}}, {"type": "Feature", "id": "way/1091268220", "properties": {"tags": {"building": "commercial", "building:levels": "21", "building:material": "glass", "height": "102.9", "layer": "2", "source": "http://pnr.sz.gov.cn/xxgk/gggs/content/post_7968653.html"}, "heightStatus": "height_tag_unverified", "source": "OpenStreetMap", "license": "ODbL-1.0"}, "geometry": {"type": "MultiPolygon", "coordinates": [[[[113.8464009, 22.5756308], [113.8467797, 22.5753185], [113.8468011, 22.5753407], [113.8468199, 22.5753253], [113.8468845, 22.5753921], [113.8468102, 22.5754536], [113.8468597, 22.5755045], [113.8469338, 22.575443], [113.8469935, 22.5755047], [113.8469744, 22.5755205], [113.8469974, 22.5755443], [113.8466186, 22.5758566], [113.8465962, 22.5758334], [113.846575, 22.5758509], [113.8465156, 22.5757896], [113.8465921, 22.5757262], [113.8465427, 22.5756753], [113.8464663, 22.5757386], [113.8464013, 22.5756714], [113.8464229, 22.5756536], [113.8464009, 22.5756308]]]]}}, {"type": "Feature", "id": "way/1091268221", "properties": {"tags": {"building": "commercial", "building:levels": "21", "building:material": "glass", "height": "102.9", "layer": "2", "source": "http://pnr.sz.gov.cn/xxgk/gggs/content/post_7968653.html"}, "heightStatus": "height_tag_unverified", "source": "OpenStreetMap", "license": "ODbL-1.0"}, "geometry": {"type": "MultiPolygon", "coordinates": [[[[113.8465076, 22.5764791], [113.846533, 22.5764587], [113.8465144, 22.5764388], [113.8465817, 22.576385], [113.8466491, 22.5764566], [113.846705, 22.5764117], [113.8466376, 22.5763402], [113.8467114, 22.5762813], [113.8467303, 22.5763015], [113.8467553, 22.5762815], [113.8470877, 22.576636], [113.8470634, 22.5766554], [113.8470798, 22.576673], [113.8470065, 22.5767317], [113.846941, 22.5766621], [113.8468851, 22.576707], [113.8469505, 22.5767764], [113.8468828, 22.5768306], [113.846866, 22.5768127], [113.8468399, 22.5768336], [113.8465076, 22.5764791]]]]}}, {"type": "Feature", "id": "way/1091268222", "properties": {"tags": {"building": "commercial", "building:levels": "21", "building:material": "glass", "height": "102.9", "layer": "2", "source": "http://pnr.sz.gov.cn/xxgk/gggs/content/post_7968653.html"}, "heightStatus": "height_tag_unverified", "source": "OpenStreetMap", "license": "ODbL-1.0"}, "geometry": {"type": "MultiPolygon", "coordinates": [[[[113.8460267, 22.5759669], [113.8460335, 22.5759267], [113.8461009, 22.5758725], [113.8461683, 22.5759441], [113.8462238, 22.5758995], [113.8461564, 22.5758281], [113.8462531, 22.5757504], [113.8462742, 22.5757728], [113.846605, 22.5761237], [113.8465807, 22.5761432], [113.8465973, 22.5761607], [113.8465257, 22.5762182], [113.8464602, 22.5761486], [113.8464028, 22.5761948], [113.8464681, 22.5762642], [113.8464021, 22.5763171], [113.8463853, 22.5762993], [113.8463592, 22.5763203], [113.8460267, 22.5759669]]]]}}, {"type": "Feature", "id": "way/1091268223", "properties": {"tags": {"building": "commercial", "building:levels": "20", "building:material": "glass", "height": "101.7", "layer": "2", "source": "http://pnr.sz.gov.cn/xxgk/gggs/content/post_7968653.html"}, "heightStatus": "height_tag_unverified", "source": "OpenStreetMap", "license": "ODbL-1.0"}, "geometry": {"type": "MultiPolygon", "coordinates": [[[[113.8470489, 22.5763062], [113.8474277, 22.5759939], [113.8474507, 22.5760177], [113.8474698, 22.5760019], [113.8475294, 22.5760636], [113.847455, 22.5761247], [113.8475041, 22.5761758], [113.8475787, 22.5761146], [113.8476433, 22.5761815], [113.8476246, 22.5761969], [113.847646, 22.5762191], [113.8472673, 22.5765314], [113.8472452, 22.5765086], [113.8472236, 22.5765265], [113.8471587, 22.5764593], [113.8472354, 22.5763963], [113.8471862, 22.5763452], [113.8471094, 22.5764083], [113.8470501, 22.5763469], [113.8470713, 22.5763294], [113.8470489, 22.5763062]]]]}}, {"type": "Feature", "id": "way/1091268224", "properties": {"tags": {"building": "commercial", "building:levels": "20", "building:material": "glass", "height": "101.7", "layer": "2", "source": "http://pnr.sz.gov.cn/xxgk/gggs/content/post_7968653.html"}, "heightStatus": "height_tag_unverified", "source": "OpenStreetMap", "license": "ODbL-1.0"}, "geometry": {"type": "MultiPolygon", "coordinates": [[[[113.8476188, 22.5758387], [113.8479976, 22.5755264], [113.8480206, 22.5755501], [113.8480397, 22.5755344], [113.8480993, 22.5755961], [113.8480249, 22.5756572], [113.848074, 22.5757083], [113.8481486, 22.5756471], [113.8482132, 22.5757139], [113.8481945, 22.5757294], [113.8482159, 22.5757516], [113.8478372, 22.5760639], [113.8478151, 22.5760411], [113.8477935, 22.5760589], [113.8477286, 22.5759917], [113.8478053, 22.5759288], [113.8477561, 22.5758777], [113.8476793, 22.5759407], [113.84762, 22.5758794], [113.8476412, 22.5758619], [113.8476188, 22.5758387]]]]}}, {"type": "Feature", "id": "relation/14533088", "properties": {"tags": {"building": "retail", "layer": "1"}, "heightStatus": "unknown", "source": "OpenStreetMap", "license": "ODbL-1.0"}, "geometry": {"type": "MultiPolygon", "coordinates": [[[[113.8460267, 22.5759669], [113.8460335, 22.5759267], [113.8461009, 22.5758725], [113.8461564, 22.5758281], [113.8462531, 22.5757504], [113.8462742, 22.5757728], [113.8463649, 22.5756984], [113.8463441, 22.5756762], [113.8464009, 22.5756308], [113.8467797, 22.5753185], [113.8469656, 22.5751643], [113.8473443, 22.574852], [113.8473658, 22.5748742], [113.8473845, 22.5748588], [113.847408, 22.5748302], [113.8474485, 22.5748562], [113.8474916, 22.5748868], [113.8475549, 22.5748082], [113.847485, 22.5747355], [113.8477005, 22.5745605], [113.8477585, 22.5745669], [113.8479721, 22.5747892], [113.848063, 22.5748829], [113.8482974, 22.5751274], [113.8483832, 22.5752171], [113.8485896, 22.5754349], [113.8485883, 22.575451], [113.8483216, 22.5756665], [113.8482159, 22.5757516], [113.8478372, 22.5760639], [113.847646, 22.5762191], [113.8472673, 22.5765314], [113.8472088, 22.5765803], [113.8471859, 22.576558], [113.8470877, 22.576636], [113.8470634, 22.5766554], [113.8470798, 22.576673], [113.8470065, 22.5767317], [113.8468828, 22.5768306], [113.846866, 22.5768127], [113.8468399, 22.5768336], [113.8465076, 22.5764791], [113.8464326, 22.5764003], [113.8464553, 22.5763821], [113.846426, 22.5763508], [113.8464032, 22.5763689], [113.8463592, 22.5763203], [113.8460267, 22.5759669]], [[113.8463881, 22.575842], [113.8463896, 22.575856], [113.8463999, 22.5758714], [113.8464282, 22.5758907], [113.8464734, 22.5759134], [113.8465224, 22.5759344], [113.8465679, 22.5759477], [113.846596, 22.5759477], [113.8466074, 22.5759421], [113.846618, 22.5759274], [113.8466256, 22.5759029], [113.8466271, 22.5758861], [113.8466195, 22.5758742], [113.8466005, 22.5758644], [113.8465482, 22.5758469], [113.8464867, 22.5758272], [113.8464427, 22.575809], [113.8464162, 22.5758055], [113.8464041, 22.5758118], [113.8463927, 22.5758272], [113.8463881, 22.575842]], [[113.8466543, 22.5760062], [113.8466579, 22.5760301], [113.8466705, 22.5760524], [113.8466814, 22.5760624], [113.8466982, 22.5760696], [113.8467199, 22.5760713], [113.8467542, 22.5760679], [113.8467879, 22.5760546], [113.8468205, 22.5760329], [113.8468566, 22.5759957], [113.8468945, 22.5759495], [113.8469048, 22.5759262], [113.8469048, 22.57591], [113.8468981, 22.5758889], [113.8468855, 22.575875], [113.8468662, 22.5758633], [113.8468463, 22.575855], [113.8468253, 22.575855], [113.8467255, 22.5758764], [113.8467044, 22.5758839], [113.8466922, 22.5758934], [113.8466802, 22.5759095], [113.8466717, 22.5759289], [113.8466561, 22.5759773], [113.8466543, 22.5760062]], [[113.8469383, 22.5758156], [113.8469417, 22.5758288], [113.8469508, 22.5758393], [113.846966, 22.5758462], [113.8469863, 22.5758506], [113.8470059, 22.5758475], [113.8470449, 22.5758333], [113.8470893, 22.5758203], [113.8471444, 22.5758069], [113.8471559, 22.5757982], [113.8471627, 22.5757876], [113.8471627, 22.5757757], [113.8471552, 22.575767], [113.8470937, 22.5756983], [113.8470843, 22.5756933], [113.8470741, 22.5756946], [113.846943, 22.5758032], [113.8469383, 22.5758156]], [[113.8471281, 22.5756635], [113.8471313, 22.5756717], [113.8472046, 22.5757464], [113.8472181, 22.5757557], [113.8472351, 22.57576], [113.8472504, 22.5757604], [113.8472662, 22.5757558], [113.8472789, 22.5757489], [113.8472946, 22.5757349], [113.8473136, 22.5757143], [113.8473327, 22.57569], [113.8473449, 22.5756697], [113.8473765, 22.5756175], [113.8474046, 22.5755748], [113.8474197, 22.5755551], [113.8474364, 22.5755354], [113.8474601, 22.5755117], [113.8474786, 22.5754937], [113.847484, 22.575485], [113.8474843, 22.5754746], [113.8474792, 22.5754632], [113.8474716, 22.5754553], [113.8474486, 22.5754312], [113.8474359, 22.5754229], [113.8474232, 22.5754204], [113.8474118, 22.575423], [113.8474013, 22.5754268], [113.8473675, 22.5754506], [113.8471339, 22.5756448], [113.8471291, 22.5756539], [113.8471281, 22.5756635]], [[113.8475204, 22.5753746], [113.8475271, 22.575394], [113.8475386, 22.5754102], [113.8475562, 22.5754221], [113.8475765, 22.5754308], [113.8475995, 22.5754314], [113.8476299, 22.5754252], [113.8476893, 22.5754127], [113.8477583, 22.575404], [113.8477924, 22.5753937], [113.8478245, 22.5753759], [113.8478509, 22.5753466], [113.8478657, 22.5753135], [113.8478691, 22.5752835], [113.8478664, 22.5752573], [113.8478556, 22.5752286], [113.8478347, 22.5751968], [113.847811, 22.5751737], [113.8477819, 22.575155], [113.8477502, 22.5751437], [113.8477177, 22.5751412], [113.8476853, 22.5751462], [113.8476576, 22.5751593], [113.8476312, 22.5751756], [113.8476103, 22.5751999], [113.8475927, 22.5752305], [113.8475771, 22.5752648], [113.8475562, 22.5753029], [113.8475285, 22.5753428], [113.8475211, 22.5753578], [113.8475204, 22.5753746]], [[113.8475443, 22.5749271], [113.8475498, 22.5749385], [113.8475753, 22.5749683], [113.8475932, 22.5750029], [113.8476085, 22.5750564], [113.8476189, 22.5750818], [113.8476258, 22.5750901], [113.8476345, 22.575093], [113.8476804, 22.5750811], [113.8476926, 22.5750699], [113.8476953, 22.575053], [113.847686, 22.5750219], [113.8476684, 22.5749844], [113.8476501, 22.574954], [113.8476065, 22.574899], [113.8475891, 22.5748843], [113.8475754, 22.5748835], [113.847564, 22.5748905], [113.8475472, 22.5749125], [113.8475443, 22.5749271]], [[113.8479224, 22.5754035], [113.847925, 22.5754176], [113.8479328, 22.5754274], [113.8479486, 22.5754329], [113.8479698, 22.5754346], [113.8480363, 22.5754335], [113.8480535, 22.5754317], [113.8480707, 22.5754267], [113.8480832, 22.5754173], [113.8480891, 22.5754041], [113.8480903, 22.5753875], [113.8480845, 22.5753721], [113.8480757, 22.575358], [113.8480615, 22.5753474], [113.8479866, 22.5753206], [113.8479698, 22.575317], [113.8479545, 22.5753173], [113.8479408, 22.575324], [113.8479312, 22.5753361], [113.8479276, 22.575349], [113.8479224, 22.5754035]]]]}}, {"type": "Feature", "id": "way/1216231217", "properties": {"tags": {"addr:housename": "玉湖湾", "addr:housename:en": "Yuhu Bay", "addr:housename:zh": "玉湖湾", "building": "apartments", "building:levels": "30", "name": "1栋", "name:en": "Block 1", "name:zh": "1栋"}, "heightStatus": "levels_only_unverified", "source": "OpenStreetMap", "license": "ODbL-1.0"}, "geometry": {"type": "MultiPolygon", "coordinates": [[[[113.8422881, 22.5748042], [113.8423057, 22.5747201], [113.8423821, 22.5747338], [113.8423914, 22.5746894], [113.8425893, 22.5747246], [113.84258, 22.574769], [113.8426564, 22.5747826], [113.8426388, 22.5748667], [113.8422881, 22.5748042]]]]}}, {"type": "Feature", "id": "way/1216231218", "properties": {"tags": {"addr:housename": "玉湖湾", "addr:housename:en": "Yuhu Bay", "addr:housename:zh": "玉湖湾", "building": "apartments", "building:levels": "30", "name": "3栋", "name:en": "Block 3", "name:zh": "3栋"}, "heightStatus": "levels_only_unverified", "source": "OpenStreetMap", "license": "ODbL-1.0"}, "geometry": {"type": "MultiPolygon", "coordinates": [[[[113.8430704, 22.5756162], [113.843088, 22.5755321], [113.8431644, 22.5755457], [113.8431736, 22.5755013], [113.8433715, 22.5755366], [113.8433623, 22.575581], [113.8434748, 22.575601], [113.8434572, 22.5756851], [113.8430704, 22.5756162]]]]}}, {"type": "Feature", "id": "way/1435034086", "properties": {"tags": {"building": "commercial", "building:levels": "25", "height": "100"}, "heightStatus": "height_tag_unverified", "source": "OpenStreetMap", "license": "ODbL-1.0"}, "geometry": {"type": "MultiPolygon", "coordinates": [[[[113.8460884, 22.573328], [113.8463938, 22.5730767], [113.8466054, 22.5732959], [113.8462999, 22.5735472], [113.8460884, 22.573328]]]]}}, {"type": "Feature", "id": "way/1435034089", "properties": {"tags": {"addr:housename": "华丰·前海湾二期", "addr:housename:en": "Huafeng Qianhai Bay Phase II", "addr:housename:zh": "华丰·前海湾二期", "building": "apartments", "building:levels": "31", "name": "F栋", "name:en": "Tower F", "name:zh": "F栋"}, "heightStatus": "levels_only_unverified", "source": "OpenStreetMap", "license": "ODbL-1.0"}, "geometry": {"type": "MultiPolygon", "coordinates": [[[[113.8477666, 22.5734124], [113.8478558, 22.5733382], [113.8478416, 22.5733236], [113.8479343, 22.5732464], [113.8479485, 22.573261], [113.848092, 22.5731415], [113.8480778, 22.5731269], [113.8481705, 22.5730497], [113.8481847, 22.5730642], [113.8482739, 22.57299], [113.8483379, 22.5730555], [113.8482487, 22.5731297], [113.8482902, 22.5731722], [113.8481974, 22.5732494], [113.848156, 22.573207], [113.8480125, 22.5733265], [113.8480539, 22.5733689], [113.8479612, 22.5734461], [113.8479197, 22.5734037], [113.8478306, 22.5734779], [113.8477666, 22.5734124]]]]}}, {"type": "Feature", "id": "way/1435034090", "properties": {"tags": {"addr:housename": "华丰·前海湾二期", "addr:housename:en": "Huafeng Qianhai Bay Phase II", "addr:housename:zh": "华丰·前海湾二期", "building": "apartments", "building:levels": "31", "name": "G栋", "name:en": "Tower G", "name:zh": "G栋"}, "heightStatus": "levels_only_unverified", "source": "OpenStreetMap", "license": "ODbL-1.0"}, "geometry": {"type": "MultiPolygon", "coordinates": [[[[113.8471217, 22.572032], [113.8471927, 22.571973], [113.8472731, 22.5720553], [113.847319, 22.572017], [113.8474027, 22.5721026], [113.8473567, 22.5721409], [113.8474861, 22.5722734], [113.8475321, 22.5722351], [113.8476157, 22.5723208], [113.8475697, 22.5723591], [113.8476501, 22.5724414], [113.8475792, 22.5725004], [113.8474988, 22.5724181], [113.847483, 22.5724312], [113.8473994, 22.5723456], [113.8474152, 22.5723325], [113.8472858, 22.5722], [113.84727, 22.5722131], [113.8471864, 22.5721275], [113.8472021, 22.5721143], [113.8471217, 22.572032]]]]}}, {"type": "Feature", "id": "way/1435034091", "properties": {"tags": {"addr:housename": "华丰·前海湾二期", "addr:housename:en": "Huafeng Qianhai Bay Phase II", "addr:housename:zh": "华丰·前海湾二期", "building": "apartments", "building:levels": "31", "name": "E栋", "name:en": "Tower E", "name:zh": "E栋"}, "heightStatus": "levels_only_unverified", "source": "OpenStreetMap", "license": "ODbL-1.0"}, "geometry": {"type": "MultiPolygon", "coordinates": [[[[113.8470848, 22.5729241], [113.8471557, 22.572865], [113.8472361, 22.5729474], [113.8472821, 22.5729091], [113.8473657, 22.5729947], [113.8473197, 22.573033], [113.8474491, 22.5731655], [113.8474951, 22.5731272], [113.8475787, 22.5732128], [113.8475328, 22.5732511], [113.8476132, 22.5733334], [113.8475422, 22.5733925], [113.8474618, 22.5733102], [113.8474461, 22.5733233], [113.8473624, 22.5732377], [113.8473782, 22.5732246], [113.8472488, 22.5730921], [113.847233, 22.5731052], [113.8471494, 22.5730195], [113.8471652, 22.5730064], [113.8470848, 22.5729241]]]]}}, {"type": "Feature", "id": "way/1435034092", "properties": {"tags": {"addr:housename": "华丰·前海湾二期", "addr:housename:en": "Huafeng Qianhai Bay Phase II", "addr:housename:zh": "华丰·前海湾二期", "building": "apartments", "building:levels": "31", "name": "D栋", "name:en": "Tower D", "name:zh": "D栋"}, "heightStatus": "levels_only_unverified", "source": "OpenStreetMap", "license": "ODbL-1.0"}, "geometry": {"type": "MultiPolygon", "coordinates": [[[[113.846404, 22.5722201], [113.8464749, 22.572161], [113.8465553, 22.5722434], [113.8466013, 22.5722051], [113.8466849, 22.5722907], [113.846639, 22.572329], [113.8467684, 22.5724615], [113.8468144, 22.5724232], [113.846898, 22.5725088], [113.846852, 22.5725471], [113.8469324, 22.5726294], [113.8468615, 22.5726885], [113.8467811, 22.5726062], [113.8467653, 22.5726193], [113.8466817, 22.5725337], [113.8466975, 22.5725206], [113.846568, 22.5723881], [113.8465523, 22.5724012], [113.8464686, 22.5723156], [113.8464844, 22.5723024], [113.846404, 22.5722201]]]]}}, {"type": "Feature", "id": "way/1435034096", "properties": {"tags": {"addr:housename": "华丰·前海湾一期", "addr:housename:en": "Huafeng Qianhai Bay Phase I", "addr:housename:zh": "华丰·前海湾一期", "building": "apartments", "building:levels": "31", "name": "D栋", "name:en": "Tower D", "name:zh": "D栋"}, "heightStatus": "levels_only_unverified", "source": "OpenStreetMap", "license": "ODbL-1.0"}, "geometry": {"type": "MultiPolygon", "coordinates": [[[[113.8451526, 22.5722508], [113.8453678, 22.5720716], [113.8456837, 22.5723951], [113.8454685, 22.5725743], [113.8454038, 22.572508], [113.8454689, 22.5724538], [113.8454205, 22.5724042], [113.8454881, 22.5723479], [113.8453984, 22.5722561], [113.8453309, 22.5723124], [113.8452824, 22.5722628], [113.8452173, 22.572317], [113.8451526, 22.5722508]]]]}}, {"type": "Feature", "id": "way/1435034097", "properties": {"tags": {"addr:housename": "华丰·前海湾一期", "addr:housename:en": "Huafeng Qianhai Bay Phase I", "addr:housename:zh": "华丰·前海湾一期", "building": "apartments", "building:levels": "31", "name": "B栋", "name:en": "Tower B", "name:zh": "B栋"}, "heightStatus": "levels_only_unverified", "source": "OpenStreetMap", "license": "ODbL-1.0"}, "geometry": {"type": "MultiPolygon", "coordinates": [[[[113.8449724, 22.572954], [113.8451402, 22.5728142], [113.8452774, 22.5729546], [113.8452559, 22.5729725], [113.8453621, 22.5730813], [113.8453836, 22.5730634], [113.8455207, 22.5732038], [113.8453529, 22.5733436], [113.8452261, 22.5732137], [113.8452729, 22.5731748], [113.8452866, 22.5731888], [113.8453199, 22.5731611], [113.8451656, 22.5730031], [113.8451323, 22.5730308], [113.845146, 22.5730449], [113.8450993, 22.5730838], [113.8449724, 22.572954]]]]}}, {"type": "Feature", "id": "way/1435034098", "properties": {"tags": {"addr:housename": "华丰·前海湾一期", "addr:housename:en": "Huafeng Qianhai Bay Phase I", "addr:housename:zh": "华丰·前海湾一期", "building": "apartments", "building:levels": "31", "name": "C栋", "name:en": "Tower C", "name:zh": "C栋"}, "heightStatus": "levels_only_unverified", "source": "OpenStreetMap", "license": "ODbL-1.0"}, "geometry": {"type": "MultiPolygon", "coordinates": [[[[113.8455091, 22.5729421], [113.8459044, 22.5726129], [113.8460302, 22.5727417], [113.8456349, 22.5730709], [113.8455091, 22.5729421]]]]}}, {"type": "Feature", "id": "way/1435034099", "properties": {"tags": {"addr:housename": "华丰·前海湾一期", "addr:housename:en": "Huafeng Qianhai Bay Phase I", "addr:housename:zh": "华丰·前海湾一期", "building": "apartments", "building:levels": "31", "name": "A栋", "name:en": "Tower A", "name:zh": "A栋"}, "heightStatus": "levels_only_unverified", "source": "OpenStreetMap", "license": "ODbL-1.0"}, "geometry": {"type": "MultiPolygon", "coordinates": [[[[113.8446745, 22.5726489], [113.8448988, 22.5724622], [113.8449919, 22.5725575], [113.8448406, 22.5726835], [113.8448951, 22.5727393], [113.8449603, 22.572685], [113.8450237, 22.5727498], [113.8449584, 22.5728041], [113.8450082, 22.572855], [113.8449352, 22.5729158], [113.8446745, 22.5726489]]]]}}, {"type": "Feature", "id": "way/1435035212", "properties": {"tags": {"building": "kindergarten", "building:levels": "3"}, "heightStatus": "levels_only_unverified", "source": "OpenStreetMap", "license": "ODbL-1.0"}, "geometry": {"type": "MultiPolygon", "coordinates": [[[[113.8427289, 22.5743911], [113.8427375, 22.5743474], [113.842755, 22.5743061], [113.8427807, 22.5742687], [113.8428137, 22.5742365], [113.8428523, 22.57421], [113.8428957, 22.5741909], [113.8429422, 22.5741799], [113.8429901, 22.5741772], [113.8430377, 22.5741831], [113.8430833, 22.5741973], [113.843125, 22.5742192], [113.8431614, 22.5742482], [113.8431911, 22.574283], [113.8432131, 22.5743225], [113.8432264, 22.5743651], [113.8432311, 22.5744092], [113.8432376, 22.574431], [113.8432497, 22.5744505], [113.8432668, 22.5744667], [113.8431831, 22.5745421], [113.8431571, 22.5745165], [113.8431363, 22.5744871], [113.8431215, 22.5744547], [113.8431142, 22.5744206], [113.8431118, 22.5743838], [113.8430978, 22.5743494], [113.8430735, 22.5743202], [113.843041, 22.5742989], [113.8430031, 22.5742873], [113.8429633, 22.5742865], [113.8429249, 22.5742965], [113.8428914, 22.5743165], [113.8428657, 22.5743446], [113.8428501, 22.5743785], [113.8428459, 22.5744151], [113.8428535, 22.5744513], [113.8428723, 22.5744837], [113.8429005, 22.5745097], [113.8429358, 22.5745269], [113.8429758, 22.5745333], [113.8430116, 22.5745448], [113.8430446, 22.5745622], [113.8430737, 22.5745847], [113.8430981, 22.5746116], [113.8430071, 22.5746793], [113.8429918, 22.5746618], [113.8429722, 22.5746483], [113.8429495, 22.5746397], [113.8429026, 22.5746302], [113.8428584, 22.5746128], [113.8428186, 22.574588], [113.8427847, 22.5745566], [113.842758, 22.5745197], [113.8427393, 22.5744789], [113.8427295, 22.5744354], [113.8427289, 22.5743911]]]]}}, {"type": "Feature", "id": "way/1435035214", "properties": {"tags": {"addr:housename": "玉湖湾", "addr:housename:en": "Yuhu Bay", "addr:housename:zh": "玉湖湾", "building": "apartments", "building:levels": "10", "name": "9栋", "name:en": "Block 9", "name:zh": "9栋"}, "heightStatus": "levels_only_unverified", "source": "OpenStreetMap", "license": "ODbL-1.0"}, "geometry": {"type": "MultiPolygon", "coordinates": [[[[113.8436381, 22.5749657], [113.8436562, 22.5749508], [113.8436432, 22.5749374], [113.8436923, 22.574897], [113.8437441, 22.5749507], [113.8437704, 22.5749291], [113.8439032, 22.5750668], [113.843877, 22.5750884], [113.8439287, 22.5751421], [113.8438796, 22.5751825], [113.8438667, 22.5751691], [113.8438486, 22.5751839], [113.8436381, 22.5749657]]]]}}, {"type": "Feature", "id": "way/1435035215", "properties": {"tags": {"addr:housename": "玉湖湾", "addr:housename:en": "Yuhu Bay", "addr:housename:zh": "玉湖湾", "building": "apartments", "building:levels": "10", "name": "10栋", "name:en": "Block 10", "name:zh": "10栋"}, "heightStatus": "levels_only_unverified", "source": "OpenStreetMap", "license": "ODbL-1.0"}, "geometry": {"type": "MultiPolygon", "coordinates": [[[[113.8434017, 22.5747206], [113.8434198, 22.5747057], [113.8434069, 22.5746923], [113.843456, 22.5746519], [113.8435077, 22.5747056], [113.843534, 22.574684], [113.8436669, 22.5748217], [113.8436406, 22.5748433], [113.8436923, 22.574897], [113.8436432, 22.5749374], [113.8436303, 22.574924], [113.8436122, 22.5749389], [113.8434017, 22.5747206]]]]}}, {"type": "Feature", "id": "way/1435035216", "properties": {"tags": {"addr:housename": "玉湖湾", "addr:housename:en": "Yuhu Bay", "addr:housename:zh": "玉湖湾", "building": "apartments", "building:levels": "10", "name": "4栋", "name:en": "Block 4", "name:zh": "4栋"}, "heightStatus": "levels_only_unverified", "source": "OpenStreetMap", "license": "ODbL-1.0"}, "geometry": {"type": "MultiPolygon", "coordinates": [[[[113.8441682, 22.5754937], [113.8442774, 22.5754039], [113.8446804, 22.5758217], [113.8445711, 22.5759116], [113.8441682, 22.5754937]]]]}}, {"type": "Feature", "id": "way/1435035217", "properties": {"tags": {"addr:housename": "玉湖湾", "addr:housename:en": "Yuhu Bay", "addr:housename:zh": "玉湖湾", "building": "apartments", "building:levels": "30", "name": "8栋", "name:en": "Block 8", "name:zh": "8栋"}, "heightStatus": "levels_only_unverified", "source": "OpenStreetMap", "license": "ODbL-1.0"}, "geometry": {"type": "MultiPolygon", "coordinates": [[[[113.8445381, 22.5761471], [113.8446416, 22.576062], [113.8447112, 22.5761342], [113.8446967, 22.5761462], [113.8447222, 22.5761727], [113.8447803, 22.5761249], [113.8448397, 22.5761864], [113.8446345, 22.5763551], [113.8445752, 22.5762936], [113.8446478, 22.5762339], [113.8446223, 22.5762074], [113.8446077, 22.5762193], [113.8445381, 22.5761471]]]]}}, {"type": "Feature", "id": "way/1435035218", "properties": {"tags": {"addr:housename": "玉湖湾", "addr:housename:en": "Yuhu Bay", "addr:housename:zh": "玉湖湾", "building": "apartments", "building:levels": "30", "name": "7栋", "name:en": "Block 7", "name:zh": "7栋"}, "heightStatus": "levels_only_unverified", "source": "OpenStreetMap", "license": "ODbL-1.0"}, "geometry": {"type": "MultiPolygon", "coordinates": [[[[113.8443183, 22.5763278], [113.8444218, 22.5762427], [113.8444915, 22.5763149], [113.8444769, 22.5763268], [113.8445025, 22.5763533], [113.8445752, 22.5762936], [113.8446345, 22.5763551], [113.8444293, 22.5765238], [113.84437, 22.5764623], [113.8444281, 22.5764145], [113.8444025, 22.576388], [113.844388, 22.5764], [113.8443183, 22.5763278]]]]}}, {"type": "Feature", "id": "way/1435035219", "properties": {"tags": {"addr:housename": "玉湖湾", "addr:housename:en": "Yuhu Bay", "addr:housename:zh": "玉湖湾", "building": "apartments", "building:levels": "30", "name": "6栋", "name:en": "Block 6", "name:zh": "6栋"}, "heightStatus": "levels_only_unverified", "source": "OpenStreetMap", "license": "ODbL-1.0"}, "geometry": {"type": "MultiPolygon", "coordinates": [[[[113.8438091, 22.5763764], [113.8438267, 22.5762923], [113.8439031, 22.5763059], [113.8439124, 22.5762615], [113.8441103, 22.5762968], [113.844101, 22.5763412], [113.8441774, 22.5763548], [113.8441598, 22.5764389], [113.8438091, 22.5763764]]]]}}, {"type": "Feature", "id": "way/1435035220", "properties": {"tags": {"addr:housename": "玉湖湾", "addr:housename:en": "Yuhu Bay", "addr:housename:zh": "玉湖湾", "building": "apartments", "building:levels": "30", "name": "5栋", "name:en": "Block 5", "name:zh": "5栋"}, "heightStatus": "levels_only_unverified", "source": "OpenStreetMap", "license": "ODbL-1.0"}, "geometry": {"type": "MultiPolygon", "coordinates": [[[[113.843475, 22.5760233], [113.8434925, 22.5759392], [113.843569, 22.5759528], [113.8435782, 22.5759084], [113.8437761, 22.5759437], [113.8437668, 22.5759881], [113.8438433, 22.5760017], [113.8438257, 22.5760858], [113.843475, 22.5760233]]]]}}, {"type": "Feature", "id": "way/1435035221", "properties": {"tags": {"addr:housename": "玉湖湾", "addr:housename:en": "Yuhu Bay", "addr:housename:zh": "玉湖湾", "building": "apartments", "building:levels": "30", "name": "2栋", "name:en": "Block 2", "name:zh": "2栋"}, "heightStatus": "levels_only_unverified", "source": "OpenStreetMap", "license": "ODbL-1.0"}, "geometry": {"type": "MultiPolygon", "coordinates": [[[[113.8426746, 22.575199], [113.8426922, 22.575115], [113.8427686, 22.5751286], [113.8427779, 22.5750842], [113.8429757, 22.5751194], [113.8429665, 22.5751638], [113.843079, 22.5751839], [113.8430614, 22.575268], [113.8426746, 22.575199]]]]}}, {"type": "Feature", "id": "way/1435036538", "properties": {"tags": {"building": "school"}, "heightStatus": "unknown", "source": "OpenStreetMap", "license": "ODbL-1.0"}, "geometry": {"type": "MultiPolygon", "coordinates": [[[[113.8416306, 22.5771626], [113.8416322, 22.576968], [113.8417256, 22.576889], [113.8422331, 22.5768924], [113.8422302, 22.5772523], [113.8417227, 22.5772489], [113.8416306, 22.5771626]]]]}}, {"type": "Feature", "id": "relation/19672982", "properties": {"tags": {"building": "school"}, "heightStatus": "unknown", "source": "OpenStreetMap", "license": "ODbL-1.0"}, "geometry": {"type": "MultiPolygon", "coordinates": [[[[113.842313, 22.5778241], [113.8423149, 22.5775919], [113.8423658, 22.5775923], [113.8423676, 22.5773684], [113.8423167, 22.5773681], [113.8423238, 22.5764915], [113.8428856, 22.5764954], [113.8428852, 22.5765443], [113.8434863, 22.5765485], [113.8434854, 22.5766563], [113.8434233, 22.5766558], [113.8434193, 22.5771499], [113.8434815, 22.5771504], [113.8434806, 22.5772582], [113.8428994, 22.5772542], [113.842896, 22.5776761], [113.8424413, 22.5776729], [113.8424401, 22.577825], [113.842313, 22.5778241]], [[113.8424161, 22.5771015], [113.8428806, 22.5771047], [113.8428824, 22.5768891], [113.8424179, 22.5768859], [113.8424161, 22.5771015]], [[113.8424186, 22.5767976], [113.8428831, 22.5768008], [113.8428848, 22.5765852], [113.8424203, 22.576582], [113.8424186, 22.5767976]], [[113.842442, 22.5775802], [113.8427226, 22.5775821], [113.8427258, 22.5771935], [113.8424452, 22.5771915], [113.842442, 22.5775802]], [[113.8429144, 22.5771465], [113.8433825, 22.5771497], [113.8433841, 22.5769521], [113.842916, 22.5769489], [113.8429144, 22.5771465]], [[113.8429168, 22.57685], [113.8433849, 22.5768532], [113.8433865, 22.5766556], [113.8429184, 22.5766524], [113.8429168, 22.57685]]]]}}, {"type": "Feature", "id": "relation/19672983", "properties": {"tags": {"building": "school"}, "heightStatus": "unknown", "source": "OpenStreetMap", "license": "ODbL-1.0"}, "geometry": {"type": "MultiPolygon", "coordinates": [[[[113.84202, 22.5762354], [113.8420208, 22.5761354], [113.8422267, 22.5761368], [113.8422277, 22.5760041], [113.8420218, 22.5760026], [113.8420226, 22.5759027], [113.8422285, 22.5759041], [113.8422295, 22.5757788], [113.8420237, 22.5757774], [113.8420245, 22.5756774], [113.8422304, 22.5756788], [113.8422313, 22.5755567], [113.8420254, 22.5755553], [113.8420263, 22.5754553], [113.8425131, 22.5754586], [113.8425123, 22.5755586], [113.8423334, 22.5755574], [113.8423324, 22.5756795], [113.8427311, 22.5756822], [113.8427303, 22.5757822], [113.8423316, 22.5757795], [113.8423306, 22.5759048], [113.8429368, 22.5759089], [113.8429349, 22.5761417], [113.8431665, 22.5761433], [113.8431657, 22.5762433], [113.84202, 22.5762354]], [[113.8423287, 22.5761375], [113.8428444, 22.576141], [113.8428455, 22.5760083], [113.8423298, 22.5760048], [113.8423287, 22.5761375]]]]}}, {"type": "Feature", "id": "way/1435036547", "properties": {"tags": {"building": "school"}, "heightStatus": "unknown", "source": "OpenStreetMap", "license": "ODbL-1.0"}, "geometry": {"type": "MultiPolygon", "coordinates": [[[[113.8420497, 22.5753226], [113.8420521, 22.5750363], [113.8421105, 22.5750367], [113.8421085, 22.5752691], [113.8423411, 22.5752708], [113.8423406, 22.5753247], [113.8420497, 22.5753226]]]]}}, {"type": "Feature", "id": "way/1435041083", "properties": {"tags": {"addr:housename": "城市峰尚花园", "addr:housename:en": "Chengshi Fengshang Garden", "addr:housename:zh": "城市峰尚花园", "building": "apartments", "building:levels": "12", "name": "3栋", "name:en": "Block 3", "name:zh": "3栋"}, "heightStatus": "levels_only_unverified", "source": "OpenStreetMap", "license": "ODbL-1.0"}, "geometry": {"type": "MultiPolygon", "coordinates": [[[[113.8457434, 22.5771297], [113.8458063, 22.5770783], [113.8458818, 22.5771572], [113.8459717, 22.5770838], [113.8460734, 22.57719], [113.8459835, 22.5772634], [113.8460387, 22.577321], [113.8459758, 22.5773724], [113.8457434, 22.5771297]]]]}}, {"type": "Feature", "id": "way/1435041084", "properties": {"tags": {"addr:housename": "城市峰尚花园", "addr:housename:en": "Chengshi Fengshang Garden", "addr:housename:zh": "城市峰尚花园", "building": "apartments", "building:levels": "12", "name": "2栋", "name:en": "Block 2", "name:zh": "2栋"}, "heightStatus": "levels_only_unverified", "source": "OpenStreetMap", "license": "ODbL-1.0"}, "geometry": {"type": "MultiPolygon", "coordinates": [[[[113.845511, 22.576887], [113.8455739, 22.5768357], [113.8456291, 22.5768933], [113.845719, 22.5768199], [113.8458207, 22.5769261], [113.8457308, 22.5769995], [113.8458063, 22.5770783], [113.8457434, 22.5771297], [113.845511, 22.576887]]]]}}, {"type": "Feature", "id": "way/1435041085", "properties": {"tags": {"addr:housename": "城市峰尚花园", "addr:housename:en": "Chengshi Fengshang Garden", "addr:housename:zh": "城市峰尚花园", "building": "apartments", "building:levels": "12", "name": "4栋", "name:en": "Block 4", "name:zh": "4栋"}, "heightStatus": "levels_only_unverified", "source": "OpenStreetMap", "license": "ODbL-1.0"}, "geometry": {"type": "MultiPolygon", "coordinates": [[[[113.8459758, 22.5773724], [113.8460387, 22.577321], [113.8460939, 22.5773786], [113.846141, 22.5773402], [113.8462246, 22.5774276], [113.8461983, 22.577449], [113.8462324, 22.5774846], [113.8461621, 22.5775419], [113.846141, 22.5775198], [113.8460476, 22.577596], [113.8459875, 22.5775333], [113.8460674, 22.5774681], [113.8459758, 22.5773724]]]]}}, {"type": "Feature", "id": "way/1435041086", "properties": {"tags": {"addr:housename": "城市峰尚花园", "addr:housename:en": "Chengshi Fengshang Garden", "addr:housename:zh": "城市峰尚花园", "building": "apartments", "building:levels": "12", "name": "1栋", "name:en": "Block 1", "name:zh": "1栋"}, "heightStatus": "levels_only_unverified", "source": "OpenStreetMap", "license": "ODbL-1.0"}, "geometry": {"type": "MultiPolygon", "coordinates": [[[[113.8452794, 22.5767938], [113.8453727, 22.5767176], [113.8453516, 22.5766955], [113.8454218, 22.5766381], [113.8454559, 22.5766737], [113.8454822, 22.5766522], [113.8455658, 22.5767396], [113.8455187, 22.576778], [113.8455739, 22.5768357], [113.845511, 22.576887], [113.8454194, 22.5767913], [113.8453395, 22.5768565], [113.8452794, 22.5767938]]]]}}, {"type": "Feature", "id": "way/1435041089", "properties": {"tags": {"building": "commercial", "building:levels": "8"}, "heightStatus": "levels_only_unverified", "source": "OpenStreetMap", "license": "ODbL-1.0"}, "geometry": {"type": "MultiPolygon", "coordinates": [[[[113.8442543, 22.5777938], [113.8442981, 22.5777581], [113.8443062, 22.5777254], [113.8443228, 22.5776955], [113.8443468, 22.5776703], [113.8443768, 22.5776514], [113.844411, 22.5776398], [113.8444471, 22.5776364], [113.8444908, 22.5776007], [113.8447805, 22.5779031], [113.8451855, 22.5775724], [113.8448959, 22.57727], [113.8449396, 22.5772343], [113.8449477, 22.5772016], [113.8449643, 22.5771717], [113.8449883, 22.5771466], [113.8450183, 22.5771276], [113.8450525, 22.5771161], [113.8450886, 22.5771126], [113.8451324, 22.5770769], [113.8455958, 22.5775609], [113.8447178, 22.5782777], [113.8442543, 22.5777938]]]]}}, {"type": "Feature", "id": "way/1435041093", "properties": {"tags": {"building": "hospital", "name": "住院楼2号楼", "name:en": "Inpatient Building Block 2", "name:zh": "住院楼2号楼"}, "heightStatus": "unknown", "source": "OpenStreetMap", "license": "ODbL-1.0"}, "geometry": {"type": "MultiPolygon", "coordinates": [[[[113.8458795, 22.5794804], [113.8467699, 22.5787535], [113.8468561, 22.5788435], [113.8459657, 22.5795704], [113.8458795, 22.5794804]]]]}}, {"type": "Feature", "id": "way/1435041094", "properties": {"tags": {"addr:housename": "深圳恒生医院住宅小区", "addr:housename:en": "Shenzhen Heng Sheng Hospital Residential Estate", "addr:housename:zh": "深圳恒生医院住宅小区", "building": "apartments", "name": "7栋", "name:en": "Block 7", "name:zh": "7栋"}, "heightStatus": "unknown", "source": "OpenStreetMap", "license": "ODbL-1.0"}, "geometry": {"type": "MultiPolygon", "coordinates": [[[[113.8463374, 22.5783784], [113.8464108, 22.5783184], [113.8467062, 22.5786269], [113.8466328, 22.5786868], [113.8463374, 22.5783784]]]]}}, {"type": "Feature", "id": "way/1435041095", "properties": {"tags": {"addr:housename": "深圳恒生医院住宅小区", "addr:housename:en": "Shenzhen Heng Sheng Hospital Residential Estate", "addr:housename:zh": "深圳恒生医院住宅小区", "building": "apartments", "name": "9栋", "name:en": "Block 9", "name:zh": "9栋"}, "heightStatus": "unknown", "source": "OpenStreetMap", "license": "ODbL-1.0"}, "geometry": {"type": "MultiPolygon", "coordinates": [[[[113.8456378, 22.5783398], [113.8457215, 22.5782715], [113.8457592, 22.5783109], [113.8457447, 22.5783228], [113.845759, 22.5783377], [113.8458173, 22.5782901], [113.845803, 22.5782751], [113.8457884, 22.5782871], [113.8457507, 22.5782477], [113.8458344, 22.5781793], [113.8458721, 22.5782187], [113.8458575, 22.5782306], [113.8458719, 22.5782456], [113.8459302, 22.578198], [113.8459158, 22.578183], [113.8459012, 22.5781949], [113.8458635, 22.5781555], [113.8459472, 22.5780872], [113.8459849, 22.5781266], [113.8459703, 22.5781385], [113.8459847, 22.5781535], [113.846043, 22.5781059], [113.8460286, 22.5780909], [113.8460141, 22.5781028], [113.8459763, 22.5780634], [113.84606, 22.5779951], [113.8460978, 22.5780345], [113.8460832, 22.5780464], [113.8460975, 22.5780614], [113.8461267, 22.5780376], [113.8461663, 22.5780789], [113.8457149, 22.5784474], [113.8456753, 22.5784061], [113.8457045, 22.5783823], [113.8456901, 22.5783673], [113.8456756, 22.5783792], [113.8456378, 22.5783398]]]]}}, {"type": "Feature", "id": "way/1435041096", "properties": {"tags": {"addr:housename": "深圳恒生医院住宅小区", "addr:housename:en": "Shenzhen Heng Sheng Hospital Residential Estate", "addr:housename:zh": "深圳恒生医院住宅小区", "building": "apartments", "name": "8栋", "name:en": "Block 8", "name:zh": "8栋"}, "heightStatus": "unknown", "source": "OpenStreetMap", "license": "ODbL-1.0"}, "geometry": {"type": "MultiPolygon", "coordinates": [[[[113.8451931, 22.5787013], [113.8452667, 22.5786412], [113.8453103, 22.5786867], [113.8453686, 22.5786391], [113.845325, 22.5785936], [113.8453986, 22.5785335], [113.8454421, 22.578579], [113.8455004, 22.5785314], [113.8454569, 22.5784859], [113.8455305, 22.5784259], [113.845574, 22.5784713], [113.8456032, 22.5784475], [113.845672, 22.5785194], [113.8452764, 22.5788424], [113.8452075, 22.5787705], [113.8452367, 22.5787467], [113.8451931, 22.5787013]]]]}}, {"type": "Feature", "id": "way/1435041097", "properties": {"tags": {"addr:housename": "深圳恒生医院住宅小区", "addr:housename:en": "Shenzhen Heng Sheng Hospital Residential Estate", "addr:housename:zh": "深圳恒生医院住宅小区", "building": "apartments", "name": "3栋", "name:en": "Block 3", "name:zh": "3栋"}, "heightStatus": "unknown", "source": "OpenStreetMap", "license": "ODbL-1.0"}, "geometry": {"type": "MultiPolygon", "coordinates": [[[[113.8453649, 22.5789687], [113.8454383, 22.5789088], [113.8458356, 22.5793237], [113.8457622, 22.5793836], [113.8453649, 22.5789687]]]]}}, {"type": "Feature", "id": "way/1435041098", "properties": {"tags": {"addr:housename": "深圳恒生医院住宅小区", "addr:housename:en": "Shenzhen Heng Sheng Hospital Residential Estate", "addr:housename:zh": "深圳恒生医院住宅小区", "building": "apartments", "name": "5栋", "name:en": "Block 5", "name:zh": "5栋"}, "heightStatus": "unknown", "source": "OpenStreetMap", "license": "ODbL-1.0"}, "geometry": {"type": "MultiPolygon", "coordinates": [[[[113.8459858, 22.5786701], [113.8460112, 22.5786021], [113.8460721, 22.5786216], [113.8461303, 22.5786468], [113.8461853, 22.5786777], [113.8462364, 22.5787138], [113.8462831, 22.5787547], [113.8463247, 22.5788], [113.8463609, 22.5788492], [113.8463912, 22.5789016], [113.8463226, 22.5789354], [113.8462942, 22.5788864], [113.8462627, 22.5788436], [113.8462264, 22.5788042], [113.8461858, 22.5787686], [113.8461413, 22.5787371], [113.8460934, 22.5787102], [113.8460427, 22.5786882], [113.8459858, 22.5786701]]]]}}, {"type": "Feature", "id": "way/1435041099", "properties": {"tags": {"addr:housename": "深圳恒生医院住宅小区", "addr:housename:en": "Shenzhen Heng Sheng Hospital Residential Estate", "addr:housename:zh": "深圳恒生医院住宅小区", "building": "apartments", "name": "4栋", "name:en": "Block 4", "name:zh": "4栋"}, "heightStatus": "unknown", "source": "OpenStreetMap", "license": "ODbL-1.0"}, "geometry": {"type": "MultiPolygon", "coordinates": [[[[113.8457212, 22.5788389], [113.8457974, 22.5788239], [113.8458099, 22.5788783], [113.8458274, 22.5789275], [113.8458504, 22.5789746], [113.8458787, 22.5790193], [113.8459121, 22.5790609], [113.84595, 22.5790989], [113.8459921, 22.5791331], [113.8460414, 22.5791651], [113.8459966, 22.5792238], [113.8459439, 22.5791896], [113.8458956, 22.5791504], [113.845852, 22.5791067], [113.8458137, 22.5790589], [113.8457811, 22.5790077], [113.8457547, 22.5789535], [113.8457346, 22.578897], [113.8457212, 22.5788389]]]]}}, {"type": "Feature", "id": "way/1435041100", "properties": {"tags": {"building": "hospital", "name": "门诊楼", "name:en": "Outpatient Building", "name:zh": "门诊楼", "name:zh-Hans": "门诊楼", "name:zh-Hant": "門診樓"}, "heightStatus": "unknown", "source": "OpenStreetMap", "license": "ODbL-1.0"}, "geometry": {"type": "MultiPolygon", "coordinates": [[[[113.8473769, 22.5790986], [113.8474992, 22.5790003], [113.8476032, 22.5791106], [113.84764, 22.579081], [113.8477086, 22.5791538], [113.8477398, 22.5792133], [113.8477763, 22.5792703], [113.8478178, 22.5793242], [113.8478641, 22.5793747], [113.8479152, 22.5794219], [113.8479705, 22.5794649], [113.8480295, 22.5795035], [113.8480919, 22.5795374], [113.848183, 22.579634], [113.8480115, 22.5797718], [113.8473769, 22.5790986]]]]}}, {"type": "Feature", "id": "way/1435041101", "properties": {"tags": {"building": "hospital", "name": "住院楼1号楼", "name:en": "Inpatient Building Block 1", "name:zh": "住院楼1号楼", "name:zh-Hans": "住院楼1号楼", "name:zh-Hant": "住院樓1號大樓"}, "heightStatus": "unknown", "source": "OpenStreetMap", "license": "ODbL-1.0"}, "geometry": {"type": "MultiPolygon", "coordinates": [[[[113.8464286, 22.5799241], [113.846508, 22.5798946], [113.84659, 22.5798715], [113.8466738, 22.5798551], [113.8467588, 22.5798456], [113.8468445, 22.5798429], [113.84693, 22.5798471], [113.8470148, 22.5798581], [113.8470983, 22.579876], [113.8471797, 22.5799005], [113.8472586, 22.5799314], [113.8472223, 22.5800102], [113.8472595, 22.5800246], [113.8472782, 22.5800135], [113.8472998, 22.5800083], [113.847322, 22.5800097], [113.8473427, 22.5800174], [113.8473597, 22.5800308], [113.8473712, 22.5800484], [113.8473762, 22.5800685], [113.847374, 22.580089], [113.847365, 22.5801078], [113.8473501, 22.5801231], [113.8473307, 22.5801332], [113.8473088, 22.5801372], [113.8472867, 22.5801347], [113.8472665, 22.5801258], [113.8472505, 22.5801116], [113.84724, 22.5800934], [113.8472363, 22.5800731], [113.8472397, 22.5800527], [113.8471679, 22.5800245], [113.8471419, 22.5800809], [113.8471114, 22.5800689], [113.8470461, 22.5800492], [113.8469792, 22.5800349], [113.8469112, 22.5800261], [113.8468426, 22.5800227], [113.846774, 22.5800249], [113.8467058, 22.5800325], [113.8466386, 22.5800457], [113.8465729, 22.5800642], [113.8465013, 22.5800908], [113.8464286, 22.5799241]]]]}}, {"type": "Feature", "id": "way/1435041102", "properties": {"tags": {"building": "hospital"}, "heightStatus": "unknown", "source": "OpenStreetMap", "license": "ODbL-1.0"}, "geometry": {"type": "MultiPolygon", "coordinates": [[[[113.8472184, 22.5805122], [113.8475546, 22.5802262], [113.8476694, 22.5803412], [113.8473332, 22.5806273], [113.8472184, 22.5805122]]]]}}, {"type": "Feature", "id": "way/1435041103", "properties": {"tags": {"building": "hospital"}, "heightStatus": "unknown", "source": "OpenStreetMap", "license": "ODbL-1.0"}, "geometry": {"type": "MultiPolygon", "coordinates": [[[[113.8475356, 22.5800996], [113.8478495, 22.5798324], [113.8479706, 22.5799537], [113.8476567, 22.5802209], [113.8475356, 22.5800996]]]]}}, {"type": "Feature", "id": "way/1435041104", "properties": {"tags": {"building": "hospital"}, "heightStatus": "unknown", "source": "OpenStreetMap", "license": "ODbL-1.0"}, "geometry": {"type": "MultiPolygon", "coordinates": [[[[113.847138, 22.5796683], [113.8474409, 22.5794105], [113.8477084, 22.5796784], [113.8474054, 22.5799362], [113.847138, 22.5796683]]]]}}, {"type": "Feature", "id": "way/1435041666", "properties": {"tags": {"addr:housename": "松茂·御龙湾", "addr:housename:en": "Songmao Yulong Bay", "addr:housename:zh": "松茂·御龙湾", "building": "apartments", "building:levels": "31", "name": "10座", "name:en": "Block 10", "name:zh": "10座"}, "heightStatus": "levels_only_unverified", "source": "OpenStreetMap", "license": "ODbL-1.0"}, "geometry": {"type": "MultiPolygon", "coordinates": [[[[113.8482111, 22.5775332], [113.8485508, 22.5772545], [113.8486212, 22.5773277], [113.8486882, 22.5772727], [113.8487486, 22.5773354], [113.848541, 22.5775058], [113.848466, 22.5774279], [113.8484076, 22.5774759], [113.8484825, 22.5775538], [113.8482749, 22.5777241], [113.8482145, 22.5776614], [113.8482816, 22.5776064], [113.8482111, 22.5775332]]]]}}, {"type": "Feature", "id": "way/1435041668", "properties": {"tags": {"addr:housename": "松茂·御龙湾", "addr:housename:en": "Songmao Yulong Bay", "addr:housename:zh": "松茂·御龙湾", "building": "apartments", "building:levels": "31", "name": "1座", "name:en": "Block 1", "name:zh": "1座"}, "heightStatus": "levels_only_unverified", "source": "OpenStreetMap", "license": "ODbL-1.0"}, "geometry": {"type": "MultiPolygon", "coordinates": [[[[113.8487923, 22.5770649], [113.849132, 22.5767862], [113.8492024, 22.5768594], [113.8492695, 22.5768044], [113.8493298, 22.5768671], [113.8491222, 22.5770374], [113.8490472, 22.5769596], [113.8489888, 22.5770075], [113.8490637, 22.5770854], [113.8488561, 22.5772558], [113.8487957, 22.5771931], [113.8488628, 22.5771381], [113.8487923, 22.5770649]]]]}}, {"type": "Feature", "id": "way/1435041669", "properties": {"tags": {"addr:housename": "松茂·御龙湾", "addr:housename:en": "Songmao Yulong Bay", "addr:housename:zh": "松茂·御龙湾", "building": "apartments", "building:levels": "31", "name": "3座", "name:en": "Block 3", "name:zh": "3座"}, "heightStatus": "levels_only_unverified", "source": "OpenStreetMap", "license": "ODbL-1.0"}, "geometry": {"type": "MultiPolygon", "coordinates": [[[[113.8487419, 22.5758733], [113.848852, 22.575783], [113.8489169, 22.5758504], [113.8489899, 22.5757905], [113.8490877, 22.5758922], [113.8490008, 22.5759635], [113.8490695, 22.5760348], [113.8489975, 22.5760938], [113.8489073, 22.5760001], [113.8488058, 22.5760834], [113.8487419, 22.5760169], [113.8488191, 22.5759536], [113.8487419, 22.5758733]]]]}}, {"type": "Feature", "id": "way/1435041670", "properties": {"tags": {"addr:housename": "松茂·御龙湾", "addr:housename:en": "Songmao Yulong Bay", "addr:housename:zh": "松茂·御龙湾", "building": "apartments", "building:levels": "31", "name": "2座", "name:en": "Block 2", "name:zh": "2座"}, "heightStatus": "levels_only_unverified", "source": "OpenStreetMap", "license": "ODbL-1.0"}, "geometry": {"type": "MultiPolygon", "coordinates": [[[[113.8492346, 22.5763725], [113.8493979, 22.5762385], [113.8495729, 22.5764204], [113.8495562, 22.5766825], [113.8494234, 22.5767914], [113.849273, 22.5766351], [113.8493927, 22.5765369], [113.8492346, 22.5763725]]]]}}, {"type": "Feature", "id": "way/1435041671", "properties": {"tags": {"addr:housename": "松茂·御龙湾", "addr:housename:en": "Songmao Yulong Bay", "addr:housename:zh": "松茂·御龙湾", "building": "apartments", "building:levels": "31", "name": "9座", "name:en": "Block 9", "name:zh": "9座"}, "heightStatus": "levels_only_unverified", "source": "OpenStreetMap", "license": "ODbL-1.0"}, "geometry": {"type": "MultiPolygon", "coordinates": [[[[113.8478013, 22.5777737], [113.8478458, 22.5777372], [113.8479052, 22.5777989], [113.8479427, 22.5777681], [113.8479431, 22.5777531], [113.8479042, 22.5777523], [113.8479046, 22.577735], [113.8478852, 22.5777346], [113.8478865, 22.5776833], [113.8480863, 22.5776876], [113.848085, 22.5777389], [113.8480655, 22.5777385], [113.8480651, 22.5777558], [113.8480262, 22.5777549], [113.8480257, 22.5777726], [113.8480659, 22.5778143], [113.8481408, 22.5777529], [113.8481829, 22.5777966], [113.8480818, 22.5778795], [113.8480407, 22.5778367], [113.8479379, 22.5778345], [113.8478943, 22.5778703], [113.8478013, 22.5777737]]]]}}, {"type": "Feature", "id": "way/1435041672", "properties": {"tags": {"addr:housename": "松茂·御龙湾", "addr:housename:en": "Songmao Yulong Bay", "addr:housename:zh": "松茂·御龙湾", "building": "apartments", "building:levels": "31", "name": "8座", "name:en": "Block 8", "name:zh": "8座"}, "heightStatus": "levels_only_unverified", "source": "OpenStreetMap", "license": "ODbL-1.0"}, "geometry": {"type": "MultiPolygon", "coordinates": [[[[113.847455, 22.5773803], [113.8475688, 22.5772869], [113.8478458, 22.5775747], [113.847732, 22.577668], [113.847455, 22.5773803]]]]}}, {"type": "Feature", "id": "way/1435041673", "properties": {"tags": {"addr:housename": "松茂·御龙湾", "addr:housename:en": "Songmao Yulong Bay", "addr:housename:zh": "松茂·御龙湾", "building": "apartments", "building:levels": "31", "name": "7座", "name:en": "Block 7", "name:zh": "7座"}, "heightStatus": "levels_only_unverified", "source": "OpenStreetMap", "license": "ODbL-1.0"}, "geometry": {"type": "MultiPolygon", "coordinates": [[[[113.8472296, 22.5771028], [113.8473725, 22.5769856], [113.8474269, 22.5770421], [113.8473813, 22.5770795], [113.8474126, 22.577112], [113.8474581, 22.5770746], [113.8475274, 22.5771465], [113.8474409, 22.5772174], [113.8474128, 22.5771882], [113.8473095, 22.5772729], [113.8472502, 22.5772112], [113.847297, 22.5771728], [113.8472296, 22.5771028]]]]}}, {"type": "Feature", "id": "way/1435041674", "properties": {"tags": {"addr:housename": "松茂·御龙湾", "addr:housename:en": "Songmao Yulong Bay", "addr:housename:zh": "松茂·御龙湾", "building": "apartments", "building:levels": "31", "name": "5座", "name:en": "Block 5", "name:zh": "5座"}, "heightStatus": "levels_only_unverified", "source": "OpenStreetMap", "license": "ODbL-1.0"}, "geometry": {"type": "MultiPolygon", "coordinates": [[[[113.8481459, 22.576373], [113.848292, 22.576253], [113.848365, 22.5763289], [113.8484538, 22.576256], [113.8483864, 22.576186], [113.8485293, 22.5760688], [113.8487289, 22.5762761], [113.8486424, 22.576347], [113.8485908, 22.5762934], [113.8482348, 22.5765855], [113.8481542, 22.5765018], [113.8482189, 22.5764488], [113.8481459, 22.576373]]]]}}, {"type": "Feature", "id": "way/1435041675", "properties": {"tags": {"addr:housename": "松茂·御龙湾", "addr:housename:en": "Songmao Yulong Bay", "addr:housename:zh": "松茂·御龙湾", "building": "apartments", "building:levels": "31", "name": "6座", "name:en": "Block 6", "name:zh": "6座"}, "heightStatus": "levels_only_unverified", "source": "OpenStreetMap", "license": "ODbL-1.0"}, "geometry": {"type": "MultiPolygon", "coordinates": [[[[113.8475711, 22.5768317], [113.8477173, 22.5767118], [113.8477902, 22.5767876], [113.847879, 22.5767148], [113.8478117, 22.5766448], [113.8479545, 22.5765276], [113.8481541, 22.5767349], [113.8480677, 22.5768058], [113.848016, 22.5767522], [113.84766, 22.5770443], [113.8475794, 22.5769606], [113.8476441, 22.5769075], [113.8475711, 22.5768317]]]]}}, {"type": "Feature", "id": "way/1435042798", "properties": {"tags": {"building": "school"}, "heightStatus": "unknown", "source": "OpenStreetMap", "license": "ODbL-1.0"}, "geometry": {"type": "MultiPolygon", "coordinates": [[[[113.8491894, 22.5737687], [113.8491898, 22.5737056], [113.8492591, 22.5736606], [113.8494309, 22.5736616], [113.8494301, 22.5737702], [113.8491894, 22.5737687]]]]}}, {"type": "Feature", "id": "relation/19673039", "properties": {"tags": {"building": "school"}, "heightStatus": "unknown", "source": "OpenStreetMap", "license": "ODbL-1.0"}, "geometry": {"type": "MultiPolygon", "coordinates": [[[[113.849, 22.5748867], [113.8490049, 22.5741902], [113.8492647, 22.5741917], [113.8492652, 22.5741158], [113.8492869, 22.5741159], [113.8492885, 22.5738948], [113.8497347, 22.5738975], [113.8497335, 22.574066], [113.8496932, 22.5740657], [113.8496923, 22.5741941], [113.8499525, 22.5741956], [113.8499518, 22.5743006], [113.8496916, 22.574299], [113.8496902, 22.5744959], [113.8497467, 22.5744963], [113.8497459, 22.5746009], [113.8493214, 22.5745984], [113.8493202, 22.5747714], [113.8493884, 22.5747718], [113.8493876, 22.574889], [113.849, 22.5748867]], [[113.8490782, 22.574791], [113.8492771, 22.5747922], [113.8492785, 22.5745981], [113.8490795, 22.574597], [113.8490782, 22.574791]], [[113.8490802, 22.5744925], [113.8496249, 22.5744958], [113.8496254, 22.5744286], [113.8496462, 22.5744287], [113.8496472, 22.5742988], [113.8490816, 22.5742954], [113.8490802, 22.5744925]], [[113.849313, 22.5741918], [113.8496479, 22.5741938], [113.8496493, 22.5739969], [113.8493144, 22.5739949], [113.849313, 22.5741918]]]]}}, {"type": "Feature", "id": "way/1435042803", "properties": {"tags": {"building": "school"}, "heightStatus": "unknown", "source": "OpenStreetMap", "license": "ODbL-1.0"}, "geometry": {"type": "MultiPolygon", "coordinates": [[[[113.8485327, 22.5744096], [113.8487479, 22.5742334], [113.848908, 22.5744001], [113.8489068, 22.5745811], [113.8487896, 22.5746771], [113.8485327, 22.5744096]]]]}}, {"type": "Feature", "id": "way/1442074978", "properties": {"tags": {"building": "residential", "ref": "2"}, "heightStatus": "unknown", "source": "OpenStreetMap", "license": "ODbL-1.0"}, "geometry": {"type": "MultiPolygon", "coordinates": [[[[113.8487658, 22.5779722], [113.8490078, 22.5777844], [113.8490974, 22.577883], [113.8488555, 22.5780707], [113.8487658, 22.5779722]]]]}}, {"type": "Feature", "id": "way/1442074979", "properties": {"tags": {"building": "residential", "ref": "1"}, "heightStatus": "unknown", "source": "OpenStreetMap", "license": "ODbL-1.0"}, "geometry": {"type": "MultiPolygon", "coordinates": [[[[113.8484192, 22.5784694], [113.8486258, 22.5783016], [113.8488758, 22.578564], [113.8487754, 22.5786456], [113.8486692, 22.5787318], [113.8484192, 22.5784694]]]]}}, {"type": "Feature", "id": "way/1442074980", "properties": {"tags": {"building": "residential", "layer": "1", "ref": "4"}, "heightStatus": "unknown", "source": "OpenStreetMap", "license": "ODbL-1.0"}, "geometry": {"type": "MultiPolygon", "coordinates": [[[[113.8491222, 22.5789222], [113.8491924, 22.5788653], [113.8491286, 22.5787981], [113.8492367, 22.5787105], [113.8493064, 22.5787839], [113.849365, 22.5787364], [113.8494571, 22.5788333], [113.8492201, 22.5790252], [113.8491222, 22.5789222]]]]}}, {"type": "Feature", "id": "way/1442074981", "properties": {"tags": {"building": "residential", "layer": "1", "ref": "3"}, "heightStatus": "unknown", "source": "OpenStreetMap", "license": "ODbL-1.0"}, "geometry": {"type": "MultiPolygon", "coordinates": [[[[113.8494468, 22.5786731], [113.849517, 22.5786163], [113.8494532, 22.5785491], [113.8495614, 22.5784615], [113.8496311, 22.5785348], [113.8496896, 22.5784873], [113.8497817, 22.5785843], [113.8495447, 22.5787762], [113.8494468, 22.5786731]]]]}}, {"type": "Feature", "id": "way/1442074982", "properties": {"tags": {"building": "retail"}, "heightStatus": "unknown", "source": "OpenStreetMap", "license": "ODbL-1.0"}, "geometry": {"type": "MultiPolygon", "coordinates": [[[[113.8486692, 22.5787318], [113.8487754, 22.5786456], [113.8490404, 22.5789448], [113.8492067, 22.5789455], [113.8497633, 22.5784998], [113.8498657, 22.578608], [113.8492052, 22.5791253], [113.849006, 22.57912], [113.8486692, 22.5787318]]]]}}, {"type": "Feature", "id": "way/1444534016", "properties": {"tags": {"addr:housename": "碧海富通城五期", "addr:housename:en": "Bihai Futong City Phase 5", "addr:housename:zh": "碧海富通城五期", "building": "apartments", "building:levels": "32", "name": "15C栋", "name:en": "Block 15C", "name:zh": "15C栋"}, "heightStatus": "levels_only_unverified", "source": "OpenStreetMap", "license": "ODbL-1.0"}, "geometry": {"type": "MultiPolygon", "coordinates": [[[[113.8483442, 22.5724372], [113.8484855, 22.5724044], [113.8484853, 22.5723587], [113.8484399, 22.5723589], [113.8484392, 22.5722449], [113.8485788, 22.5722443], [113.8485792, 22.5723186], [113.8485969, 22.5723185], [113.8485974, 22.5724099], [113.8486833, 22.5724095], [113.8486838, 22.5725038], [113.8484802, 22.5725047], [113.8483695, 22.5725303], [113.8483442, 22.5724372]]]]}}, {"type": "Feature", "id": "way/1444534019", "properties": {"tags": {"addr:housename": "碧海富通城五期", "addr:housename:en": "Bihai Futong City Phase 5", "addr:housename:zh": "碧海富通城五期", "building": "apartments", "building:levels": "32", "name": "15A栋", "name:en": "Block 15A", "name:zh": "15A栋"}, "heightStatus": "levels_only_unverified", "source": "OpenStreetMap", "license": "ODbL-1.0"}, "geometry": {"type": "MultiPolygon", "coordinates": [[[[113.8490734, 22.5721488], [113.8491269, 22.5721363], [113.8491332, 22.5721594], [113.8492188, 22.5721393], [113.8492154, 22.5719944], [113.8492885, 22.571993], [113.8492891, 22.572017], [113.8493587, 22.5720156], [113.8493607, 22.5720992], [113.8493064, 22.5721002], [113.8493072, 22.5721335], [113.8493406, 22.5721413], [113.8493461, 22.5721213], [113.8494601, 22.572148], [113.849438, 22.5722282], [113.8494107, 22.5722218], [113.8494036, 22.5722477], [113.8492916, 22.5722214], [113.8491053, 22.5722651], [113.8490734, 22.5721488]]]]}}, {"type": "Feature", "id": "way/1444534020", "properties": {"tags": {"addr:housename": "碧海富通城五期", "addr:housename:en": "Bihai Futong City Phase 5", "addr:housename:zh": "碧海富通城五期", "building": "apartments", "building:levels": "32", "name": "16栋", "name:en": "Block 16", "name:zh": "16栋"}, "heightStatus": "levels_only_unverified", "source": "OpenStreetMap", "license": "ODbL-1.0"}, "geometry": {"type": "MultiPolygon", "coordinates": [[[[113.8478755, 22.5719531], [113.8479896, 22.5719265], [113.8479951, 22.5719466], [113.8480285, 22.5719388], [113.8480293, 22.5719056], [113.847975, 22.5719044], [113.8479764, 22.57185], [113.8479887, 22.5718503], [113.8479896, 22.5718164], [113.8481201, 22.5718193], [113.8481169, 22.5719448], [113.8482024, 22.571965], [113.8482088, 22.5719419], [113.8482623, 22.5719545], [113.84823, 22.5720707], [113.8480439, 22.5720267], [113.8479318, 22.5720528], [113.8479248, 22.5720269], [113.8478974, 22.5720333], [113.8478755, 22.5719531]]]]}}, {"type": "Feature", "id": "way/1444534021", "properties": {"tags": {"addr:housename": "碧海富通城五期", "addr:housename:en": "Bihai Futong City Phase 5", "addr:housename:zh": "碧海富通城五期", "building": "apartments", "building:levels": "32", "name": "15B栋", "name:en": "Block 15B", "name:zh": "15B栋"}, "heightStatus": "levels_only_unverified", "source": "OpenStreetMap", "license": "ODbL-1.0"}, "geometry": {"type": "MultiPolygon", "coordinates": [[[[113.8486833, 22.5724095], [113.8487692, 22.5724091], [113.8487687, 22.5723177], [113.8487864, 22.5723176], [113.848786, 22.5722433], [113.8489256, 22.5722427], [113.8489262, 22.5723566], [113.8488808, 22.5723569], [113.848881, 22.5724026], [113.8490227, 22.572434], [113.8489984, 22.5725274], [113.8488875, 22.5725028], [113.8486838, 22.5725038], [113.8486833, 22.5724095]]]]}}, {"type": "Feature", "id": "way/1461104991", "properties": {"tags": {"building": "yes"}, "heightStatus": "unknown", "source": "OpenStreetMap", "license": "ODbL-1.0"}, "geometry": {"type": "MultiPolygon", "coordinates": [[[[113.8453085, 22.5752729], [113.8455842, 22.5750444], [113.8456797, 22.5751427], [113.8454041, 22.5753712], [113.8453085, 22.5752729]]]]}}, {"type": "Feature", "id": "way/1461104992", "properties": {"tags": {"building": "yes"}, "heightStatus": "unknown", "source": "OpenStreetMap", "license": "ODbL-1.0"}, "geometry": {"type": "MultiPolygon", "coordinates": [[[[113.8456751, 22.5749868], [113.8457274, 22.5749433], [113.8459419, 22.5751635], [113.8458896, 22.5752068], [113.8456751, 22.5749868]]]]}}, {"type": "Feature", "id": "way/1461104993", "properties": {"tags": {"building": "yes"}, "heightStatus": "unknown", "source": "OpenStreetMap", "license": "ODbL-1.0"}, "geometry": {"type": "MultiPolygon", "coordinates": [[[[113.8457069, 22.5753735], [113.8458975, 22.5752097], [113.8459526, 22.5752644], [113.845762, 22.5754282], [113.8457069, 22.5753735]]]]}}, {"type": "Feature", "id": "way/1461104994", "properties": {"tags": {"amenity": "police", "building": "yes", "name": "深圳市公安局交通管理支队宝安大队西乡中队"}, "heightStatus": "unknown", "source": "OpenStreetMap", "license": "ODbL-1.0"}, "geometry": {"type": "MultiPolygon", "coordinates": [[[[113.8445403, 22.574507], [113.8447266, 22.5743531], [113.8446685, 22.5742932], [113.8447389, 22.5742351], [113.8448618, 22.574362], [113.8446642, 22.5745252], [113.8447088, 22.5745713], [113.8446853, 22.5745815], [113.8447104, 22.5746073], [113.8446699, 22.5746408], [113.8445403, 22.574507]]]]}}, {"type": "Feature", "id": "way/1461104996", "properties": {"tags": {"building": "yes"}, "heightStatus": "unknown", "source": "OpenStreetMap", "license": "ODbL-1.0"}, "geometry": {"type": "MultiPolygon", "coordinates": [[[[113.8450322, 22.5747267], [113.8454856, 22.5743699], [113.8455884, 22.5744813], [113.845408, 22.5746231], [113.8455018, 22.5747248], [113.8453983, 22.5748063], [113.8453055, 22.5747057], [113.8451359, 22.5748391], [113.8450322, 22.5747267]]]]}}, {"type": "Feature", "id": "way/1461104998", "properties": {"tags": {"building": "yes"}, "heightStatus": "unknown", "source": "OpenStreetMap", "license": "ODbL-1.0"}, "geometry": {"type": "MultiPolygon", "coordinates": [[[[113.8458136, 22.5747239], [113.8459164, 22.5746406], [113.8462551, 22.5749973], [113.846133, 22.5750961], [113.8458421, 22.5747899], [113.8458614, 22.5747742], [113.8458136, 22.5747239]]]]}}]}