{"type": "FeatureCollection", "features": [{"type": "Feature", "id": "way/1343398633", "properties": {"tags": {"building": "train_station", "building:levels": "0", "building:levels:underground": "2", "layer": "-1", "location": "underground", "name": "松岗公园站", "name:en": "Songgang Park Station", "name:zh": "松岗公园站", "public_transport": "station", "start_date": "2020-08-18", "wikidata": "Q96278952", "wikipedia": "zh:松岗公园站"}, "heightStatus": "levels_only_unverified", "source": "OpenStreetMap", "license": "ODbL-1.0"}, "geometry": {"type": "MultiPolygon", "coordinates": [[[[113.8424856, 22.780925], [113.8426356, 22.7805295], [113.8427687, 22.7805724], [113.842759, 22.7805979], [113.8430016, 22.7806762], [113.8430407, 22.7805732], [113.842777, 22.7804881], [113.842797, 22.7804354], [113.8431847, 22.7805604], [113.8431737, 22.7805896], [113.8431138, 22.7805703], [113.843067, 22.7806938], [113.8436848, 22.780893], [113.8437438, 22.7807374], [113.8440842, 22.7808471], [113.8440649, 22.780898], [113.8437838, 22.7808074], [113.8437465, 22.7809057], [113.8447164, 22.7812184], [113.8447536, 22.7811204], [113.8447087, 22.7811059], [113.8447201, 22.7810756], [113.8452288, 22.7812396], [113.8451999, 22.781316], [113.8451325, 22.7812942], [113.8451149, 22.7813405], [113.8472483, 22.7820284], [113.8471836, 22.7821991], [113.8446097, 22.7813691], [113.8445321, 22.7815736], [113.8444366, 22.7815428], [113.8444483, 22.781512], [113.8445098, 22.7815318], [113.8445735, 22.7813638], [113.8436986, 22.7810817], [113.8436462, 22.7812197], [113.8439333, 22.7813123], [113.8439068, 22.7813821], [113.8435473, 22.7812662], [113.8436242, 22.7810634], [113.8430013, 22.7808626], [113.8429858, 22.7809035], [113.8430098, 22.7809112], [113.8429935, 22.7809542], [113.8429716, 22.7809471], [113.8429261, 22.781067], [113.8424856, 22.780925]]]]}}, {"type": "Feature", "id": "way/1359802877", "properties": {"tags": {"building": "industrial"}, "heightStatus": "unknown", "source": "OpenStreetMap", "license": "ODbL-1.0"}, "geometry": {"type": "MultiPolygon", "coordinates": [[[[113.8495514, 22.7846041], [113.8495549, 22.7841169], [113.8496314, 22.7841174], [113.8496278, 22.7846045], [113.8495514, 22.7846041]]]]}}, {"type": "Feature", "id": "way/1359802878", "properties": {"tags": {"building": "industrial"}, "heightStatus": "unknown", "source": "OpenStreetMap", "license": "ODbL-1.0"}, "geometry": {"type": "MultiPolygon", "coordinates": [[[[113.8493844, 22.7838308], [113.8493866, 22.7833511], [113.849494, 22.7833515], [113.8494917, 22.7838312], [113.8493844, 22.7838308]]]]}}, {"type": "Feature", "id": "way/1359802879", "properties": {"tags": {"building": "industrial"}, "heightStatus": "unknown", "source": "OpenStreetMap", "license": "ODbL-1.0"}, "geometry": {"type": "MultiPolygon", "coordinates": [[[[113.8493559, 22.7840873], [113.8494652, 22.7840873], [113.8494655, 22.7846072], [113.8493561, 22.7846073], [113.8493559, 22.7840873]]]]}}, {"type": "Feature", "id": "way/1359802881", "properties": {"tags": {"building": "industrial"}, "heightStatus": "unknown", "source": "OpenStreetMap", "license": "ODbL-1.0"}, "geometry": {"type": "MultiPolygon", "coordinates": [[[[113.8495544, 22.7838696], [113.8495561, 22.7833619], [113.8496326, 22.7833621], [113.8496308, 22.7838698], [113.8495544, 22.7838696]]]]}}, {"type": "Feature", "id": "way/1359802884", "properties": {"tags": {"building": "industrial"}, "heightStatus": "unknown", "source": "OpenStreetMap", "license": "ODbL-1.0"}, "geometry": {"type": "MultiPolygon", "coordinates": [[[[113.8495033, 22.7811077], [113.849544, 22.7810425], [113.8496838, 22.7811175], [113.8497754, 22.7811306], [113.8499103, 22.7811143], [113.8499263, 22.7811828], [113.8497718, 22.7811987], [113.8496484, 22.7811714], [113.8495033, 22.7811077]]]]}}, {"type": "Feature", "id": "way/1359802895", "properties": {"tags": {"building": "industrial"}, "heightStatus": "unknown", "source": "OpenStreetMap", "license": "ODbL-1.0"}, "geometry": {"type": "MultiPolygon", "coordinates": [[[[113.8495616, 22.7825043], [113.8495693, 22.7820185], [113.8496422, 22.7820195], [113.8496343, 22.7825053], [113.8495616, 22.7825043]]]]}}, {"type": "Feature", "id": "way/1359802896", "properties": {"tags": {"building": "industrial"}, "heightStatus": "unknown", "source": "OpenStreetMap", "license": "ODbL-1.0"}, "geometry": {"type": "MultiPolygon", "coordinates": [[[[113.8494253, 22.7824978], [113.849433, 22.7820119], [113.8495059, 22.7820129], [113.8494981, 22.7824988], [113.8494253, 22.7824978]]]]}}, {"type": "Feature", "id": "way/1359802898", "properties": {"tags": {"building": "fire_station"}, "heightStatus": "unknown", "source": "OpenStreetMap", "license": "ODbL-1.0"}, "geometry": {"type": "MultiPolygon", "coordinates": [[[[113.8478233, 22.7819494], [113.8478598, 22.7818598], [113.848271, 22.7820023], [113.8482345, 22.7820919], [113.8478233, 22.7819494]]]]}}, {"type": "Feature", "id": "way/1359802903", "properties": {"tags": {"building": "school"}, "heightStatus": "unknown", "source": "OpenStreetMap", "license": "ODbL-1.0"}, "geometry": {"type": "MultiPolygon", "coordinates": [[[[113.8476715, 22.7790707], [113.8477083, 22.7789845], [113.8477482, 22.778999], [113.8477622, 22.778966], [113.847845, 22.778996], [113.847829, 22.7790336], [113.8480973, 22.7791306], [113.8481106, 22.7790993], [113.8481838, 22.7791257], [113.8481706, 22.7791569], [113.8482861, 22.7791986], [113.8481941, 22.7794155], [113.8486298, 22.7795727], [113.8486714, 22.7794748], [113.8487136, 22.77949], [113.8487299, 22.7794514], [113.8487746, 22.7794533], [113.8487891, 22.7794144], [113.8489997, 22.7794811], [113.8489908, 22.7795051], [113.8490185, 22.7795139], [113.8490017, 22.7795588], [113.8490206, 22.7795648], [113.8490342, 22.7796456], [113.8486943, 22.7796941], [113.84849, 22.77962], [113.8484804, 22.7796425], [113.8482669, 22.779565], [113.8482747, 22.7795466], [113.8480792, 22.7794757], [113.8481742, 22.7792528], [113.8476715, 22.7790707]]]]}}, {"type": "Feature", "id": "way/1359802904", "properties": {"tags": {"building": "school"}, "heightStatus": "unknown", "source": "OpenStreetMap", "license": "ODbL-1.0"}, "geometry": {"type": "MultiPolygon", "coordinates": [[[[113.8481282, 22.7785744], [113.8481621, 22.7784875], [113.8487658, 22.7786879], [113.8487319, 22.7787746], [113.8481282, 22.7785744]]]]}}, {"type": "Feature", "id": "way/1359802905", "properties": {"tags": {"building": "school"}, "heightStatus": "unknown", "source": "OpenStreetMap", "license": "ODbL-1.0"}, "geometry": {"type": "MultiPolygon", "coordinates": [[[[113.8487719, 22.7788855], [113.8487902, 22.7787627], [113.8488573, 22.7787812], [113.8488437, 22.7788805], [113.8488477, 22.7789813], [113.8488691, 22.7790555], [113.8488953, 22.7791217], [113.8488238, 22.779147], [113.8487933, 22.7790832], [113.8487733, 22.778994], [113.8487719, 22.7788855]]]]}}, {"type": "Feature", "id": "way/1359802906", "properties": {"tags": {"building": "kindergarten"}, "heightStatus": "unknown", "source": "OpenStreetMap", "license": "ODbL-1.0"}, "geometry": {"type": "MultiPolygon", "coordinates": [[[[113.8488935, 22.7786823], [113.8489966, 22.7786744], [113.8490112, 22.7788349], [113.848908, 22.7788429], [113.8488935, 22.7786823]]]]}}, {"type": "Feature", "id": "way/1359802907", "properties": {"tags": {"building": "kindergarten"}, "heightStatus": "unknown", "source": "OpenStreetMap", "license": "ODbL-1.0"}, "geometry": {"type": "MultiPolygon", "coordinates": [[[[113.8489337, 22.7791412], [113.8490337, 22.7791363], [113.8490476, 22.7793727], [113.8489476, 22.7793777], [113.8489337, 22.7791412]]]]}}, {"type": "Feature", "id": "way/1359802908", "properties": {"tags": {"building": "industrial"}, "heightStatus": "unknown", "source": "OpenStreetMap", "license": "ODbL-1.0"}, "geometry": {"type": "MultiPolygon", "coordinates": [[[[113.8495502, 22.7796447], [113.8495814, 22.7791854], [113.849782, 22.779197], [113.8497509, 22.7796563], [113.8495502, 22.7796447]]]]}}, {"type": "Feature", "id": "way/1359802910", "properties": {"tags": {"building": "industrial"}, "heightStatus": "unknown", "source": "OpenStreetMap", "license": "ODbL-1.0"}, "geometry": {"type": "MultiPolygon", "coordinates": [[[[113.8494939, 22.7803792], [113.8495251, 22.7799199], [113.8497256, 22.7799315], [113.8496945, 22.7803908], [113.8494939, 22.7803792]]]]}}, {"type": "Feature", "id": "way/1359802916", "properties": {"tags": {"building": "industrial"}, "heightStatus": "unknown", "source": "OpenStreetMap", "license": "ODbL-1.0"}, "geometry": {"type": "MultiPolygon", "coordinates": [[[[113.8494731, 22.7805841], [113.8494764, 22.7805094], [113.8501583, 22.7805354], [113.8501549, 22.78061], [113.8494731, 22.7805841]]]]}}]}