{"type": "FeatureCollection", "features": [{"type": "Feature", "id": "way/541685246", "properties": {"tags": {"building": "yes"}, "heightStatus": "unknown", "source": "OpenStreetMap", "license": "ODbL-1.0"}, "geometry": {"type": "MultiPolygon", "coordinates": [[[[113.834389, 22.5891572], [113.8349026, 22.5888072], [113.8350161, 22.5889491], [113.8347768, 22.5891121], [113.8350488, 22.5894524], [113.8347744, 22.5896393], [113.834389, 22.5891572]]]]}}, {"type": "Feature", "id": "way/560460228", "properties": {"tags": {"building": "yes", "name": "宝安人才园西湾分园", "name:zh": "宝安人才园西湾分园", "name:zh-Hans": "宝安人才园西湾分园", "name:zh-Hant": "寶安人才園西灣分園", "office": "government"}, "heightStatus": "unknown", "source": "OpenStreetMap", "license": "ODbL-1.0"}, "geometry": {"type": "MultiPolygon", "coordinates": [[[[113.8343514, 22.5874044], [113.8345767, 22.5871662], [113.8348327, 22.5873726], [113.834646, 22.58757], [113.8345872, 22.5875226], [113.8347106, 22.5873921], [113.8345949, 22.5872988], [113.8344329, 22.5874701], [113.8343514, 22.5874044]]]]}}, {"type": "Feature", "id": "way/560460230", "properties": {"tags": {"building": "yes"}, "heightStatus": "unknown", "source": "OpenStreetMap", "license": "ODbL-1.0"}, "geometry": {"type": "MultiPolygon", "coordinates": [[[[113.8345877, 22.5868568], [113.8347259, 22.5867607], [113.8347922, 22.5868419], [113.8346539, 22.586938], [113.8345877, 22.5868568]]]]}}, {"type": "Feature", "id": "way/736406086", "properties": {"tags": {"amenity": "toilets", "building": "yes"}, "heightStatus": "unknown", "source": "OpenStreetMap", "license": "ODbL-1.0"}, "geometry": {"type": "MultiPolygon", "coordinates": [[[[113.8339283, 22.5893674], [113.8339485, 22.5892268], [113.8340634, 22.5892408], [113.8340541, 22.5893059], [113.8340433, 22.5893814], [113.8339283, 22.5893674]]]]}}]}