{"type": "FeatureCollection", "features": [{"type": "Feature", "id": "way/1424753921", "properties": {"tags": {"building": "school"}, "heightStatus": "unknown", "source": "OpenStreetMap", "license": "ODbL-1.0"}, "geometry": {"type": "MultiPolygon", "coordinates": [[[[113.8385092, 22.653], [113.8387931, 22.6529254], [113.8388337, 22.6529608], [113.8388552, 22.6529448], [113.8388805, 22.6529348], [113.8389078, 22.6529315], [113.8389351, 22.6529351], [113.8389603, 22.6529453], [113.8389816, 22.6529615], [113.8389974, 22.6529823], [113.8390064, 22.6530063], [113.8390082, 22.6530317], [113.8390024, 22.6530566], [113.8389895, 22.6530791], [113.8389706, 22.6530975], [113.839067, 22.65341], [113.838949, 22.653441], [113.8389772, 22.6535325], [113.8386963, 22.6536063], [113.8385092, 22.653]]]]}}, {"type": "Feature", "id": "relation/19523251", "properties": {"tags": {"building": "school"}, "heightStatus": "unknown", "source": "OpenStreetMap", "license": "ODbL-1.0"}, "geometry": {"type": "MultiPolygon", "coordinates": [[[[113.8392447, 22.6538298], [113.8392511, 22.6537472], [113.8392626, 22.6536926], [113.8392874, 22.6536372], [113.8393238, 22.6535875], [113.8393701, 22.6535455], [113.8394246, 22.6535128], [113.8394805, 22.6534925], [113.8394688, 22.6534503], [113.8394497, 22.6534501], [113.8394333, 22.6534411], [113.8394239, 22.6534257], [113.8394242, 22.6534081], [113.8394339, 22.6533929], [113.8394506, 22.6533843], [113.839439, 22.6533421], [113.8393468, 22.653364], [113.8393235, 22.6532806], [113.8398567, 22.6531538], [113.83988, 22.6532372], [113.8397856, 22.6532597], [113.8398569, 22.653515], [113.8395169, 22.6535951], [113.8394784, 22.6536091], [113.8394436, 22.6536299], [113.839414, 22.6536568], [113.8393909, 22.6536885], [113.839375, 22.6537238], [113.8393671, 22.6537614], [113.8393612, 22.6538375], [113.8392447, 22.6538298]], [[113.8395146, 22.6533241], [113.8395264, 22.6533669], [113.8395455, 22.6533671], [113.839562, 22.6533761], [113.8395713, 22.6533915], [113.8395711, 22.6534091], [113.8395614, 22.6534243], [113.8395447, 22.6534329], [113.8395564, 22.6534751], [113.8397834, 22.6534216], [113.8397415, 22.6532702], [113.8395146, 22.6533241]]]]}}, {"type": "Feature", "id": "way/1424753924", "properties": {"tags": {"building": "school"}, "heightStatus": "unknown", "source": "OpenStreetMap", "license": "ODbL-1.0"}, "geometry": {"type": "MultiPolygon", "coordinates": [[[[113.8391261, 22.6546994], [113.8391429, 22.6546081], [113.839286, 22.6546305], [113.8392955, 22.6545787], [113.8394291, 22.6545996], [113.8394381, 22.6545508], [113.8396204, 22.6545794], [113.8396036, 22.6546706], [113.8394213, 22.6546421], [113.8394124, 22.6546909], [113.8392788, 22.6546699], [113.8392692, 22.6547218], [113.8391261, 22.6546994]]]]}}, {"type": "Feature", "id": "way/1424753925", "properties": {"tags": {"building": "school"}, "heightStatus": "unknown", "source": "OpenStreetMap", "license": "ODbL-1.0"}, "geometry": {"type": "MultiPolygon", "coordinates": [[[[113.8390646, 22.6549791], [113.83908, 22.6548858], [113.839288, 22.6549151], [113.839294, 22.6548786], [113.8394885, 22.654906], [113.8394731, 22.6549992], [113.8393056, 22.6549756], [113.8392996, 22.6550121], [113.8390646, 22.6549791]]]]}}, {"type": "Feature", "id": "way/1424753926", "properties": {"tags": {"building": "school"}, "heightStatus": "unknown", "source": "OpenStreetMap", "license": "ODbL-1.0"}, "geometry": {"type": "MultiPolygon", "coordinates": [[[[113.8390537, 22.655313], [113.8390709, 22.6552037], [113.8393889, 22.6552464], [113.8393717, 22.6553556], [113.8390537, 22.655313]]]]}}, {"type": "Feature", "id": "way/1424753927", "properties": {"tags": {"building": "school"}, "heightStatus": "unknown", "source": "OpenStreetMap", "license": "ODbL-1.0"}, "geometry": {"type": "MultiPolygon", "coordinates": [[[[113.8390644, 22.6555469], [113.8390931, 22.6554562], [113.8392608, 22.6555013], [113.8392921, 22.6554023], [113.8393855, 22.6554274], [113.8392648, 22.6558094], [113.8391182, 22.6558385], [113.8390977, 22.6557507], [113.8391876, 22.6557328], [113.8392321, 22.655592], [113.8390644, 22.6555469]]]]}}, {"type": "Feature", "id": "way/1424753928", "properties": {"tags": {"building": "school"}, "heightStatus": "unknown", "source": "OpenStreetMap", "license": "ODbL-1.0"}, "geometry": {"type": "MultiPolygon", "coordinates": [[[[113.8377669, 22.6548559], [113.8382069, 22.6547544], [113.83826, 22.6549504], [113.8382829, 22.65495], [113.8383038, 22.6549588], [113.8383184, 22.654975], [113.838324, 22.6549956], [113.8383193, 22.6550163], [113.8383054, 22.6550331], [113.838285, 22.6550427], [113.8381377, 22.6550767], [113.8381535, 22.6551351], [113.8380442, 22.6551604], [113.8380284, 22.6551019], [113.837845, 22.6551442], [113.8377669, 22.6548559]]]]}}, {"type": "Feature", "id": "relation/19523252", "properties": {"tags": {"building": "school"}, "heightStatus": "unknown", "source": "OpenStreetMap", "license": "ODbL-1.0"}, "geometry": {"type": "MultiPolygon", "coordinates": [[[[113.8370041, 22.6533496], [113.8370096, 22.6533348], [113.8370205, 22.6533229], [113.8370354, 22.6533154], [113.8370521, 22.6533133], [113.8370686, 22.653317], [113.8370825, 22.6533258], [113.8374678, 22.6532328], [113.8375725, 22.6536023], [113.8371385, 22.653707], [113.8370114, 22.6533796], [113.8370047, 22.6533652], [113.8370041, 22.6533496]], [[113.8371134, 22.6534231], [113.8371673, 22.6536133], [113.8374977, 22.6535336], [113.8374647, 22.6534174], [113.8374306, 22.6534256], [113.837419, 22.653425], [113.8374099, 22.6534181], [113.837407, 22.6534077], [113.8374112, 22.6533977], [113.8374211, 22.6533919], [113.8374552, 22.6533836], [113.8374437, 22.6533433], [113.8371134, 22.6534231]]]]}}, {"type": "Feature", "id": "way/1424753935", "properties": {"tags": {"building": "school"}, "heightStatus": "unknown", "source": "OpenStreetMap", "license": "ODbL-1.0"}, "geometry": {"type": "MultiPolygon", "coordinates": [[[[113.8376942, 22.6531278], [113.837695, 22.653115], [113.8377039, 22.653105], [113.8377174, 22.6531017], [113.8377304, 22.6531064], [113.837738, 22.6531173], [113.8377477, 22.6531514], [113.8382362, 22.6530335], [113.8382638, 22.6530304], [113.8382914, 22.6530338], [113.8383172, 22.6530433], [113.8383398, 22.6530584], [113.8383575, 22.6530782], [113.8383695, 22.6531014], [113.838417, 22.653269], [113.8384388, 22.6532638], [113.8384661, 22.6533602], [113.8381485, 22.6534368], [113.8381555, 22.6534615], [113.837848, 22.6535357], [113.8378207, 22.6534393], [113.8380761, 22.6533777], [113.8380691, 22.653353], [113.8383109, 22.6532946], [113.8382627, 22.6531245], [113.8377297, 22.6532531], [113.8376942, 22.6531278]]]]}}, {"type": "Feature", "id": "way/1424753938", "properties": {"tags": {"building": "school"}, "heightStatus": "unknown", "source": "OpenStreetMap", "license": "ODbL-1.0"}, "geometry": {"type": "MultiPolygon", "coordinates": [[[[113.838444, 22.6546896], [113.8388196, 22.6546044], [113.8388407, 22.6546835], [113.8388111, 22.6546902], [113.8388299, 22.6547606], [113.8386395, 22.6548038], [113.8388619, 22.6551478], [113.8387721, 22.6551972], [113.838444, 22.6546896]]]]}}, {"type": "Feature", "id": "relation/19523254", "properties": {"tags": {"building": "school"}, "heightStatus": "unknown", "source": "OpenStreetMap", "license": "ODbL-1.0"}, "geometry": {"type": "MultiPolygon", "coordinates": [[[[113.8372218, 22.6538859], [113.8373289, 22.6538429], [113.8374939, 22.6541932], [113.8375154, 22.6542191], [113.8375412, 22.6542415], [113.8375705, 22.6542598], [113.8376026, 22.6542735], [113.8376367, 22.6542822], [113.8376719, 22.6542858], [113.8377078, 22.654286], [113.8378996, 22.6542367], [113.8379442, 22.6543845], [113.8379653, 22.6543842], [113.8379817, 22.6543932], [113.8379911, 22.6544085], [113.8379909, 22.6544262], [113.8379811, 22.6544413], [113.8379645, 22.65445], [113.8379761, 22.6544935], [113.8380321, 22.6544803], [113.8380625, 22.6545902], [113.8375836, 22.6546997], [113.8375413, 22.654547], [113.8375222, 22.6545468], [113.8375058, 22.6545378], [113.8374964, 22.6545224], [113.8374966, 22.6545048], [113.8375064, 22.6544896], [113.8375231, 22.654481], [113.8375048, 22.6544144], [113.8375882, 22.6543954], [113.8375844, 22.6543807], [113.8375622, 22.654375], [113.8375129, 22.654354], [113.8374679, 22.654326], [113.8374284, 22.6542916], [113.8373924, 22.6542483], [113.8372218, 22.6538859]], [[113.8375945, 22.6544191], [113.8376064, 22.6544619], [113.8376255, 22.6544621], [113.8376419, 22.6544711], [113.8376513, 22.6544865], [113.8376511, 22.6545041], [113.8376413, 22.6545193], [113.8376247, 22.6545279], [113.8376365, 22.6545707], [113.8378903, 22.654513], [113.8378784, 22.6544702], [113.8378593, 22.65447], [113.8378429, 22.654461], [113.8378335, 22.6544457], [113.8378338, 22.654428], [113.8378435, 22.6544129], [113.8378602, 22.6544042], [113.8378485, 22.6543621], [113.8375945, 22.6544191]]]]}}, {"type": "Feature", "id": "relation/19523255", "properties": {"tags": {"building": "school"}, "heightStatus": "unknown", "source": "OpenStreetMap", "license": "ODbL-1.0"}, "geometry": {"type": "MultiPolygon", "coordinates": [[[[113.8381576, 22.6541786], [113.838774, 22.6540333], [113.8388125, 22.6540193], [113.8388473, 22.6539984], [113.8388769, 22.6539716], [113.8389, 22.6539399], [113.8389159, 22.6539046], [113.8389238, 22.653867], [113.8389352, 22.65372], [113.8390517, 22.6537277], [113.8390398, 22.6538812], [113.8390283, 22.6539358], [113.8390034, 22.6539912], [113.8389671, 22.6540409], [113.8389208, 22.6540829], [113.8388663, 22.6541156], [113.8388104, 22.6541359], [113.838822, 22.6541781], [113.8388412, 22.6541783], [113.8388576, 22.6541873], [113.8388669, 22.6542027], [113.8388667, 22.6542203], [113.838857, 22.6542355], [113.8388403, 22.6542441], [113.8388823, 22.6543976], [113.8383439, 22.6545245], [113.8383135, 22.6544145], [113.8383646, 22.6544025], [113.8383528, 22.6543597], [113.8383337, 22.6543595], [113.8383173, 22.6543505], [113.8383079, 22.6543351], [113.8383081, 22.6543175], [113.8383179, 22.6543023], [113.8383345, 22.6542937], [113.8383227, 22.6542509], [113.8381865, 22.654283], [113.8381576, 22.6541786]], [[113.8384037, 22.6542333], [113.8384156, 22.654276], [113.8384347, 22.6542762], [113.8384511, 22.6542852], [113.8384605, 22.6543006], [113.8384603, 22.6543182], [113.8384505, 22.6543334], [113.8384339, 22.654342], [113.8384457, 22.6543848], [113.8387612, 22.6543098], [113.8387493, 22.654267], [113.8387302, 22.6542668], [113.8387138, 22.6542578], [113.8387044, 22.6542424], [113.8387047, 22.6542248], [113.8387144, 22.6542096], [113.8387311, 22.654201], [113.8387194, 22.6541589], [113.8384037, 22.6542333]]]]}}]}