{"type": "FeatureCollection", "features": [{"type": "Feature", "id": "way/965354591", "properties": {"tags": {"building": "retail", "layer": "2", "name": "金粤大楼", "name:zh": "金粤大楼", "name:zh-Hans": "金粤大楼", "name:zh-Hant": "金粵大樓"}, "heightStatus": "unknown", "source": "OpenStreetMap", "license": "ODbL-1.0"}, "geometry": {"type": "MultiPolygon", "coordinates": [[[[113.8231931, 22.7336565], [113.8237848, 22.7336037], [113.8238393, 22.734123], [113.8232476, 22.7341758], [113.8231931, 22.7336565]]]]}}, {"type": "Feature", "id": "way/965354607", "properties": {"tags": {"addr:housename": "西岸银座", "addr:housename:en": "Xi'an Yinzuo", "addr:housename:zh": "西岸银座", "building": "apartments", "name": "B座", "name:en": "Block B", "name:zh": "B座"}, "heightStatus": "unknown", "source": "OpenStreetMap", "license": "ODbL-1.0"}, "geometry": {"type": "MultiPolygon", "coordinates": [[[[113.8207904, 22.7379086], [113.8210599, 22.7378317], [113.8210693, 22.7378596], [113.8211762, 22.7378291], [113.8212155, 22.7379462], [113.820839, 22.7380536], [113.8207904, 22.7379086]]]]}}, {"type": "Feature", "id": "way/965354613", "properties": {"tags": {"addr:housename": "麒麟名都", "addr:housename:en": "Qilin Mingdu", "addr:housename:zh": "麒麟名都", "building": "apartments", "name": "2栋", "name:en": "Block 2", "name:zh": "2栋"}, "heightStatus": "unknown", "source": "OpenStreetMap", "license": "ODbL-1.0"}, "geometry": {"type": "MultiPolygon", "coordinates": [[[[113.8208232, 22.7362882], [113.8209491, 22.7360927], [113.8209975, 22.7361192], [113.8209833, 22.7361412], [113.8210015, 22.7361512], [113.8209845, 22.7361776], [113.8210027, 22.7361876], [113.8210541, 22.736179], [113.8210126, 22.7361573], [113.8210288, 22.7361309], [113.8210062, 22.7361191], [113.8210411, 22.7360621], [113.8212584, 22.7361755], [113.8212166, 22.7362436], [113.8211416, 22.7362045], [113.8211247, 22.736232], [113.8210891, 22.7362134], [113.821099, 22.7362518], [113.8211562, 22.7362393], [113.821177, 22.7363198], [113.8209571, 22.736368], [113.8209379, 22.7362933], [113.82099, 22.7362819], [113.8209769, 22.736231], [113.8209545, 22.7362659], [113.820934, 22.7362547], [113.8208892, 22.7363243], [113.8208232, 22.7362882]]]]}}, {"type": "Feature", "id": "way/965354614", "properties": {"tags": {"addr:housename": "麒麟名都", "addr:housename:en": "Qilin Mingdu", "addr:housename:zh": "麒麟名都", "building": "apartments", "name": "3栋", "name:en": "Block 3", "name:zh": "3栋"}, "heightStatus": "unknown", "source": "OpenStreetMap", "license": "ODbL-1.0"}, "geometry": {"type": "MultiPolygon", "coordinates": [[[[113.8209926, 22.736623], [113.8210844, 22.7366014], [113.8210776, 22.7365768], [113.8210185, 22.7365908], [113.8209931, 22.7364995], [113.8212005, 22.7364505], [113.8212256, 22.736541], [113.8211705, 22.736554], [113.8211812, 22.7365927], [113.8212871, 22.7365677], [113.821305, 22.7366324], [113.8210143, 22.736701], [113.8209926, 22.736623]]]]}}, {"type": "Feature", "id": "way/965354615", "properties": {"tags": {"addr:housename": "麒麟名都", "addr:housename:en": "Qilin Mingdu", "addr:housename:zh": "麒麟名都", "building": "apartments", "name": "9栋", "name:en": "Block 9", "name:zh": "9栋"}, "heightStatus": "unknown", "source": "OpenStreetMap", "license": "ODbL-1.0"}, "geometry": {"type": "MultiPolygon", "coordinates": [[[[113.8210402, 22.7369742], [113.821132, 22.7369525], [113.8211252, 22.7369279], [113.821066, 22.7369419], [113.8210407, 22.7368506], [113.821248, 22.7368016], [113.8212732, 22.7368921], [113.8212181, 22.7369051], [113.8212288, 22.7369438], [113.8213347, 22.7369188], [113.8213526, 22.7369835], [113.8210619, 22.7370521], [113.8210402, 22.7369742]]]]}}, {"type": "Feature", "id": "way/965354616", "properties": {"tags": {"addr:housename": "麒麟名都", "addr:housename:en": "Qilin Mingdu", "addr:housename:zh": "麒麟名都", "building": "apartments", "name": "6栋", "name:en": "Block 6", "name:zh": "6栋"}, "heightStatus": "unknown", "source": "OpenStreetMap", "license": "ODbL-1.0"}, "geometry": {"type": "MultiPolygon", "coordinates": [[[[113.8208064, 22.7374378], [113.8209131, 22.7374117], [113.8209003, 22.7373673], [113.8208632, 22.7373764], [113.8208318, 22.737267], [113.8209724, 22.7372327], [113.8210131, 22.7373744], [113.8210903, 22.7373556], [113.8211161, 22.7374452], [113.8208287, 22.7375154], [113.8208064, 22.7374378]]]]}}, {"type": "Feature", "id": "way/965354617", "properties": {"tags": {"addr:housename": "西岸银座", "addr:housename:en": "Xi'an Yinzuo", "addr:housename:zh": "西岸银座", "building": "apartments", "name": "C座", "name:en": "Block C", "name:zh": "C座"}, "heightStatus": "unknown", "source": "OpenStreetMap", "license": "ODbL-1.0"}, "geometry": {"type": "MultiPolygon", "coordinates": [[[[113.8212071, 22.7375964], [113.8214022, 22.7375464], [113.8214766, 22.7377929], [113.8214367, 22.7378031], [113.8214536, 22.7378589], [113.8213389, 22.7378883], [113.8213205, 22.7378274], [113.82128, 22.7378378], [113.8212071, 22.7375964]]]]}}, {"type": "Feature", "id": "way/1446429691", "properties": {"tags": {"building": "retail"}, "heightStatus": "unknown", "source": "OpenStreetMap", "license": "ODbL-1.0"}, "geometry": {"type": "MultiPolygon", "coordinates": [[[[113.8231604, 22.7363825], [113.8234407, 22.7363677], [113.8234143, 22.7359432], [113.8231958, 22.7358378], [113.8233973, 22.7354825], [113.8239272, 22.7354568], [113.824033, 22.7355184], [113.8241201, 22.7369184], [113.8239224, 22.7371229], [113.8235778, 22.7371411], [113.8235566, 22.7367994], [113.8231875, 22.7368189], [113.8231604, 22.7363825]]]]}}, {"type": "Feature", "id": "way/1446429696", "properties": {"tags": {"addr:housename": "麒麟名都", "addr:housename:en": "Qilin Mingdu", "addr:housename:zh": "麒麟名都", "building": "apartments", "name": "5栋", "name:en": "Block 5", "name:zh": "5栋"}, "heightStatus": "unknown", "source": "OpenStreetMap", "license": "ODbL-1.0"}, "geometry": {"type": "MultiPolygon", "coordinates": [[[[113.8210903, 22.7373556], [113.8211672, 22.7373367], [113.8211238, 22.7371856], [113.8212818, 22.7371469], [113.8213145, 22.7372606], [113.8212671, 22.7372722], [113.8212805, 22.7373189], [113.821391, 22.7372919], [113.8214141, 22.7373723], [113.8211161, 22.7374452], [113.8210903, 22.7373556]]]]}}, {"type": "Feature", "id": "way/1446429698", "properties": {"tags": {"addr:housename": "鸿荣源·禧园", "addr:housename:en": "Horoy Xiyuan", "addr:housename:zh": "鸿荣源·禧园", "building": "apartments", "name": "4栋", "name:en": "Block 4", "name:zh": "4栋", "name:zh-Hans": "4栋", "name:zh-Hant": "4棟"}, "heightStatus": "unknown", "source": "OpenStreetMap", "license": "ODbL-1.0"}, "geometry": {"type": "MultiPolygon", "coordinates": [[[[113.8216865, 22.7347465], [113.8217959, 22.7347211], [113.8217643, 22.7346052], [113.8219336, 22.7345659], [113.8219749, 22.7347172], [113.8220884, 22.7346909], [113.8221179, 22.7347988], [113.8220023, 22.7348256], [113.8220153, 22.7348733], [113.8218628, 22.7349087], [113.8218499, 22.7348614], [113.8217257, 22.7348902], [113.8216865, 22.7347465]]]]}}, {"type": "Feature", "id": "way/1446429699", "properties": {"tags": {"addr:housename": "鸿荣源·禧园", "addr:housename:en": "Horoy Xiyuan", "addr:housename:zh": "鸿荣源·禧园", "building": "apartments", "name": "1A栋", "name:en": "Block 1A", "name:zh": "1A栋", "name:zh-Hans": "1A栋", "name:zh-Hant": "1A棟"}, "heightStatus": "unknown", "source": "OpenStreetMap", "license": "ODbL-1.0"}, "geometry": {"type": "MultiPolygon", "coordinates": [[[[113.8218376, 22.7339856], [113.8219416, 22.7339102], [113.8218549, 22.7338086], [113.821976, 22.7337208], [113.8220626, 22.7338224], [113.8221632, 22.7337494], [113.8222238, 22.7338203], [113.8220973, 22.7339122], [113.8221526, 22.7339771], [113.8220575, 22.7340461], [113.8220021, 22.7339812], [113.8218982, 22.7340566], [113.8218376, 22.7339856]]]]}}, {"type": "Feature", "id": "way/1446429706", "properties": {"tags": {"addr:housename": "鸿荣源·禧园", "addr:housename:en": "Horoy Xiyuan", "addr:housename:zh": "鸿荣源·禧园", "building": "apartments", "name": "3D栋", "name:en": "Block 3D", "name:zh": "3D栋", "name:zh-Hans": "3D栋", "name:zh-Hant": "3D棟"}, "heightStatus": "unknown", "source": "OpenStreetMap", "license": "ODbL-1.0"}, "geometry": {"type": "MultiPolygon", "coordinates": [[[[113.8213491, 22.7352495], [113.8214597, 22.735225], [113.8214325, 22.7351209], [113.8215084, 22.7351042], [113.8215124, 22.7350924], [113.8215212, 22.7350831], [113.8215333, 22.7350778], [113.8215467, 22.7350775], [113.8215591, 22.7350822], [113.8215684, 22.7350911], [113.821573, 22.7351027], [113.8215985, 22.7351942], [113.8217071, 22.73517], [113.8217364, 22.7352821], [113.8216277, 22.7353062], [113.8216542, 22.7354078], [113.8214703, 22.7354486], [113.8214438, 22.735347], [113.8213783, 22.7353616], [113.8213491, 22.7352495]]]]}}, {"type": "Feature", "id": "way/1446429707", "properties": {"tags": {"addr:housename": "鸿荣源·禧园", "addr:housename:en": "Horoy Xiyuan", "addr:housename:zh": "鸿荣源·禧园", "building": "apartments", "name": "3C栋", "name:en": "Block 3C", "name:zh": "3C栋", "name:zh-Hans": "3C栋", "name:zh-Hant": "3C棟"}, "heightStatus": "unknown", "source": "OpenStreetMap", "license": "ODbL-1.0"}, "geometry": {"type": "MultiPolygon", "coordinates": [[[[113.820991, 22.735329], [113.8210997, 22.7353049], [113.8210772, 22.7352128], [113.8210756, 22.7352005], [113.8210795, 22.7351887], [113.8210882, 22.7351793], [113.8211003, 22.7351739], [113.8211137, 22.7351735], [113.8211261, 22.7351781], [113.8211355, 22.735187], [113.8212113, 22.73517], [113.8212385, 22.7352741], [113.8213491, 22.7352495], [113.8213783, 22.7353616], [113.8213128, 22.7353761], [113.8213393, 22.7354777], [113.8211554, 22.7355185], [113.8211289, 22.7354169], [113.8210202, 22.7354411], [113.820991, 22.735329]]]]}}, {"type": "Feature", "id": "way/1446429708", "properties": {"tags": {"addr:housename": "鸿荣源·禧园", "addr:housename:en": "Horoy Xiyuan", "addr:housename:zh": "鸿荣源·禧园", "building": "apartments", "name": "5B栋", "name:en": "Block 5B", "name:zh": "5B栋", "name:zh-Hans": "5B栋", "name:zh-Hant": "5B棟"}, "heightStatus": "unknown", "source": "OpenStreetMap", "license": "ODbL-1.0"}, "geometry": {"type": "MultiPolygon", "coordinates": [[[[113.820699, 22.7341139], [113.8207398, 22.7340194], [113.8208486, 22.7340593], [113.8208965, 22.7339482], [113.8210587, 22.7340078], [113.8210108, 22.7341189], [113.8211157, 22.7341573], [113.8210563, 22.734295], [113.8209372, 22.7342514], [113.8209177, 22.7342966], [113.8207716, 22.734243], [113.8208097, 22.7341545], [113.820699, 22.7341139]]]]}}, {"type": "Feature", "id": "way/1446429709", "properties": {"tags": {"addr:housename": "鸿荣源·禧园", "addr:housename:en": "Horoy Xiyuan", "addr:housename:zh": "鸿荣源·禧园", "building": "apartments", "name": "5A栋", "name:en": "Block 5A", "name:zh": "5A栋", "name:zh-Hans": "5A栋", "name:zh-Hant": "5A棟"}, "heightStatus": "unknown", "source": "OpenStreetMap", "license": "ODbL-1.0"}, "geometry": {"type": "MultiPolygon", "coordinates": [[[[113.8210563, 22.734295], [113.8211157, 22.7341573], [113.8212205, 22.7341958], [113.8212684, 22.7340847], [113.8214307, 22.7341442], [113.8213828, 22.7342553], [113.8214916, 22.7342952], [113.8214508, 22.7343897], [113.8213401, 22.7343491], [113.8213019, 22.7344376], [113.8211558, 22.734384], [113.8211753, 22.7343387], [113.8210563, 22.734295]]]]}}, {"type": "Feature", "id": "way/1447624745", "properties": {"tags": {"building": "commercial", "name": "福兴大厦"}, "heightStatus": "unknown", "source": "OpenStreetMap", "license": "ODbL-1.0"}, "geometry": {"type": "MultiPolygon", "coordinates": [[[[113.8254508, 22.7417505], [113.8257195, 22.7417278], [113.8257516, 22.7420503], [113.8254829, 22.742073], [113.8254508, 22.7417505]]]]}}, {"type": "Feature", "id": "way/1447624746", "properties": {"tags": {"building": "commercial", "name": "宏海汇盈大厦"}, "heightStatus": "unknown", "source": "OpenStreetMap", "license": "ODbL-1.0"}, "geometry": {"type": "MultiPolygon", "coordinates": [[[[113.8254331, 22.7414187], [113.8256823, 22.7414033], [113.8257037, 22.7416988], [113.8254546, 22.7417142], [113.8254331, 22.7414187]]]]}}, {"type": "Feature", "id": "way/1447624747", "properties": {"tags": {"building": "commercial", "name": "迪温大厦"}, "heightStatus": "unknown", "source": "OpenStreetMap", "license": "ODbL-1.0"}, "geometry": {"type": "MultiPolygon", "coordinates": [[[[113.8253865, 22.7411258], [113.8256117, 22.7410711], [113.8256904, 22.7413474], [113.8254653, 22.741402], [113.8253865, 22.7411258]]]]}}, {"type": "Feature", "id": "way/1447624748", "properties": {"tags": {"building": "commercial", "name": "新熙大厦"}, "heightStatus": "unknown", "source": "OpenStreetMap", "license": "ODbL-1.0"}, "geometry": {"type": "MultiPolygon", "coordinates": [[[[113.8253766, 22.7409809], [113.8255855, 22.7409356], [113.8256104, 22.7410333], [113.8254015, 22.7410785], [113.8253766, 22.7409809]]]]}}, {"type": "Feature", "id": "way/1447624759", "properties": {"tags": {"building": "temple", "name": "观音天后庙"}, "heightStatus": "unknown", "source": "OpenStreetMap", "license": "ODbL-1.0"}, "geometry": {"type": "MultiPolygon", "coordinates": [[[[113.8296163, 22.7379323], [113.8296725, 22.7378637], [113.8297563, 22.7379222], [113.8297, 22.7379908], [113.8296163, 22.7379323]]]]}}, {"type": "Feature", "id": "way/1447624760", "properties": {"tags": {"building": "yes", "historic": "building", "name": "新桥翠松曾公祠"}, "heightStatus": "unknown", "source": "OpenStreetMap", "license": "ODbL-1.0"}, "geometry": {"type": "MultiPolygon", "coordinates": [[[[113.8295591, 22.7377845], [113.829616, 22.7377098], [113.8298109, 22.737836], [113.8297541, 22.7379107], [113.8295591, 22.7377845]]]]}}, {"type": "Feature", "id": "way/1447624761", "properties": {"tags": {"building": "yes", "historic": "building", "name": "曾氏大宗祠"}, "heightStatus": "unknown", "source": "OpenStreetMap", "license": "ODbL-1.0"}, "geometry": {"type": "MultiPolygon", "coordinates": [[[[113.8289039, 22.7381077], [113.8290322, 22.7379669], [113.8294162, 22.7382644], [113.8292879, 22.7384052], [113.8289039, 22.7381077]]]]}}, {"type": "Feature", "id": "way/1447624762", "properties": {"tags": {"building": "yes", "historic": "building", "name": "古乔曾公祠"}, "heightStatus": "unknown", "source": "OpenStreetMap", "license": "ODbL-1.0"}, "geometry": {"type": "MultiPolygon", "coordinates": [[[[113.8290883, 22.7379348], [113.8291734, 22.7378415], [113.8295338, 22.7381212], [113.8294487, 22.7382145], [113.8290883, 22.7379348]]]]}}, {"type": "Feature", "id": "way/1447624763", "properties": {"tags": {"building": "commercial", "name": "同方中心"}, "heightStatus": "unknown", "source": "OpenStreetMap", "license": "ODbL-1.0"}, "geometry": {"type": "MultiPolygon", "coordinates": [[[[113.826232, 22.7371379], [113.8266232, 22.73707], [113.8266618, 22.737533], [113.8265859, 22.7375815], [113.8262527, 22.7372365], [113.826232, 22.7371379]]]]}}]}