{"type": "FeatureCollection", "features": [{"type": "Feature", "id": "way/1001388431", "properties": {"tags": {"building:levels": "25", "building:part": "commercial", "layer": "1"}, "heightStatus": "levels_only_unverified", "source": "OpenStreetMap", "license": "ODbL-1.0"}, "geometry": {"type": "MultiPolygon", "coordinates": [[[[113.8295693, 22.7847023], [113.8297004, 22.7842417], [113.8298619, 22.7842807], [113.829905, 22.7841294], [113.8302071, 22.7842024], [113.8301656, 22.7843526], [113.8300709, 22.7846817], [113.8299321, 22.7846482], [113.8299412, 22.7846162], [113.8297815, 22.7845776], [113.8297347, 22.7847423], [113.8295693, 22.7847023]]]]}}, {"type": "Feature", "id": "way/1298348678", "properties": {"tags": {"building": "industrial"}, "heightStatus": "unknown", "source": "OpenStreetMap", "license": "ODbL-1.0"}, "geometry": {"type": "MultiPolygon", "coordinates": [[[[113.8209379, 22.7836866], [113.8210876, 22.7836659], [113.8211598, 22.784109], [113.8210101, 22.7841297], [113.8209379, 22.7836866]]]]}}, {"type": "Feature", "id": "way/1298708672", "properties": {"tags": {"building": "industrial"}, "heightStatus": "unknown", "source": "OpenStreetMap", "license": "ODbL-1.0"}, "geometry": {"type": "MultiPolygon", "coordinates": [[[[113.8205575, 22.7816445], [113.821038, 22.7815726], [113.8210656, 22.7817294], [113.8205852, 22.7818015], [113.8205575, 22.7816445]]]]}}, {"type": "Feature", "id": "way/1298708673", "properties": {"tags": {"building": "industrial"}, "heightStatus": "unknown", "source": "OpenStreetMap", "license": "ODbL-1.0"}, "geometry": {"type": "MultiPolygon", "coordinates": [[[[113.8206953, 22.7822693], [113.8210972, 22.7822094], [113.8211526, 22.7825257], [113.8207507, 22.7825856], [113.8206953, 22.7822693]]]]}}, {"type": "Feature", "id": "way/1298708678", "properties": {"tags": {"building": "industrial"}, "heightStatus": "unknown", "source": "OpenStreetMap", "license": "ODbL-1.0"}, "geometry": {"type": "MultiPolygon", "coordinates": [[[[113.8212885, 22.7824224], [113.8218326, 22.7823501], [113.8218476, 22.7824466], [113.8217726, 22.7827214], [113.8213442, 22.7827783], [113.8212885, 22.7824224]]]]}}, {"type": "Feature", "id": "way/1298708679", "properties": {"tags": {"building": "industrial"}, "heightStatus": "unknown", "source": "OpenStreetMap", "license": "ODbL-1.0"}, "geometry": {"type": "MultiPolygon", "coordinates": [[[[113.8212045, 22.781982], [113.8218209, 22.7818921], [113.8218822, 22.7822493], [113.8212659, 22.7823393], [113.8212045, 22.781982]]]]}}, {"type": "Feature", "id": "way/1298708680", "properties": {"tags": {"building": "industrial"}, "heightStatus": "unknown", "source": "OpenStreetMap", "license": "ODbL-1.0"}, "geometry": {"type": "MultiPolygon", "coordinates": [[[[113.8210934, 22.7815377], [113.8215055, 22.7814808], [113.8215207, 22.7815905], [113.8214506, 22.7816008], [113.8214618, 22.7816729], [113.8215218, 22.7816692], [113.8215817, 22.7817095], [113.8215939, 22.7817629], [113.8219085, 22.7817127], [113.8219762, 22.7816675], [113.8218536, 22.7814566], [113.821919, 22.7814232], [113.8220685, 22.78166], [113.8220089, 22.78173], [113.8220043, 22.7819689], [113.8218642, 22.781998], [113.8218315, 22.7818258], [113.82118, 22.781914], [113.8211438, 22.7817041], [113.8211205, 22.7817063], [113.8210934, 22.7815377]]]]}}, {"type": "Feature", "id": "way/1298708696", "properties": {"tags": {"building": "industrial"}, "heightStatus": "unknown", "source": "OpenStreetMap", "license": "ODbL-1.0"}, "geometry": {"type": "MultiPolygon", "coordinates": [[[[113.8207592, 22.7828808], [113.8211012, 22.7828315], [113.8211332, 22.78302], [113.821161, 22.783016], [113.821169, 22.7830627], [113.8207992, 22.7831162], [113.8207592, 22.7828808]]]]}}, {"type": "Feature", "id": "way/1298708697", "properties": {"tags": {"building": "industrial"}, "heightStatus": "unknown", "source": "OpenStreetMap", "license": "ODbL-1.0"}, "geometry": {"type": "MultiPolygon", "coordinates": [[[[113.8211552, 22.7828285], [113.8212269, 22.7828179], [113.8212369, 22.7828752], [113.8212537, 22.7828727], [113.821281, 22.7830286], [113.8211925, 22.7830417], [113.8211552, 22.7828285]]]]}}, {"type": "Feature", "id": "way/1298708698", "properties": {"tags": {"building": "industrial"}, "heightStatus": "unknown", "source": "OpenStreetMap", "license": "ODbL-1.0"}, "geometry": {"type": "MultiPolygon", "coordinates": [[[[113.8213443, 22.782845], [113.8217154, 22.7827902], [113.8217385, 22.782923], [113.8213674, 22.7829778], [113.8213443, 22.782845]]]]}}, {"type": "Feature", "id": "way/1298708699", "properties": {"tags": {"building": "industrial"}, "heightStatus": "unknown", "source": "OpenStreetMap", "license": "ODbL-1.0"}, "geometry": {"type": "MultiPolygon", "coordinates": [[[[113.821374, 22.7830521], [113.8216557, 22.7830114], [113.8216692, 22.7830911], [113.8216479, 22.7830942], [113.8216561, 22.7831421], [113.8213956, 22.7831797], [113.821374, 22.7830521]]]]}}, {"type": "Feature", "id": "way/1298708700", "properties": {"tags": {"building": "industrial"}, "heightStatus": "unknown", "source": "OpenStreetMap", "license": "ODbL-1.0"}, "geometry": {"type": "MultiPolygon", "coordinates": [[[[113.8212089, 22.7832144], [113.8213047, 22.7832014], [113.8213382, 22.7834126], [113.8212424, 22.7834256], [113.8212089, 22.7832144]]]]}}, {"type": "Feature", "id": "way/1298708701", "properties": {"tags": {"building": "industrial"}, "heightStatus": "unknown", "source": "OpenStreetMap", "license": "ODbL-1.0"}, "geometry": {"type": "MultiPolygon", "coordinates": [[[[113.8213478, 22.7833161], [113.8215902, 22.7832825], [113.8216039, 22.7833669], [113.8213616, 22.7834004], [113.8213478, 22.7833161]]]]}}, {"type": "Feature", "id": "way/1298708702", "properties": {"tags": {"building": "industrial"}, "heightStatus": "unknown", "source": "OpenStreetMap", "license": "ODbL-1.0"}, "geometry": {"type": "MultiPolygon", "coordinates": [[[[113.8208403, 22.7832571], [113.8211848, 22.7832062], [113.8212198, 22.7834077], [113.8208753, 22.7834585], [113.8208403, 22.7832571]]]]}}, {"type": "Feature", "id": "way/1298708710", "properties": {"tags": {"building": "industrial"}, "heightStatus": "unknown", "source": "OpenStreetMap", "license": "ODbL-1.0"}, "geometry": {"type": "MultiPolygon", "coordinates": [[[[113.8226134, 22.7841849], [113.8230211, 22.7837923], [113.8233409, 22.7840746], [113.8229332, 22.7844672], [113.8226134, 22.7841849]]]]}}, {"type": "Feature", "id": "way/1298708711", "properties": {"tags": {"building": "industrial"}, "heightStatus": "unknown", "source": "OpenStreetMap", "license": "ODbL-1.0"}, "geometry": {"type": "MultiPolygon", "coordinates": [[[[113.8230568, 22.7845119], [113.8232675, 22.7842882], [113.8237603, 22.7846827], [113.8236643, 22.7847847], [113.8236189, 22.7847483], [113.8235041, 22.7848702], [113.8230568, 22.7845119]]]]}}, {"type": "Feature", "id": "way/1298708712", "properties": {"tags": {"building": "industrial"}, "heightStatus": "unknown", "source": "OpenStreetMap", "license": "ODbL-1.0"}, "geometry": {"type": "MultiPolygon", "coordinates": [[[[113.8236644, 22.7848514], [113.8238588, 22.7848491], [113.8238669, 22.7854281], [113.8236725, 22.7854304], [113.8236644, 22.7848514]]]]}}, {"type": "Feature", "id": "way/1298708713", "properties": {"tags": {"building": "industrial"}, "heightStatus": "unknown", "source": "OpenStreetMap", "license": "ODbL-1.0"}, "geometry": {"type": "MultiPolygon", "coordinates": [[[[113.8230314, 22.7855075], [113.8235395, 22.7854954], [113.8235459, 22.7857245], [113.8234382, 22.7857271], [113.8234338, 22.7855704], [113.8230334, 22.7855798], [113.8230314, 22.7855075]]]]}}, {"type": "Feature", "id": "way/1298708714", "properties": {"tags": {"building": "industrial"}, "heightStatus": "unknown", "source": "OpenStreetMap", "license": "ODbL-1.0"}, "geometry": {"type": "MultiPolygon", "coordinates": [[[[113.8225726, 22.7854826], [113.822949, 22.785471], [113.8229991, 22.7868579], [113.8227529, 22.7868655], [113.8227494, 22.7867695], [113.8226189, 22.7867734], [113.8225726, 22.7854826]]]]}}, {"type": "Feature", "id": "way/1298708715", "properties": {"tags": {"building": "industrial"}, "heightStatus": "unknown", "source": "OpenStreetMap", "license": "ODbL-1.0"}, "geometry": {"type": "MultiPolygon", "coordinates": [[[[113.8242267, 22.7858514], [113.8246948, 22.785845], [113.8246991, 22.78611], [113.824231, 22.7861165], [113.8242267, 22.7858514]]]]}}, {"type": "Feature", "id": "way/1298708716", "properties": {"tags": {"building": "industrial"}, "heightStatus": "unknown", "source": "OpenStreetMap", "license": "ODbL-1.0"}, "geometry": {"type": "MultiPolygon", "coordinates": [[[[113.8229814, 22.7848992], [113.8231841, 22.7848935], [113.8231983, 22.7853257], [113.8229956, 22.7853314], [113.8229814, 22.7848992]]]]}}, {"type": "Feature", "id": "way/1298708717", "properties": {"tags": {"building": "industrial"}, "heightStatus": "unknown", "source": "OpenStreetMap", "license": "ODbL-1.0"}, "geometry": {"type": "MultiPolygon", "coordinates": [[[[113.8232663, 22.7848943], [113.823469, 22.7848886], [113.8234833, 22.7853208], [113.8232805, 22.7853265], [113.8232663, 22.7848943]]]]}}, {"type": "Feature", "id": "way/1298708718", "properties": {"tags": {"building": "industrial"}, "heightStatus": "unknown", "source": "OpenStreetMap", "license": "ODbL-1.0"}, "geometry": {"type": "MultiPolygon", "coordinates": [[[[113.8239113, 22.7848615], [113.8240889, 22.7848568], [113.8241058, 22.7853984], [113.8239283, 22.7854031], [113.8239113, 22.7848615]]]]}}, {"type": "Feature", "id": "way/1298708719", "properties": {"tags": {"building": "industrial"}, "heightStatus": "unknown", "source": "OpenStreetMap", "license": "ODbL-1.0"}, "geometry": {"type": "MultiPolygon", "coordinates": [[[[113.8239128, 22.7854275], [113.8241895, 22.7854264], [113.8241883, 22.7851758], [113.8245328, 22.7851744], [113.8245331, 22.7852505], [113.824286, 22.7852515], [113.8242873, 22.7855313], [113.8245473, 22.7855303], [113.8245476, 22.7856051], [113.8242805, 22.7856062], [113.8242807, 22.7856401], [113.8245339, 22.785639], [113.8245345, 22.7857638], [113.8242039, 22.7857651], [113.8242037, 22.7857209], [113.8239142, 22.785722], [113.8239128, 22.7854275]]]]}}, {"type": "Feature", "id": "way/1298708720", "properties": {"tags": {"building": "industrial"}, "heightStatus": "unknown", "source": "OpenStreetMap", "license": "ODbL-1.0"}, "geometry": {"type": "MultiPolygon", "coordinates": [[[[113.8238155, 22.7860321], [113.823816, 22.7858954], [113.8241662, 22.7858966], [113.8241656, 22.7860334], [113.8238155, 22.7860321]]]]}}, {"type": "Feature", "id": "way/1298708721", "properties": {"tags": {"building": "industrial"}, "heightStatus": "unknown", "source": "OpenStreetMap", "license": "ODbL-1.0"}, "geometry": {"type": "MultiPolygon", "coordinates": [[[[113.8236585, 22.7858607], [113.8237017, 22.7857397], [113.8237604, 22.7857575], [113.8237399, 22.785815], [113.8241317, 22.7858075], [113.8241329, 22.7858577], [113.8237535, 22.785865], [113.8237632, 22.78629], [113.8236683, 22.7862918], [113.8236585, 22.7858607]]]]}}, {"type": "Feature", "id": "way/1298708722", "properties": {"tags": {"building": "industrial"}, "heightStatus": "unknown", "source": "OpenStreetMap", "license": "ODbL-1.0"}, "geometry": {"type": "MultiPolygon", "coordinates": [[[[113.8231016, 22.7863394], [113.8235705, 22.7863243], [113.8235837, 22.7866716], [113.8234671, 22.7866753], [113.8234704, 22.7867611], [113.8232291, 22.7867688], [113.823226, 22.7866862], [113.8231149, 22.7866898], [113.8231016, 22.7863394]]]]}}, {"type": "Feature", "id": "way/1298708723", "properties": {"tags": {"building": "industrial"}, "heightStatus": "unknown", "source": "OpenStreetMap", "license": "ODbL-1.0"}, "geometry": {"type": "MultiPolygon", "coordinates": [[[[113.8230757, 22.7858142], [113.8233766, 22.7858069], [113.8233785, 22.7858739], [113.8235461, 22.7858699], [113.8235564, 22.7862293], [113.8230879, 22.7862407], [113.8230757, 22.7858142]]]]}}, {"type": "Feature", "id": "way/1298708724", "properties": {"tags": {"building": "industrial"}, "heightStatus": "unknown", "source": "OpenStreetMap", "license": "ODbL-1.0"}, "geometry": {"type": "MultiPolygon", "coordinates": [[[[113.8242043, 22.7867577], [113.8242053, 22.7866566], [113.8246942, 22.7866608], [113.8246932, 22.7867618], [113.8242043, 22.7867577]]]]}}, {"type": "Feature", "id": "way/1298708725", "properties": {"tags": {"building": "industrial"}, "heightStatus": "unknown", "source": "OpenStreetMap", "license": "ODbL-1.0"}, "geometry": {"type": "MultiPolygon", "coordinates": [[[[113.8228506, 22.7872142], [113.8229134, 22.7870572], [113.8236385, 22.7873036], [113.8235757, 22.7874608], [113.8228506, 22.7872142]]]]}}, {"type": "Feature", "id": "way/1298708726", "properties": {"tags": {"building": "industrial"}, "heightStatus": "unknown", "source": "OpenStreetMap", "license": "ODbL-1.0"}, "geometry": {"type": "MultiPolygon", "coordinates": [[[[113.8237199, 22.7867936], [113.8238476, 22.786793], [113.8238474, 22.7867441], [113.8240739, 22.7867431], [113.8240759, 22.7871046], [113.8237216, 22.7871063], [113.8237199, 22.7867936]]]]}}, {"type": "Feature", "id": "way/1298708727", "properties": {"tags": {"building": "industrial"}, "heightStatus": "unknown", "source": "OpenStreetMap", "license": "ODbL-1.0"}, "geometry": {"type": "MultiPolygon", "coordinates": [[[[113.823815, 22.7861452], [113.8241621, 22.7861411], [113.8241631, 22.7862098], [113.8244064, 22.786207], [113.8244106, 22.7865156], [113.8242265, 22.7865177], [113.824223, 22.7862614], [113.8241695, 22.7862621], [113.8241714, 22.7864006], [113.8238186, 22.7864047], [113.823815, 22.7861452]]]]}}, {"type": "Feature", "id": "way/1298708728", "properties": {"tags": {"building": "industrial"}, "heightStatus": "unknown", "source": "OpenStreetMap", "license": "ODbL-1.0"}, "geometry": {"type": "MultiPolygon", "coordinates": [[[[113.8241555, 22.7867714], [113.824229, 22.7867686], [113.8242447, 22.7871103], [113.8241712, 22.7871132], [113.8241555, 22.7867714]]]]}}, {"type": "Feature", "id": "way/1298708729", "properties": {"tags": {"building": "industrial"}, "heightStatus": "unknown", "source": "OpenStreetMap", "license": "ODbL-1.0"}, "geometry": {"type": "MultiPolygon", "coordinates": [[[[113.824269, 22.7869553], [113.8243459, 22.7869553], [113.8243459, 22.7870306], [113.8246088, 22.7870306], [113.8246088, 22.7869488], [113.8246926, 22.7869488], [113.8246926, 22.7871026], [113.824269, 22.7871026], [113.824269, 22.7869553]]]]}}, {"type": "Feature", "id": "way/1298708730", "properties": {"tags": {"building": "industrial"}, "heightStatus": "unknown", "source": "OpenStreetMap", "license": "ODbL-1.0"}, "geometry": {"type": "MultiPolygon", "coordinates": [[[[113.8237336, 22.7871413], [113.8238517, 22.7871382], [113.8238536, 22.7872002], [113.8241101, 22.7871935], [113.8241125, 22.7872713], [113.8238132, 22.7872791], [113.8237531, 22.7872008], [113.8237336, 22.7871413]]]]}}, {"type": "Feature", "id": "way/1298708737", "properties": {"tags": {"building": "industrial"}, "heightStatus": "unknown", "source": "OpenStreetMap", "license": "ODbL-1.0"}, "geometry": {"type": "MultiPolygon", "coordinates": [[[[113.8258264, 22.7875155], [113.8258352, 22.7874849], [113.825887, 22.7873043], [113.8259598, 22.7870501], [113.8261056, 22.7870856], [113.8259723, 22.787551], [113.8258264, 22.7875155]]]]}}, {"type": "Feature", "id": "way/1298708743", "properties": {"tags": {"building": "industrial"}, "heightStatus": "unknown", "source": "OpenStreetMap", "license": "ODbL-1.0"}, "geometry": {"type": "MultiPolygon", "coordinates": [[[[113.8223784, 22.7842029], [113.8225857, 22.7841976], [113.82262, 22.7853458], [113.8224125, 22.785351], [113.8223784, 22.7842029]]]]}}, {"type": "Feature", "id": "way/1298708744", "properties": {"tags": {"building": "industrial"}, "heightStatus": "unknown", "source": "OpenStreetMap", "license": "ODbL-1.0"}, "geometry": {"type": "MultiPolygon", "coordinates": [[[[113.8226636, 22.7844318], [113.8228739, 22.7844336], [113.8229051, 22.7853574], [113.8226976, 22.7853626], [113.8226636, 22.7844318]]]]}}, {"type": "Feature", "id": "way/1298708745", "properties": {"tags": {"building": "industrial"}, "heightStatus": "unknown", "source": "OpenStreetMap", "license": "ODbL-1.0"}, "geometry": {"type": "MultiPolygon", "coordinates": [[[[113.8229701, 22.7845909], [113.8230502, 22.784527], [113.8231888, 22.7846179], [113.8231965, 22.7848466], [113.8229808, 22.7848523], [113.8229701, 22.7845909]]]]}}, {"type": "Feature", "id": "way/1298708747", "properties": {"tags": {"building": "school"}, "heightStatus": "unknown", "source": "OpenStreetMap", "license": "ODbL-1.0"}, "geometry": {"type": "MultiPolygon", "coordinates": [[[[113.8275932, 22.7800072], [113.8277812, 22.7799458], [113.8277685, 22.7799127], [113.8278709, 22.7798793], [113.8278853, 22.7799168], [113.8283133, 22.7797771], [113.8282979, 22.7797369], [113.8284787, 22.7796779], [113.8284837, 22.779691], [113.8285094, 22.7796827], [113.8285302, 22.7797368], [113.8285078, 22.7797536], [113.8285223, 22.7797912], [113.8276232, 22.7800851], [113.8275932, 22.7800072]]]]}}, {"type": "Feature", "id": "relation/17798492", "properties": {"tags": {"building": "school"}, "heightStatus": "unknown", "source": "OpenStreetMap", "license": "ODbL-1.0"}, "geometry": {"type": "MultiPolygon", "coordinates": [[[[113.8274119, 22.7794402], [113.8275361, 22.779169], [113.8276208, 22.7791917], [113.8277148, 22.7791747], [113.827858, 22.7795809], [113.828311, 22.7794403], [113.8283541, 22.7795298], [113.8276508, 22.7797682], [113.8276416, 22.7797457], [113.8275583, 22.7797766], [113.8275461, 22.7797541], [113.8274963, 22.7797747], [113.8274414, 22.7796595], [113.8274587, 22.779652], [113.827415, 22.779517], [113.8274119, 22.7794402]], [[113.8275324, 22.779474], [113.8275872, 22.7796145], [113.8276759, 22.7795851], [113.8276633, 22.7795528], [113.8277826, 22.7795131], [113.8276852, 22.7792638], [113.8276343, 22.7792589], [113.8275324, 22.779474]]]]}}, {"type": "Feature", "id": "way/1298723128", "properties": {"tags": {"building": "industrial"}, "heightStatus": "unknown", "source": "OpenStreetMap", "license": "ODbL-1.0"}, "geometry": {"type": "MultiPolygon", "coordinates": [[[[113.8259706, 22.7833128], [113.8259913, 22.7831496], [113.8263928, 22.783193], [113.8263721, 22.7833562], [113.8259706, 22.7833128]]]]}}, {"type": "Feature", "id": "way/1298723129", "properties": {"tags": {"building": "industrial"}, "heightStatus": "unknown", "source": "OpenStreetMap", "license": "ODbL-1.0"}, "geometry": {"type": "MultiPolygon", "coordinates": [[[[113.8264044, 22.7833386], [113.8264103, 22.7832879], [113.8264279, 22.7832896], [113.826438, 22.7832017], [113.8267291, 22.7832305], [113.8267102, 22.7833927], [113.826418, 22.7833639], [113.8264208, 22.7833402], [113.8264044, 22.7833386]]]]}}, {"type": "Feature", "id": "way/1298723130", "properties": {"tags": {"building": "industrial"}, "heightStatus": "unknown", "source": "OpenStreetMap", "license": "ODbL-1.0"}, "geometry": {"type": "MultiPolygon", "coordinates": [[[[113.8259146, 22.7837122], [113.8259423, 22.7834463], [113.8267505, 22.783518], [113.8267228, 22.7837837], [113.8259146, 22.7837122]]]]}}, {"type": "Feature", "id": "way/1298723131", "properties": {"tags": {"building": "industrial"}, "heightStatus": "unknown", "source": "OpenStreetMap", "license": "ODbL-1.0"}, "geometry": {"type": "MultiPolygon", "coordinates": [[[[113.8267404, 22.7837656], [113.8267653, 22.7835319], [113.8268256, 22.7835373], [113.8268008, 22.783771], [113.8267404, 22.7837656]]]]}}, {"type": "Feature", "id": "way/1298723132", "properties": {"tags": {"building": "industrial"}, "heightStatus": "unknown", "source": "OpenStreetMap", "license": "ODbL-1.0"}, "geometry": {"type": "MultiPolygon", "coordinates": [[[[113.8251321, 22.7835856], [113.8251876, 22.7831369], [113.8256584, 22.7831863], [113.825626, 22.7834488], [113.8256915, 22.7834557], [113.8257428, 22.7836499], [113.8251321, 22.7835856]]]]}}, {"type": "Feature", "id": "way/1298723133", "properties": {"tags": {"building": "industrial"}, "heightStatus": "unknown", "source": "OpenStreetMap", "license": "ODbL-1.0"}, "geometry": {"type": "MultiPolygon", "coordinates": [[[[113.825938, 22.7840465], [113.8259603, 22.7838412], [113.8267428, 22.7839134], [113.8267205, 22.7841186], [113.825938, 22.7840465]]]]}}, {"type": "Feature", "id": "way/1298723134", "properties": {"tags": {"building": "industrial"}, "heightStatus": "unknown", "source": "OpenStreetMap", "license": "ODbL-1.0"}, "geometry": {"type": "MultiPolygon", "coordinates": [[[[113.8259072, 22.7843419], [113.8259295, 22.7841366], [113.826712, 22.7842089], [113.8266897, 22.784414], [113.8259072, 22.7843419]]]]}}, {"type": "Feature", "id": "way/1298723135", "properties": {"tags": {"building": "industrial"}, "heightStatus": "unknown", "source": "OpenStreetMap", "license": "ODbL-1.0"}, "geometry": {"type": "MultiPolygon", "coordinates": [[[[113.8250822, 22.7838346], [113.8250908, 22.7837575], [113.8255485, 22.7838009], [113.8255399, 22.7838778], [113.8250822, 22.7838346]]]]}}, {"type": "Feature", "id": "way/1298723136", "properties": {"tags": {"building": "industrial"}, "heightStatus": "unknown", "source": "OpenStreetMap", "license": "ODbL-1.0"}, "geometry": {"type": "MultiPolygon", "coordinates": [[[[113.8253897, 22.7850595], [113.825399, 22.7844696], [113.8258544, 22.7845299], [113.8257353, 22.7850918], [113.8253897, 22.7850595]]]]}}, {"type": "Feature", "id": "way/1298723137", "properties": {"tags": {"building": "industrial"}, "heightStatus": "unknown", "source": "OpenStreetMap", "license": "ODbL-1.0"}, "geometry": {"type": "MultiPolygon", "coordinates": [[[[113.824958, 22.7842724], [113.8249863, 22.7840907], [113.8254048, 22.7841459], [113.8254309, 22.7839779], [113.8255236, 22.7839902], [113.8254692, 22.78434], [113.824958, 22.7842724]]]]}}, {"type": "Feature", "id": "way/1298723138", "properties": {"tags": {"building": "industrial"}, "heightStatus": "unknown", "source": "OpenStreetMap", "license": "ODbL-1.0"}, "geometry": {"type": "MultiPolygon", "coordinates": [[[[113.8255196, 22.7843297], [113.8255574, 22.7840558], [113.8255896, 22.7840596], [113.8256173, 22.7838589], [113.8258275, 22.7838835], [113.8258104, 22.7840077], [113.8257572, 22.7840015], [113.825709, 22.7843519], [113.8255196, 22.7843297]]]]}}, {"type": "Feature", "id": "way/1298723139", "properties": {"tags": {"building": "industrial"}, "heightStatus": "unknown", "source": "OpenStreetMap", "license": "ODbL-1.0"}, "geometry": {"type": "MultiPolygon", "coordinates": [[[[113.8249156, 22.7846329], [113.8249287, 22.7845114], [113.8253634, 22.7845512], [113.8253504, 22.7846726], [113.8249156, 22.7846329]]]]}}, {"type": "Feature", "id": "way/1298723140", "properties": {"tags": {"building": "industrial"}, "heightStatus": "unknown", "source": "OpenStreetMap", "license": "ODbL-1.0"}, "geometry": {"type": "MultiPolygon", "coordinates": [[[[113.8249316, 22.7850328], [113.8249558, 22.784838], [113.8252192, 22.7848658], [113.825195, 22.7850606], [113.8249316, 22.7850328]]]]}}, {"type": "Feature", "id": "way/1298723141", "properties": {"tags": {"building": "industrial"}, "heightStatus": "unknown", "source": "OpenStreetMap", "license": "ODbL-1.0"}, "geometry": {"type": "MultiPolygon", "coordinates": [[[[113.8258108, 22.7866461], [113.8258138, 22.7860623], [113.8260466, 22.7860633], [113.8260438, 22.7866471], [113.8258108, 22.7866461]]]]}}, {"type": "Feature", "id": "way/1298723142", "properties": {"tags": {"building": "industrial"}, "heightStatus": "unknown", "source": "OpenStreetMap", "license": "ODbL-1.0"}, "geometry": {"type": "MultiPolygon", "coordinates": [[[[113.8262079, 22.7863101], [113.8262091, 22.7860863], [113.8266111, 22.7860882], [113.8266085, 22.7865688], [113.826316, 22.7865674], [113.8263174, 22.7863106], [113.8262079, 22.7863101]]]]}}, {"type": "Feature", "id": "way/1298723143", "properties": {"tags": {"building": "industrial"}, "heightStatus": "unknown", "source": "OpenStreetMap", "license": "ODbL-1.0"}, "geometry": {"type": "MultiPolygon", "coordinates": [[[[113.8258022, 22.7854078], [113.8260482, 22.7854063], [113.8260501, 22.7856657], [113.8258041, 22.7856672], [113.8258022, 22.7854078]]]]}}, {"type": "Feature", "id": "way/1298723144", "properties": {"tags": {"building": "industrial"}, "heightStatus": "unknown", "source": "OpenStreetMap", "license": "ODbL-1.0"}, "geometry": {"type": "MultiPolygon", "coordinates": [[[[113.8261406, 22.7856832], [113.8261426, 22.7853317], [113.8264212, 22.7853331], [113.8264191, 22.7856846], [113.8261406, 22.7856832]]]]}}, {"type": "Feature", "id": "way/1298723145", "properties": {"tags": {"building": "industrial"}, "heightStatus": "unknown", "source": "OpenStreetMap", "license": "ODbL-1.0"}, "geometry": {"type": "MultiPolygon", "coordinates": [[[[113.8251598, 22.7869616], [113.8251628, 22.7867047], [113.8253989, 22.7867071], [113.8253965, 22.7869089], [113.8253274, 22.7869082], [113.8253268, 22.7869633], [113.8251598, 22.7869616]]]]}}, {"type": "Feature", "id": "way/1298723146", "properties": {"tags": {"building": "industrial"}, "heightStatus": "unknown", "source": "OpenStreetMap", "license": "ODbL-1.0"}, "geometry": {"type": "MultiPolygon", "coordinates": [[[[113.8249188, 22.7854387], [113.8251686, 22.7854374], [113.8251684, 22.7854058], [113.8254142, 22.7854045], [113.825416, 22.7854443], [113.8254283, 22.7854442], [113.8254278, 22.7853685], [113.8255203, 22.785368], [113.8255204, 22.7855105], [113.8254322, 22.7855066], [113.8254323, 22.7854597], [113.8254151, 22.785457], [113.8254103, 22.7856796], [113.8251667, 22.7856809], [113.8251656, 22.7855032], [113.8250969, 22.7855036], [113.825098, 22.7856854], [113.8249203, 22.7856863], [113.8249188, 22.7854387]]]]}}, {"type": "Feature", "id": "way/1298723147", "properties": {"tags": {"building": "industrial"}, "heightStatus": "unknown", "source": "OpenStreetMap", "license": "ODbL-1.0"}, "geometry": {"type": "MultiPolygon", "coordinates": [[[[113.8250295, 22.7851963], [113.8257543, 22.7851945], [113.8257547, 22.7853504], [113.8256772, 22.7853506], [113.825677, 22.7852959], [113.8255271, 22.7852963], [113.8255272, 22.7853232], [113.8252942, 22.7853239], [113.8252944, 22.7853814], [113.8251719, 22.7853818], [113.8251717, 22.7853112], [113.8250719, 22.7853115], [113.8250721, 22.7853945], [113.8250301, 22.7853946], [113.8250295, 22.7851963]]]]}}, {"type": "Feature", "id": "way/1298723148", "properties": {"tags": {"building": "industrial"}, "heightStatus": "unknown", "source": "OpenStreetMap", "license": "ODbL-1.0"}, "geometry": {"type": "MultiPolygon", "coordinates": [[[[113.824906, 22.786378], [113.8251385, 22.7863776], [113.825139, 22.7866112], [113.8249063, 22.7866116], [113.824906, 22.786378]]]]}}, {"type": "Feature", "id": "way/1298723149", "properties": {"tags": {"building": "industrial"}, "heightStatus": "unknown", "source": "OpenStreetMap", "license": "ODbL-1.0"}, "geometry": {"type": "MultiPolygon", "coordinates": [[[[113.8251596, 22.7866195], [113.8251633, 22.7863767], [113.8253921, 22.7863796], [113.8253884, 22.7866225], [113.8251596, 22.7866195]]]]}}, {"type": "Feature", "id": "way/1298723150", "properties": {"tags": {"building": "industrial"}, "heightStatus": "unknown", "source": "OpenStreetMap", "license": "ODbL-1.0"}, "geometry": {"type": "MultiPolygon", "coordinates": [[[[113.825165, 22.7862808], [113.8251687, 22.7860379], [113.8253975, 22.7860409], [113.8253937, 22.7862837], [113.825165, 22.7862808]]]]}}, {"type": "Feature", "id": "way/1298723151", "properties": {"tags": {"building": "industrial"}, "heightStatus": "unknown", "source": "OpenStreetMap", "license": "ODbL-1.0"}, "geometry": {"type": "MultiPolygon", "coordinates": [[[[113.8249113, 22.7860392], [113.8251439, 22.7860388], [113.8251443, 22.7862725], [113.8249117, 22.7862728], [113.8249113, 22.7860392]]]]}}, {"type": "Feature", "id": "way/1298723152", "properties": {"tags": {"building": "industrial"}, "heightStatus": "unknown", "source": "OpenStreetMap", "license": "ODbL-1.0"}, "geometry": {"type": "MultiPolygon", "coordinates": [[[[113.8251686, 22.7859667], [113.8251723, 22.7857238], [113.8254011, 22.7857268], [113.8253974, 22.7859697], [113.8251686, 22.7859667]]]]}}, {"type": "Feature", "id": "way/1298723153", "properties": {"tags": {"building": "industrial"}, "heightStatus": "unknown", "source": "OpenStreetMap", "license": "ODbL-1.0"}, "geometry": {"type": "MultiPolygon", "coordinates": [[[[113.824915, 22.7857251], [113.8251476, 22.7857248], [113.825148, 22.7859584], [113.8249154, 22.7859587], [113.824915, 22.7857251]]]]}}, {"type": "Feature", "id": "way/1551952065", "properties": {"tags": {"addr:housename": "满京华·云著华庭", "addr:housename:zh": "满京华·云著华庭", "building": "apartments", "building:levels": "33", "name": "5栋", "name:en": "Block 5", "name:zh": "5栋"}, "heightStatus": "levels_only_unverified", "source": "OpenStreetMap", "license": "ODbL-1.0"}, "geometry": {"type": "MultiPolygon", "coordinates": [[[[113.8281142, 22.7841716], [113.8282489, 22.784063], [113.8282742, 22.7840897], [113.8282604, 22.7841009], [113.8282811, 22.7841228], [113.8282589, 22.7841407], [113.8282691, 22.7841514], [113.8283146, 22.7841536], [113.8283331, 22.7841378], [113.8283137, 22.7841185], [113.8283233, 22.7841103], [113.8283128, 22.7840998], [113.8283437, 22.7840735], [113.8284612, 22.7841907], [113.828427, 22.7842198], [113.8284138, 22.7842067], [113.8284053, 22.784214], [113.828379, 22.7841877], [113.8283688, 22.7841963], [113.828341, 22.7841684], [113.8283135, 22.7841917], [113.8284139, 22.7842922], [113.8283733, 22.7843266], [113.8282974, 22.7842506], [113.8283166, 22.7842343], [113.8282648, 22.7842314], [113.8282451, 22.7842475], [113.8282652, 22.7842685], [113.8281917, 22.7843283], [113.8281461, 22.7842807], [113.8282493, 22.7841966], [113.8282298, 22.7841763], [113.8282073, 22.7841946], [113.8281983, 22.7841852], [113.8281694, 22.7842087], [113.8281518, 22.7841902], [113.8281405, 22.7841994], [113.8281142, 22.7841716]]]]}}, {"type": "Feature", "id": "way/1551952066", "properties": {"tags": {"addr:housename": "满京华·云著华庭", "addr:housename:zh": "满京华·云著华庭", "building": "apartments", "building:levels": "33", "name": "6栋", "name:en": "Block 6", "name:zh": "6栋"}, "heightStatus": "levels_only_unverified", "source": "OpenStreetMap", "license": "ODbL-1.0"}, "geometry": {"type": "MultiPolygon", "coordinates": [[[[113.8279751, 22.7846206], [113.828102, 22.7845043], [113.8281291, 22.7845295], [113.8281161, 22.7845414], [113.8281382, 22.784562], [113.8281173, 22.7845812], [113.8281282, 22.7845913], [113.8281738, 22.7845908], [113.8281912, 22.784574], [113.8281705, 22.7845558], [113.8281795, 22.7845471], [113.8281684, 22.7845373], [113.8281973, 22.7845092], [113.8283227, 22.7846192], [113.8282906, 22.7846503], [113.8282765, 22.784638], [113.8282685, 22.7846457], [113.8282404, 22.784621], [113.8282309, 22.7846302], [113.8282012, 22.784604], [113.8281754, 22.7846289], [113.8282825, 22.7847233], [113.8282444, 22.78476], [113.8281634, 22.7846886], [113.8281814, 22.7846712], [113.8281295, 22.7846714], [113.828111, 22.7846886], [113.8281325, 22.7847083], [113.8280633, 22.7847724], [113.8280145, 22.7847275], [113.8281116, 22.7846376], [113.8280908, 22.7846185], [113.8280696, 22.7846381], [113.82806, 22.7846292], [113.8280327, 22.7846544], [113.8280139, 22.784637], [113.8280033, 22.7846467], [113.8279751, 22.7846206]]]]}}, {"type": "Feature", "id": "way/1551952067", "properties": {"tags": {"addr:housename": "满京华·云著华庭", "addr:housename:zh": "满京华·云著华庭", "building": "apartments", "building:levels": "33", "name": "4栋", "name:en": "Block 4", "name:zh": "4栋"}, "heightStatus": "levels_only_unverified", "source": "OpenStreetMap", "license": "ODbL-1.0"}, "geometry": {"type": "MultiPolygon", "coordinates": [[[[113.8282502, 22.7837258], [113.8283876, 22.7836201], [113.8284122, 22.7836474], [113.8283981, 22.7836583], [113.8284182, 22.7836805], [113.8283956, 22.7836979], [113.8284055, 22.7837089], [113.828451, 22.783712], [113.8284698, 22.7836967], [113.8284509, 22.783677], [113.8284608, 22.7836689], [113.8284506, 22.7836583], [113.8284821, 22.7836326], [113.8285966, 22.7837523], [113.8285617, 22.7837807], [113.8285488, 22.7837673], [113.8285401, 22.7837744], [113.8285145, 22.7837475], [113.8285041, 22.7837559], [113.828477, 22.7837274], [113.828449, 22.7837501], [113.8285468, 22.7838527], [113.8285053, 22.7838863], [113.8284313, 22.7838087], [113.8284509, 22.7837928], [113.8283992, 22.7837888], [113.8283791, 22.7838044], [113.8283987, 22.7838258], [113.8283238, 22.7838841], [113.8282793, 22.7838355], [113.8283846, 22.7837537], [113.8283657, 22.783733], [113.8283427, 22.7837508], [113.828334, 22.7837412], [113.8283044, 22.783764], [113.8282873, 22.7837452], [113.8282758, 22.7837541], [113.8282502, 22.7837258]]]]}}, {"type": "Feature", "id": "way/1551952068", "properties": {"tags": {"addr:housename": "满京华·云著华庭", "addr:housename:zh": "满京华·云著华庭", "building": "apartments", "building:levels": "33", "name": "3栋", "name:en": "Block 3", "name:zh": "3栋"}, "heightStatus": "levels_only_unverified", "source": "OpenStreetMap", "license": "ODbL-1.0"}, "geometry": {"type": "MultiPolygon", "coordinates": [[[[113.829037, 22.7838955], [113.8291744, 22.7837898], [113.8291991, 22.7838171], [113.8291849, 22.783828], [113.8292051, 22.7838503], [113.8291824, 22.7838677], [113.8291923, 22.7838786], [113.8292378, 22.7838818], [113.8292567, 22.7838664], [113.8292378, 22.7838467], [113.8292476, 22.7838387], [113.8292374, 22.783828], [113.8292689, 22.7838024], [113.8293834, 22.783922], [113.8293485, 22.7839504], [113.8293357, 22.783937], [113.8293269, 22.7839441], [113.8293013, 22.7839172], [113.8292909, 22.7839256], [113.8292638, 22.7838972], [113.8292358, 22.7839199], [113.8293336, 22.7840225], [113.8292922, 22.784056], [113.8292181, 22.7839784], [113.8292377, 22.7839625], [113.829186, 22.7839585], [113.829166, 22.7839742], [113.8291856, 22.7839956], [113.8291106, 22.7840538], [113.8290661, 22.7840052], [113.8291714, 22.7839234], [113.8291525, 22.7839027], [113.8291295, 22.7839205], [113.8291208, 22.7839109], [113.8290912, 22.7839338], [113.8290741, 22.7839149], [113.8290626, 22.7839238], [113.829037, 22.7838955]]]]}}, {"type": "Feature", "id": "way/1551952069", "properties": {"tags": {"addr:housename": "满京华·云著华庭", "addr:housename:zh": "满京华·云著华庭", "building": "apartments", "building:levels": "33", "name": "2栋", "name:en": "Block 2", "name:zh": "2栋"}, "heightStatus": "levels_only_unverified", "source": "OpenStreetMap", "license": "ODbL-1.0"}, "geometry": {"type": "MultiPolygon", "coordinates": [[[[113.8289051, 22.7843263], [113.8290535, 22.7842341], [113.829075, 22.7842636], [113.8290597, 22.7842731], [113.8290773, 22.7842971], [113.8290529, 22.7843123], [113.8290615, 22.7843242], [113.8291064, 22.7843316], [113.8291269, 22.7843181], [113.8291102, 22.7842966], [113.8291209, 22.7842896], [113.829112, 22.784278], [113.8291461, 22.7842555], [113.8292468, 22.7843853], [113.8292089, 22.7844103], [113.8291976, 22.7843957], [113.8291882, 22.7844019], [113.8291656, 22.7843728], [113.8291544, 22.7843802], [113.8291305, 22.7843493], [113.8291002, 22.7843693], [113.8291861, 22.7844805], [113.8291412, 22.78451], [113.8290761, 22.7844258], [113.8290974, 22.7844119], [113.8290464, 22.7844031], [113.8290247, 22.7844167], [113.8290418, 22.7844398], [113.8289608, 22.7844908], [113.828922, 22.7844382], [113.8290357, 22.7843668], [113.8290192, 22.7843444], [113.8289944, 22.7843599], [113.8289868, 22.7843496], [113.8289549, 22.7843695], [113.8289399, 22.7843492], [113.8289275, 22.7843569], [113.8289051, 22.7843263]]]]}}, {"type": "Feature", "id": "way/1551952070", "properties": {"tags": {"addr:housename": "满京华·云著华庭", "addr:housename:zh": "满京华·云著华庭", "building": "apartments", "building:levels": "33", "name": "1栋", "name:en": "Block 1", "name:zh": "1栋"}, "heightStatus": "levels_only_unverified", "source": "OpenStreetMap", "license": "ODbL-1.0"}, "geometry": {"type": "MultiPolygon", "coordinates": [[[[113.8287982, 22.7848137], [113.8289251, 22.7846974], [113.8289523, 22.7847226], [113.8289392, 22.7847346], [113.8289614, 22.7847552], [113.8289405, 22.7847743], [113.8289514, 22.7847845], [113.828997, 22.784784], [113.8290143, 22.7847672], [113.8289936, 22.784749], [113.8290027, 22.7847402], [113.8289915, 22.7847304], [113.8290205, 22.7847024], [113.8291458, 22.7848124], [113.8291137, 22.7848435], [113.8290997, 22.7848311], [113.8290917, 22.7848389], [113.8290636, 22.7848142], [113.8290541, 22.7848234], [113.8290243, 22.7847972], [113.8289986, 22.7848221], [113.8291057, 22.7849164], [113.8290676, 22.7849532], [113.8289865, 22.7848818], [113.8290045, 22.7848644], [113.8289527, 22.7848646], [113.8289341, 22.7848817], [113.8289557, 22.7849015], [113.8288865, 22.7849656], [113.8288376, 22.7849207], [113.8289348, 22.7848308], [113.828914, 22.7848117], [113.8288928, 22.7848313], [113.8288832, 22.7848224], [113.8288559, 22.7848475], [113.8288371, 22.7848301], [113.8288264, 22.7848399], [113.8287982, 22.7848137]]]]}}, {"type": "Feature", "id": "way/1551952071", "properties": {"tags": {"addr:housename": "满京华云著·一期", "addr:housename:zh": "满京华云著·一期", "building": "apartments", "building:levels": "33", "name": "2A栋", "name:en": "Block 2A", "name:zh": "2A栋"}, "heightStatus": "levels_only_unverified", "source": "OpenStreetMap", "license": "ODbL-1.0"}, "geometry": {"type": "MultiPolygon", "coordinates": [[[[113.8274676, 22.7863381], [113.8275408, 22.786295], [113.8274885, 22.7862195], [113.8276484, 22.7861254], [113.8277436, 22.786263], [113.8277187, 22.7862776], [113.8277103, 22.7862655], [113.8276854, 22.7862802], [113.8276776, 22.786269], [113.8276543, 22.7862827], [113.8277236, 22.7863829], [113.8276425, 22.7864306], [113.8275916, 22.7863569], [113.8275128, 22.7864033], [113.8274676, 22.7863381]]]]}}, {"type": "Feature", "id": "way/1551952072", "properties": {"tags": {"addr:housename": "满京华云著·一期", "addr:housename:zh": "满京华云著·一期", "building": "apartments", "building:levels": "33", "name": "2B栋", "name:en": "Block 2B", "name:zh": "2B栋"}, "heightStatus": "levels_only_unverified", "source": "OpenStreetMap", "license": "ODbL-1.0"}, "geometry": {"type": "MultiPolygon", "coordinates": [[[[113.827634, 22.7858466], [113.8277072, 22.7858036], [113.8276549, 22.7857281], [113.8278148, 22.785634], [113.82791, 22.7857715], [113.8278851, 22.7857862], [113.8278767, 22.7857741], [113.8278517, 22.7857888], [113.827844, 22.7857776], [113.8278207, 22.7857913], [113.82789, 22.7858915], [113.8278089, 22.7859391], [113.827758, 22.7858655], [113.8276792, 22.7859119], [113.827634, 22.7858466]]]]}}, {"type": "Feature", "id": "way/1551952073", "properties": {"tags": {"addr:housename": "满京华云著·一期", "addr:housename:zh": "满京华云著·一期", "building": "apartments", "building:levels": "33", "name": "2C栋", "name:en": "Block 2C", "name:zh": "2C栋"}, "heightStatus": "levels_only_unverified", "source": "OpenStreetMap", "license": "ODbL-1.0"}, "geometry": {"type": "MultiPolygon", "coordinates": [[[[113.8277921, 22.7853331], [113.8278416, 22.7853046], [113.8277953, 22.7852363], [113.8278666, 22.7851952], [113.8278596, 22.7851849], [113.8279485, 22.7851336], [113.828052, 22.785286], [113.8280256, 22.7853012], [113.828012, 22.7852811], [113.8279597, 22.7853113], [113.8280037, 22.7853762], [113.8279495, 22.7854075], [113.8279172, 22.7853599], [113.8278404, 22.7854042], [113.8277921, 22.7853331]]]]}}, {"type": "Feature", "id": "way/1551952074", "properties": {"tags": {"addr:housename": "满京华云著·一期", "addr:housename:zh": "满京华云著·一期", "building": "apartments", "building:levels": "33", "name": "1A栋", "name:en": "Block 1A", "name:zh": "1A栋"}, "heightStatus": "levels_only_unverified", "source": "OpenStreetMap", "license": "ODbL-1.0"}, "geometry": {"type": "MultiPolygon", "coordinates": [[[[113.8279976, 22.7864728], [113.8280076, 22.7864367], [113.8280007, 22.7864351], [113.8280168, 22.7863751], [113.8281088, 22.7863961], [113.8281199, 22.7863546], [113.8281013, 22.7863503], [113.8281048, 22.7863372], [113.8280837, 22.7863324], [113.8280986, 22.7862761], [113.8282815, 22.7863174], [113.8282688, 22.786365], [113.8282405, 22.7863586], [113.8282368, 22.7863723], [113.8281993, 22.7863637], [113.8281909, 22.7863998], [113.828279, 22.7864376], [113.828277, 22.7864542], [113.8284442, 22.7864909], [113.8284546, 22.7864451], [113.8284446, 22.7864427], [113.8284494, 22.7864258], [113.8284273, 22.7864203], [113.8284426, 22.7863673], [113.8285795, 22.7864011], [113.8285658, 22.7864484], [113.8285302, 22.7864395], [113.8285231, 22.786468], [113.8286184, 22.7865137], [113.8286138, 22.7865289], [113.8286545, 22.7865377], [113.828634, 22.7866077], [113.8286067, 22.7866009], [113.8285991, 22.7866265], [113.8283056, 22.7865535], [113.8283127, 22.7865291], [113.8282617, 22.7865165], [113.8282562, 22.7865356], [113.8282033, 22.7865226], [113.8282061, 22.7865126], [113.8280443, 22.7864737], [113.8280416, 22.7864832], [113.8279976, 22.7864728]]]]}}, {"type": "Feature", "id": "way/1551952075", "properties": {"tags": {"addr:housename": "满京华云著·一期", "addr:housename:zh": "满京华云著·一期", "building": "apartments", "building:levels": "33", "name": "1B栋", "name:en": "Block 1B", "name:zh": "1B栋"}, "heightStatus": "levels_only_unverified", "source": "OpenStreetMap", "license": "ODbL-1.0"}, "geometry": {"type": "MultiPolygon", "coordinates": [[[[113.828246, 22.7854414], [113.828308, 22.7854134], [113.828259, 22.7853214], [113.8283491, 22.7852806], [113.8283894, 22.7853564], [113.8283633, 22.7853682], [113.8283705, 22.7853817], [113.828407, 22.7853652], [113.8284336, 22.7852592], [113.8285262, 22.785279], [113.8284956, 22.7854009], [113.8286626, 22.7854366], [113.8286942, 22.7853107], [113.828812, 22.7853358], [113.8287887, 22.7854284], [113.8288129, 22.7854503], [113.8288453, 22.7854362], [113.8288512, 22.7854478], [113.8288743, 22.7854378], [113.8289022, 22.7854924], [113.828803, 22.7855355], [113.8288342, 22.7855967], [113.8287898, 22.785616], [113.8287819, 22.7856006], [113.8287562, 22.7856118], [113.828716, 22.7855328], [113.8286646, 22.7855052], [113.8284241, 22.785447], [113.828283, 22.7855109], [113.828246, 22.7854414]]]]}}, {"type": "Feature", "id": "way/1551952077", "properties": {"tags": {"addr:housename": "满京华云著·二期", "addr:housename:zh": "满京华云著·二期", "building": "apartments", "building:levels": "30", "name": "2栋", "name:en": "Block 2", "name:zh": "2栋"}, "heightStatus": "levels_only_unverified", "source": "OpenStreetMap", "license": "ODbL-1.0"}, "geometry": {"type": "MultiPolygon", "coordinates": [[[[113.8272982, 22.7869702], [113.8273398, 22.7869509], [113.8273026, 22.786883], [113.8273639, 22.7868545], [113.8273936, 22.7869086], [113.827409, 22.7869014], [113.8274322, 22.786804], [113.8275663, 22.7868312], [113.8275555, 22.7868767], [113.8275234, 22.7868702], [113.8275091, 22.7869305], [113.8276427, 22.7869574], [113.8276708, 22.786839], [113.8278193, 22.7868876], [113.8278021, 22.7869469], [113.8277811, 22.7869398], [113.827764, 22.7869914], [113.8278375, 22.7870309], [113.8278233, 22.7871032], [113.8275663, 22.7870516], [113.8275742, 22.7870178], [113.8274084, 22.7869846], [113.8273269, 22.7870226], [113.8272982, 22.7869702]]]]}}, {"type": "Feature", "id": "way/1551952081", "properties": {"tags": {"addr:housename": "满京华云著·三期", "addr:housename:zh": "满京华云著·三期", "building": "apartments", "building:levels": "32", "name": "2栋", "name:en": "Block 2", "name:zh": "2栋"}, "heightStatus": "levels_only_unverified", "source": "OpenStreetMap", "license": "ODbL-1.0"}, "geometry": {"type": "MultiPolygon", "coordinates": [[[[113.8268186, 22.7849286], [113.8268388, 22.7848584], [113.8270824, 22.7849181], [113.8270135, 22.7851569], [113.8269836, 22.7851762], [113.8269421, 22.785166], [113.826998, 22.7849727], [113.8268186, 22.7849286]]]]}}, {"type": "Feature", "id": "way/1551952082", "properties": {"tags": {"addr:housename": "满京华云著·三期", "addr:housename:zh": "满京华云著·三期", "building": "apartments", "building:levels": "32", "name": "1栋", "name:en": "Block 1", "name:zh": "1栋"}, "heightStatus": "levels_only_unverified", "source": "OpenStreetMap", "license": "ODbL-1.0"}, "geometry": {"type": "MultiPolygon", "coordinates": [[[[113.8265876, 22.7855871], [113.8266465, 22.7853964], [113.8265887, 22.7853813], [113.8266149, 22.7852966], [113.8266801, 22.7853137], [113.8266837, 22.7853019], [113.8268931, 22.785357], [113.8268892, 22.7853693], [113.8269604, 22.7853881], [113.8269292, 22.7854884], [113.8268638, 22.7854712], [113.8268538, 22.7855035], [113.8269304, 22.7855237], [113.826889, 22.7856571], [113.8268452, 22.7856455], [113.826838, 22.7856688], [113.8267424, 22.7856436], [113.826783, 22.7855123], [113.8267113, 22.7854934], [113.8266698, 22.7856277], [113.8266066, 22.7856111], [113.826612, 22.7855935], [113.8265876, 22.7855871]]]]}}, {"type": "Feature", "id": "way/1551952083", "properties": {"tags": {"building": "apartments", "building:levels": "32"}, "heightStatus": "levels_only_unverified", "source": "OpenStreetMap", "license": "ODbL-1.0"}, "geometry": {"type": "MultiPolygon", "coordinates": [[[[113.8270632, 22.7843523], [113.8270823, 22.7842836], [113.8271272, 22.7842943], [113.8271355, 22.7842646], [113.827095, 22.784255], [113.8271117, 22.784195], [113.8271561, 22.7842055], [113.8271645, 22.7841754], [113.8271209, 22.784165], [113.82714, 22.7840967], [113.8271642, 22.7841025], [113.8271726, 22.7840721], [113.8271524, 22.7840673], [113.8271562, 22.7840538], [113.8271457, 22.7840513], [113.8271596, 22.7840016], [113.827337, 22.7840437], [113.8273204, 22.7841033], [113.8273114, 22.7841012], [113.8273086, 22.7841114], [113.8272646, 22.784101], [113.8272582, 22.784124], [113.8272898, 22.7841315], [113.8272712, 22.7841984], [113.8272242, 22.7841872], [113.8272163, 22.7842154], [113.8272633, 22.7842266], [113.8272452, 22.7842916], [113.8271966, 22.7842801], [113.827189, 22.7843072], [113.8272366, 22.7843185], [113.827217, 22.7843887], [113.8270632, 22.7843523]]]]}}, {"type": "Feature", "id": "way/1551952084", "properties": {"tags": {"building": "apartments", "building:levels": "32"}, "heightStatus": "levels_only_unverified", "source": "OpenStreetMap", "license": "ODbL-1.0"}, "geometry": {"type": "MultiPolygon", "coordinates": [[[[113.827186, 22.7835611], [113.8272363, 22.7835372], [113.8271917, 22.7834573], [113.8273315, 22.783391], [113.8273661, 22.7834529], [113.8274063, 22.7834338], [113.8274, 22.7834224], [113.8274345, 22.7834061], [113.8275101, 22.7835415], [113.8274802, 22.7835556], [113.8274764, 22.783549], [113.8274442, 22.7835643], [113.8274332, 22.7835447], [113.8274136, 22.7835541], [113.8274, 22.7835298], [113.8273974, 22.783531], [113.8274567, 22.7836356], [113.8273953, 22.7836652], [113.82735, 22.7835852], [113.8273726, 22.7835743], [113.8273606, 22.7835533], [113.8273199, 22.7835388], [113.8272851, 22.7835554], [113.8272982, 22.7835788], [113.8272173, 22.7836172], [113.827186, 22.7835611]]]]}}, {"type": "Feature", "id": "way/1551952085", "properties": {"tags": {"building:levels": "6", "building:part": "commercial"}, "heightStatus": "levels_only_unverified", "source": "OpenStreetMap", "license": "ODbL-1.0"}, "geometry": {"type": "MultiPolygon", "coordinates": [[[[113.8297004, 22.7842417], [113.8297759, 22.7839701], [113.8302441, 22.7840799], [113.8301656, 22.7843526], [113.8297004, 22.7842417]]]]}}, {"type": "Feature", "id": "way/1551952086", "properties": {"tags": {"building": "commercial"}, "heightStatus": "unknown", "source": "OpenStreetMap", "license": "ODbL-1.0"}, "geometry": {"type": "MultiPolygon", "coordinates": [[[[113.8295693, 22.7847023], [113.8297759, 22.7839701], [113.8302441, 22.7840799], [113.8301656, 22.7843526], [113.8300709, 22.7846817], [113.8299321, 22.7846482], [113.8299412, 22.7846162], [113.8297815, 22.7845776], [113.8297347, 22.7847423], [113.8295693, 22.7847023]]]]}}]}