{"type": "FeatureCollection", "features": [{"type": "Feature", "id": "way/479727197", "properties": {"tags": {"building": "yes"}, "heightStatus": "unknown", "source": "OpenStreetMap", "license": "ODbL-1.0"}, "geometry": {"type": "MultiPolygon", "coordinates": [[[[113.8275318, 22.620745], [113.827905, 22.6200595], [113.8286439, 22.6204023], [113.8285931, 22.6204955], [113.8286636, 22.6205281], [113.8283411, 22.6211205], [113.8275318, 22.620745]]]]}}, {"type": "Feature", "id": "way/479727200", "properties": {"tags": {"building": "yes"}, "heightStatus": "unknown", "source": "OpenStreetMap", "license": "ODbL-1.0"}, "geometry": {"type": "MultiPolygon", "coordinates": [[[[113.8261692, 22.6232237], [113.8274648, 22.6208544], [113.8282776, 22.6212331], [113.826982, 22.6236024], [113.8261692, 22.6232237]]]]}}, {"type": "Feature", "id": "way/590958291", "properties": {"tags": {"building": "commercial"}, "heightStatus": "unknown", "source": "OpenStreetMap", "license": "ODbL-1.0"}, "geometry": {"type": "MultiPolygon", "coordinates": [[[[113.827396, 22.6238373], [113.8277053, 22.6232722], [113.8279275, 22.6233757], [113.8278365, 22.6235419], [113.8277818, 22.6235164], [113.8277445, 22.6235844], [113.827943, 22.623677], [113.8277619, 22.6240079], [113.827396, 22.6238373]]]]}}, {"type": "Feature", "id": "way/629373378", "properties": {"tags": {"building": "storage_tank", "content": "fuel", "man_made": "storage_tank"}, "heightStatus": "unknown", "source": "OpenStreetMap", "license": "ODbL-1.0"}, "geometry": {"type": "MultiPolygon", "coordinates": [[[[113.8298876, 22.6230652], [113.829896, 22.6230227], [113.829919, 22.6229851], [113.8299542, 22.6229567], [113.8299975, 22.6229405], [113.8300442, 22.6229384], [113.8300878, 22.6229501], [113.8301251, 22.6229741], [113.8301521, 22.6230078], [113.8301659, 22.6230477], [113.8301652, 22.6230896], [113.8301499, 22.6231291], [113.8301218, 22.623162], [113.8300837, 22.6231849], [113.8300397, 22.6231952], [113.8299945, 22.6231921], [113.8299515, 22.623175], [113.829917, 22.6231458], [113.8298949, 22.6231078], [113.8298876, 22.6230652]]]]}}, {"type": "Feature", "id": "way/629373379", "properties": {"tags": {"building": "storage_tank", "content": "fuel", "man_made": "storage_tank"}, "heightStatus": "unknown", "source": "OpenStreetMap", "license": "ODbL-1.0"}, "geometry": {"type": "MultiPolygon", "coordinates": [[[[113.8295055, 22.6229709], [113.8295138, 22.6229284], [113.8295368, 22.6228909], [113.829572, 22.6228624], [113.8296154, 22.6228462], [113.8296621, 22.6228442], [113.8297057, 22.6228559], [113.8297429, 22.6228798], [113.8297699, 22.6229136], [113.8297837, 22.6229535], [113.829783, 22.6229954], [113.8297678, 22.6230349], [113.8297396, 22.6230678], [113.8297016, 22.6230906], [113.8296576, 22.623101], [113.8296123, 22.6230978], [113.8295694, 22.6230808], [113.8295349, 22.6230516], [113.8295128, 22.6230136], [113.8295055, 22.6229709]]]]}}, {"type": "Feature", "id": "way/629373380", "properties": {"tags": {"building": "storage_tank", "content": "fuel", "man_made": "storage_tank"}, "heightStatus": "unknown", "source": "OpenStreetMap", "license": "ODbL-1.0"}, "geometry": {"type": "MultiPolygon", "coordinates": [[[[113.830001, 22.6226683], [113.8300093, 22.6226258], [113.8300324, 22.6225883], [113.8300675, 22.6225598], [113.8301109, 22.6225436], [113.8301576, 22.6225415], [113.8302012, 22.6225532], [113.8302384, 22.6225772], [113.8302654, 22.6226109], [113.8302793, 22.6226509], [113.8302785, 22.6226928], [113.8302633, 22.6227322], [113.8302352, 22.6227651], [113.8301971, 22.622788], [113.8301531, 22.6227984], [113.8301078, 22.6227952], [113.8300649, 22.6227782], [113.8300304, 22.622749], [113.8300083, 22.6227109], [113.830001, 22.6226683]]]]}}, {"type": "Feature", "id": "way/629373381", "properties": {"tags": {"building": "storage_tank", "content": "fuel", "man_made": "storage_tank"}, "heightStatus": "unknown", "source": "OpenStreetMap", "license": "ODbL-1.0"}, "geometry": {"type": "MultiPolygon", "coordinates": [[[[113.8296181, 22.6225736], [113.8296264, 22.6225311], [113.8296495, 22.6224935], [113.8296846, 22.6224651], [113.829728, 22.6224489], [113.8297747, 22.6224468], [113.8298183, 22.6224585], [113.8298556, 22.6224825], [113.8298825, 22.6225162], [113.8298964, 22.6225561], [113.8298956, 22.6225981], [113.8298804, 22.6226375], [113.8298523, 22.6226704], [113.8298142, 22.6226933], [113.8297702, 22.6227037], [113.8297249, 22.6227005], [113.829682, 22.6226834], [113.8296475, 22.6226543], [113.8296254, 22.6226162], [113.8296181, 22.6225736]]]]}}, {"type": "Feature", "id": "way/629373388", "properties": {"tags": {"building": "storage_tank", "content": "fuel", "man_made": "storage_tank"}, "heightStatus": "unknown", "source": "OpenStreetMap", "license": "ODbL-1.0"}, "geometry": {"type": "MultiPolygon", "coordinates": [[[[113.828945, 22.6234592], [113.828948, 22.6234302], [113.8289613, 22.6234038], [113.8289835, 22.6233832], [113.8290119, 22.6233706], [113.8290432, 22.6233675], [113.8290739, 22.6233743], [113.8291002, 22.6233903], [113.8291193, 22.6234134], [113.8291288, 22.6234412], [113.8291281, 22.6234682], [113.8291183, 22.6234936], [113.8291004, 22.6235149], [113.8290762, 22.62353], [113.8290481, 22.6235374], [113.8290189, 22.6235363], [113.8289915, 22.6235268], [113.8289687, 22.62351], [113.8289527, 22.6234874], [113.828945, 22.6234592]]]]}}, {"type": "Feature", "id": "way/629373389", "properties": {"tags": {"building": "storage_tank", "content": "fuel", "man_made": "storage_tank"}, "heightStatus": "unknown", "source": "OpenStreetMap", "license": "ODbL-1.0"}, "geometry": {"type": "MultiPolygon", "coordinates": [[[[113.8291899, 22.6235194], [113.8291929, 22.6234904], [113.8292063, 22.6234641], [113.8292284, 22.6234434], [113.8292568, 22.6234308], [113.8292882, 22.6234277], [113.8293188, 22.6234346], [113.8293452, 22.6234505], [113.8293642, 22.6234737], [113.8293737, 22.6235014], [113.829373, 22.6235284], [113.8293632, 22.6235538], [113.8293453, 22.6235751], [113.8293211, 22.6235902], [113.829293, 22.6235976], [113.8292638, 22.6235965], [113.8292364, 22.6235871], [113.8292136, 22.6235702], [113.8291977, 22.6235476], [113.8291899, 22.6235194]]]]}}, {"type": "Feature", "id": "way/629373390", "properties": {"tags": {"building": "storage_tank", "content": "fuel", "man_made": "storage_tank"}, "heightStatus": "unknown", "source": "OpenStreetMap", "license": "ODbL-1.0"}, "geometry": {"type": "MultiPolygon", "coordinates": [[[[113.8294582, 22.6235851], [113.8294612, 22.6235561], [113.8294746, 22.6235297], [113.8294968, 22.6235091], [113.8295252, 22.6234965], [113.8295565, 22.6234934], [113.8295871, 22.6235002], [113.8296135, 22.6235162], [113.8296325, 22.6235393], [113.829642, 22.6235671], [113.8296413, 22.6235941], [113.8296315, 22.6236195], [113.8296136, 22.6236408], [113.8295894, 22.6236559], [113.8295613, 22.6236633], [113.8295321, 22.6236622], [113.8295047, 22.6236527], [113.8294819, 22.6236359], [113.829466, 22.6236133], [113.8294582, 22.6235851]]]]}}, {"type": "Feature", "id": "way/629373391", "properties": {"tags": {"building": "storage_tank", "content": "fuel", "man_made": "storage_tank"}, "heightStatus": "unknown", "source": "OpenStreetMap", "license": "ODbL-1.0"}, "geometry": {"type": "MultiPolygon", "coordinates": [[[[113.8297327, 22.6236526], [113.8297357, 22.6236236], [113.829749, 22.6235973], [113.8297712, 22.6235766], [113.8297996, 22.623564], [113.8298309, 22.6235609], [113.8298616, 22.6235678], [113.8298879, 22.6235837], [113.829907, 22.6236069], [113.8299165, 22.6236346], [113.8299158, 22.6236616], [113.829906, 22.623687], [113.8298881, 22.6237084], [113.8298638, 22.6237235], [113.8298357, 22.6237308], [113.8298065, 22.6237297], [113.8297792, 22.6237203], [113.8297564, 22.6237034], [113.8297404, 22.6236808], [113.8297327, 22.6236526]]]]}}, {"type": "Feature", "id": "way/629373393", "properties": {"tags": {"building": "storage_tank", "content": "fuel", "man_made": "storage_tank"}, "heightStatus": "unknown", "source": "OpenStreetMap", "license": "ODbL-1.0"}, "geometry": {"type": "MultiPolygon", "coordinates": [[[[113.8291066, 22.6237689], [113.8291096, 22.62374], [113.8291229, 22.6237136], [113.8291451, 22.6236929], [113.8291735, 22.6236803], [113.8292048, 22.6236773], [113.8292355, 22.6236841], [113.8292618, 22.6237], [113.8292809, 22.6237232], [113.8292904, 22.623751], [113.8292897, 22.6237779], [113.8292799, 22.6238034], [113.829262, 22.6238247], [113.8292378, 22.6238398], [113.8292097, 22.6238472], [113.8291805, 22.6238461], [113.8291531, 22.6238366], [113.8291303, 22.6238197], [113.8291143, 22.6237971], [113.8291066, 22.6237689]]]]}}, {"type": "Feature", "id": "way/629373394", "properties": {"tags": {"building": "storage_tank", "content": "oil", "man_made": "storage_tank"}, "heightStatus": "unknown", "source": "OpenStreetMap", "license": "ODbL-1.0"}, "geometry": {"type": "MultiPolygon", "coordinates": [[[[113.8293769, 22.6238384], [113.8293799, 22.6238094], [113.8293933, 22.623783], [113.8294154, 22.6237624], [113.8294439, 22.6237498], [113.8294752, 22.6237467], [113.8295058, 22.6237535], [113.8295322, 22.6237695], [113.8295512, 22.6237926], [113.8295607, 22.6238204], [113.82956, 22.6238474], [113.8295502, 22.6238728], [113.8295323, 22.6238941], [113.8295081, 22.6239092], [113.82948, 22.6239166], [113.8294508, 22.6239155], [113.8294234, 22.623906], [113.8294006, 22.6238892], [113.8293847, 22.6238666], [113.8293769, 22.6238384]]]]}}, {"type": "Feature", "id": "way/629373395", "properties": {"tags": {"building": "storage_tank", "content": "oil", "man_made": "storage_tank"}, "heightStatus": "unknown", "source": "OpenStreetMap", "license": "ODbL-1.0"}, "geometry": {"type": "MultiPolygon", "coordinates": [[[[113.8296473, 22.623904], [113.8296503, 22.6238751], [113.8296636, 22.6238487], [113.8296858, 22.623828], [113.8297142, 22.6238154], [113.8297455, 22.6238124], [113.8297762, 22.6238192], [113.8298026, 22.6238351], [113.8298216, 22.6238583], [113.8298311, 22.6238861], [113.8298304, 22.623913], [113.8298206, 22.6239384], [113.8298027, 22.6239598], [113.8297785, 22.6239749], [113.8297504, 22.6239823], [113.8297212, 22.6239812], [113.8296938, 22.6239717], [113.829671, 22.6239548], [113.829655, 22.6239322], [113.8296473, 22.623904]]]]}}, {"type": "Feature", "id": "way/1356311359", "properties": {"tags": {"building": "depot"}, "heightStatus": "unknown", "source": "OpenStreetMap", "license": "ODbL-1.0"}, "geometry": {"type": "MultiPolygon", "coordinates": [[[[113.8252899, 22.6172846], [113.8257983, 22.6163657], [113.8284054, 22.6175945], [113.8273457, 22.6195102], [113.825866, 22.6188128], [113.8264174, 22.617816], [113.8252899, 22.6172846]]]]}}]}