{"type": "FeatureCollection", "features": [{"type": "Feature", "id": "way/1375539731", "properties": {"tags": {"building": "industrial"}, "heightStatus": "unknown", "source": "OpenStreetMap", "license": "ODbL-1.0"}, "geometry": {"type": "MultiPolygon", "coordinates": [[[[113.8219308, 22.6611211], [113.8220357, 22.6611016], [113.8221239, 22.6615052], [113.8220191, 22.6615247], [113.8219308, 22.6611211]]]]}}, {"type": "Feature", "id": "way/1375539740", "properties": {"tags": {"building": "warehouse"}, "heightStatus": "unknown", "source": "OpenStreetMap", "license": "ODbL-1.0"}, "geometry": {"type": "MultiPolygon", "coordinates": [[[[113.8233862, 22.6611577], [113.8250292, 22.6608832], [113.8251395, 22.6614456], [113.8234966, 22.6617201], [113.8233862, 22.6611577]]]]}}, {"type": "Feature", "id": "way/1375539741", "properties": {"tags": {"building": "warehouse"}, "heightStatus": "unknown", "source": "OpenStreetMap", "license": "ODbL-1.0"}, "geometry": {"type": "MultiPolygon", "coordinates": [[[[113.8231732, 22.6598627], [113.8238265, 22.6597535], [113.8239501, 22.6603837], [113.8249, 22.6602249], [113.8249715, 22.6605892], [113.8233285, 22.6608637], [113.8232571, 22.6604995], [113.8232969, 22.6604928], [113.8231732, 22.6598627]]]]}}, {"type": "Feature", "id": "way/1465314980", "properties": {"tags": {"building": "commercial", "name": "方图集团大厦", "name:en": "FionTu Group Tower", "name:zh": "方图集团大厦"}, "heightStatus": "unknown", "source": "OpenStreetMap", "license": "ODbL-1.0"}, "geometry": {"type": "MultiPolygon", "coordinates": [[[[113.8208951, 22.6578194], [113.8208966, 22.65767], [113.8209196, 22.6575895], [113.8209644, 22.6575153], [113.8210423, 22.6574497], [113.8211415, 22.6573862], [113.8212554, 22.6574936], [113.8212888, 22.6575341], [113.8212957, 22.6575939], [113.8212931, 22.6578478], [113.8209373, 22.6578447], [113.8209376, 22.6578197], [113.8208951, 22.6578194]]]]}}]}