{"type": "FeatureCollection", "features": [{"type": "Feature", "id": "way/300634106", "properties": {"tags": {"building": "yes"}, "heightStatus": "unknown", "source": "OpenStreetMap", "license": "ODbL-1.0"}, "geometry": {"type": "MultiPolygon", "coordinates": [[[[113.8124262, 22.6716796], [113.8126136, 22.6714487], [113.8128178, 22.6715806], [113.81263, 22.6718231], [113.8124262, 22.6716796]]]]}}, {"type": "Feature", "id": "way/1244784096", "properties": {"tags": {"addr:city": "深圳市", "addr:country": "CN", "addr:district": "宝安区", "addr:housenumber": "66", "addr:province": "广东省", "addr:street": "福永大道", "addr:subdistrict": "福永街道", "building": "yes", "government": "administrative", "name": "福永街道办事处", "name:en": "Fuyong Subdistrict Office", "name:zh": "福永街道办事处", "name:zh-Hans": "福永街道办事处", "name:zh-Hant": "福永街道辦事處", "office": "government"}, "heightStatus": "unknown", "source": "OpenStreetMap", "license": "ODbL-1.0"}, "geometry": {"type": "MultiPolygon", "coordinates": [[[[113.8170316, 22.6744005], [113.817041, 22.6743047], [113.8171262, 22.6743602], [113.8176125, 22.674153], [113.8178366, 22.674299], [113.8178914, 22.674592], [113.8175974, 22.6744006], [113.8176234, 22.6743895], [113.817537, 22.6743333], [113.8173622, 22.6744078], [113.8173429, 22.6746033], [113.8170316, 22.6744005]]]]}}, {"type": "Feature", "id": "way/1244784098", "properties": {"tags": {"building": "yes"}, "heightStatus": "unknown", "source": "OpenStreetMap", "license": "ODbL-1.0"}, "geometry": {"type": "MultiPolygon", "coordinates": [[[[113.818265, 22.6733949], [113.8182875, 22.6733653], [113.8187192, 22.6736451], [113.8186968, 22.6736746], [113.818265, 22.6733949]]]]}}, {"type": "Feature", "id": "way/1313182161", "properties": {"tags": {"building": "industrial"}, "heightStatus": "unknown", "source": "OpenStreetMap", "license": "ODbL-1.0"}, "geometry": {"type": "MultiPolygon", "coordinates": [[[[113.818123, 22.6718233], [113.8181409, 22.6714383], [113.8183593, 22.6714469], [113.8183549, 22.6715425], [113.8182893, 22.6715399], [113.8182798, 22.6717443], [113.8182045, 22.6717413], [113.8182006, 22.6718263], [113.818123, 22.6718233]]]]}}, {"type": "Feature", "id": "way/1313182162", "properties": {"tags": {"building": "industrial"}, "heightStatus": "unknown", "source": "OpenStreetMap", "license": "ODbL-1.0"}, "geometry": {"type": "MultiPolygon", "coordinates": [[[[113.8182235, 22.6709655], [113.8182262, 22.6708964], [113.8182891, 22.6708985], [113.8182896, 22.6708863], [113.8182564, 22.6708852], [113.8182568, 22.6708746], [113.8186124, 22.6708864], [113.8186119, 22.6709009], [113.8185779, 22.6708998], [113.8185774, 22.6709123], [113.8186328, 22.6709141], [113.8186302, 22.6709791], [113.8182235, 22.6709655]]]]}}, {"type": "Feature", "id": "way/1313182163", "properties": {"tags": {"building": "industrial"}, "heightStatus": "unknown", "source": "OpenStreetMap", "license": "ODbL-1.0"}, "geometry": {"type": "MultiPolygon", "coordinates": [[[[113.8166856, 22.6709667], [113.8166906, 22.6708203], [113.8170888, 22.6708319], [113.8170845, 22.6709581], [113.8170084, 22.6709559], [113.8170077, 22.6709762], [113.8168602, 22.6709693], [113.8166856, 22.6709667]]]]}}, {"type": "Feature", "id": "way/1313182164", "properties": {"tags": {"building": "industrial"}, "heightStatus": "unknown", "source": "OpenStreetMap", "license": "ODbL-1.0"}, "geometry": {"type": "MultiPolygon", "coordinates": [[[[113.8166849, 22.6711872], [113.8166902, 22.6710489], [113.8168566, 22.6710518], [113.8170778, 22.6710616], [113.8170723, 22.6712039], [113.8169489, 22.6711998], [113.8169482, 22.6712193], [113.8168691, 22.6712167], [113.81687, 22.6711932], [113.8166849, 22.6711872]]]]}}, {"type": "Feature", "id": "way/1313182166", "properties": {"tags": {"building": "industrial"}, "heightStatus": "unknown", "source": "OpenStreetMap", "license": "ODbL-1.0"}, "geometry": {"type": "MultiPolygon", "coordinates": [[[[113.8170352, 22.6722217], [113.8171, 22.6721345], [113.8171963, 22.6721954], [113.8174358, 22.6718728], [113.8178627, 22.6721427], [113.817905, 22.6720859], [113.8179868, 22.6720933], [113.8180419, 22.6721282], [113.8182823, 22.6718049], [113.818394, 22.6718756], [113.8177901, 22.6726879], [113.8175487, 22.6725351], [113.817605, 22.6724593], [113.8174847, 22.6723831], [113.8174226, 22.6724667], [113.8170352, 22.6722217]]]]}}, {"type": "Feature", "id": "way/1313182167", "properties": {"tags": {"building": "industrial"}, "heightStatus": "unknown", "source": "OpenStreetMap", "license": "ODbL-1.0"}, "geometry": {"type": "MultiPolygon", "coordinates": [[[[113.8162647, 22.6708544], [113.8163217, 22.6707791], [113.8165571, 22.6709308], [113.8165, 22.6710062], [113.8162647, 22.6708544]]]]}}, {"type": "Feature", "id": "way/1313182168", "properties": {"tags": {"building": "industrial"}, "heightStatus": "unknown", "source": "OpenStreetMap", "license": "ODbL-1.0"}, "geometry": {"type": "MultiPolygon", "coordinates": [[[[113.8156419, 22.6715326], [113.8157022, 22.6714495], [113.8160243, 22.6716485], [113.815964, 22.6717316], [113.8156419, 22.6715326]]]]}}, {"type": "Feature", "id": "way/1313182169", "properties": {"tags": {"building": "industrial"}, "heightStatus": "unknown", "source": "OpenStreetMap", "license": "ODbL-1.0"}, "geometry": {"type": "MultiPolygon", "coordinates": [[[[113.8157498, 22.6713987], [113.8158101, 22.6713156], [113.8161322, 22.6715146], [113.8160719, 22.6715977], [113.8157498, 22.6713987]]]]}}, {"type": "Feature", "id": "way/1313182170", "properties": {"tags": {"building": "industrial"}, "heightStatus": "unknown", "source": "OpenStreetMap", "license": "ODbL-1.0"}, "geometry": {"type": "MultiPolygon", "coordinates": [[[[113.8158471, 22.6712664], [113.8159075, 22.6711833], [113.8162295, 22.6713823], [113.8161693, 22.6714654], [113.8158471, 22.6712664]]]]}}, {"type": "Feature", "id": "way/1313182171", "properties": {"tags": {"building": "industrial"}, "heightStatus": "unknown", "source": "OpenStreetMap", "license": "ODbL-1.0"}, "geometry": {"type": "MultiPolygon", "coordinates": [[[[113.8159802, 22.671093], [113.8160626, 22.6709794], [113.8163795, 22.6711753], [113.8162942, 22.6712929], [113.8161959, 22.6712321], [113.8161789, 22.6712556], [113.8161205, 22.6712195], [113.8161404, 22.671192], [113.8159802, 22.671093]]]]}}, {"type": "Feature", "id": "way/1313182172", "properties": {"tags": {"building": "industrial"}, "heightStatus": "unknown", "source": "OpenStreetMap", "license": "ODbL-1.0"}, "geometry": {"type": "MultiPolygon", "coordinates": [[[[113.8155084, 22.6717025], [113.8155916, 22.6715913], [113.816016, 22.6718616], [113.8159327, 22.6719729], [113.8155084, 22.6717025]]]]}}, {"type": "Feature", "id": "way/1313182175", "properties": {"tags": {"building": "industrial"}, "heightStatus": "unknown", "source": "OpenStreetMap", "license": "ODbL-1.0"}, "geometry": {"type": "MultiPolygon", "coordinates": [[[[113.8182056, 22.6713513], [113.8182172, 22.6710967], [113.8186264, 22.6711125], [113.8186148, 22.6713672], [113.8182056, 22.6713513]]]]}}, {"type": "Feature", "id": "way/1313182176", "properties": {"tags": {"building": "industrial"}, "heightStatus": "unknown", "source": "OpenStreetMap", "license": "ODbL-1.0"}, "geometry": {"type": "MultiPolygon", "coordinates": [[[[113.817183, 22.6710028], [113.8171877, 22.6708565], [113.8176055, 22.6708681], [113.8176007, 22.6710144], [113.817183, 22.6710028]]]]}}, {"type": "Feature", "id": "way/1313182177", "properties": {"tags": {"building": "industrial"}, "heightStatus": "unknown", "source": "OpenStreetMap", "license": "ODbL-1.0"}, "geometry": {"type": "MultiPolygon", "coordinates": [[[[113.817183, 22.6712185], [113.8171877, 22.6710722], [113.8176055, 22.6710838], [113.8176007, 22.6712301], [113.817183, 22.6712185]]]]}}, {"type": "Feature", "id": "way/1313182178", "properties": {"tags": {"building": "industrial"}, "heightStatus": "unknown", "source": "OpenStreetMap", "license": "ODbL-1.0"}, "geometry": {"type": "MultiPolygon", "coordinates": [[[[113.8176972, 22.6712222], [113.817702, 22.671076], [113.8181198, 22.6710875], [113.818115, 22.6712338], [113.8176972, 22.6712222]]]]}}, {"type": "Feature", "id": "way/1313182179", "properties": {"tags": {"building": "industrial"}, "heightStatus": "unknown", "source": "OpenStreetMap", "license": "ODbL-1.0"}, "geometry": {"type": "MultiPolygon", "coordinates": [[[[113.8176972, 22.6710065], [113.817702, 22.6708603], [113.8181198, 22.6708718], [113.818115, 22.6710181], [113.8176972, 22.6710065]]]]}}, {"type": "Feature", "id": "way/1313182180", "properties": {"tags": {"building": "industrial"}, "heightStatus": "unknown", "source": "OpenStreetMap", "license": "ODbL-1.0"}, "geometry": {"type": "MultiPolygon", "coordinates": [[[[113.8168431, 22.6719514], [113.8170975, 22.6718104], [113.817299, 22.6718262], [113.8172922, 22.6718997], [113.8171328, 22.6718872], [113.8168892, 22.6720222], [113.8168431, 22.6719514]]]]}}, {"type": "Feature", "id": "way/1313182181", "properties": {"tags": {"building": "industrial"}, "heightStatus": "unknown", "source": "OpenStreetMap", "license": "ODbL-1.0"}, "geometry": {"type": "MultiPolygon", "coordinates": [[[[113.8171624, 22.6717007], [113.8171687, 22.6715636], [113.8176093, 22.6715808], [113.8176031, 22.6717178], [113.8171624, 22.6717007]]]]}}, {"type": "Feature", "id": "way/1313182182", "properties": {"tags": {"building": "industrial"}, "heightStatus": "unknown", "source": "OpenStreetMap", "license": "ODbL-1.0"}, "geometry": {"type": "MultiPolygon", "coordinates": [[[[113.8171944, 22.6714345], [113.8172023, 22.6712663], [113.8176137, 22.6712827], [113.8176058, 22.6714509], [113.8171944, 22.6714345]]]]}}, {"type": "Feature", "id": "way/1313182183", "properties": {"tags": {"building": "industrial"}, "heightStatus": "unknown", "source": "OpenStreetMap", "license": "ODbL-1.0"}, "geometry": {"type": "MultiPolygon", "coordinates": [[[[113.8176815, 22.6717209], [113.8176869, 22.6716235], [113.8177672, 22.671626], [113.8180745, 22.6716362], [113.8180725, 22.6717344], [113.8176815, 22.6717209]]]]}}, {"type": "Feature", "id": "way/1313182184", "properties": {"tags": {"building": "industrial"}, "heightStatus": "unknown", "source": "OpenStreetMap", "license": "ODbL-1.0"}, "geometry": {"type": "MultiPolygon", "coordinates": [[[[113.8176846, 22.6715392], [113.8176874, 22.6714507], [113.8180773, 22.6714611], [113.8180746, 22.6715495], [113.8177708, 22.6715415], [113.8176846, 22.6715392]]]]}}, {"type": "Feature", "id": "way/1313182186", "properties": {"tags": {"building": "industrial"}, "heightStatus": "unknown", "source": "OpenStreetMap", "license": "ODbL-1.0"}, "geometry": {"type": "MultiPolygon", "coordinates": [[[[113.8176678, 22.6719596], [113.8176725, 22.6718315], [113.8180522, 22.6718435], [113.8180474, 22.6719716], [113.8176678, 22.6719596]]]]}}, {"type": "Feature", "id": "way/1415100343", "properties": {"tags": {"building": "commercial", "building:levels": "31", "layer": "1"}, "heightStatus": "levels_only_unverified", "source": "OpenStreetMap", "license": "ODbL-1.0"}, "geometry": {"type": "MultiPolygon", "coordinates": [[[[113.8145615, 22.6707629], [113.8147588, 22.6704996], [113.8151249, 22.670733], [113.8149276, 22.6709964], [113.8145615, 22.6707629]]]]}}, {"type": "Feature", "id": "way/1415100374", "properties": {"tags": {"building": "commercial", "building:levels": "31", "layer": "1"}, "heightStatus": "levels_only_unverified", "source": "OpenStreetMap", "license": "ODbL-1.0"}, "geometry": {"type": "MultiPolygon", "coordinates": [[[[113.8151554, 22.6710777], [113.8152488, 22.6709461], [113.8153408, 22.6710144], [113.8155172, 22.6707876], [113.8156682, 22.6708914], [113.815394, 22.6712425], [113.8151554, 22.6710777]]]]}}, {"type": "Feature", "id": "way/1446492183", "properties": {"tags": {"addr:city": "深圳市", "addr:country": "CN", "addr:district": "宝安区", "addr:housenumber": "11", "addr:province": "广东省", "addr:street": "福永大道", "addr:subdistrict": "福永街道", "amenity": "townhall", "building": "yes", "name": "福永会堂", "name:en": "Fuyong Community Hall", "name:zh": "福永会堂", "name:zh-Hans": "福永会堂", "name:zh-Hant": "福永會堂"}, "heightStatus": "unknown", "source": "OpenStreetMap", "license": "ODbL-1.0"}, "geometry": {"type": "MultiPolygon", "coordinates": [[[[113.8196542, 22.6737676], [113.8199094, 22.6734276], [113.8200975, 22.6735479], [113.8200596, 22.6735984], [113.8201966, 22.673686], [113.8203109, 22.6735338], [113.8206641, 22.6737596], [113.8203326, 22.6742012], [113.8202967, 22.6742258], [113.8202564, 22.6742436], [113.8202131, 22.674254], [113.8201684, 22.6742566], [113.8201241, 22.6742513], [113.8200816, 22.6742384], [113.8200426, 22.6742182], [113.8200871, 22.6741589], [113.8200588, 22.6741357], [113.8200374, 22.6741069], [113.8200243, 22.6740742], [113.8200202, 22.6740395], [113.8200254, 22.6740049], [113.8196542, 22.6737676]]]]}}, {"type": "Feature", "id": "way/1454640792", "properties": {"tags": {"building": "yes", "historic": "building", "name": "南近公家塾", "name:zh": "南近公家塾", "name:zh-Hans": "南近公家塾", "name:zh-Hant": "南近公家塾"}, "heightStatus": "unknown", "source": "OpenStreetMap", "license": "ODbL-1.0"}, "geometry": {"type": "MultiPolygon", "coordinates": [[[[113.812065, 22.6709946], [113.8121799, 22.6708743], [113.8122593, 22.6709388], [113.8121444, 22.6710592], [113.812065, 22.6709946]]]]}}, {"type": "Feature", "id": "way/1454640798", "properties": {"tags": {"building": "office"}, "heightStatus": "unknown", "source": "OpenStreetMap", "license": "ODbL-1.0"}, "geometry": {"type": "MultiPolygon", "coordinates": [[[[113.8129674, 22.6714084], [113.8130631, 22.6712826], [113.8133021, 22.6714374], [113.8132063, 22.6715633], [113.8129674, 22.6714084]]]]}}, {"type": "Feature", "id": "way/1454640799", "properties": {"tags": {"building": "residential", "name": "怀德城市花园", "name:zh": "怀德城市花园", "name:zh-Hans": "怀德城市花园", "name:zh-Hant": "懷德城市花園"}, "heightStatus": "unknown", "source": "OpenStreetMap", "license": "ODbL-1.0"}, "geometry": {"type": "MultiPolygon", "coordinates": [[[[113.8142112, 22.6720115], [113.814472, 22.6716814], [113.8155722, 22.6724212], [113.8153113, 22.6727514], [113.8142112, 22.6720115]]]]}}, {"type": "Feature", "id": "way/1454640800", "properties": {"tags": {"building": "office", "name": "宝安区福永街道政务服务中心"}, "heightStatus": "unknown", "source": "OpenStreetMap", "license": "ODbL-1.0"}, "geometry": {"type": "MultiPolygon", "coordinates": [[[[113.8173123, 22.6748769], [113.8174538, 22.6746906], [113.8177851, 22.674905], [113.8176436, 22.6750912], [113.8173123, 22.6748769]]]]}}, {"type": "Feature", "id": "way/1454640802", "properties": {"tags": {"building": "commercial", "name": "福润大厦"}, "heightStatus": "unknown", "source": "OpenStreetMap", "license": "ODbL-1.0"}, "geometry": {"type": "MultiPolygon", "coordinates": [[[[113.8165201, 22.6748048], [113.8166157, 22.6746801], [113.8169575, 22.6749032], [113.8169372, 22.6749297], [113.816995, 22.6749674], [113.8169197, 22.6750657], [113.8165201, 22.6748048]]]]}}, {"type": "Feature", "id": "way/1454640803", "properties": {"tags": {"amenity": "marketplace", "building": "yes", "name": "康之宝超级广场", "name:zh": "康之宝超级广场", "name:zh-Hans": "康之宝超级广场", "name:zh-Hant": "康之寶超級廣場"}, "heightStatus": "unknown", "source": "OpenStreetMap", "license": "ODbL-1.0"}, "geometry": {"type": "MultiPolygon", "coordinates": [[[[113.8147375, 22.6745991], [113.8147535, 22.674578], [113.8149345, 22.6743389], [113.8155939, 22.6747638], [113.815578, 22.6747849], [113.8157141, 22.6748733], [113.8157332, 22.6748879], [113.8157476, 22.6749095], [113.8157532, 22.6749344], [113.8157492, 22.6749595], [113.8157363, 22.6749819], [113.8155338, 22.6752196], [113.8154637, 22.6752196], [113.8154474, 22.6752336], [113.8153669, 22.6751888], [113.8153264, 22.6752508], [113.8152846, 22.6752276], [113.8152683, 22.6752524], [113.8152384, 22.6752358], [113.8147375, 22.6745991]]]]}}, {"type": "Feature", "id": "way/1454640804", "properties": {"tags": {"building": "yes"}, "heightStatus": "unknown", "source": "OpenStreetMap", "license": "ODbL-1.0"}, "geometry": {"type": "MultiPolygon", "coordinates": [[[[113.8146678, 22.6745039], [113.8146707, 22.6744917], [113.8146773, 22.6744816], [113.8148336, 22.6742742], [113.8149345, 22.6743389], [113.8147535, 22.674578], [113.8146855, 22.674536], [113.8146756, 22.6745274], [113.8146695, 22.6745163], [113.8146678, 22.6745039]]]]}}, {"type": "Feature", "id": "way/1454640807", "properties": {"tags": {"building": "residential", "name": "政永楼"}, "heightStatus": "unknown", "source": "OpenStreetMap", "license": "ODbL-1.0"}, "geometry": {"type": "MultiPolygon", "coordinates": [[[[113.8145178, 22.6737781], [113.814628, 22.6736357], [113.8149476, 22.6738462], [113.8148373, 22.6739887], [113.8145178, 22.6737781]]]]}}, {"type": "Feature", "id": "way/1454640808", "properties": {"tags": {"building": "residential", "name": "永恒楼"}, "heightStatus": "unknown", "source": "OpenStreetMap", "license": "ODbL-1.0"}, "geometry": {"type": "MultiPolygon", "coordinates": [[[[113.8149628, 22.6740883], [113.8150635, 22.6739572], [113.8154098, 22.6741835], [113.8153092, 22.6743146], [113.8149628, 22.6740883]]]]}}, {"type": "Feature", "id": "way/1454640809", "properties": {"tags": {"building": "residential", "name": "发兴楼"}, "heightStatus": "unknown", "source": "OpenStreetMap", "license": "ODbL-1.0"}, "geometry": {"type": "MultiPolygon", "coordinates": [[[[113.815337, 22.6743295], [113.8154348, 22.6741973], [113.815774, 22.6744112], [113.8156762, 22.6745433], [113.815337, 22.6743295]]]]}}, {"type": "Feature", "id": "way/1454640810", "properties": {"tags": {"building": "residential", "name": "永政大厦"}, "heightStatus": "unknown", "source": "OpenStreetMap", "license": "ODbL-1.0"}, "geometry": {"type": "MultiPolygon", "coordinates": [[[[113.815778, 22.6745986], [113.8158758, 22.6744695], [113.8162197, 22.6746913], [113.8161218, 22.6748205], [113.815778, 22.6745986]]]]}}, {"type": "Feature", "id": "way/1455369515", "properties": {"tags": {"building": "kindergarten", "layer": "1"}, "heightStatus": "unknown", "source": "OpenStreetMap", "license": "ODbL-1.0"}, "geometry": {"type": "MultiPolygon", "coordinates": [[[[113.820547, 22.6707921], [113.8208642, 22.6707904], [113.8208649, 22.670908], [113.8205477, 22.6709096], [113.820547, 22.6707921]]]]}}]}