{"type": "FeatureCollection", "features": [{"type": "Feature", "id": "way/1280112313", "properties": {"tags": {"building": "yes", "name": "白石厦社区居委会", "office": "government"}, "heightStatus": "unknown", "source": "OpenStreetMap", "license": "ODbL-1.0"}, "geometry": {"type": "MultiPolygon", "coordinates": [[[[113.8176233, 22.6809952], [113.817701, 22.6808184], [113.8178389, 22.6808701], [113.8178973, 22.6807373], [113.8180288, 22.6807866], [113.817972, 22.6809155], [113.8181102, 22.6809672], [113.8180307, 22.6811478], [113.8176233, 22.6809952]]]]}}, {"type": "Feature", "id": "way/1280112314", "properties": {"tags": {"building": "yes"}, "heightStatus": "unknown", "source": "OpenStreetMap", "license": "ODbL-1.0"}, "geometry": {"type": "MultiPolygon", "coordinates": [[[[113.8188359, 22.6804133], [113.8188558, 22.6802998], [113.8193329, 22.6803711], [113.819313, 22.6804846], [113.8188359, 22.6804133]]]]}}, {"type": "Feature", "id": "way/1280112315", "properties": {"tags": {"building": "yes"}, "heightStatus": "unknown", "source": "OpenStreetMap", "license": "ODbL-1.0"}, "geometry": {"type": "MultiPolygon", "coordinates": [[[[113.8194433, 22.6804991], [113.8194613, 22.6803854], [113.8199395, 22.68045], [113.8199214, 22.6805638], [113.8194433, 22.6804991]]]]}}, {"type": "Feature", "id": "way/1446817788", "properties": {"tags": {"addr:housenumber": "87", "addr:place": "御景水岸", "addr:place:en": "Yujing Shui’an", "addr:place:zh": "御景水岸", "building": "house"}, "heightStatus": "unknown", "source": "OpenStreetMap", "license": "ODbL-1.0"}, "geometry": {"type": "MultiPolygon", "coordinates": [[[[113.8205128, 22.6878213], [113.8205752, 22.6877951], [113.8206457, 22.6879378], [113.8205832, 22.687964], [113.8205128, 22.6878213]]]]}}, {"type": "Feature", "id": "way/1446817792", "properties": {"tags": {"addr:housenumber": "89", "addr:place": "御景水岸", "addr:place:en": "Yujing Shui’an", "addr:place:zh": "御景水岸", "building": "house"}, "heightStatus": "unknown", "source": "OpenStreetMap", "license": "ODbL-1.0"}, "geometry": {"type": "MultiPolygon", "coordinates": [[[[113.8206377, 22.6877689], [113.8207001, 22.6877427], [113.8207705, 22.6878853], [113.8207081, 22.6879115], [113.8206377, 22.6877689]]]]}}, {"type": "Feature", "id": "way/1446817794", "properties": {"tags": {"addr:housenumber": "88", "addr:place": "御景水岸", "addr:place:en": "Yujing Shui’an", "addr:place:zh": "御景水岸", "building": "house"}, "heightStatus": "unknown", "source": "OpenStreetMap", "license": "ODbL-1.0"}, "geometry": {"type": "MultiPolygon", "coordinates": [[[[113.8205752, 22.6877951], [113.8206377, 22.6877689], [113.8207081, 22.6879115], [113.8206457, 22.6879378], [113.8205752, 22.6877951]]]]}}, {"type": "Feature", "id": "way/1446817810", "properties": {"tags": {"addr:housenumber": "86", "addr:place": "御景水岸", "addr:place:en": "Yujing Shui’an", "addr:place:zh": "御景水岸", "building": "house"}, "heightStatus": "unknown", "source": "OpenStreetMap", "license": "ODbL-1.0"}, "geometry": {"type": "MultiPolygon", "coordinates": [[[[113.8203983, 22.6875644], [113.8204607, 22.6875381], [113.8205311, 22.6876808], [113.8204687, 22.687707], [113.8203983, 22.6875644]]]]}}, {"type": "Feature", "id": "way/1446817811", "properties": {"tags": {"addr:housenumber": "83", "addr:place": "御景水岸", "addr:place:en": "Yujing Shui’an", "addr:place:zh": "御景水岸", "building": "house"}, "heightStatus": "unknown", "source": "OpenStreetMap", "license": "ODbL-1.0"}, "geometry": {"type": "MultiPolygon", "coordinates": [[[[113.8205855, 22.6874857], [113.8206479, 22.6874595], [113.8207183, 22.6876021], [113.8206559, 22.6876283], [113.8205855, 22.6874857]]]]}}, {"type": "Feature", "id": "way/1446817812", "properties": {"tags": {"addr:housenumber": "84", "addr:place": "御景水岸", "addr:place:en": "Yujing Shui’an", "addr:place:zh": "御景水岸", "building": "house"}, "heightStatus": "unknown", "source": "OpenStreetMap", "license": "ODbL-1.0"}, "geometry": {"type": "MultiPolygon", "coordinates": [[[[113.8205231, 22.6875119], [113.8205855, 22.6874857], [113.8206559, 22.6876283], [113.8205935, 22.6876546], [113.8205231, 22.6875119]]]]}}, {"type": "Feature", "id": "way/1446817813", "properties": {"tags": {"addr:housenumber": "85", "addr:place": "御景水岸", "addr:place:en": "Yujing Shui’an", "addr:place:zh": "御景水岸", "building": "house"}, "heightStatus": "unknown", "source": "OpenStreetMap", "license": "ODbL-1.0"}, "geometry": {"type": "MultiPolygon", "coordinates": [[[[113.8204607, 22.6875381], [113.8205231, 22.6875119], [113.8205935, 22.6876546], [113.8205311, 22.6876808], [113.8204607, 22.6875381]]]]}}, {"type": "Feature", "id": "way/1446817845", "properties": {"tags": {"addr:housenumber": "47", "addr:place": "御景水岸", "addr:place:en": "Yujing Shui’an", "addr:place:zh": "御景水岸", "building": "house"}, "heightStatus": "unknown", "source": "OpenStreetMap", "license": "ODbL-1.0"}, "geometry": {"type": "MultiPolygon", "coordinates": [[[[113.8205843, 22.687235], [113.8206046, 22.6872264], [113.8205885, 22.6871937], [113.8206441, 22.6871704], [113.8206983, 22.6872803], [113.8206427, 22.6873036], [113.8206266, 22.6872709], [113.8206063, 22.6872795], [113.8205843, 22.687235]]]]}}, {"type": "Feature", "id": "way/1446817847", "properties": {"tags": {"addr:housenumber": "48", "addr:place": "御景水岸", "addr:place:en": "Yujing Shui’an", "addr:place:zh": "御景水岸", "building": "house"}, "heightStatus": "unknown", "source": "OpenStreetMap", "license": "ODbL-1.0"}, "geometry": {"type": "MultiPolygon", "coordinates": [[[[113.8206441, 22.6871704], [113.8206997, 22.687147], [113.8207158, 22.6871797], [113.8207361, 22.6871712], [113.8207581, 22.6872157], [113.8207378, 22.6872242], [113.8207539, 22.6872569], [113.8206983, 22.6872803], [113.8206441, 22.6871704]]]]}}, {"type": "Feature", "id": "way/1446817849", "properties": {"tags": {"addr:housenumber": "45", "addr:place": "御景水岸", "addr:place:en": "Yujing Shui’an", "addr:place:zh": "御景水岸", "building": "house"}, "heightStatus": "unknown", "source": "OpenStreetMap", "license": "ODbL-1.0"}, "geometry": {"type": "MultiPolygon", "coordinates": [[[[113.8203967, 22.6873119], [113.820417, 22.6873034], [113.8204008, 22.6872707], [113.8204564, 22.6872473], [113.8205107, 22.6873572], [113.8204551, 22.6873806], [113.8204389, 22.6873479], [113.8204186, 22.6873564], [113.8203967, 22.6873119]]]]}}, {"type": "Feature", "id": "way/1446817850", "properties": {"tags": {"addr:housenumber": "46", "addr:place": "御景水岸", "addr:place:en": "Yujing Shui’an", "addr:place:zh": "御景水岸", "building": "house"}, "heightStatus": "unknown", "source": "OpenStreetMap", "license": "ODbL-1.0"}, "geometry": {"type": "MultiPolygon", "coordinates": [[[[113.8204564, 22.6872473], [113.8205121, 22.6872239], [113.8205282, 22.6872566], [113.8205485, 22.6872481], [113.8205705, 22.6872926], [113.8205502, 22.6873011], [113.8205663, 22.6873338], [113.8205107, 22.6873572], [113.8204564, 22.6872473]]]]}}, {"type": "Feature", "id": "way/1446817851", "properties": {"tags": {"addr:housenumber": "44", "addr:place": "御景水岸", "addr:place:en": "Yujing Shui’an", "addr:place:zh": "御景水岸", "building": "house"}, "heightStatus": "unknown", "source": "OpenStreetMap", "license": "ODbL-1.0"}, "geometry": {"type": "MultiPolygon", "coordinates": [[[[113.8202688, 22.687327], [113.8203244, 22.6873036], [113.8203405, 22.6873363], [113.8203608, 22.6873278], [113.8203828, 22.6873723], [113.8203625, 22.6873808], [113.8203786, 22.6874135], [113.820323, 22.6874369], [113.8202688, 22.687327]]]]}}, {"type": "Feature", "id": "way/1446817852", "properties": {"tags": {"addr:housenumber": "43", "addr:place": "御景水岸", "addr:place:en": "Yujing Shui’an", "addr:place:zh": "御景水岸", "building": "house"}, "heightStatus": "unknown", "source": "OpenStreetMap", "license": "ODbL-1.0"}, "geometry": {"type": "MultiPolygon", "coordinates": [[[[113.820209, 22.6873916], [113.8202293, 22.687383], [113.8202132, 22.6873503], [113.8202688, 22.687327], [113.820323, 22.6874369], [113.8202674, 22.6874602], [113.8202513, 22.6874275], [113.820231, 22.6874361], [113.820209, 22.6873916]]]]}}, {"type": "Feature", "id": "way/1446817853", "properties": {"tags": {"addr:housenumber": "37", "addr:place": "御景水岸", "addr:place:en": "Yujing Shui’an", "addr:place:zh": "御景水岸", "building": "house"}, "heightStatus": "unknown", "source": "OpenStreetMap", "license": "ODbL-1.0"}, "geometry": {"type": "MultiPolygon", "coordinates": [[[[113.8203192, 22.6880349], [113.8204784, 22.6879705], [113.8205097, 22.6880366], [113.8203506, 22.6881009], [113.8203192, 22.6880349]]]]}}, {"type": "Feature", "id": "way/1446817854", "properties": {"tags": {"addr:housenumber": "41", "addr:place": "御景水岸", "addr:place:en": "Yujing Shui’an", "addr:place:zh": "御景水岸", "building": "house"}, "heightStatus": "unknown", "source": "OpenStreetMap", "license": "ODbL-1.0"}, "geometry": {"type": "MultiPolygon", "coordinates": [[[[113.8201453, 22.6876728], [113.8203044, 22.6876084], [113.8203358, 22.6876745], [113.8201767, 22.6877388], [113.8201453, 22.6876728]]]]}}, {"type": "Feature", "id": "way/1446817855", "properties": {"tags": {"addr:housenumber": "42", "addr:place": "御景水岸", "addr:place:en": "Yujing Shui’an", "addr:place:zh": "御景水岸", "building": "house"}, "heightStatus": "unknown", "source": "OpenStreetMap", "license": "ODbL-1.0"}, "geometry": {"type": "MultiPolygon", "coordinates": [[[[113.8201139, 22.6876067], [113.820273, 22.6875424], [113.8203044, 22.6876084], [113.8201453, 22.6876728], [113.8201139, 22.6876067]]]]}}, {"type": "Feature", "id": "way/1446817856", "properties": {"tags": {"addr:housenumber": "39", "addr:place": "御景水岸", "addr:place:en": "Yujing Shui’an", "addr:place:zh": "御景水岸", "building": "house"}, "heightStatus": "unknown", "source": "OpenStreetMap", "license": "ODbL-1.0"}, "geometry": {"type": "MultiPolygon", "coordinates": [[[[113.8202369, 22.6878601], [113.820396, 22.6877958], [113.8204274, 22.6878618], [113.8202683, 22.6879262], [113.8202369, 22.6878601]]]]}}, {"type": "Feature", "id": "way/1446817857", "properties": {"tags": {"addr:housenumber": "40", "addr:place": "御景水岸", "addr:place:en": "Yujing Shui’an", "addr:place:zh": "御景水岸", "building": "house"}, "heightStatus": "unknown", "source": "OpenStreetMap", "license": "ODbL-1.0"}, "geometry": {"type": "MultiPolygon", "coordinates": [[[[113.8202055, 22.6877941], [113.8203646, 22.6877297], [113.820396, 22.6877958], [113.8202369, 22.6878601], [113.8202055, 22.6877941]]]]}}, {"type": "Feature", "id": "way/1446817858", "properties": {"tags": {"addr:housenumber": "38", "addr:place": "御景水岸", "addr:place:en": "Yujing Shui’an", "addr:place:zh": "御景水岸", "building": "house"}, "heightStatus": "unknown", "source": "OpenStreetMap", "license": "ODbL-1.0"}, "geometry": {"type": "MultiPolygon", "coordinates": [[[[113.8202878, 22.6879689], [113.820447, 22.6879045], [113.8204784, 22.6879705], [113.8203192, 22.6880349], [113.8202878, 22.6879689]]]]}}, {"type": "Feature", "id": "way/1446817859", "properties": {"tags": {"addr:housenumber": "33", "addr:place": "御景水岸", "addr:place:en": "Yujing Shui’an", "addr:place:zh": "御景水岸", "building": "house"}, "heightStatus": "unknown", "source": "OpenStreetMap", "license": "ODbL-1.0"}, "geometry": {"type": "MultiPolygon", "coordinates": [[[[113.8205224, 22.6884575], [113.8206816, 22.6883932], [113.8207129, 22.6884592], [113.8205538, 22.6885236], [113.8205224, 22.6884575]]]]}}, {"type": "Feature", "id": "way/1446817860", "properties": {"tags": {"addr:housenumber": "35", "addr:place": "御景水岸", "addr:place:en": "Yujing Shui’an", "addr:place:zh": "御景水岸", "building": "house"}, "heightStatus": "unknown", "source": "OpenStreetMap", "license": "ODbL-1.0"}, "geometry": {"type": "MultiPolygon", "coordinates": [[[[113.8204401, 22.6882828], [113.8205992, 22.6882184], [113.8206306, 22.6882845], [113.8204715, 22.6883488], [113.8204401, 22.6882828]]]]}}, {"type": "Feature", "id": "way/1446817861", "properties": {"tags": {"addr:housenumber": "36", "addr:place": "御景水岸", "addr:place:en": "Yujing Shui’an", "addr:place:zh": "御景水岸", "building": "house"}, "heightStatus": "unknown", "source": "OpenStreetMap", "license": "ODbL-1.0"}, "geometry": {"type": "MultiPolygon", "coordinates": [[[[113.8204087, 22.6882167], [113.8205679, 22.6881524], [113.8205992, 22.6882184], [113.8204401, 22.6882828], [113.8204087, 22.6882167]]]]}}, {"type": "Feature", "id": "way/1446817862", "properties": {"tags": {"addr:housenumber": "34", "addr:place": "御景水岸", "addr:place:en": "Yujing Shui’an", "addr:place:zh": "御景水岸", "building": "house"}, "heightStatus": "unknown", "source": "OpenStreetMap", "license": "ODbL-1.0"}, "geometry": {"type": "MultiPolygon", "coordinates": [[[[113.820491, 22.6883915], [113.8206502, 22.6883271], [113.8206816, 22.6883932], [113.8205224, 22.6884575], [113.820491, 22.6883915]]]]}}, {"type": "Feature", "id": "way/1446817863", "properties": {"tags": {"addr:housenumber": "31", "addr:place": "御景水岸", "addr:place:en": "Yujing Shui’an", "addr:place:zh": "御景水岸", "building": "house"}, "heightStatus": "unknown", "source": "OpenStreetMap", "license": "ODbL-1.0"}, "geometry": {"type": "MultiPolygon", "coordinates": [[[[113.820614, 22.6886449], [113.8207732, 22.6885805], [113.8208045, 22.6886466], [113.8206454, 22.6887109], [113.820614, 22.6886449]]]]}}, {"type": "Feature", "id": "way/1446817864", "properties": {"tags": {"addr:housenumber": "32", "addr:place": "御景水岸", "addr:place:en": "Yujing Shui’an", "addr:place:zh": "御景水岸", "building": "house"}, "heightStatus": "unknown", "source": "OpenStreetMap", "license": "ODbL-1.0"}, "geometry": {"type": "MultiPolygon", "coordinates": [[[[113.8205826, 22.6885788], [113.8207418, 22.6885145], [113.8207732, 22.6885805], [113.820614, 22.6886449], [113.8205826, 22.6885788]]]]}}, {"type": "Feature", "id": "way/1446817882", "properties": {"tags": {"addr:housenumber": "16", "addr:place": "御景水岸", "addr:place:en": "Yujing Shui’an", "addr:place:zh": "御景水岸", "building": "house"}, "heightStatus": "unknown", "source": "OpenStreetMap", "license": "ODbL-1.0"}, "geometry": {"type": "MultiPolygon", "coordinates": [[[[113.8196719, 22.6872558], [113.8198118, 22.6871971], [113.8198713, 22.6873179], [113.8197313, 22.6873766], [113.8196719, 22.6872558]]]]}}, {"type": "Feature", "id": "way/1446817883", "properties": {"tags": {"addr:housenumber": "15", "addr:place": "御景水岸", "addr:place:en": "Yujing Shui’an", "addr:place:zh": "御景水岸", "building": "house"}, "heightStatus": "unknown", "source": "OpenStreetMap", "license": "ODbL-1.0"}, "geometry": {"type": "MultiPolygon", "coordinates": [[[[113.819869, 22.6871723], [113.8200089, 22.6871136], [113.8200684, 22.6872344], [113.8199285, 22.687293], [113.819869, 22.6871723]]]]}}, {"type": "Feature", "id": "way/1446817892", "properties": {"tags": {"addr:housenumber": "10", "addr:place": "御景水岸", "addr:place:en": "Yujing Shui’an", "addr:place:zh": "御景水岸", "building": "house"}, "heightStatus": "unknown", "source": "OpenStreetMap", "license": "ODbL-1.0"}, "geometry": {"type": "MultiPolygon", "coordinates": [[[[113.8206372, 22.6868416], [113.820742, 22.6867976], [113.8208173, 22.6869506], [113.8207403, 22.6869828], [113.8207138, 22.6869289], [113.8207276, 22.6869231], [113.8207064, 22.68688], [113.8206647, 22.6868974], [113.8206372, 22.6868416]]]]}}, {"type": "Feature", "id": "way/1446817894", "properties": {"tags": {"addr:housenumber": "12", "addr:place": "御景水岸", "addr:place:en": "Yujing Shui’an", "addr:place:zh": "御景水岸", "building": "house"}, "heightStatus": "unknown", "source": "OpenStreetMap", "license": "ODbL-1.0"}, "geometry": {"type": "MultiPolygon", "coordinates": [[[[113.8203694, 22.6869531], [113.8204742, 22.6869091], [113.8205495, 22.6870621], [113.8204725, 22.6870943], [113.820446, 22.6870404], [113.8204598, 22.6870346], [113.8204386, 22.6869915], [113.8203969, 22.6870089], [113.8203694, 22.6869531]]]]}}, {"type": "Feature", "id": "way/1446817895", "properties": {"tags": {"addr:housenumber": "11", "addr:place": "御景水岸", "addr:place:en": "Yujing Shui’an", "addr:place:zh": "御景水岸", "building": "house"}, "heightStatus": "unknown", "source": "OpenStreetMap", "license": "ODbL-1.0"}, "geometry": {"type": "MultiPolygon", "coordinates": [[[[113.8204742, 22.6869091], [113.8205789, 22.6868652], [113.8206065, 22.6869211], [113.8205648, 22.6869385], [113.8205861, 22.6869817], [113.8205999, 22.6869759], [113.8206265, 22.6870298], [113.8205495, 22.6870621], [113.8204742, 22.6869091]]]]}}, {"type": "Feature", "id": "way/1446817896", "properties": {"tags": {"addr:housenumber": "13", "addr:place": "御景水岸", "addr:place:en": "Yujing Shui’an", "addr:place:zh": "御景水岸", "building": "house"}, "heightStatus": "unknown", "source": "OpenStreetMap", "license": "ODbL-1.0"}, "geometry": {"type": "MultiPolygon", "coordinates": [[[[113.8202046, 22.6870191], [113.8203094, 22.6869751], [113.8203369, 22.687031], [113.8202953, 22.6870485], [113.8203165, 22.6870916], [113.8203303, 22.6870858], [113.8203569, 22.6871397], [113.8202799, 22.687172], [113.8202046, 22.6870191]]]]}}, {"type": "Feature", "id": "way/1446817897", "properties": {"tags": {"addr:housenumber": "14", "addr:place": "御景水岸", "addr:place:en": "Yujing Shui’an", "addr:place:zh": "御景水岸", "building": "house"}, "heightStatus": "unknown", "source": "OpenStreetMap", "license": "ODbL-1.0"}, "geometry": {"type": "MultiPolygon", "coordinates": [[[[113.8200998, 22.687063], [113.8202046, 22.6870191], [113.8202799, 22.687172], [113.820203, 22.6872043], [113.8201764, 22.6871504], [113.8201902, 22.6871446], [113.820169, 22.6871014], [113.8201274, 22.6871189], [113.8200998, 22.687063]]]]}}, {"type": "Feature", "id": "way/1446817899", "properties": {"tags": {"addr:housenumber": "23", "addr:place": "御景水岸", "addr:place:en": "Yujing Shui’an", "addr:place:zh": "御景水岸", "building": "house"}, "heightStatus": "unknown", "source": "OpenStreetMap", "license": "ODbL-1.0"}, "geometry": {"type": "MultiPolygon", "coordinates": [[[[113.8201474, 22.688387], [113.8202097, 22.6883618], [113.8202174, 22.688378], [113.8202574, 22.6883618], [113.8202497, 22.6883456], [113.820313, 22.68832], [113.820362, 22.6884231], [113.8201964, 22.6884901], [113.8201474, 22.688387]]]]}}, {"type": "Feature", "id": "way/1446817902", "properties": {"tags": {"addr:housenumber": "24", "addr:place": "御景水岸", "addr:place:en": "Yujing Shui’an", "addr:place:zh": "御景水岸", "building": "house"}, "heightStatus": "unknown", "source": "OpenStreetMap", "license": "ODbL-1.0"}, "geometry": {"type": "MultiPolygon", "coordinates": [[[[113.8201964, 22.6884901], [113.820362, 22.6884231], [113.820411, 22.6885262], [113.8203477, 22.6885518], [113.82034, 22.6885357], [113.8203, 22.6885519], [113.8203077, 22.688568], [113.8202454, 22.6885932], [113.8201964, 22.6884901]]]]}}, {"type": "Feature", "id": "way/1446817903", "properties": {"tags": {"addr:housenumber": "25", "addr:place": "御景水岸", "addr:place:en": "Yujing Shui’an", "addr:place:zh": "御景水岸", "building": "house"}, "heightStatus": "unknown", "source": "OpenStreetMap", "license": "ODbL-1.0"}, "geometry": {"type": "MultiPolygon", "coordinates": [[[[113.8202609, 22.6886329], [113.8203233, 22.6886077], [113.820331, 22.6886238], [113.820371, 22.6886076], [113.8203633, 22.6885915], [113.8204266, 22.6885659], [113.8204756, 22.688669], [113.8203099, 22.688736], [113.8202609, 22.6886329]]]]}}, {"type": "Feature", "id": "way/1446817904", "properties": {"tags": {"addr:housenumber": "22", "addr:place": "御景水岸", "addr:place:en": "Yujing Shui’an", "addr:place:zh": "御景水岸", "building": "house"}, "heightStatus": "unknown", "source": "OpenStreetMap", "license": "ODbL-1.0"}, "geometry": {"type": "MultiPolygon", "coordinates": [[[[113.8200206, 22.6881247], [113.8201863, 22.6880577], [113.8202353, 22.6881609], [113.820172, 22.6881865], [113.8201643, 22.6881703], [113.8201242, 22.6881865], [113.8201319, 22.6882027], [113.8200696, 22.6882279], [113.8200206, 22.6881247]]]]}}, {"type": "Feature", "id": "way/1446817905", "properties": {"tags": {"addr:housenumber": "21", "addr:place": "御景水岸", "addr:place:en": "Yujing Shui’an", "addr:place:zh": "御景水岸", "building": "house"}, "heightStatus": "unknown", "source": "OpenStreetMap", "license": "ODbL-1.0"}, "geometry": {"type": "MultiPolygon", "coordinates": [[[[113.8199716, 22.6880216], [113.8200339, 22.6879964], [113.8200416, 22.6880126], [113.8200817, 22.6879964], [113.820074, 22.6879802], [113.8201373, 22.6879546], [113.8201863, 22.6880577], [113.8200206, 22.6881247], [113.8199716, 22.6880216]]]]}}, {"type": "Feature", "id": "way/1446817906", "properties": {"tags": {"addr:housenumber": "19", "addr:place": "御景水岸", "addr:place:en": "Yujing Shui’an", "addr:place:zh": "御景水岸", "building": "house"}, "heightStatus": "unknown", "source": "OpenStreetMap", "license": "ODbL-1.0"}, "geometry": {"type": "MultiPolygon", "coordinates": [[[[113.81986, 22.6877758], [113.8199223, 22.6877506], [113.81993, 22.6877667], [113.8199701, 22.6877505], [113.8199624, 22.6877344], [113.8200257, 22.6877088], [113.8200747, 22.6878119], [113.819909, 22.6878789], [113.81986, 22.6877758]]]]}}, {"type": "Feature", "id": "way/1446817907", "properties": {"tags": {"addr:housenumber": "20", "addr:place": "御景水岸", "addr:place:en": "Yujing Shui’an", "addr:place:zh": "御景水岸", "building": "house"}, "heightStatus": "unknown", "source": "OpenStreetMap", "license": "ODbL-1.0"}, "geometry": {"type": "MultiPolygon", "coordinates": [[[[113.819909, 22.6878789], [113.8200747, 22.6878119], [113.8201237, 22.687915], [113.8200604, 22.6879406], [113.8200527, 22.6879245], [113.8200127, 22.6879407], [113.8200203, 22.6879568], [113.819958, 22.687982], [113.819909, 22.6878789]]]]}}, {"type": "Feature", "id": "way/1446817908", "properties": {"tags": {"addr:housenumber": "18", "addr:place": "御景水岸", "addr:place:en": "Yujing Shui’an", "addr:place:zh": "御景水岸", "building": "house"}, "heightStatus": "unknown", "source": "OpenStreetMap", "license": "ODbL-1.0"}, "geometry": {"type": "MultiPolygon", "coordinates": [[[[113.8197954, 22.687633], [113.8199611, 22.687566], [113.8200101, 22.6876692], [113.8199468, 22.6876948], [113.8199391, 22.6876786], [113.8198991, 22.6876948], [113.8199068, 22.6877109], [113.8198444, 22.6877361], [113.8197954, 22.687633]]]]}}, {"type": "Feature", "id": "way/1446817909", "properties": {"tags": {"addr:housenumber": "17", "addr:place": "御景水岸", "addr:place:en": "Yujing Shui’an", "addr:place:zh": "御景水岸", "building": "house"}, "heightStatus": "unknown", "source": "OpenStreetMap", "license": "ODbL-1.0"}, "geometry": {"type": "MultiPolygon", "coordinates": [[[[113.8197464, 22.6875299], [113.8198088, 22.6875047], [113.8198165, 22.6875209], [113.8198565, 22.6875047], [113.8198488, 22.6874885], [113.8199121, 22.6874629], [113.8199611, 22.687566], [113.8197954, 22.687633], [113.8197464, 22.6875299]]]]}}]}