{"type": "FeatureCollection", "features": [{"type": "Feature", "id": "way/1295991764", "properties": {"tags": {"building": "industrial"}, "heightStatus": "unknown", "source": "OpenStreetMap", "license": "ODbL-1.0"}, "geometry": {"type": "MultiPolygon", "coordinates": [[[[113.8057475, 22.7228991], [113.8060561, 22.7228793], [113.8060667, 22.7230192], [113.8061099, 22.7235899], [113.8059149, 22.7236024], [113.8058011, 22.7236097], [113.8057475, 22.7228991]]]]}}, {"type": "Feature", "id": "way/1295991765", "properties": {"tags": {"building": "industrial"}, "heightStatus": "unknown", "source": "OpenStreetMap", "license": "ODbL-1.0"}, "geometry": {"type": "MultiPolygon", "coordinates": [[[[113.8058091, 22.7237378], [113.8059241, 22.7237305], [113.8061178, 22.723718], [113.8061239, 22.7237989], [113.8061716, 22.7244286], [113.8058627, 22.7244484], [113.8058091, 22.7237378]]]]}}, {"type": "Feature", "id": "way/1295991768", "properties": {"tags": {"building": "industrial"}, "heightStatus": "unknown", "source": "OpenStreetMap", "license": "ODbL-1.0"}, "geometry": {"type": "MultiPolygon", "coordinates": [[[[113.8062932, 22.7238618], [113.8063868, 22.7238555], [113.806615, 22.7238401], [113.8066543, 22.7243372], [113.8064334, 22.724352], [113.8063326, 22.7243588], [113.8062932, 22.7238618]]]]}}, {"type": "Feature", "id": "way/1295991769", "properties": {"tags": {"building": "industrial"}, "heightStatus": "unknown", "source": "OpenStreetMap", "license": "ODbL-1.0"}, "geometry": {"type": "MultiPolygon", "coordinates": [[[[113.8062138, 22.7228024], [113.806526, 22.7227808], [113.8066017, 22.7237144], [113.8063777, 22.7237299], [113.8062897, 22.7237359], [113.8062838, 22.7236639], [113.8062303, 22.7230045], [113.8062138, 22.7228024]]]]}}, {"type": "Feature", "id": "way/1295991774", "properties": {"tags": {"building": "industrial"}, "heightStatus": "unknown", "source": "OpenStreetMap", "license": "ODbL-1.0"}, "geometry": {"type": "MultiPolygon", "coordinates": [[[[113.8054007, 22.7217421], [113.805941, 22.721704], [113.8059484, 22.7217934], [113.8054081, 22.7218316], [113.8054007, 22.7217421]]]]}}, {"type": "Feature", "id": "way/1295991775", "properties": {"tags": {"building": "industrial"}, "heightStatus": "unknown", "source": "OpenStreetMap", "license": "ODbL-1.0"}, "geometry": {"type": "MultiPolygon", "coordinates": [[[[113.8060408, 22.7216918], [113.806392, 22.7216628], [113.8064006, 22.7217523], [113.8060495, 22.7217813], [113.8060408, 22.7216918]]]]}}, {"type": "Feature", "id": "way/1295991776", "properties": {"tags": {"building": "industrial"}, "heightStatus": "unknown", "source": "OpenStreetMap", "license": "ODbL-1.0"}, "geometry": {"type": "MultiPolygon", "coordinates": [[[[113.8055596, 22.7219396], [113.8059654, 22.7219132], [113.8059872, 22.722199], [113.8056655, 22.7222199], [113.8056601, 22.722149], [113.805576, 22.7221544], [113.8055596, 22.7219396]]]]}}, {"type": "Feature", "id": "way/1295991777", "properties": {"tags": {"building": "industrial"}, "heightStatus": "unknown", "source": "OpenStreetMap", "license": "ODbL-1.0"}, "geometry": {"type": "MultiPolygon", "coordinates": [[[[113.8060731, 22.7218862], [113.8063799, 22.7218662], [113.8063816, 22.7218889], [113.8064157, 22.7218867], [113.8064201, 22.7219448], [113.8063939, 22.7219465], [113.8063976, 22.7219941], [113.8062153, 22.722006], [113.806228, 22.7221725], [113.8060956, 22.7221812], [113.8060731, 22.7218862]]]]}}, {"type": "Feature", "id": "way/1295991778", "properties": {"tags": {"building": "industrial"}, "heightStatus": "unknown", "source": "OpenStreetMap", "license": "ODbL-1.0"}, "geometry": {"type": "MultiPolygon", "coordinates": [[[[113.8061385, 22.7223183], [113.8062663, 22.7223095], [113.8062718, 22.7223769], [113.8063313, 22.7223727], [113.8063386, 22.7224618], [113.8063592, 22.7224604], [113.806372, 22.7226178], [113.8063036, 22.7226225], [113.80631, 22.7227011], [113.8061704, 22.7227107], [113.8061385, 22.7223183]]]]}}, {"type": "Feature", "id": "way/1295991779", "properties": {"tags": {"building": "industrial"}, "heightStatus": "unknown", "source": "OpenStreetMap", "license": "ODbL-1.0"}, "geometry": {"type": "MultiPolygon", "coordinates": [[[[113.8051978, 22.7215456], [113.8055565, 22.7214251], [113.8055936, 22.7215192], [113.805235, 22.7216397], [113.8051978, 22.7215456]]]]}}, {"type": "Feature", "id": "way/1295991780", "properties": {"tags": {"building": "industrial"}, "heightStatus": "unknown", "source": "OpenStreetMap", "license": "ODbL-1.0"}, "geometry": {"type": "MultiPolygon", "coordinates": [[[[113.8056304, 22.7213784], [113.8059419, 22.7211711], [113.8060054, 22.7212524], [113.8056939, 22.7214597], [113.8056304, 22.7213784]]]]}}, {"type": "Feature", "id": "way/1295991781", "properties": {"tags": {"building": "industrial"}, "heightStatus": "unknown", "source": "OpenStreetMap", "license": "ODbL-1.0"}, "geometry": {"type": "MultiPolygon", "coordinates": [[[[113.8060192, 22.7211213], [113.8062435, 22.7208362], [113.8063308, 22.7208947], [113.8061065, 22.7211797], [113.8060192, 22.7211213]]]]}}, {"type": "Feature", "id": "way/1295991783", "properties": {"tags": {"building": "industrial"}, "heightStatus": "unknown", "source": "OpenStreetMap", "license": "ODbL-1.0"}, "geometry": {"type": "MultiPolygon", "coordinates": [[[[113.8070209, 22.7229279], [113.807294, 22.7229103], [113.807297, 22.7229511], [113.8076435, 22.7229289], [113.8076397, 22.7228787], [113.8079034, 22.7228618], [113.8079371, 22.7233097], [113.8076726, 22.7233267], [113.8076694, 22.7232848], [113.8073197, 22.7233073], [113.807324, 22.7233645], [113.8070553, 22.7233818], [113.8070209, 22.7229279]]]]}}, {"type": "Feature", "id": "way/1295991784", "properties": {"tags": {"building": "industrial"}, "heightStatus": "unknown", "source": "OpenStreetMap", "license": "ODbL-1.0"}, "geometry": {"type": "MultiPolygon", "coordinates": [[[[113.8070799, 22.7234994], [113.807353, 22.7234818], [113.807356, 22.7235226], [113.8077025, 22.7235004], [113.8076987, 22.7234502], [113.8079624, 22.7234333], [113.8079961, 22.7238812], [113.8077316, 22.7238982], [113.8077285, 22.7238563], [113.8073787, 22.7238788], [113.807383, 22.723936], [113.8072277, 22.723946], [113.8071143, 22.7239533], [113.8070799, 22.7234994]]]]}}, {"type": "Feature", "id": "way/1295991785", "properties": {"tags": {"building": "industrial"}, "heightStatus": "unknown", "source": "OpenStreetMap", "license": "ODbL-1.0"}, "geometry": {"type": "MultiPolygon", "coordinates": [[[[113.8071282, 22.724103], [113.8072411, 22.7240958], [113.8074012, 22.7240855], [113.8074043, 22.7241263], [113.8077508, 22.724104], [113.807747, 22.7240539], [113.8080107, 22.724037], [113.8080444, 22.7244849], [113.8077799, 22.7245018], [113.8077767, 22.72446], [113.807427, 22.7244824], [113.8074313, 22.7245397], [113.8071625, 22.724557], [113.8071282, 22.724103]]]]}}, {"type": "Feature", "id": "way/1295991787", "properties": {"tags": {"building": "industrial"}, "heightStatus": "unknown", "source": "OpenStreetMap", "license": "ODbL-1.0"}, "geometry": {"type": "MultiPolygon", "coordinates": [[[[113.8078025, 22.7218121], [113.808432, 22.7217618], [113.8084523, 22.7219783], [113.8078227, 22.7220284], [113.8078025, 22.7218121]]]]}}, {"type": "Feature", "id": "way/1295991862", "properties": {"tags": {"building": "industrial"}, "heightStatus": "unknown", "source": "OpenStreetMap", "license": "ODbL-1.0"}, "geometry": {"type": "MultiPolygon", "coordinates": [[[[113.8105099, 22.7229663], [113.8110347, 22.7227885], [113.8111414, 22.7230565], [113.8106165, 22.7232342], [113.8105099, 22.7229663]]]]}}, {"type": "Feature", "id": "way/1295991866", "properties": {"tags": {"building": "industrial"}, "heightStatus": "unknown", "source": "OpenStreetMap", "license": "ODbL-1.0"}, "geometry": {"type": "MultiPolygon", "coordinates": [[[[113.8098809, 22.7231631], [113.8102071, 22.7230473], [113.8103157, 22.7233077], [113.8099896, 22.7234235], [113.8098809, 22.7231631]]]]}}, {"type": "Feature", "id": "way/1295991867", "properties": {"tags": {"building": "industrial"}, "heightStatus": "unknown", "source": "OpenStreetMap", "license": "ODbL-1.0"}, "geometry": {"type": "MultiPolygon", "coordinates": [[[[113.8102567, 22.7229715], [113.8103511, 22.7229383], [113.810483, 22.7232575], [113.8103886, 22.7232906], [113.8102567, 22.7229715]]]]}}, {"type": "Feature", "id": "way/1295991868", "properties": {"tags": {"building": "industrial"}, "heightStatus": "unknown", "source": "OpenStreetMap", "license": "ODbL-1.0"}, "geometry": {"type": "MultiPolygon", "coordinates": [[[[113.8104018, 22.7233603], [113.8104962, 22.7233271], [113.8106281, 22.7236463], [113.8105337, 22.7236795], [113.8104018, 22.7233603]]]]}}, {"type": "Feature", "id": "way/1295991869", "properties": {"tags": {"building": "industrial"}, "heightStatus": "unknown", "source": "OpenStreetMap", "license": "ODbL-1.0"}, "geometry": {"type": "MultiPolygon", "coordinates": [[[[113.8100261, 22.7235519], [113.8103522, 22.7234362], [113.8104608, 22.7236966], [113.8101347, 22.7238123], [113.8100261, 22.7235519]]]]}}, {"type": "Feature", "id": "way/1295991870", "properties": {"tags": {"building": "industrial"}, "heightStatus": "unknown", "source": "OpenStreetMap", "license": "ODbL-1.0"}, "geometry": {"type": "MultiPolygon", "coordinates": [[[[113.8102016, 22.7239392], [113.8105277, 22.7238234], [113.8106364, 22.7240838], [113.8103102, 22.7241996], [113.8102016, 22.7239392]]]]}}, {"type": "Feature", "id": "way/1295991871", "properties": {"tags": {"building": "industrial"}, "heightStatus": "unknown", "source": "OpenStreetMap", "license": "ODbL-1.0"}, "geometry": {"type": "MultiPolygon", "coordinates": [[[[113.8105773, 22.7237476], [113.8106718, 22.7237144], [113.8108036, 22.7240336], [113.8107093, 22.7240667], [113.8105773, 22.7237476]]]]}}, {"type": "Feature", "id": "way/1295991872", "properties": {"tags": {"building": "industrial"}, "heightStatus": "unknown", "source": "OpenStreetMap", "license": "ODbL-1.0"}, "geometry": {"type": "MultiPolygon", "coordinates": [[[[113.8107225, 22.7241364], [113.8108169, 22.7241032], [113.8109487, 22.7244224], [113.8108544, 22.7244556], [113.8107225, 22.7241364]]]]}}, {"type": "Feature", "id": "way/1295991873", "properties": {"tags": {"building": "industrial"}, "heightStatus": "unknown", "source": "OpenStreetMap", "license": "ODbL-1.0"}, "geometry": {"type": "MultiPolygon", "coordinates": [[[[113.8103467, 22.724328], [113.8106728, 22.7242123], [113.8107815, 22.7244727], [113.8106112, 22.7245331], [113.8104553, 22.7245884], [113.8103467, 22.724328]]]]}}, {"type": "Feature", "id": "way/1295991876", "properties": {"tags": {"building": "industrial"}, "heightStatus": "unknown", "source": "OpenStreetMap", "license": "ODbL-1.0"}, "geometry": {"type": "MultiPolygon", "coordinates": [[[[113.809379, 22.7242266], [113.8094635, 22.724197], [113.8095819, 22.7244846], [113.8094973, 22.7245142], [113.809379, 22.7242266]]]]}}, {"type": "Feature", "id": "way/1295991877", "properties": {"tags": {"building": "industrial"}, "heightStatus": "unknown", "source": "OpenStreetMap", "license": "ODbL-1.0"}, "geometry": {"type": "MultiPolygon", "coordinates": [[[[113.8095711, 22.724177], [113.8098928, 22.7240661], [113.8099982, 22.7243259], [113.8096764, 22.7244369], [113.8095711, 22.724177]]]]}}, {"type": "Feature", "id": "way/1295991878", "properties": {"tags": {"building": "industrial"}, "heightStatus": "unknown", "source": "OpenStreetMap", "license": "ODbL-1.0"}, "geometry": {"type": "MultiPolygon", "coordinates": [[[[113.8094161, 22.7237877], [113.8097379, 22.7236767], [113.8098433, 22.7239366], [113.8095215, 22.7240476], [113.8094161, 22.7237877]]]]}}, {"type": "Feature", "id": "way/1295991879", "properties": {"tags": {"building": "industrial"}, "heightStatus": "unknown", "source": "OpenStreetMap", "license": "ODbL-1.0"}, "geometry": {"type": "MultiPolygon", "coordinates": [[[[113.8092241, 22.7238372], [113.8093086, 22.7238076], [113.809427, 22.7240953], [113.8093424, 22.7241249], [113.8092241, 22.7238372]]]]}}, {"type": "Feature", "id": "way/1295991880", "properties": {"tags": {"building": "industrial"}, "heightStatus": "unknown", "source": "OpenStreetMap", "license": "ODbL-1.0"}, "geometry": {"type": "MultiPolygon", "coordinates": [[[[113.8097366, 22.724555], [113.8100583, 22.7244441], [113.8101637, 22.7247039], [113.8098419, 22.724815], [113.8097366, 22.724555]]]]}}, {"type": "Feature", "id": "way/1295991890", "properties": {"tags": {"building": "industrial"}, "heightStatus": "unknown", "source": "OpenStreetMap", "license": "ODbL-1.0"}, "geometry": {"type": "MultiPolygon", "coordinates": [[[[113.8106925, 22.7233279], [113.8111047, 22.7231857], [113.8112474, 22.7235379], [113.8109274, 22.7236482], [113.8108832, 22.7235392], [113.810791, 22.723571], [113.8106925, 22.7233279]]]]}}, {"type": "Feature", "id": "way/1295991917", "properties": {"tags": {"building": "industrial"}, "heightStatus": "unknown", "source": "OpenStreetMap", "license": "ODbL-1.0"}, "geometry": {"type": "MultiPolygon", "coordinates": [[[[113.8070836, 22.7222048], [113.8077132, 22.7221545], [113.8077264, 22.722295], [113.8077335, 22.722371], [113.8071039, 22.7224211], [113.8070836, 22.7222048]]]]}}, {"type": "Feature", "id": "way/1295991918", "properties": {"tags": {"building": "industrial"}, "heightStatus": "unknown", "source": "OpenStreetMap", "license": "ODbL-1.0"}, "geometry": {"type": "MultiPolygon", "coordinates": [[[[113.8078238, 22.7221487], [113.8084533, 22.7220984], [113.8084736, 22.7223149], [113.8078441, 22.722365], [113.8078369, 22.7222882], [113.8078238, 22.7221487]]]]}}, {"type": "Feature", "id": "way/1295991972", "properties": {"tags": {"building": "industrial"}, "heightStatus": "unknown", "source": "OpenStreetMap", "license": "ODbL-1.0"}, "geometry": {"type": "MultiPolygon", "coordinates": [[[[113.8079315, 22.7150876], [113.8087497, 22.714807], [113.8094446, 22.7165313], [113.8086261, 22.7168119], [113.8079315, 22.7150876]]]]}}, {"type": "Feature", "id": "way/1295991976", "properties": {"tags": {"building": "industrial"}, "heightStatus": "unknown", "source": "OpenStreetMap", "license": "ODbL-1.0"}, "geometry": {"type": "MultiPolygon", "coordinates": [[[[113.8063199, 22.7162306], [113.8071943, 22.7159609], [113.8076217, 22.7169862], [113.8075775, 22.7169993], [113.8076057, 22.7170637], [113.807308, 22.7171502], [113.8072919, 22.7171094], [113.8072208, 22.7171292], [113.8072047, 22.7170971], [113.8071564, 22.7171082], [113.8067631, 22.7161804], [113.8063567, 22.7163227], [113.8063199, 22.7162306]]]]}}, {"type": "Feature", "id": "way/1295991979", "properties": {"tags": {"building": "industrial"}, "heightStatus": "unknown", "source": "OpenStreetMap", "license": "ODbL-1.0"}, "geometry": {"type": "MultiPolygon", "coordinates": [[[[113.8049931, 22.7156774], [113.8054854, 22.7155076], [113.8055623, 22.7156973], [113.80507, 22.7158671], [113.8049931, 22.7156774]]]]}}, {"type": "Feature", "id": "way/1295991980", "properties": {"tags": {"building": "industrial"}, "heightStatus": "unknown", "source": "OpenStreetMap", "license": "ODbL-1.0"}, "geometry": {"type": "MultiPolygon", "coordinates": [[[[113.805317, 22.7159196], [113.8055852, 22.7158277], [113.8056188, 22.715911], [113.8053506, 22.716003], [113.805317, 22.7159196]]]]}}, {"type": "Feature", "id": "way/1295991981", "properties": {"tags": {"building": "industrial"}, "heightStatus": "unknown", "source": "OpenStreetMap", "license": "ODbL-1.0"}, "geometry": {"type": "MultiPolygon", "coordinates": [[[[113.8051611, 22.7159735], [113.805261, 22.7159418], [113.8052864, 22.715998], [113.8052519, 22.7160102], [113.8053443, 22.7162268], [113.8054013, 22.7162221], [113.8054328, 22.7162343], [113.8054572, 22.716254], [113.8056594, 22.7161893], [113.8056767, 22.7162334], [113.8057102, 22.7162249], [113.8057407, 22.7163102], [113.8053565, 22.7164359], [113.8051611, 22.7159735]]]]}}, {"type": "Feature", "id": "way/1295991982", "properties": {"tags": {"building": "industrial"}, "heightStatus": "unknown", "source": "OpenStreetMap", "license": "ODbL-1.0"}, "geometry": {"type": "MultiPolygon", "coordinates": [[[[113.8057485, 22.7156881], [113.806181, 22.7155131], [113.8063216, 22.7158088], [113.8058891, 22.7159838], [113.8057485, 22.7156881]]]]}}, {"type": "Feature", "id": "way/1295991987", "properties": {"tags": {"building": "industrial"}, "heightStatus": "unknown", "source": "OpenStreetMap", "license": "ODbL-1.0"}, "geometry": {"type": "MultiPolygon", "coordinates": [[[[113.8056688, 22.7167904], [113.8059495, 22.7166888], [113.8059394, 22.7166652], [113.8060987, 22.7166075], [113.8062806, 22.7170348], [113.8057973, 22.7172099], [113.8057468, 22.7170912], [113.8057901, 22.7170755], [113.8056688, 22.7167904]]]]}}, {"type": "Feature", "id": "way/1295991988", "properties": {"tags": {"building": "industrial"}, "heightStatus": "unknown", "source": "OpenStreetMap", "license": "ODbL-1.0"}, "geometry": {"type": "MultiPolygon", "coordinates": [[[[113.8063024, 22.7166582], [113.8063655, 22.7165878], [113.8067063, 22.7168478], [113.8066808, 22.7169777], [113.806448, 22.7170603], [113.8064141, 22.7169789], [113.8065883, 22.7169171], [113.8065963, 22.7168824], [113.8063024, 22.7166582]]]]}}, {"type": "Feature", "id": "way/1295991989", "properties": {"tags": {"building": "industrial"}, "heightStatus": "unknown", "source": "OpenStreetMap", "license": "ODbL-1.0"}, "geometry": {"type": "MultiPolygon", "coordinates": [[[[113.8059793, 22.7161022], [113.8064001, 22.7159564], [113.8064346, 22.7160412], [113.8060138, 22.7161869], [113.8059793, 22.7161022]]]]}}, {"type": "Feature", "id": "way/1295991993", "properties": {"tags": {"building": "industrial"}, "heightStatus": "unknown", "source": "OpenStreetMap", "license": "ODbL-1.0"}, "geometry": {"type": "MultiPolygon", "coordinates": [[[[113.8073857, 22.7158817], [113.8078943, 22.7157043], [113.8079778, 22.7159082], [113.8074692, 22.7160854], [113.8073857, 22.7158817]]]]}}, {"type": "Feature", "id": "way/1295991994", "properties": {"tags": {"building": "industrial"}, "heightStatus": "unknown", "source": "OpenStreetMap", "license": "ODbL-1.0"}, "geometry": {"type": "MultiPolygon", "coordinates": [[[[113.8075118, 22.7161832], [113.8080204, 22.7160058], [113.8081039, 22.7162097], [113.8075952, 22.716387], [113.8075118, 22.7161832]]]]}}, {"type": "Feature", "id": "way/1295991995", "properties": {"tags": {"building": "industrial"}, "heightStatus": "unknown", "source": "OpenStreetMap", "license": "ODbL-1.0"}, "geometry": {"type": "MultiPolygon", "coordinates": [[[[113.8076495, 22.716502], [113.8081582, 22.7163246], [113.8082417, 22.7165285], [113.807733, 22.7167058], [113.8076495, 22.716502]]]]}}, {"type": "Feature", "id": "way/1295991998", "properties": {"tags": {"building": "industrial"}, "heightStatus": "unknown", "source": "OpenStreetMap", "license": "ODbL-1.0"}, "geometry": {"type": "MultiPolygon", "coordinates": [[[[113.8065109, 22.7159338], [113.807084, 22.7157272], [113.8071124, 22.7157943], [113.8065393, 22.7160008], [113.8065109, 22.7159338]]]]}}, {"type": "Feature", "id": "way/1295992004", "properties": {"tags": {"building": "industrial"}, "heightStatus": "unknown", "source": "OpenStreetMap", "license": "ODbL-1.0"}, "geometry": {"type": "MultiPolygon", "coordinates": [[[[113.8060192, 22.7175497], [113.8064764, 22.7173796], [113.8065593, 22.7175692], [113.8061021, 22.7177393], [113.8060192, 22.7175497]]]]}}, {"type": "Feature", "id": "way/1295992005", "properties": {"tags": {"building": "industrial"}, "heightStatus": "unknown", "source": "OpenStreetMap", "license": "ODbL-1.0"}, "geometry": {"type": "MultiPolygon", "coordinates": [[[[113.8066616, 22.7173303], [113.8071188, 22.7171602], [113.8072017, 22.7173499], [113.8067444, 22.7175199], [113.8066616, 22.7173303]]]]}}, {"type": "Feature", "id": "way/1295992006", "properties": {"tags": {"building": "industrial"}, "heightStatus": "unknown", "source": "OpenStreetMap", "license": "ODbL-1.0"}, "geometry": {"type": "MultiPolygon", "coordinates": [[[[113.8061441, 22.7178772], [113.806607, 22.7177201], [113.8066375, 22.7177965], [113.8061746, 22.7179536], [113.8061441, 22.7178772]]]]}}, {"type": "Feature", "id": "way/1295992007", "properties": {"tags": {"building": "industrial"}, "heightStatus": "unknown", "source": "OpenStreetMap", "license": "ODbL-1.0"}, "geometry": {"type": "MultiPolygon", "coordinates": [[[[113.8067922, 22.7176341], [113.8072467, 22.7174924], [113.8072766, 22.717574], [113.8068221, 22.7177158], [113.8067922, 22.7176341]]]]}}, {"type": "Feature", "id": "way/1295992012", "properties": {"tags": {"building": "industrial"}, "heightStatus": "unknown", "source": "OpenStreetMap", "license": "ODbL-1.0"}, "geometry": {"type": "MultiPolygon", "coordinates": [[[[113.8077759, 22.7168411], [113.8082784, 22.7166621], [113.8083209, 22.7167638], [113.8078184, 22.7169427], [113.8077759, 22.7168411]]]]}}, {"type": "Feature", "id": "way/1295992013", "properties": {"tags": {"building": "industrial"}, "heightStatus": "unknown", "source": "OpenStreetMap", "license": "ODbL-1.0"}, "geometry": {"type": "MultiPolygon", "coordinates": [[[[113.8078755, 22.7170445], [113.8083619, 22.716868], [113.8083957, 22.7169474], [113.8079094, 22.717124], [113.8078755, 22.7170445]]]]}}, {"type": "Feature", "id": "way/1295992014", "properties": {"tags": {"building": "industrial"}, "heightStatus": "unknown", "source": "OpenStreetMap", "license": "ODbL-1.0"}, "geometry": {"type": "MultiPolygon", "coordinates": [[[[113.8079426, 22.717217], [113.808429, 22.7170405], [113.8084628, 22.7171199], [113.8079765, 22.7172965], [113.8079426, 22.717217]]]]}}, {"type": "Feature", "id": "way/1446438702", "properties": {"tags": {"addr:housename": "马安山花园", "addr:housename:en": "Ma'anshan Huayuan", "addr:housename:zh": "马安山花园", "building": "apartments", "name": "C栋", "name:en": "Block C", "name:zh": "C栋", "name:zh-Hans": "C栋", "name:zh-Hant": "C棟"}, "heightStatus": "unknown", "source": "OpenStreetMap", "license": "ODbL-1.0"}, "geometry": {"type": "MultiPolygon", "coordinates": [[[[113.8106389, 22.7193789], [113.8107609, 22.7193344], [113.8107863, 22.7192803], [113.8108147, 22.7192699], [113.8108031, 22.7192427], [113.810939, 22.7191931], [113.8109701, 22.7192656], [113.8109143, 22.719286], [113.8108812, 22.7193565], [113.8109108, 22.7194257], [113.8108222, 22.719458], [113.8108094, 22.7194283], [113.8107672, 22.7194436], [113.810757, 22.7194196], [113.8106699, 22.7194514], [113.8106389, 22.7193789]]]]}}, {"type": "Feature", "id": "way/1446438704", "properties": {"tags": {"addr:housename": "马安山花园", "addr:housename:en": "Ma'anshan Huayuan", "addr:housename:zh": "马安山花园", "building": "apartments", "name": "A栋", "name:en": "Block A", "name:zh": "A栋", "name:zh-Hans": "A栋", "name:zh-Hant": "A棟"}, "heightStatus": "unknown", "source": "OpenStreetMap", "license": "ODbL-1.0"}, "geometry": {"type": "MultiPolygon", "coordinates": [[[[113.8104297, 22.7200374], [113.8104567, 22.7199426], [113.8106174, 22.7199815], [113.8106448, 22.7198852], [113.8107525, 22.7199113], [113.8107449, 22.7199383], [113.8108166, 22.7199556], [113.8108099, 22.7199793], [113.8108735, 22.7199947], [113.8108505, 22.7200757], [113.8107353, 22.7200478], [113.810682, 22.7200766], [113.81063, 22.720064], [113.8106242, 22.7200845], [113.8104297, 22.7200374]]]]}}, {"type": "Feature", "id": "way/1448147508", "properties": {"tags": {"building": "commercial", "building:levels": "22"}, "heightStatus": "levels_only_unverified", "source": "OpenStreetMap", "license": "ODbL-1.0"}, "geometry": {"type": "MultiPolygon", "coordinates": [[[[113.8039952, 22.7205137], [113.8044226, 22.7203406], [113.8045676, 22.7206452], [113.8041403, 22.7208183], [113.8039952, 22.7205137]]]]}}, {"type": "Feature", "id": "way/1448147509", "properties": {"tags": {"building": "commercial", "building:levels": "22"}, "heightStatus": "levels_only_unverified", "source": "OpenStreetMap", "license": "ODbL-1.0"}, "geometry": {"type": "MultiPolygon", "coordinates": [[[[113.8037061, 22.7199065], [113.8041248, 22.7197369], [113.8042712, 22.7200444], [113.8038525, 22.720214], [113.8037061, 22.7199065]]]]}}, {"type": "Feature", "id": "way/1448147510", "properties": {"tags": {"building": "commercial", "building:levels": "22"}, "heightStatus": "levels_only_unverified", "source": "OpenStreetMap", "license": "ODbL-1.0"}, "geometry": {"type": "MultiPolygon", "coordinates": [[[[113.8030465, 22.7201804], [113.8034696, 22.720009], [113.8036133, 22.7203109], [113.8031902, 22.7204823], [113.8030465, 22.7201804]]]]}}, {"type": "Feature", "id": "way/1448147511", "properties": {"tags": {"addr:housename": "星展广场", "addr:housename:en": "Xingzhan Plaza", "addr:housename:zh": "星展广场", "building": "commercial", "building:levels": "22", "name": "B座", "name:en": "Block B", "name:zh": "B座"}, "heightStatus": "levels_only_unverified", "source": "OpenStreetMap", "license": "ODbL-1.0"}, "geometry": {"type": "MultiPolygon", "coordinates": [[[[113.8022757, 22.7204491], [113.8027118, 22.7202743], [113.8028556, 22.7205794], [113.8024194, 22.7207542], [113.8022757, 22.7204491]]]]}}, {"type": "Feature", "id": "way/1448147512", "properties": {"tags": {"building": "apartments", "building:levels": "30"}, "heightStatus": "levels_only_unverified", "source": "OpenStreetMap", "license": "ODbL-1.0"}, "geometry": {"type": "MultiPolygon", "coordinates": [[[[113.8034062, 22.7209239], [113.803925, 22.720716], [113.8040076, 22.7208913], [113.8034888, 22.7210993], [113.8034062, 22.7209239]]]]}}, {"type": "Feature", "id": "way/1448147513", "properties": {"tags": {"addr:housename": "星展广场", "addr:housename:en": "Xingzhan Plaza", "addr:housename:zh": "星展广场", "building": "apartments", "building:levels": "30", "name": "C座", "name:en": "Block C", "name:zh": "C座"}, "heightStatus": "levels_only_unverified", "source": "OpenStreetMap", "license": "ODbL-1.0"}, "geometry": {"type": "MultiPolygon", "coordinates": [[[[113.8025712, 22.7212121], [113.80309, 22.7210041], [113.8031726, 22.7211795], [113.8026538, 22.7213874], [113.8025712, 22.7212121]]]]}}, {"type": "Feature", "id": "way/1448147514", "properties": {"tags": {"addr:housename": "星展广场", "addr:housename:en": "Xingzhan Plaza", "addr:housename:zh": "星展广场", "building": "commercial", "building:levels": "32", "name": "A座", "name:en": "Block A", "name:zh": "A座"}, "heightStatus": "levels_only_unverified", "source": "OpenStreetMap", "license": "ODbL-1.0"}, "geometry": {"type": "MultiPolygon", "coordinates": [[[[113.8016207, 22.7213493], [113.8020868, 22.7211625], [113.802249, 22.7215069], [113.8017829, 22.7216937], [113.8016207, 22.7213493]]]]}}]}