{"type": "FeatureCollection", "features": [{"type": "Feature", "id": "way/1409339590", "properties": {"tags": {"building": "office"}, "heightStatus": "unknown", "source": "OpenStreetMap", "license": "ODbL-1.0"}, "geometry": {"type": "MultiPolygon", "coordinates": [[[[113.8062332, 22.7362011], [113.8062342, 22.7361768], [113.8062441, 22.7361543], [113.8062617, 22.7361362], [113.806285, 22.7361248], [113.8063111, 22.7361215], [113.8063369, 22.7361265], [113.8063593, 22.7361395], [113.8065206, 22.7362736], [113.8065348, 22.7362601], [113.8065536, 22.7362527], [113.806574, 22.7362524], [113.806593, 22.7362593], [113.8066077, 22.7362723], [113.8066159, 22.7362895], [113.806818, 22.736216], [113.8068438, 22.7362111], [113.8068699, 22.7362147], [113.806893, 22.7362263], [113.8069105, 22.7362445], [113.8069202, 22.7362671], [113.8069209, 22.7362914], [113.8069126, 22.7363145], [113.8068962, 22.7363335], [113.8068737, 22.7363463], [113.8066494, 22.7364279], [113.8066129, 22.7364369], [113.8065754, 22.7364398], [113.8065378, 22.7364367], [113.8065014, 22.7364275], [113.8064674, 22.7364126], [113.8064367, 22.7363924], [113.8062576, 22.7362435], [113.8062414, 22.7362243], [113.8062332, 22.7362011]]]]}}, {"type": "Feature", "id": "way/1445692972", "properties": {"tags": {"building": "yes", "name": "福佳购物广场", "shop": "mall"}, "heightStatus": "unknown", "source": "OpenStreetMap", "license": "ODbL-1.0"}, "geometry": {"type": "MultiPolygon", "coordinates": [[[[113.8048104, 22.7390343], [113.8048328, 22.7382602], [113.8053682, 22.7382734], [113.8053457, 22.7390475], [113.8048104, 22.7390343]]]]}}, {"type": "Feature", "id": "way/1445692974", "properties": {"tags": {"building": "yes"}, "heightStatus": "unknown", "source": "OpenStreetMap", "license": "ODbL-1.0"}, "geometry": {"type": "MultiPolygon", "coordinates": [[[[113.805842, 22.7390487], [113.8058509, 22.7382681], [113.8067083, 22.7382763], [113.8066994, 22.739057], [113.805842, 22.7390487]]]]}}, {"type": "Feature", "id": "way/1448193866", "properties": {"tags": {"addr:housename": "卓越·誉珑", "addr:housename:en": "Central Times", "addr:housename:zh": "卓越·誉珑", "building": "apartments", "name": "3C栋", "name:en": "Block 3C", "name:zh": "3C栋"}, "heightStatus": "unknown", "source": "OpenStreetMap", "license": "ODbL-1.0"}, "geometry": {"type": "MultiPolygon", "coordinates": [[[[113.8095562, 22.7393215], [113.8096812, 22.7392879], [113.8096617, 22.7392262], [113.8096157, 22.7392385], [113.809589, 22.7391538], [113.8097552, 22.7391092], [113.8097823, 22.739195], [113.8097347, 22.7392077], [113.8097543, 22.7392697], [113.8097669, 22.7392663], [113.8097674, 22.7392337], [113.8098729, 22.7392352], [113.8098702, 22.7394021], [113.8097647, 22.7394007], [113.8097653, 22.7393617], [113.8095842, 22.7394103], [113.8095562, 22.7393215]]]]}}, {"type": "Feature", "id": "way/1448193867", "properties": {"tags": {"addr:housename": "卓越·誉珑", "addr:housename:en": "Central Times", "addr:housename:zh": "卓越·誉珑", "building": "apartments", "name": "3B栋", "name:en": "Block 3B", "name:zh": "3B栋"}, "heightStatus": "unknown", "source": "OpenStreetMap", "license": "ODbL-1.0"}, "geometry": {"type": "MultiPolygon", "coordinates": [[[[113.8091718, 22.7395134], [113.8092968, 22.7394798], [113.8092773, 22.7394181], [113.8092314, 22.7394305], [113.8092046, 22.7393458], [113.8093708, 22.7393011], [113.8093979, 22.7393869], [113.8093504, 22.7393996], [113.8093699, 22.7394616], [113.8094906, 22.7394292], [113.8095183, 22.7395167], [113.8091998, 22.7396022], [113.8091718, 22.7395134]]]]}}, {"type": "Feature", "id": "way/1448193868", "properties": {"tags": {"addr:housename": "卓越·誉珑", "addr:housename:en": "Central Times", "addr:housename:zh": "卓越·誉珑", "building": "apartments", "name": "3A栋", "name:en": "Block 3A", "name:zh": "3A栋"}, "heightStatus": "unknown", "source": "OpenStreetMap", "license": "ODbL-1.0"}, "geometry": {"type": "MultiPolygon", "coordinates": [[[[113.8087521, 22.73934], [113.8089645, 22.739283], [113.8089972, 22.7393868], [113.8088944, 22.7394144], [113.8089348, 22.7395423], [113.8090278, 22.7395173], [113.8090602, 22.7396198], [113.8089088, 22.7396605], [113.8088817, 22.7395748], [113.8088306, 22.7395886], [113.8087521, 22.73934]]]]}}, {"type": "Feature", "id": "way/1448193869", "properties": {"tags": {"addr:housename": "卓越·誉珑", "addr:housename:en": "Central Times", "addr:housename:zh": "卓越·誉珑", "building": "apartments", "name": "2B栋", "name:en": "Block 2B", "name:zh": "2B栋"}, "heightStatus": "unknown", "source": "OpenStreetMap", "license": "ODbL-1.0"}, "geometry": {"type": "MultiPolygon", "coordinates": [[[[113.8077334, 22.7390498], [113.8077357, 22.7389582], [113.8078507, 22.7389607], [113.8078523, 22.7388966], [113.8078037, 22.7388956], [113.8078059, 22.7388069], [113.807979, 22.7388106], [113.8079768, 22.7388994], [113.807928, 22.7388984], [113.8079264, 22.7389626], [113.8080213, 22.7389646], [113.808019, 22.7390559], [113.8077334, 22.7390498]]]]}}, {"type": "Feature", "id": "way/1448193870", "properties": {"tags": {"addr:housename": "卓越·誉珑", "addr:housename:en": "Central Times", "addr:housename:zh": "卓越·誉珑", "building": "apartments", "name": "1B栋", "name:en": "Block 1B", "name:zh": "1B栋"}, "heightStatus": "unknown", "source": "OpenStreetMap", "license": "ODbL-1.0"}, "geometry": {"type": "MultiPolygon", "coordinates": [[[[113.8077517, 22.7398992], [113.8078679, 22.7398688], [113.8078486, 22.7398061], [113.8078009, 22.7398186], [113.8077745, 22.7397326], [113.807941, 22.739689], [113.8079671, 22.7397739], [113.8079211, 22.7397859], [113.8079399, 22.739847], [113.8080417, 22.7398204], [113.8080695, 22.739911], [113.8077787, 22.739987], [113.8077517, 22.7398992]]]]}}, {"type": "Feature", "id": "way/1448193871", "properties": {"tags": {"addr:housename": "卓越·誉珑", "addr:housename:en": "Central Times", "addr:housename:zh": "卓越·誉珑", "building": "apartments", "name": "1C栋", "name:en": "Block 1C", "name:zh": "1C栋"}, "heightStatus": "unknown", "source": "OpenStreetMap", "license": "ODbL-1.0"}, "geometry": {"type": "MultiPolygon", "coordinates": [[[[113.8081952, 22.7397788], [113.8083202, 22.7397452], [113.8083007, 22.7396835], [113.8082547, 22.7396959], [113.808228, 22.7396112], [113.8083942, 22.7395665], [113.8084213, 22.7396523], [113.8083737, 22.7396651], [113.8083933, 22.739727], [113.808514, 22.7396946], [113.8085416, 22.7397821], [113.8082232, 22.7398676], [113.8081952, 22.7397788]]]]}}, {"type": "Feature", "id": "way/1448193872", "properties": {"tags": {"addr:housename": "卓越·誉珑", "addr:housename:en": "Central Times", "addr:housename:zh": "卓越·誉珑", "building": "apartments", "name": "1A栋", "name:en": "Block 1A", "name:zh": "1A栋"}, "heightStatus": "unknown", "source": "OpenStreetMap", "license": "ODbL-1.0"}, "geometry": {"type": "MultiPolygon", "coordinates": [[[[113.8074523, 22.7399801], [113.8075715, 22.7399489], [113.8075524, 22.7398868], [113.8075046, 22.7398993], [113.8074782, 22.7398132], [113.8076448, 22.7397697], [113.8076708, 22.7398545], [113.8076249, 22.7398665], [113.8076436, 22.7399274], [113.8077517, 22.7398992], [113.8077787, 22.739987], [113.8074786, 22.7400655], [113.8074523, 22.7399801]]]]}}, {"type": "Feature", "id": "way/1448193873", "properties": {"tags": {"addr:housename": "卓越·誉珑", "addr:housename:en": "Central Times", "addr:housename:zh": "卓越·誉珑", "building": "apartments", "name": "2C栋", "name:en": "Block 2C", "name:zh": "2C栋"}, "heightStatus": "unknown", "source": "OpenStreetMap", "license": "ODbL-1.0"}, "geometry": {"type": "MultiPolygon", "coordinates": [[[[113.8077554, 22.7385264], [113.8077578, 22.7384348], [113.8078872, 22.7384377], [113.8078889, 22.7383735], [113.8078402, 22.7383724], [113.8078426, 22.7382837], [113.8080157, 22.7382876], [113.8080133, 22.7383763], [113.8079646, 22.7383752], [113.8079629, 22.7384394], [113.8080894, 22.7384423], [113.808087, 22.7385339], [113.8077554, 22.7385264]]]]}}, {"type": "Feature", "id": "way/1448193874", "properties": {"tags": {"addr:housename": "卓越·誉珑", "addr:housename:en": "Central Times", "addr:housename:zh": "卓越·誉珑", "building": "apartments", "name": "2A栋", "name:en": "Block 2A", "name:zh": "2A栋"}, "heightStatus": "unknown", "source": "OpenStreetMap", "license": "ODbL-1.0"}, "geometry": {"type": "MultiPolygon", "coordinates": [[[[113.8074445, 22.7390437], [113.8074468, 22.7389518], [113.8075419, 22.7389538], [113.8075435, 22.7388896], [113.8074949, 22.7388886], [113.8074971, 22.7387999], [113.8076702, 22.7388036], [113.807668, 22.7388924], [113.8076192, 22.7388914], [113.8076176, 22.7389557], [113.8077357, 22.7389582], [113.8077334, 22.7390498], [113.8074445, 22.7390437]]]]}}, {"type": "Feature", "id": "way/1448193876", "properties": {"tags": {"addr:housename": "万科·翡丽郡", "addr:housename:en": "Vanke Feili Jun", "addr:housename:zh": "万科·翡丽郡", "building": "apartments", "building:levels": "31", "name": "6栋", "name:en": "Block 6", "name:zh": "6栋"}, "heightStatus": "levels_only_unverified", "source": "OpenStreetMap", "license": "ODbL-1.0"}, "geometry": {"type": "MultiPolygon", "coordinates": [[[[113.8085228, 22.7361307], [113.8085482, 22.7360415], [113.808633, 22.7360621], [113.8086706, 22.7359302], [113.8088149, 22.7359652], [113.8087773, 22.7360971], [113.8088617, 22.7361176], [113.8088363, 22.7362067], [113.808733, 22.7361817], [113.808707, 22.736273], [113.8086004, 22.7362472], [113.8086264, 22.7361558], [113.8085228, 22.7361307]]]]}}, {"type": "Feature", "id": "way/1448193877", "properties": {"tags": {"addr:housename": "万科·翡丽郡", "addr:housename:en": "Vanke Feili Jun", "addr:housename:zh": "万科·翡丽郡", "building": "apartments", "building:levels": "31", "name": "5栋", "name:en": "Block 5", "name:zh": "5栋"}, "heightStatus": "levels_only_unverified", "source": "OpenStreetMap", "license": "ODbL-1.0"}, "geometry": {"type": "MultiPolygon", "coordinates": [[[[113.8080586, 22.7366773], [113.8080811, 22.7365875], [113.8081665, 22.7366057], [113.8081998, 22.7364728], [113.8083452, 22.7365038], [113.8083119, 22.7366366], [113.808397, 22.7366547], [113.8083745, 22.7367446], [113.8082705, 22.7367224], [113.8082474, 22.7368145], [113.80814, 22.7367916], [113.808163, 22.7366996], [113.8080586, 22.7366773]]]]}}, {"type": "Feature", "id": "way/1448193878", "properties": {"tags": {"addr:housename": "万科·翡丽郡", "addr:housename:en": "Vanke Feili Jun", "addr:housename:zh": "万科·翡丽郡", "building": "apartments", "building:levels": "31", "name": "4栋", "name:en": "Block 4", "name:zh": "4栋"}, "heightStatus": "levels_only_unverified", "source": "OpenStreetMap", "license": "ODbL-1.0"}, "geometry": {"type": "MultiPolygon", "coordinates": [[[[113.8078697, 22.7372978], [113.8078941, 22.7372084], [113.8079791, 22.7372281], [113.8080152, 22.7370959], [113.8081599, 22.7371295], [113.8081238, 22.7372617], [113.8082938, 22.7373012], [113.8083299, 22.737169], [113.8084746, 22.7372026], [113.8084385, 22.7373348], [113.8085235, 22.7373545], [113.8084991, 22.7374439], [113.8080805, 22.7373468], [113.8080555, 22.7374384], [113.8079486, 22.7374135], [113.8079736, 22.737322], [113.8078697, 22.7372978]]]]}}, {"type": "Feature", "id": "way/1448193879", "properties": {"tags": {"addr:housename": "万科·翡丽郡", "addr:housename:en": "Vanke Feili Jun", "addr:housename:zh": "万科·翡丽郡", "building": "apartments", "building:levels": "31", "name": "3栋", "name:en": "Block 3", "name:zh": "3栋"}, "heightStatus": "levels_only_unverified", "source": "OpenStreetMap", "license": "ODbL-1.0"}, "geometry": {"type": "MultiPolygon", "coordinates": [[[[113.8086728, 22.7370711], [113.8087519, 22.7370361], [113.8086879, 22.7369132], [113.8088224, 22.7368536], [113.8088864, 22.7369765], [113.8089834, 22.7369336], [113.809018, 22.7370001], [113.8090396, 22.7369275], [113.8091476, 22.7369548], [113.8091866, 22.7368233], [113.8093306, 22.7368596], [113.8092915, 22.7369911], [113.8093761, 22.7370124], [113.8093457, 22.7371148], [113.8090237, 22.7370335], [113.8087226, 22.7371667], [113.8086728, 22.7370711]]]]}}, {"type": "Feature", "id": "way/1448193880", "properties": {"tags": {"addr:housename": "万科·翡丽郡", "addr:housename:en": "Vanke Feili Jun", "addr:housename:zh": "万科·翡丽郡", "building": "apartments", "building:levels": "31", "name": "1栋", "name:en": "Block 1", "name:zh": "1栋"}, "heightStatus": "levels_only_unverified", "source": "OpenStreetMap", "license": "ODbL-1.0"}, "geometry": {"type": "MultiPolygon", "coordinates": [[[[113.8091674, 22.736117], [113.8091952, 22.736014], [113.8092803, 22.7360335], [113.8093159, 22.7359012], [113.8094607, 22.7359344], [113.8094251, 22.7360667], [113.8095952, 22.7361057], [113.8096309, 22.7359734], [113.8097757, 22.7360066], [113.80974, 22.7361389], [113.8098251, 22.7361584], [113.8097974, 22.7362613], [113.8091674, 22.736117]]]]}}, {"type": "Feature", "id": "way/1448193881", "properties": {"tags": {"addr:housename": "万科·翡丽郡", "addr:housename:en": "Vanke Feili Jun", "addr:housename:zh": "万科·翡丽郡", "building": "apartments", "building:levels": "31", "name": "2栋", "name:en": "Block 2", "name:zh": "2栋"}, "heightStatus": "levels_only_unverified", "source": "OpenStreetMap", "license": "ODbL-1.0"}, "geometry": {"type": "MultiPolygon", "coordinates": [[[[113.8095724, 22.7367124], [113.8096119, 22.7365797], [113.8097544, 22.7366158], [113.8097776, 22.7365378], [113.8098885, 22.7365659], [113.8098027, 22.7368545], [113.8096918, 22.7368265], [113.809715, 22.7367485], [113.8095724, 22.7367124]]]]}}, {"type": "Feature", "id": "way/1448193882", "properties": {"tags": {"addr:housename": "万科·翡悦郡园", "addr:housename:en": "Vanke Feiyue Junyuan", "addr:housename:zh": "万科·翡悦郡园", "building": "apartments", "building:levels": "30", "name": "C栋", "name:en": "Block C", "name:zh": "C栋"}, "heightStatus": "levels_only_unverified", "source": "OpenStreetMap", "license": "ODbL-1.0"}, "geometry": {"type": "MultiPolygon", "coordinates": [[[[113.8089816, 22.7347603], [113.8090984, 22.7347582], [113.8090973, 22.7347036], [113.8090681, 22.7347041], [113.8090659, 22.7345991], [113.8091049, 22.7345984], [113.8091052, 22.7346146], [113.8091668, 22.7346135], [113.8091665, 22.7345973], [113.8092055, 22.7345966], [113.8092076, 22.7347016], [113.8091784, 22.7347021], [113.8091795, 22.7347568], [113.8092964, 22.7347547], [113.809298, 22.7348322], [113.8089832, 22.7348377], [113.8089816, 22.7347603]]]]}}, {"type": "Feature", "id": "way/1448193883", "properties": {"tags": {"addr:housename": "万科·翡悦郡园", "addr:housename:en": "Vanke Feiyue Junyuan", "addr:housename:zh": "万科·翡悦郡园", "building": "apartments", "building:levels": "30", "name": "B栋", "name:en": "Block B", "name:zh": "B栋"}, "heightStatus": "levels_only_unverified", "source": "OpenStreetMap", "license": "ODbL-1.0"}, "geometry": {"type": "MultiPolygon", "coordinates": [[[[113.8087506, 22.7351125], [113.8088674, 22.7351105], [113.8088663, 22.7350558], [113.8088371, 22.7350564], [113.8088349, 22.7349514], [113.8088739, 22.7349507], [113.8088742, 22.7349668], [113.8089358, 22.7349658], [113.8089355, 22.7349496], [113.8089744, 22.7349489], [113.8089766, 22.7350539], [113.8089474, 22.7350544], [113.8089485, 22.7351091], [113.8090654, 22.735107], [113.809067, 22.7351845], [113.8087522, 22.73519], [113.8087506, 22.7351125]]]]}}, {"type": "Feature", "id": "way/1448193884", "properties": {"tags": {"addr:housename": "万科·翡悦郡园", "addr:housename:en": "Vanke Feiyue Junyuan", "addr:housename:zh": "万科·翡悦郡园", "building": "apartments", "building:levels": "30", "name": "A栋", "name:en": "Block A", "name:zh": "A栋"}, "heightStatus": "levels_only_unverified", "source": "OpenStreetMap", "license": "ODbL-1.0"}, "geometry": {"type": "MultiPolygon", "coordinates": [[[[113.8084358, 22.7351181], [113.8085526, 22.735116], [113.8085515, 22.7350614], [113.8085223, 22.7350619], [113.8085201, 22.7349569], [113.8085591, 22.7349562], [113.8085594, 22.7349724], [113.808621, 22.7349713], [113.8086207, 22.7349551], [113.8086596, 22.7349544], [113.8086618, 22.7350594], [113.8086326, 22.7350599], [113.8086337, 22.7351146], [113.8087506, 22.7351125], [113.8087522, 22.73519], [113.8084374, 22.7351955], [113.8084358, 22.7351181]]]]}}, {"type": "Feature", "id": "way/1448193885", "properties": {"tags": {"addr:housename": "万科·翡逸郡园", "addr:housename:en": "Vanke Feiyi Junyuan", "addr:housename:zh": "万科·翡逸郡园", "building": "apartments", "name": "C栋", "name:en": "Block C", "name:zh": "C栋"}, "heightStatus": "unknown", "source": "OpenStreetMap", "license": "ODbL-1.0"}, "geometry": {"type": "MultiPolygon", "coordinates": [[[[113.809546, 22.7342942], [113.8099163, 22.7342877], [113.8102866, 22.7342812], [113.8102915, 22.7345172], [113.8101768, 22.7345192], [113.8101751, 22.7344366], [113.8101062, 22.7344378], [113.8101049, 22.7343761], [113.8099182, 22.7343793], [113.8097315, 22.7343826], [113.8097328, 22.7344443], [113.8096638, 22.7344455], [113.8096655, 22.7345282], [113.8095509, 22.7345302], [113.809546, 22.7342942]]]]}}, {"type": "Feature", "id": "way/1448193886", "properties": {"tags": {"addr:housename": "万科·翡逸郡园", "addr:housename:en": "Vanke Feiyi Junyuan", "addr:housename:zh": "万科·翡逸郡园", "building": "apartments", "building:levels": "30", "name": "A栋", "name:en": "Block A", "name:zh": "A栋"}, "heightStatus": "levels_only_unverified", "source": "OpenStreetMap", "license": "ODbL-1.0"}, "geometry": {"type": "MultiPolygon", "coordinates": [[[[113.8096857, 22.735104], [113.8098025, 22.7351019], [113.8098014, 22.7350473], [113.8097722, 22.7350478], [113.80977, 22.7349428], [113.809809, 22.7349421], [113.8098093, 22.7349582], [113.8098709, 22.7349572], [113.8098706, 22.734941], [113.8099095, 22.7349403], [113.8099117, 22.7350453], [113.8098825, 22.7350458], [113.8098836, 22.7351005], [113.8100005, 22.7350984], [113.8100021, 22.7351759], [113.8096873, 22.7351814], [113.8096857, 22.735104]]]]}}, {"type": "Feature", "id": "way/1448193887", "properties": {"tags": {"addr:housename": "万科·翡逸郡园", "addr:housename:en": "Vanke Feiyi Junyuan", "addr:housename:zh": "万科·翡逸郡园", "building": "apartments", "building:levels": "30", "name": "B栋", "name:en": "Block B", "name:zh": "B栋"}, "heightStatus": "levels_only_unverified", "source": "OpenStreetMap", "license": "ODbL-1.0"}, "geometry": {"type": "MultiPolygon", "coordinates": [[[[113.8100499, 22.7350958], [113.8101668, 22.7350937], [113.8101657, 22.7350391], [113.8101365, 22.7350396], [113.8101343, 22.7349346], [113.8101732, 22.7349339], [113.8101736, 22.7349501], [113.8102352, 22.734949], [113.8102349, 22.7349328], [113.8102738, 22.7349321], [113.810276, 22.7350371], [113.8102468, 22.7350377], [113.8102479, 22.7350923], [113.8103647, 22.7350903], [113.8103663, 22.7351677], [113.8100515, 22.7351732], [113.8100499, 22.7350958]]]]}}, {"type": "Feature", "id": "way/1448193888", "properties": {"tags": {"addr:housename": "万科·翡御郡府", "addr:housename:en": "Vanke Feiyu Junfu", "addr:housename:zh": "万科·翡御郡府", "building": "apartments", "name": "2栋", "name:en": "Block 2", "name:zh": "2栋"}, "heightStatus": "unknown", "source": "OpenStreetMap", "license": "ODbL-1.0"}, "geometry": {"type": "MultiPolygon", "coordinates": [[[[113.8095428, 22.7377482], [113.8096118, 22.7377299], [113.8095731, 22.7376061], [113.8097172, 22.7375679], [113.8097488, 22.7376691], [113.8098586, 22.73764], [113.8098951, 22.7377571], [113.809761, 22.7377927], [113.8097857, 22.7378721], [113.8096988, 22.7378952], [113.8096695, 22.7378014], [113.8095678, 22.7378284], [113.8095428, 22.7377482]]]]}}, {"type": "Feature", "id": "way/1448193889", "properties": {"tags": {"addr:housename": "万科·翡御郡府", "addr:housename:en": "Vanke Feiyu Junfu", "addr:housename:zh": "万科·翡御郡府", "building": "apartments", "name": "1栋", "name:en": "Block 1", "name:zh": "1栋"}, "heightStatus": "unknown", "source": "OpenStreetMap", "license": "ODbL-1.0"}, "geometry": {"type": "MultiPolygon", "coordinates": [[[[113.8087077, 22.7380472], [113.8088116, 22.7380035], [113.8087642, 22.7379076], [113.8088844, 22.737857], [113.8089424, 22.7379742], [113.8090239, 22.7379399], [113.8090614, 22.7380158], [113.8089651, 22.7380563], [113.809009, 22.7381451], [113.8089267, 22.7381798], [113.8088969, 22.7381195], [113.8087699, 22.738173], [113.8087077, 22.7380472]]]]}}, {"type": "Feature", "id": "way/1448193893", "properties": {"tags": {"building": "kindergarten"}, "heightStatus": "unknown", "source": "OpenStreetMap", "license": "ODbL-1.0"}, "geometry": {"type": "MultiPolygon", "coordinates": [[[[113.8095211, 22.7387605], [113.8096709, 22.7387266], [113.8096589, 22.7386817], [113.8095279, 22.7386646], [113.8095515, 22.7385099], [113.8098469, 22.7385483], [113.8098289, 22.7386661], [113.8098525, 22.7387548], [113.8095386, 22.738826], [113.8095211, 22.7387605]]]]}}, {"type": "Feature", "id": "way/1448193895", "properties": {"tags": {"addr:housename": "华盛·新沙荟名庭二期", "addr:housename:en": "Huasheng Xinsha Huimingting Phase 2", "addr:housename:zh": "华盛·新沙荟名庭二期", "building": "apartments", "name": "3栋", "name:en": "Block 3", "name:zh": "3栋"}, "heightStatus": "unknown", "source": "OpenStreetMap", "license": "ODbL-1.0"}, "geometry": {"type": "MultiPolygon", "coordinates": [[[[113.8103099, 22.7368618], [113.8103368, 22.7368067], [113.8103105, 22.7367957], [113.8103311, 22.7367536], [113.8104206, 22.7367909], [113.8104259, 22.73678], [113.8103813, 22.7367615], [113.8104177, 22.736687], [113.8106163, 22.7367696], [113.8105799, 22.7368441], [113.8105387, 22.7368269], [113.8105196, 22.7368659], [113.8106137, 22.7369052], [113.8107096, 22.7369038], [113.8107068, 22.7367476], [113.8108329, 22.7367457], [113.8108357, 22.7369019], [113.8109603, 22.7369], [113.810962, 22.736993], [113.8106153, 22.7369982], [113.8106152, 22.7369908], [113.8104766, 22.7369332], [113.8104938, 22.7368981], [113.8104555, 22.7368821], [113.8104208, 22.736953], [113.8103117, 22.7369076], [113.81033, 22.7368702], [113.8103099, 22.7368618]]]]}}, {"type": "Feature", "id": "way/1448193896", "properties": {"tags": {"addr:housename": "卓越·誉珑", "addr:housename:en": "Central Times", "addr:housename:zh": "卓越·誉珑", "building": "apartments", "name": "5B栋", "name:en": "Block 5B", "name:zh": "5B栋"}, "heightStatus": "unknown", "source": "OpenStreetMap", "license": "ODbL-1.0"}, "geometry": {"type": "MultiPolygon", "coordinates": [[[[113.8090781, 22.7386712], [113.8092347, 22.7385872], [113.8092872, 22.7386705], [113.8092451, 22.7386931], [113.8092636, 22.7387224], [113.8092841, 22.7387114], [113.8092801, 22.7386967], [113.8093848, 22.7386725], [113.8094307, 22.738841], [113.809326, 22.7388653], [113.8093049, 22.738788], [113.8092286, 22.7388289], [113.809247, 22.738858], [113.8091395, 22.7389156], [113.8090798, 22.7388209], [113.8091912, 22.7387612], [113.8091727, 22.7387319], [113.8091306, 22.7387545], [113.8090781, 22.7386712]]]]}}, {"type": "Feature", "id": "way/1448193897", "properties": {"tags": {"addr:housename": "卓越·誉珑", "addr:housename:en": "Central Times", "addr:housename:zh": "卓越·誉珑", "building": "apartments", "name": "5A栋", "name:en": "Block 5A", "name:zh": "5A栋"}, "heightStatus": "unknown", "source": "OpenStreetMap", "license": "ODbL-1.0"}, "geometry": {"type": "MultiPolygon", "coordinates": [[[[113.8086298, 22.7388551], [113.8087344, 22.7388307], [113.8087384, 22.7388454], [113.8087621, 22.7388461], [113.8087634, 22.7388122], [113.8087147, 22.7388107], [113.8087182, 22.7387144], [113.8088992, 22.73872], [113.8088957, 22.7388163], [113.8088471, 22.7388148], [113.8088458, 22.7388487], [113.8089746, 22.7388526], [113.8089706, 22.7389621], [113.8088464, 22.7389583], [113.8088476, 22.7389246], [113.8087594, 22.7389219], [113.8087805, 22.7389992], [113.8086759, 22.7390236], [113.8086298, 22.7388551]]]]}}, {"type": "Feature", "id": "way/1448193898", "properties": {"tags": {"addr:housename": "华盛·新沙荟名庭二期", "addr:housename:en": "Huasheng Xinsha Huimingting Phase 2", "addr:housename:zh": "华盛·新沙荟名庭二期", "building": "apartments", "name": "2栋", "name:en": "Block 2", "name:zh": "2栋"}, "heightStatus": "unknown", "source": "OpenStreetMap", "license": "ODbL-1.0"}, "geometry": {"type": "MultiPolygon", "coordinates": [[[[113.8102505, 22.7359608], [113.8103487, 22.7359586], [113.8103463, 22.735865], [113.8105327, 22.7358609], [113.8105349, 22.7359425], [113.8104721, 22.7359439], [113.8104732, 22.7359867], [113.81068, 22.7359819], [113.8106787, 22.735937], [113.8106337, 22.7359381], [113.8106314, 22.735859], [113.8108353, 22.7358538], [113.8108376, 22.7359329], [113.8107666, 22.7359347], [113.8107675, 22.735963], [113.8108721, 22.7359604], [113.8108734, 22.7360031], [113.8108566, 22.7360035], [113.8108592, 22.7360914], [113.8108694, 22.7360911], [113.8108705, 22.7361303], [113.8107522, 22.7361333], [113.8107488, 22.7360195], [113.8106901, 22.736021], [113.8106912, 22.7360593], [113.8104661, 22.7360645], [113.810465, 22.736026], [113.810423, 22.7360269], [113.8104251, 22.7361047], [113.8103054, 22.7361073], [113.8103043, 22.7360662], [113.8102822, 22.7360667], [113.8102806, 22.7360063], [113.8102517, 22.736007], [113.8102505, 22.7359608]]]]}}, {"type": "Feature", "id": "way/1448193904", "properties": {"tags": {"addr:housename": "壆岗盛芳园南区", "addr:housename:en": "Bogang Shengfang Garden (South)", "addr:housename:zh": "壆岗盛芳园南区", "building": "apartments", "name": "1栋", "name:en": "Block 1", "name:zh": "1栋"}, "heightStatus": "unknown", "source": "OpenStreetMap", "license": "ODbL-1.0"}, "geometry": {"type": "MultiPolygon", "coordinates": [[[[113.8103632, 22.7378101], [113.8103846, 22.7377019], [113.81049, 22.7377195], [113.8105068, 22.7376341], [113.810657, 22.7376593], [113.8106402, 22.7377447], [113.8108294, 22.7377765], [113.8108462, 22.737691], [113.8109908, 22.7377152], [113.8109739, 22.7378007], [113.8111763, 22.7378346], [113.8111932, 22.7377492], [113.8113377, 22.7377734], [113.8113209, 22.7378589], [113.8114047, 22.7378729], [113.8113833, 22.7379811], [113.8103632, 22.7378101]]]]}}, {"type": "Feature", "id": "way/1448193908", "properties": {"tags": {"addr:housename": "壆岗盛芳园南区", "addr:housename:en": "Bogang Shengfang Garden (South)", "addr:housename:zh": "壆岗盛芳园南区", "building": "apartments", "name": "2栋", "name:en": "Block 2", "name:zh": "2栋"}, "heightStatus": "unknown", "source": "OpenStreetMap", "license": "ODbL-1.0"}, "geometry": {"type": "MultiPolygon", "coordinates": [[[[113.8102794, 22.7385025], [113.8103932, 22.7384023], [113.8103963, 22.7382272], [113.8105268, 22.7382292], [113.8105245, 22.7383529], [113.8107351, 22.7383561], [113.810733, 22.7384729], [113.8105231, 22.7384696], [113.8104152, 22.7385647], [113.8103808, 22.7385315], [113.8103434, 22.7385644], [113.8102794, 22.7385025]]]]}}, {"type": "Feature", "id": "way/1448193911", "properties": {"tags": {"addr:housename": "壆岗盛芳园北区", "addr:housename:en": "Bukang Shengfang Garden (North)", "addr:housename:zh": "壆岗盛芳园北区", "building": "apartments", "building:levels": "33", "name": "5栋", "name:en": "Block 5", "name:zh": "5栋"}, "heightStatus": "levels_only_unverified", "source": "OpenStreetMap", "license": "ODbL-1.0"}, "geometry": {"type": "MultiPolygon", "coordinates": [[[[113.8106851, 22.7411904], [113.8107676, 22.7411187], [113.8107246, 22.7410766], [113.8107905, 22.7410194], [113.8108094, 22.7410378], [113.8108478, 22.7410045], [113.8108995, 22.7410551], [113.8108526, 22.7410959], [113.8108648, 22.7411078], [113.8109388, 22.7411098], [113.8109517, 22.7410986], [113.8109075, 22.7410553], [113.8109624, 22.7410076], [113.8109986, 22.741043], [113.8110186, 22.7410256], [113.8110807, 22.7410864], [113.811035, 22.7411261], [113.8111128, 22.7412022], [113.8110121, 22.7412897], [113.8108995, 22.7411794], [113.81078, 22.7412833], [113.8106851, 22.7411904]]]]}}, {"type": "Feature", "id": "way/1448193912", "properties": {"tags": {"addr:housename": "壆岗盛芳园北区", "addr:housename:en": "Bukang Shengfang Garden (North)", "addr:housename:zh": "壆岗盛芳园北区", "building": "apartments", "building:levels": "33", "name": "3栋", "name:en": "Block 3", "name:zh": "3栋"}, "heightStatus": "levels_only_unverified", "source": "OpenStreetMap", "license": "ODbL-1.0"}, "geometry": {"type": "MultiPolygon", "coordinates": [[[[113.8104328, 22.740637], [113.8105154, 22.7405653], [113.8104724, 22.7405232], [113.8105383, 22.7404659], [113.8105571, 22.7404844], [113.8105955, 22.740451], [113.8106473, 22.7405017], [113.8106004, 22.7405424], [113.8106125, 22.7405543], [113.8106865, 22.7405564], [113.8106994, 22.7405452], [113.8106552, 22.7405019], [113.8107101, 22.7404542], [113.8107463, 22.7404896], [113.8107663, 22.7404722], [113.8108284, 22.740533], [113.8107828, 22.7405726], [113.8108605, 22.7406487], [113.8107598, 22.7407362], [113.8106472, 22.740626], [113.8105277, 22.7407298], [113.8104328, 22.740637]]]]}}]}