{"type": "FeatureCollection", "features": [{"type": "Feature", "id": "way/1482401615", "properties": {"tags": {"building": "yes"}, "heightStatus": "unknown", "source": "OpenStreetMap", "license": "ODbL-1.0"}, "geometry": {"type": "MultiPolygon", "coordinates": [[[[113.8034805, 22.6150459], [113.8038669, 22.61434], [113.8041202, 22.6144586], [113.8040665, 22.6145944], [113.804279, 22.6146989], [113.8038972, 22.6153886], [113.8036509, 22.6152712], [113.8037186, 22.6151429], [113.8034956, 22.6150545], [113.8034805, 22.6150459]]]]}}]}