{"type": "FeatureCollection", "features": [{"type": "Feature", "id": "way/266621755", "properties": {"tags": {"building": "roof", "layer": "1"}, "heightStatus": "unknown", "source": "OpenStreetMap", "license": "ODbL-1.0"}, "geometry": {"type": "MultiPolygon", "coordinates": [[[[113.7990389, 22.7846157], [113.7991642, 22.7844616], [113.7994477, 22.7846576], [113.7993223, 22.7848117], [113.7990389, 22.7846157]]]]}}, {"type": "Feature", "id": "way/1293364988", "properties": {"tags": {"building": "industrial"}, "heightStatus": "unknown", "source": "OpenStreetMap", "license": "ODbL-1.0"}, "geometry": {"type": "MultiPolygon", "coordinates": [[[[113.7987255, 22.7787736], [113.7996672, 22.7786136], [113.7997607, 22.7785977], [113.7998127, 22.7788582], [113.7987776, 22.7790342], [113.7987255, 22.7787736]]]]}}, {"type": "Feature", "id": "way/1293364989", "properties": {"tags": {"building": "industrial"}, "heightStatus": "unknown", "source": "OpenStreetMap", "license": "ODbL-1.0"}, "geometry": {"type": "MultiPolygon", "coordinates": [[[[113.7998712, 22.7785508], [113.8003921, 22.7784661], [113.800445, 22.7787428], [113.7999241, 22.7788275], [113.7998712, 22.7785508]]]]}}, {"type": "Feature", "id": "way/1293816102", "properties": {"tags": {"building": "industrial"}, "heightStatus": "unknown", "source": "OpenStreetMap", "license": "ODbL-1.0"}, "geometry": {"type": "MultiPolygon", "coordinates": [[[[113.7980422, 22.7793306], [113.7983271, 22.7792831], [113.7984088, 22.7796993], [113.7981238, 22.7797468], [113.7980422, 22.7793306]]]]}}, {"type": "Feature", "id": "way/1293816103", "properties": {"tags": {"building": "industrial"}, "heightStatus": "unknown", "source": "OpenStreetMap", "license": "ODbL-1.0"}, "geometry": {"type": "MultiPolygon", "coordinates": [[[[113.7981437, 22.7798139], [113.7984287, 22.7797664], [113.7985104, 22.7801826], [113.7982253, 22.7802301], [113.7981437, 22.7798139]]]]}}, {"type": "Feature", "id": "way/1293816104", "properties": {"tags": {"building": "industrial"}, "heightStatus": "unknown", "source": "OpenStreetMap", "license": "ODbL-1.0"}, "geometry": {"type": "MultiPolygon", "coordinates": [[[[113.798465, 22.7792515], [113.7985815, 22.779233], [113.7986609, 22.7796567], [113.7985445, 22.7796752], [113.798465, 22.7792515]]]]}}, {"type": "Feature", "id": "way/1293816105", "properties": {"tags": {"building": "industrial"}, "heightStatus": "unknown", "source": "OpenStreetMap", "license": "ODbL-1.0"}, "geometry": {"type": "MultiPolygon", "coordinates": [[[[113.7985676, 22.7797645], [113.7986841, 22.7797459], [113.7987635, 22.7801697], [113.7986471, 22.7801882], [113.7985676, 22.7797645]]]]}}, {"type": "Feature", "id": "way/1293816106", "properties": {"tags": {"building": "industrial"}, "heightStatus": "unknown", "source": "OpenStreetMap", "license": "ODbL-1.0"}, "geometry": {"type": "MultiPolygon", "coordinates": [[[[113.7975792, 22.7800992], [113.7979627, 22.7800263], [113.7980145, 22.780258], [113.797631, 22.7803309], [113.7975792, 22.7800992]]]]}}, {"type": "Feature", "id": "way/1293816107", "properties": {"tags": {"building": "industrial"}, "heightStatus": "unknown", "source": "OpenStreetMap", "license": "ODbL-1.0"}, "geometry": {"type": "MultiPolygon", "coordinates": [[[[113.797319, 22.7794769], [113.7975845, 22.7794274], [113.7976018, 22.7795064], [113.7973363, 22.7795559], [113.797319, 22.7794769]]]]}}, {"type": "Feature", "id": "way/1293816108", "properties": {"tags": {"building": "industrial"}, "heightStatus": "unknown", "source": "OpenStreetMap", "license": "ODbL-1.0"}, "geometry": {"type": "MultiPolygon", "coordinates": [[[[113.7974088, 22.779666], [113.7979084, 22.7795785], [113.7979505, 22.7797828], [113.7979986, 22.7797744], [113.7980142, 22.7798503], [113.7974665, 22.7799462], [113.7974088, 22.779666]]]]}}, {"type": "Feature", "id": "way/1293816109", "properties": {"tags": {"building": "industrial"}, "heightStatus": "unknown", "source": "OpenStreetMap", "license": "ODbL-1.0"}, "geometry": {"type": "MultiPolygon", "coordinates": [[[[113.7976022, 22.7794123], [113.7977376, 22.7793894], [113.7977418, 22.7794103], [113.7977965, 22.779401], [113.7978072, 22.7794544], [113.7977564, 22.779463], [113.7977611, 22.7794863], [113.7976217, 22.7795099], [113.7976022, 22.7794123]]]]}}, {"type": "Feature", "id": "way/1293816110", "properties": {"tags": {"building": "industrial"}, "heightStatus": "unknown", "source": "OpenStreetMap", "license": "ODbL-1.0"}, "geometry": {"type": "MultiPolygon", "coordinates": [[[[113.7980069, 22.7800145], [113.7981055, 22.7799969], [113.7981548, 22.7802311], [113.7980561, 22.7802487], [113.7980069, 22.7800145]]]]}}, {"type": "Feature", "id": "way/1293816133", "properties": {"tags": {"building": "industrial"}, "heightStatus": "unknown", "source": "OpenStreetMap", "license": "ODbL-1.0"}, "geometry": {"type": "MultiPolygon", "coordinates": [[[[113.7977244, 22.7787164], [113.7981801, 22.7786349], [113.7982714, 22.7790689], [113.7978157, 22.7791504], [113.7977244, 22.7787164]]]]}}, {"type": "Feature", "id": "way/1293816134", "properties": {"tags": {"building": "industrial"}, "heightStatus": "unknown", "source": "OpenStreetMap", "license": "ODbL-1.0"}, "geometry": {"type": "MultiPolygon", "coordinates": [[[[113.7970782, 22.7788184], [113.7975605, 22.7787356], [113.7975938, 22.7789003], [113.7971115, 22.778983], [113.7970782, 22.7788184]]]]}}, {"type": "Feature", "id": "way/1293816135", "properties": {"tags": {"building": "industrial"}, "heightStatus": "unknown", "source": "OpenStreetMap", "license": "ODbL-1.0"}, "geometry": {"type": "MultiPolygon", "coordinates": [[[[113.7973152, 22.7792163], [113.7974193, 22.7791983], [113.7973847, 22.7790281], [113.7974466, 22.7790174], [113.7974815, 22.7791889], [113.7976398, 22.7791616], [113.797652, 22.7792215], [113.7973276, 22.7792775], [113.7973152, 22.7792163]]]]}}, {"type": "Feature", "id": "way/1293816136", "properties": {"tags": {"building": "industrial"}, "heightStatus": "unknown", "source": "OpenStreetMap", "license": "ODbL-1.0"}, "geometry": {"type": "MultiPolygon", "coordinates": [[[[113.797784, 22.7785423], [113.7980698, 22.7784998], [113.7980845, 22.7785838], [113.7977987, 22.7786262], [113.797784, 22.7785423]]]]}}, {"type": "Feature", "id": "way/1293816137", "properties": {"tags": {"building": "industrial"}, "heightStatus": "unknown", "source": "OpenStreetMap", "license": "ODbL-1.0"}, "geometry": {"type": "MultiPolygon", "coordinates": [[[[113.7983504, 22.7785946], [113.7984282, 22.778582], [113.7984814, 22.7788617], [113.7984037, 22.7788743], [113.7983504, 22.7785946]]]]}}, {"type": "Feature", "id": "way/1295626774", "properties": {"tags": {"building": "industrial"}, "heightStatus": "unknown", "source": "OpenStreetMap", "license": "ODbL-1.0"}, "geometry": {"type": "MultiPolygon", "coordinates": [[[[113.7989011, 22.7792027], [113.7992202, 22.7791554], [113.7992334, 22.7792309], [113.7989143, 22.7792782], [113.7989011, 22.7792027]]]]}}, {"type": "Feature", "id": "way/1295626775", "properties": {"tags": {"building": "industrial"}, "heightStatus": "unknown", "source": "OpenStreetMap", "license": "ODbL-1.0"}, "geometry": {"type": "MultiPolygon", "coordinates": [[[[113.7987769, 22.7792703], [113.7988653, 22.7792553], [113.7988935, 22.7793965], [113.7990274, 22.7793738], [113.799174, 22.7794832], [113.7990262, 22.7796515], [113.7989566, 22.7796633], [113.798936, 22.7795599], [113.798838, 22.7795766], [113.7987769, 22.7792703]]]]}}, {"type": "Feature", "id": "way/1295626776", "properties": {"tags": {"building": "industrial"}, "heightStatus": "unknown", "source": "OpenStreetMap", "license": "ODbL-1.0"}, "geometry": {"type": "MultiPolygon", "coordinates": [[[[113.7989391, 22.7798158], [113.7992513, 22.7794809], [113.7994047, 22.7796025], [113.7990924, 22.7799373], [113.7989391, 22.7798158]]]]}}, {"type": "Feature", "id": "way/1295626777", "properties": {"tags": {"building": "industrial"}, "heightStatus": "unknown", "source": "OpenStreetMap", "license": "ODbL-1.0"}, "geometry": {"type": "MultiPolygon", "coordinates": [[[[113.7993062, 22.7793933], [113.7996103, 22.7790601], [113.7996703, 22.7791067], [113.7996951, 22.7790795], [113.7999154, 22.7790483], [113.7999625, 22.7790848], [113.8000286, 22.7790123], [113.8001686, 22.7791208], [113.7997534, 22.779576], [113.7995373, 22.7794084], [113.7994496, 22.7795045], [113.7993062, 22.7793933]]]]}}, {"type": "Feature", "id": "way/1295626778", "properties": {"tags": {"building": "industrial"}, "heightStatus": "unknown", "source": "OpenStreetMap", "license": "ODbL-1.0"}, "geometry": {"type": "MultiPolygon", "coordinates": [[[[113.7999161, 22.7797323], [113.8002694, 22.7793609], [113.8004133, 22.7794773], [113.8000599, 22.7798486], [113.7999161, 22.7797323]]]]}}, {"type": "Feature", "id": "way/1295626779", "properties": {"tags": {"building": "industrial"}, "heightStatus": "unknown", "source": "OpenStreetMap", "license": "ODbL-1.0"}, "geometry": {"type": "MultiPolygon", "coordinates": [[[[113.8005092, 22.77945], [113.800573, 22.7793928], [113.8008166, 22.7796233], [113.8007528, 22.7796806], [113.8005092, 22.77945]]]]}}, {"type": "Feature", "id": "way/1295626780", "properties": {"tags": {"building": "industrial"}, "heightStatus": "unknown", "source": "OpenStreetMap", "license": "ODbL-1.0"}, "geometry": {"type": "MultiPolygon", "coordinates": [[[[113.7994302, 22.7806654], [113.7998606, 22.7802084], [113.8000543, 22.7803634], [113.7996239, 22.7808205], [113.7994302, 22.7806654]]]]}}, {"type": "Feature", "id": "way/1295626781", "properties": {"tags": {"building": "industrial"}, "heightStatus": "unknown", "source": "OpenStreetMap", "license": "ODbL-1.0"}, "geometry": {"type": "MultiPolygon", "coordinates": [[[[113.7992742, 22.7804431], [113.7995921, 22.7801075], [113.7997306, 22.780219], [113.7994127, 22.7805546], [113.7992742, 22.7804431]]]]}}, {"type": "Feature", "id": "way/1295626782", "properties": {"tags": {"building": "industrial"}, "heightStatus": "unknown", "source": "OpenStreetMap", "license": "ODbL-1.0"}, "geometry": {"type": "MultiPolygon", "coordinates": [[[[113.7989557, 22.7801706], [113.7992736, 22.779835], [113.799412, 22.7799465], [113.7990942, 22.7802821], [113.7989557, 22.7801706]]]]}}, {"type": "Feature", "id": "way/1295626783", "properties": {"tags": {"building": "industrial"}, "heightStatus": "unknown", "source": "OpenStreetMap", "license": "ODbL-1.0"}, "geometry": {"type": "MultiPolygon", "coordinates": [[[[113.7995756, 22.7796878], [113.7996435, 22.7796125], [113.7999349, 22.7798361], [113.799867, 22.7799114], [113.7995756, 22.7796878]]]]}}, {"type": "Feature", "id": "way/1295626784", "properties": {"tags": {"building": "industrial"}, "heightStatus": "unknown", "source": "OpenStreetMap", "license": "ODbL-1.0"}, "geometry": {"type": "MultiPolygon", "coordinates": [[[[113.7995005, 22.779778], [113.7995684, 22.7797028], [113.7998598, 22.7799263], [113.7997919, 22.7800016], [113.7995005, 22.779778]]]]}}, {"type": "Feature", "id": "way/1295626785", "properties": {"tags": {"building": "industrial"}, "heightStatus": "unknown", "source": "OpenStreetMap", "license": "ODbL-1.0"}, "geometry": {"type": "MultiPolygon", "coordinates": [[[[113.800129, 22.7798479], [113.8004681, 22.7795005], [113.800605, 22.779614], [113.8003798, 22.7798448], [113.8006389, 22.7800597], [113.8005249, 22.7801764], [113.800129, 22.7798479]]]]}}, {"type": "Feature", "id": "way/1295626786", "properties": {"tags": {"building": "industrial"}, "heightStatus": "unknown", "source": "OpenStreetMap", "license": "ODbL-1.0"}, "geometry": {"type": "MultiPolygon", "coordinates": [[[[113.7999542, 22.7800606], [113.8000763, 22.7799314], [113.8004722, 22.7802494], [113.8003501, 22.7803787], [113.7999542, 22.7800606]]]]}}, {"type": "Feature", "id": "way/1295626787", "properties": {"tags": {"building": "industrial"}, "heightStatus": "unknown", "source": "OpenStreetMap", "license": "ODbL-1.0"}, "geometry": {"type": "MultiPolygon", "coordinates": [[[[113.7999064, 22.7807994], [113.800207, 22.7804781], [113.8002723, 22.78053], [113.7999718, 22.7808513], [113.7999064, 22.7807994]]]]}}, {"type": "Feature", "id": "way/1295626788", "properties": {"tags": {"building": "industrial"}, "heightStatus": "unknown", "source": "OpenStreetMap", "license": "ODbL-1.0"}, "geometry": {"type": "MultiPolygon", "coordinates": [[[[113.7979758, 22.7804847], [113.7980847, 22.7803612], [113.7981153, 22.7803841], [113.7981741, 22.7803173], [113.7985175, 22.7805747], [113.7983497, 22.780765], [113.7979758, 22.7804847]]]]}}, {"type": "Feature", "id": "way/1295626789", "properties": {"tags": {"building": "industrial"}, "heightStatus": "unknown", "source": "OpenStreetMap", "license": "ODbL-1.0"}, "geometry": {"type": "MultiPolygon", "coordinates": [[[[113.7984283, 22.7802917], [113.7985007, 22.7802448], [113.7985709, 22.7802958], [113.7985537, 22.7803159], [113.798607, 22.7803547], [113.7986976, 22.7802488], [113.7987155, 22.7802618], [113.7987252, 22.7802504], [113.7987793, 22.7802897], [113.7986227, 22.7804727], [113.7985701, 22.7804345], [113.798591, 22.78041], [113.7984283, 22.7802917]]]]}}, {"type": "Feature", "id": "way/1295626790", "properties": {"tags": {"building": "industrial"}, "heightStatus": "unknown", "source": "OpenStreetMap", "license": "ODbL-1.0"}, "geometry": {"type": "MultiPolygon", "coordinates": [[[[113.7976879, 22.7817246], [113.7981977, 22.7811505], [113.7983239, 22.7812457], [113.7978142, 22.7818199], [113.7976879, 22.7817246]]]]}}, {"type": "Feature", "id": "way/1295626791", "properties": {"tags": {"building": "industrial"}, "heightStatus": "unknown", "source": "OpenStreetMap", "license": "ODbL-1.0"}, "geometry": {"type": "MultiPolygon", "coordinates": [[[[113.7975758, 22.780869], [113.7976966, 22.7807324], [113.7980599, 22.7810056], [113.7979391, 22.7811421], [113.7975758, 22.780869]]]]}}, {"type": "Feature", "id": "way/1295626792", "properties": {"tags": {"building": "industrial"}, "heightStatus": "unknown", "source": "OpenStreetMap", "license": "ODbL-1.0"}, "geometry": {"type": "MultiPolygon", "coordinates": [[[[113.7976465, 22.7805795], [113.7978087, 22.7803937], [113.7979262, 22.7804809], [113.7978705, 22.7805446], [113.798239, 22.7808179], [113.7981324, 22.78094], [113.7976465, 22.7805795]]]]}}, {"type": "Feature", "id": "way/1295626793", "properties": {"tags": {"building": "industrial"}, "heightStatus": "unknown", "source": "OpenStreetMap", "license": "ODbL-1.0"}, "geometry": {"type": "MultiPolygon", "coordinates": [[[[113.7975587, 22.7811421], [113.7976293, 22.7810624], [113.7978686, 22.7812427], [113.797798, 22.7813223], [113.7975587, 22.7811421]]]]}}, {"type": "Feature", "id": "way/1295626794", "properties": {"tags": {"building": "industrial"}, "heightStatus": "unknown", "source": "OpenStreetMap", "license": "ODbL-1.0"}, "geometry": {"type": "MultiPolygon", "coordinates": [[[[113.7978853, 22.7818066], [113.7983758, 22.7812593], [113.7986131, 22.78144], [113.7981227, 22.7819874], [113.7978853, 22.7818066]]]]}}, {"type": "Feature", "id": "way/1295626795", "properties": {"tags": {"building": "industrial"}, "heightStatus": "unknown", "source": "OpenStreetMap", "license": "ODbL-1.0"}, "geometry": {"type": "MultiPolygon", "coordinates": [[[[113.7982506, 22.7820297], [113.7986801, 22.7815535], [113.7988669, 22.7816966], [113.7984375, 22.7821729], [113.7982506, 22.7820297]]]]}}, {"type": "Feature", "id": "way/1295626796", "properties": {"tags": {"building": "industrial"}, "heightStatus": "unknown", "source": "OpenStreetMap", "license": "ODbL-1.0"}, "geometry": {"type": "MultiPolygon", "coordinates": [[[[113.7985809, 22.7807628], [113.7986334, 22.7807015], [113.7988215, 22.7808386], [113.7988056, 22.7808571], [113.7988282, 22.7808736], [113.7987916, 22.7809164], [113.7985809, 22.7807628]]]]}}, {"type": "Feature", "id": "way/1295626797", "properties": {"tags": {"building": "industrial"}, "heightStatus": "unknown", "source": "OpenStreetMap", "license": "ODbL-1.0"}, "geometry": {"type": "MultiPolygon", "coordinates": [[[[113.7983064, 22.7810694], [113.7984816, 22.7808596], [113.7985479, 22.7809066], [113.7985292, 22.7809291], [113.7985488, 22.7809429], [113.7983923, 22.7811303], [113.7983064, 22.7810694]]]]}}, {"type": "Feature", "id": "way/1295626798", "properties": {"tags": {"building": "industrial"}, "heightStatus": "unknown", "source": "OpenStreetMap", "license": "ODbL-1.0"}, "geometry": {"type": "MultiPolygon", "coordinates": [[[[113.7987907, 22.7814018], [113.7990841, 22.7810418], [113.7992481, 22.7811554], [113.7991929, 22.7812232], [113.7992299, 22.7812488], [113.7989917, 22.7815411], [113.7987907, 22.7814018]]]]}}, {"type": "Feature", "id": "way/1295626799", "properties": {"tags": {"building": "industrial"}, "heightStatus": "unknown", "source": "OpenStreetMap", "license": "ODbL-1.0"}, "geometry": {"type": "MultiPolygon", "coordinates": [[[[113.7985531, 22.7812698], [113.7988561, 22.780913], [113.7990052, 22.7810207], [113.7987023, 22.7813775], [113.7985531, 22.7812698]]]]}}, {"type": "Feature", "id": "way/1295626800", "properties": {"tags": {"building": "industrial"}, "heightStatus": "unknown", "source": "OpenStreetMap", "license": "ODbL-1.0"}, "geometry": {"type": "MultiPolygon", "coordinates": [[[[113.7990674, 22.7816727], [113.7992448, 22.7814778], [113.7992642, 22.7814929], [113.7992832, 22.7814719], [113.7993449, 22.7815197], [113.7991484, 22.7817354], [113.7990674, 22.7816727]]]]}}, {"type": "Feature", "id": "way/1295626801", "properties": {"tags": {"building": "industrial"}, "heightStatus": "unknown", "source": "OpenStreetMap", "license": "ODbL-1.0"}, "geometry": {"type": "MultiPolygon", "coordinates": [[[[113.7992581, 22.7812545], [113.7993238, 22.7811775], [113.799524, 22.7813226], [113.7994583, 22.7813995], [113.7992581, 22.7812545]]]]}}, {"type": "Feature", "id": "way/1295626802", "properties": {"tags": {"building": "industrial"}, "heightStatus": "unknown", "source": "OpenStreetMap", "license": "ODbL-1.0"}, "geometry": {"type": "MultiPolygon", "coordinates": [[[[113.7989694, 22.7823311], [113.7993301, 22.7819422], [113.7994401, 22.782029], [113.7990794, 22.7824179], [113.7989694, 22.7823311]]]]}}, {"type": "Feature", "id": "way/1295626803", "properties": {"tags": {"building": "industrial"}, "heightStatus": "unknown", "source": "OpenStreetMap", "license": "ODbL-1.0"}, "geometry": {"type": "MultiPolygon", "coordinates": [[[[113.7993286, 22.7822145], [113.7994813, 22.782052], [113.7996036, 22.7821497], [113.7994509, 22.7823122], [113.7993286, 22.7822145]]]]}}, {"type": "Feature", "id": "way/1295626804", "properties": {"tags": {"building": "industrial"}, "heightStatus": "unknown", "source": "OpenStreetMap", "license": "ODbL-1.0"}, "geometry": {"type": "MultiPolygon", "coordinates": [[[[113.7993813, 22.782496], [113.7996564, 22.7821897], [113.7999343, 22.7824019], [113.7996591, 22.7827082], [113.7993813, 22.782496]]]]}}, {"type": "Feature", "id": "way/1295626805", "properties": {"tags": {"building": "industrial"}, "heightStatus": "unknown", "source": "OpenStreetMap", "license": "ODbL-1.0"}, "geometry": {"type": "MultiPolygon", "coordinates": [[[[113.7996551, 22.7815725], [113.7998666, 22.7813608], [113.7999682, 22.7813586], [113.8007647, 22.7819867], [113.8007769, 22.782071], [113.8007219, 22.7821441], [113.8006559, 22.782102], [113.8006742, 22.7820026], [113.7999561, 22.7814442], [113.7999129, 22.7814475], [113.799727, 22.7816336], [113.7996551, 22.7815725]]]]}}, {"type": "Feature", "id": "way/1295626806", "properties": {"tags": {"building": "industrial"}, "heightStatus": "unknown", "source": "OpenStreetMap", "license": "ODbL-1.0"}, "geometry": {"type": "MultiPolygon", "coordinates": [[[[113.7973135, 22.7822156], [113.7976015, 22.7818491], [113.797793, 22.7819771], [113.7975049, 22.7823435], [113.7973135, 22.7822156]]]]}}, {"type": "Feature", "id": "way/1295626807", "properties": {"tags": {"building": "industrial"}, "heightStatus": "unknown", "source": "OpenStreetMap", "license": "ODbL-1.0"}, "geometry": {"type": "MultiPolygon", "coordinates": [[[[113.7975193, 22.7815393], [113.7976792, 22.7813556], [113.7977451, 22.7814044], [113.7975851, 22.781588], [113.7975193, 22.7815393]]]]}}, {"type": "Feature", "id": "relation/17757887", "properties": {"tags": {"building": "industrial"}, "heightStatus": "unknown", "source": "OpenStreetMap", "license": "ODbL-1.0"}, "geometry": {"type": "MultiPolygon", "coordinates": [[[[113.800553, 22.7828526], [113.800818, 22.7825655], [113.8009188, 22.7826445], [113.8006538, 22.7829317], [113.800553, 22.7828526]]], [[[113.8008558, 22.7825007], [113.8010784, 22.7822635], [113.8011885, 22.7823513], [113.8009659, 22.7825885], [113.8008558, 22.7825007]]]]}}, {"type": "Feature", "id": "way/1295626810", "properties": {"tags": {"building": "industrial"}, "heightStatus": "unknown", "source": "OpenStreetMap", "license": "ODbL-1.0"}, "geometry": {"type": "MultiPolygon", "coordinates": [[[[113.7999656, 22.7824945], [113.8000071, 22.7824454], [113.8001738, 22.7825651], [113.8001631, 22.7825778], [113.8002085, 22.7826103], [113.8001694, 22.7826567], [113.8001201, 22.7826212], [113.8001284, 22.7826113], [113.7999656, 22.7824945]]]]}}, {"type": "Feature", "id": "way/1295626811", "properties": {"tags": {"building": "industrial"}, "heightStatus": "unknown", "source": "OpenStreetMap", "license": "ODbL-1.0"}, "geometry": {"type": "MultiPolygon", "coordinates": [[[[113.7998107, 22.7826876], [113.7998672, 22.782613], [113.8000349, 22.7827211], [113.8000654, 22.7826809], [113.8001005, 22.7827036], [113.8000613, 22.7827552], [113.800091, 22.7827744], [113.8000432, 22.7828374], [113.7998107, 22.7826876]]]]}}, {"type": "Feature", "id": "way/1295626812", "properties": {"tags": {"building": "industrial"}, "heightStatus": "unknown", "source": "OpenStreetMap", "license": "ODbL-1.0"}, "geometry": {"type": "MultiPolygon", "coordinates": [[[[113.7995872, 22.7831058], [113.7998218, 22.7828361], [113.7999725, 22.7829474], [113.7997379, 22.7832172], [113.7995872, 22.7831058]]]]}}, {"type": "Feature", "id": "way/1295626813", "properties": {"tags": {"building": "industrial"}, "heightStatus": "unknown", "source": "OpenStreetMap", "license": "ODbL-1.0"}, "geometry": {"type": "MultiPolygon", "coordinates": [[[[113.7997954, 22.78325], [113.8001028, 22.7829102], [113.8002351, 22.7830118], [113.7999277, 22.7833517], [113.7997954, 22.78325]]]]}}, {"type": "Feature", "id": "way/1295626814", "properties": {"tags": {"building": "industrial"}, "heightStatus": "unknown", "source": "OpenStreetMap", "license": "ODbL-1.0"}, "geometry": {"type": "MultiPolygon", "coordinates": [[[[113.800125, 22.7828893], [113.8002499, 22.78275], [113.800314, 22.7827989], [113.8001891, 22.7829382], [113.800125, 22.7828893]]]]}}, {"type": "Feature", "id": "way/1295626815", "properties": {"tags": {"building": "industrial"}, "heightStatus": "unknown", "source": "OpenStreetMap", "license": "ODbL-1.0"}, "geometry": {"type": "MultiPolygon", "coordinates": [[[[113.7991488, 22.7827963], [113.7992727, 22.7826486], [113.7995955, 22.7828786], [113.7994716, 22.7830264], [113.7991488, 22.7827963]]]]}}, {"type": "Feature", "id": "way/1295626816", "properties": {"tags": {"building": "industrial"}, "heightStatus": "unknown", "source": "OpenStreetMap", "license": "ODbL-1.0"}, "geometry": {"type": "MultiPolygon", "coordinates": [[[[113.7987435, 22.782514], [113.7988035, 22.7824441], [113.7991707, 22.782712], [113.7991107, 22.7827819], [113.7987435, 22.782514]]]]}}, {"type": "Feature", "id": "way/1295626817", "properties": {"tags": {"building": "industrial"}, "heightStatus": "unknown", "source": "OpenStreetMap", "license": "ODbL-1.0"}, "geometry": {"type": "MultiPolygon", "coordinates": [[[[113.7976155, 22.7823213], [113.7977367, 22.7821743], [113.7978062, 22.782223], [113.7978504, 22.7821124], [113.797904, 22.7820643], [113.7981821, 22.7822791], [113.7979515, 22.7825171], [113.7978002, 22.7824111], [113.7977372, 22.7824875], [113.7976425, 22.7824996], [113.7976155, 22.7823213]]]]}}, {"type": "Feature", "id": "way/1295626818", "properties": {"tags": {"building": "industrial"}, "heightStatus": "unknown", "source": "OpenStreetMap", "license": "ODbL-1.0"}, "geometry": {"type": "MultiPolygon", "coordinates": [[[[113.7979641, 22.7825672], [113.7982113, 22.7822826], [113.7983028, 22.7823502], [113.7980557, 22.7826348], [113.7979641, 22.7825672]]]]}}, {"type": "Feature", "id": "way/1295626819", "properties": {"tags": {"building": "industrial"}, "heightStatus": "unknown", "source": "OpenStreetMap", "license": "ODbL-1.0"}, "geometry": {"type": "MultiPolygon", "coordinates": [[[[113.7981178, 22.7825967], [113.7983315, 22.7823637], [113.798522, 22.7825122], [113.7983082, 22.7827452], [113.7981178, 22.7825967]]]]}}, {"type": "Feature", "id": "way/1295626820", "properties": {"tags": {"building": "industrial"}, "heightStatus": "unknown", "source": "OpenStreetMap", "license": "ODbL-1.0"}, "geometry": {"type": "MultiPolygon", "coordinates": [[[[113.7982406, 22.7831954], [113.7983601, 22.7830568], [113.7987436, 22.7833377], [113.798624, 22.7834764], [113.7982406, 22.7831954]]]]}}, {"type": "Feature", "id": "way/1295626821", "properties": {"tags": {"building": "industrial"}, "heightStatus": "unknown", "source": "OpenStreetMap", "license": "ODbL-1.0"}, "geometry": {"type": "MultiPolygon", "coordinates": [[[[113.7984084, 22.7829987], [113.7985279, 22.7828601], [113.7989113, 22.783141], [113.7987917, 22.7832797], [113.7984084, 22.7829987]]]]}}, {"type": "Feature", "id": "way/1295626822", "properties": {"tags": {"building": "industrial"}, "heightStatus": "unknown", "source": "OpenStreetMap", "license": "ODbL-1.0"}, "geometry": {"type": "MultiPolygon", "coordinates": [[[[113.7986036, 22.7827841], [113.7986594, 22.7827177], [113.7990455, 22.7829934], [113.7989896, 22.7830599], [113.7986036, 22.7827841]]]]}}, {"type": "Feature", "id": "way/1295626823", "properties": {"tags": {"building": "industrial"}, "heightStatus": "unknown", "source": "OpenStreetMap", "license": "ODbL-1.0"}, "geometry": {"type": "MultiPolygon", "coordinates": [[[[113.7987747, 22.7836007], [113.7988942, 22.783462], [113.7992776, 22.7837429], [113.799158, 22.7838816], [113.7987747, 22.7836007]]]]}}, {"type": "Feature", "id": "way/1295626824", "properties": {"tags": {"building": "industrial"}, "heightStatus": "unknown", "source": "OpenStreetMap", "license": "ODbL-1.0"}, "geometry": {"type": "MultiPolygon", "coordinates": [[[[113.7989424, 22.783404], [113.799062, 22.7832653], [113.7994454, 22.7835462], [113.7993258, 22.7836849], [113.7989424, 22.783404]]]]}}, {"type": "Feature", "id": "way/1295626825", "properties": {"tags": {"building": "industrial"}, "heightStatus": "unknown", "source": "OpenStreetMap", "license": "ODbL-1.0"}, "geometry": {"type": "MultiPolygon", "coordinates": [[[[113.7991376, 22.7831893], [113.7991935, 22.7831229], [113.7995796, 22.7833987], [113.7995237, 22.7834652], [113.7991376, 22.7831893]]]]}}, {"type": "Feature", "id": "way/1295626826", "properties": {"tags": {"building": "industrial"}, "heightStatus": "unknown", "source": "OpenStreetMap", "license": "ODbL-1.0"}, "geometry": {"type": "MultiPolygon", "coordinates": [[[[113.7997039, 22.7837354], [113.7997195, 22.7837168], [113.7997084, 22.7837089], [113.7998409, 22.7835513], [113.799899, 22.7835928], [113.7998865, 22.7836076], [113.7998912, 22.783611], [113.7999039, 22.7835959], [113.7999842, 22.7836534], [113.7999335, 22.7837137], [113.799919, 22.7837034], [113.7999276, 22.7836933], [113.7998589, 22.7836442], [113.7997528, 22.7837704], [113.7997039, 22.7837354]]]]}}, {"type": "Feature", "id": "way/1295626827", "properties": {"tags": {"building": "industrial"}, "heightStatus": "unknown", "source": "OpenStreetMap", "license": "ODbL-1.0"}, "geometry": {"type": "MultiPolygon", "coordinates": [[[[113.7986557, 22.7843427], [113.7989503, 22.7840061], [113.7990395, 22.7840724], [113.7987449, 22.7844091], [113.7986557, 22.7843427]]]]}}, {"type": "Feature", "id": "way/1295626828", "properties": {"tags": {"building": "industrial"}, "heightStatus": "unknown", "source": "OpenStreetMap", "license": "ODbL-1.0"}, "geometry": {"type": "MultiPolygon", "coordinates": [[[[113.7981171, 22.7840054], [113.7981622, 22.7839506], [113.7981464, 22.7839396], [113.798384, 22.7836501], [113.7983671, 22.7836383], [113.7984176, 22.7835767], [113.7984608, 22.7836067], [113.7984473, 22.7836232], [113.7985831, 22.7837176], [113.7985831, 22.7837448], [113.7982767, 22.7841171], [113.7981171, 22.7840054]]]]}}, {"type": "Feature", "id": "way/1295626829", "properties": {"tags": {"building": "industrial"}, "heightStatus": "unknown", "source": "OpenStreetMap", "license": "ODbL-1.0"}, "geometry": {"type": "MultiPolygon", "coordinates": [[[[113.7982069, 22.7842485], [113.7982545, 22.7841938], [113.7983331, 22.7842521], [113.798693, 22.7838391], [113.7987659, 22.783893], [113.7987365, 22.7839268], [113.7988234, 22.7839912], [113.798488, 22.7843759], [113.7984219, 22.7843269], [113.7983791, 22.7843761], [113.7982069, 22.7842485]]]]}}, {"type": "Feature", "id": "way/1295626830", "properties": {"tags": {"building": "industrial"}, "heightStatus": "unknown", "source": "OpenStreetMap", "license": "ODbL-1.0"}, "geometry": {"type": "MultiPolygon", "coordinates": [[[[113.7974156, 22.7824219], [113.7975447, 22.7824027], [113.7975725, 22.7825616], [113.7974434, 22.7825808], [113.7974156, 22.7824219]]]]}}, {"type": "Feature", "id": "way/1295626831", "properties": {"tags": {"building": "industrial"}, "heightStatus": "unknown", "source": "OpenStreetMap", "license": "ODbL-1.0"}, "geometry": {"type": "MultiPolygon", "coordinates": [[[[113.7973593, 22.7827095], [113.7975928, 22.7826901], [113.7975951, 22.7828236], [113.7974632, 22.7828441], [113.7973616, 22.782772], [113.7973593, 22.7827095]]]]}}, {"type": "Feature", "id": "way/1295626832", "properties": {"tags": {"building": "industrial"}, "heightStatus": "unknown", "source": "OpenStreetMap", "license": "ODbL-1.0"}, "geometry": {"type": "MultiPolygon", "coordinates": [[[[113.797265, 22.7831906], [113.7973528, 22.7830839], [113.7977365, 22.7833522], [113.7976487, 22.7834589], [113.797265, 22.7831906]]]]}}, {"type": "Feature", "id": "way/1295626833", "properties": {"tags": {"building": "industrial"}, "heightStatus": "unknown", "source": "OpenStreetMap", "license": "ODbL-1.0"}, "geometry": {"type": "MultiPolygon", "coordinates": [[[[113.7974123, 22.7830451], [113.7975387, 22.7829015], [113.797916, 22.7831836], [113.7977895, 22.7833273], [113.7974123, 22.7830451]]]]}}, {"type": "Feature", "id": "way/1295626834", "properties": {"tags": {"building": "industrial"}, "heightStatus": "unknown", "source": "OpenStreetMap", "license": "ODbL-1.0"}, "geometry": {"type": "MultiPolygon", "coordinates": [[[[113.7972483, 22.7827176], [113.7973405, 22.7827076], [113.7973503, 22.7827839], [113.7972581, 22.7827939], [113.7972483, 22.7827176]]]]}}, {"type": "Feature", "id": "way/1295626835", "properties": {"tags": {"building": "industrial"}, "heightStatus": "unknown", "source": "OpenStreetMap", "license": "ODbL-1.0"}, "geometry": {"type": "MultiPolygon", "coordinates": [[[[113.7973004, 22.7828626], [113.7973567, 22.7827927], [113.7975, 22.7828907], [113.7974437, 22.7829607], [113.7973004, 22.7828626]]]]}}, {"type": "Feature", "id": "way/1295626836", "properties": {"tags": {"building": "industrial"}, "heightStatus": "unknown", "source": "OpenStreetMap", "license": "ODbL-1.0"}, "geometry": {"type": "MultiPolygon", "coordinates": [[[[113.7963552, 22.7839996], [113.7966605, 22.7836248], [113.7968117, 22.7837295], [113.7965063, 22.7841043], [113.7963552, 22.7839996]]]]}}, {"type": "Feature", "id": "way/1295626837", "properties": {"tags": {"building": "industrial"}, "heightStatus": "unknown", "source": "OpenStreetMap", "license": "ODbL-1.0"}, "geometry": {"type": "MultiPolygon", "coordinates": [[[[113.7968057, 22.7833577], [113.7970618, 22.7830651], [113.7971735, 22.7831482], [113.7970114, 22.7833334], [113.7974777, 22.7836804], [113.7973837, 22.7837877], [113.7968057, 22.7833577]]]]}}, {"type": "Feature", "id": "way/1295626838", "properties": {"tags": {"building": "industrial"}, "heightStatus": "unknown", "source": "OpenStreetMap", "license": "ODbL-1.0"}, "geometry": {"type": "MultiPolygon", "coordinates": [[[[113.7965556, 22.7841803], [113.7966569, 22.7840519], [113.7968393, 22.7841741], [113.7967381, 22.7843025], [113.7965556, 22.7841803]]]]}}, {"type": "Feature", "id": "way/1295626839", "properties": {"tags": {"building": "industrial"}, "heightStatus": "unknown", "source": "OpenStreetMap", "license": "ODbL-1.0"}, "geometry": {"type": "MultiPolygon", "coordinates": [[[[113.7967424, 22.7839491], [113.7968762, 22.7837793], [113.7970416, 22.7838901], [113.7969078, 22.7840599], [113.7967424, 22.7839491]]]]}}, {"type": "Feature", "id": "way/1295626840", "properties": {"tags": {"building": "industrial"}, "heightStatus": "unknown", "source": "OpenStreetMap", "license": "ODbL-1.0"}, "geometry": {"type": "MultiPolygon", "coordinates": [[[[113.7970077, 22.7840874], [113.7971596, 22.7839025], [113.7972428, 22.7839605], [113.7970909, 22.7841454], [113.7970077, 22.7840874]]]]}}, {"type": "Feature", "id": "way/1295626841", "properties": {"tags": {"building": "industrial"}, "heightStatus": "unknown", "source": "OpenStreetMap", "license": "ODbL-1.0"}, "geometry": {"type": "MultiPolygon", "coordinates": [[[[113.7968009, 22.7843299], [113.7968967, 22.7842034], [113.7970024, 22.7842715], [113.7969066, 22.784398], [113.7968009, 22.7843299]]]]}}, {"type": "Feature", "id": "way/1295626842", "properties": {"tags": {"building": "industrial"}, "heightStatus": "unknown", "source": "OpenStreetMap", "license": "ODbL-1.0"}, "geometry": {"type": "MultiPolygon", "coordinates": [[[[113.7963713, 22.78428], [113.7964533, 22.7841723], [113.7968527, 22.7844305], [113.7967707, 22.7845383], [113.7963713, 22.78428]]]]}}, {"type": "Feature", "id": "way/1295626843", "properties": {"tags": {"building": "industrial"}, "heightStatus": "unknown", "source": "OpenStreetMap", "license": "ODbL-1.0"}, "geometry": {"type": "MultiPolygon", "coordinates": [[[[113.7960445, 22.7843962], [113.7962023, 22.7841959], [113.7962787, 22.7842471], [113.796121, 22.7844474], [113.7960445, 22.7843962]]]]}}, {"type": "Feature", "id": "way/1295626844", "properties": {"tags": {"building": "industrial"}, "heightStatus": "unknown", "source": "OpenStreetMap", "license": "ODbL-1.0"}, "geometry": {"type": "MultiPolygon", "coordinates": [[[[113.7959492, 22.784505], [113.7960326, 22.7844063], [113.7965552, 22.7847815], [113.7964718, 22.7848803], [113.7959492, 22.784505]]]]}}, {"type": "Feature", "id": "way/1295626845", "properties": {"tags": {"building": "industrial"}, "heightStatus": "unknown", "source": "OpenStreetMap", "license": "ODbL-1.0"}, "geometry": {"type": "MultiPolygon", "coordinates": [[[[113.7959217, 22.7846538], [113.7959729, 22.784589], [113.7962176, 22.7847532], [113.7961664, 22.7848181], [113.7959217, 22.7846538]]]]}}, {"type": "Feature", "id": "way/1295626846", "properties": {"tags": {"building": "industrial"}, "heightStatus": "unknown", "source": "OpenStreetMap", "license": "ODbL-1.0"}, "geometry": {"type": "MultiPolygon", "coordinates": [[[[113.796187, 22.7848574], [113.7962383, 22.7847987], [113.79626, 22.7848131], [113.7962742, 22.7847977], [113.7964053, 22.7848964], [113.7963492, 22.7849674], [113.796187, 22.7848574]]]]}}, {"type": "Feature", "id": "way/1295626847", "properties": {"tags": {"building": "industrial"}, "heightStatus": "unknown", "source": "OpenStreetMap", "license": "ODbL-1.0"}, "geometry": {"type": "MultiPolygon", "coordinates": [[[[113.7958318, 22.7850019], [113.7959601, 22.7848412], [113.7963466, 22.7851035], [113.7962182, 22.7852642], [113.7958318, 22.7850019]]]]}}, {"type": "Feature", "id": "way/1295626848", "properties": {"tags": {"building": "industrial"}, "heightStatus": "unknown", "source": "OpenStreetMap", "license": "ODbL-1.0"}, "geometry": {"type": "MultiPolygon", "coordinates": [[[[113.7958124, 22.7853976], [113.7959131, 22.7852666], [113.7961208, 22.7854025], [113.7960201, 22.7855334], [113.7958124, 22.7853976]]]]}}, {"type": "Feature", "id": "way/1295626849", "properties": {"tags": {"building": "industrial"}, "heightStatus": "unknown", "source": "OpenStreetMap", "license": "ODbL-1.0"}, "geometry": {"type": "MultiPolygon", "coordinates": [[[[113.796945, 22.7854482], [113.7972361, 22.7850906], [113.7974745, 22.7852557], [113.7971833, 22.7856132], [113.796945, 22.7854482]]]]}}, {"type": "Feature", "id": "way/1295626850", "properties": {"tags": {"building": "industrial"}, "heightStatus": "unknown", "source": "OpenStreetMap", "license": "ODbL-1.0"}, "geometry": {"type": "MultiPolygon", "coordinates": [[[[113.7967069, 22.7853002], [113.7969868, 22.7849465], [113.7971404, 22.7850498], [113.7968604, 22.7854034], [113.7967069, 22.7853002]]]]}}, {"type": "Feature", "id": "way/1295626851", "properties": {"tags": {"building": "industrial"}, "heightStatus": "unknown", "source": "OpenStreetMap", "license": "ODbL-1.0"}, "geometry": {"type": "MultiPolygon", "coordinates": [[[[113.7978152, 22.7855687], [113.7982701, 22.7850474], [113.798408, 22.7851497], [113.797953, 22.785671], [113.7978152, 22.7855687]]]]}}, {"type": "Feature", "id": "way/1295626852", "properties": {"tags": {"building": "industrial"}, "heightStatus": "unknown", "source": "OpenStreetMap", "license": "ODbL-1.0"}, "geometry": {"type": "MultiPolygon", "coordinates": [[[[113.7983674, 22.7848985], [113.7984457, 22.784805], [113.7985978, 22.7849133], [113.7985536, 22.7849661], [113.7985396, 22.784956], [113.7984943, 22.7850101], [113.7984439, 22.7849742], [113.7984551, 22.7849609], [113.7983674, 22.7848985]]]]}}, {"type": "Feature", "id": "way/1295626853", "properties": {"tags": {"building": "industrial"}, "heightStatus": "unknown", "source": "OpenStreetMap", "license": "ODbL-1.0"}, "geometry": {"type": "MultiPolygon", "coordinates": [[[[113.7972256, 22.7848229], [113.7974005, 22.7846171], [113.7977911, 22.7848992], [113.7977815, 22.7849104], [113.7978892, 22.7849883], [113.7977238, 22.7851828], [113.7972256, 22.7848229]]]]}}, {"type": "Feature", "id": "way/1295626854", "properties": {"tags": {"building": "industrial"}, "heightStatus": "unknown", "source": "OpenStreetMap", "license": "ODbL-1.0"}, "geometry": {"type": "MultiPolygon", "coordinates": [[[[113.7977436, 22.7852858], [113.7978149, 22.7852014], [113.7978861, 22.7852525], [113.7980748, 22.785029], [113.7981552, 22.7850867], [113.7978951, 22.7853946], [113.7977436, 22.7852858]]]]}}, {"type": "Feature", "id": "way/1295626855", "properties": {"tags": {"building": "industrial"}, "heightStatus": "unknown", "source": "OpenStreetMap", "license": "ODbL-1.0"}, "geometry": {"type": "MultiPolygon", "coordinates": [[[[113.7962595, 22.7862237], [113.7962984, 22.7861769], [113.796686, 22.7864514], [113.7966471, 22.7864981], [113.7962595, 22.7862237]]]]}}, {"type": "Feature", "id": "way/1295626856", "properties": {"tags": {"building": "industrial"}, "heightStatus": "unknown", "source": "OpenStreetMap", "license": "ODbL-1.0"}, "geometry": {"type": "MultiPolygon", "coordinates": [[[[113.7966487, 22.7862544], [113.7967908, 22.786091], [113.7969157, 22.7861832], [113.7967736, 22.7863468], [113.7966487, 22.7862544]]]]}}, {"type": "Feature", "id": "way/1295626857", "properties": {"tags": {"building": "industrial"}, "heightStatus": "unknown", "source": "OpenStreetMap", "license": "ODbL-1.0"}, "geometry": {"type": "MultiPolygon", "coordinates": [[[[113.796241, 22.7856296], [113.7963013, 22.785552], [113.7967764, 22.7858658], [113.796716, 22.7859435], [113.796241, 22.7856296]]]]}}, {"type": "Feature", "id": "way/1295626858", "properties": {"tags": {"building": "industrial"}, "heightStatus": "unknown", "source": "OpenStreetMap", "license": "ODbL-1.0"}, "geometry": {"type": "MultiPolygon", "coordinates": [[[[113.7965531, 22.7855098], [113.7966054, 22.7854446], [113.7969962, 22.7857114], [113.7969438, 22.7857766], [113.7965531, 22.7855098]]]]}}, {"type": "Feature", "id": "way/1295626859", "properties": {"tags": {"building": "industrial"}, "heightStatus": "unknown", "source": "OpenStreetMap", "license": "ODbL-1.0"}, "geometry": {"type": "MultiPolygon", "coordinates": [[[[113.7970116, 22.7857983], [113.7970648, 22.7857326], [113.7973981, 22.7859621], [113.7973448, 22.7860278], [113.7970116, 22.7857983]]]]}}, {"type": "Feature", "id": "way/1295626860", "properties": {"tags": {"building": "industrial"}, "heightStatus": "unknown", "source": "OpenStreetMap", "license": "ODbL-1.0"}, "geometry": {"type": "MultiPolygon", "coordinates": [[[[113.7968581, 22.7864576], [113.7971469, 22.786099], [113.7972901, 22.786197], [113.7970014, 22.7865557], [113.7968581, 22.7864576]]]]}}, {"type": "Feature", "id": "way/1295626861", "properties": {"tags": {"building": "industrial"}, "heightStatus": "unknown", "source": "OpenStreetMap", "license": "ODbL-1.0"}, "geometry": {"type": "MultiPolygon", "coordinates": [[[[113.7976989, 22.7862483], [113.798077, 22.7857807], [113.798162, 22.7858391], [113.797784, 22.7863067], [113.7976989, 22.7862483]]]]}}, {"type": "Feature", "id": "way/1295626862", "properties": {"tags": {"building": "industrial"}, "heightStatus": "unknown", "source": "OpenStreetMap", "license": "ODbL-1.0"}, "geometry": {"type": "MultiPolygon", "coordinates": [[[[113.7973019, 22.7867377], [113.7975626, 22.7863843], [113.7976526, 22.7864408], [113.7973918, 22.7867941], [113.7973019, 22.7867377]]]]}}, {"type": "Feature", "id": "way/1295626863", "properties": {"tags": {"building": "industrial"}, "heightStatus": "unknown", "source": "OpenStreetMap", "license": "ODbL-1.0"}, "geometry": {"type": "MultiPolygon", "coordinates": [[[[113.7972788, 22.7863], [113.7973379, 22.7862243], [113.7974839, 22.7863211], [113.7974248, 22.7863969], [113.7972788, 22.7863]]]]}}, {"type": "Feature", "id": "way/1295626864", "properties": {"tags": {"building": "industrial"}, "heightStatus": "unknown", "source": "OpenStreetMap", "license": "ODbL-1.0"}, "geometry": {"type": "MultiPolygon", "coordinates": [[[[113.8002135, 22.7810852], [113.8003289, 22.7809627], [113.8006908, 22.7812524], [113.8005753, 22.781375], [113.8002135, 22.7810852]]]]}}, {"type": "Feature", "id": "way/1295626865", "properties": {"tags": {"building": "industrial"}, "heightStatus": "unknown", "source": "OpenStreetMap", "license": "ODbL-1.0"}, "geometry": {"type": "MultiPolygon", "coordinates": [[[[113.800029, 22.7811389], [113.800139, 22.7810169], [113.8001725, 22.7810425], [113.8001167, 22.7811045], [113.8005419, 22.7814302], [113.8004877, 22.7814903], [113.800029, 22.7811389]]]]}}, {"type": "Feature", "id": "way/1295626866", "properties": {"tags": {"building": "industrial"}, "heightStatus": "unknown", "source": "OpenStreetMap", "license": "ODbL-1.0"}, "geometry": {"type": "MultiPolygon", "coordinates": [[[[113.8006542, 22.7805192], [113.8007657, 22.7803971], [113.8016718, 22.7811005], [113.8015602, 22.7812227], [113.8006542, 22.7805192]]]]}}, {"type": "Feature", "id": "way/1295626870", "properties": {"tags": {"building": "industrial"}, "heightStatus": "unknown", "source": "OpenStreetMap", "license": "ODbL-1.0"}, "geometry": {"type": "MultiPolygon", "coordinates": [[[[113.8009159, 22.780228], [113.8011605, 22.7799698], [113.8011837, 22.7799884], [113.8011948, 22.7799767], [113.801258, 22.7800275], [113.8010023, 22.7802975], [113.8009159, 22.780228]]]]}}]}