{"type": "FeatureCollection", "features": [{"type": "Feature", "id": "way/1286181325", "properties": {"tags": {"building": "industrial"}, "heightStatus": "unknown", "source": "OpenStreetMap", "license": "ODbL-1.0"}, "geometry": {"type": "MultiPolygon", "coordinates": [[[[113.7934868, 22.7348809], [113.7945404, 22.7347983], [113.7945635, 22.7350497], [113.794482, 22.7350561], [113.794485, 22.7350887], [113.7937217, 22.7351484], [113.7937184, 22.7351128], [113.7935097, 22.7351291], [113.7934868, 22.7348809]]]]}}, {"type": "Feature", "id": "way/1286181326", "properties": {"tags": {"building": "industrial"}, "heightStatus": "unknown", "source": "OpenStreetMap", "license": "ODbL-1.0"}, "geometry": {"type": "MultiPolygon", "coordinates": [[[[113.7935807, 22.7353183], [113.7939683, 22.7352863], [113.793966, 22.735263], [113.7940824, 22.7352534], [113.7940846, 22.7352758], [113.7945543, 22.7352368], [113.7945633, 22.7353299], [113.7945946, 22.7353273], [113.7946082, 22.7354673], [113.7945742, 22.7354701], [113.7946071, 22.7358086], [113.7936361, 22.7358888], [113.7935807, 22.7353183]]]]}}, {"type": "Feature", "id": "way/1286181328", "properties": {"tags": {"building": "industrial"}, "heightStatus": "unknown", "source": "OpenStreetMap", "license": "ODbL-1.0"}, "geometry": {"type": "MultiPolygon", "coordinates": [[[[113.7949884, 22.7358154], [113.7954837, 22.7357847], [113.795512, 22.7361721], [113.7950168, 22.7362029], [113.7949884, 22.7358154]]]]}}, {"type": "Feature", "id": "relation/17631648", "properties": {"tags": {"building": "industrial"}, "heightStatus": "unknown", "source": "OpenStreetMap", "license": "ODbL-1.0"}, "geometry": {"type": "MultiPolygon", "coordinates": [[[[113.7938995, 22.7360052], [113.7946796, 22.7359469], [113.7946993, 22.7361713], [113.7939192, 22.7362294], [113.7938995, 22.7360052]], [[113.7939328, 22.7360894], [113.7939367, 22.7361325], [113.7946745, 22.7360768], [113.7946707, 22.7360338], [113.7939328, 22.7360894]]]]}}, {"type": "Feature", "id": "way/1286181331", "properties": {"tags": {"building": "industrial"}, "heightStatus": "unknown", "source": "OpenStreetMap", "license": "ODbL-1.0"}, "geometry": {"type": "MultiPolygon", "coordinates": [[[[113.7919513, 22.7333073], [113.7920917, 22.7332966], [113.7920881, 22.733257], [113.7923083, 22.7332403], [113.7923112, 22.7332732], [113.7928462, 22.7332327], [113.7928433, 22.7332003], [113.7930644, 22.7331835], [113.7930676, 22.7332193], [113.7931998, 22.7332092], [113.7932055, 22.7332795], [113.7932282, 22.7335019], [113.7932492, 22.7337897], [113.7931487, 22.7337904], [113.7930856, 22.7337612], [113.7928885, 22.7337717], [113.7928901, 22.7338073], [113.7928005, 22.7338143], [113.7928007, 22.733826], [113.7927407, 22.7338322], [113.7927355, 22.733845], [113.7927257, 22.7338549], [113.7925283, 22.7338674], [113.792517, 22.7338587], [113.7925158, 22.7338486], [113.7924502, 22.7338515], [113.7924486, 22.7338404], [113.7923675, 22.7338444], [113.7923649, 22.7338101], [113.7922602, 22.7338221], [113.7922612, 22.7338569], [113.792202, 22.7338616], [113.7922001, 22.7338292], [113.7921374, 22.733842], [113.792102, 22.7338758], [113.7920074, 22.7338837], [113.7919513, 22.7333073]]]]}}, {"type": "Feature", "id": "way/1286181373", "properties": {"tags": {"building": "industrial"}, "heightStatus": "unknown", "source": "OpenStreetMap", "license": "ODbL-1.0"}, "geometry": {"type": "MultiPolygon", "coordinates": [[[[113.7933541, 22.7335839], [113.7934579, 22.7335797], [113.793468, 22.7337924], [113.7933641, 22.7337966], [113.7933541, 22.7335839]]]]}}]}