{"type": "FeatureCollection", "features": [{"type": "Feature", "id": "way/1545709242", "properties": {"tags": {"building": "yes"}, "heightStatus": "unknown", "source": "OpenStreetMap", "license": "ODbL-1.0"}, "geometry": {"type": "MultiPolygon", "coordinates": [[[[113.7957618, 22.6260751], [113.7959003, 22.6258567], [113.796514, 22.6261242], [113.7963691, 22.62635], [113.7957618, 22.6260751]]]]}}, {"type": "Feature", "id": "way/1545709243", "properties": {"tags": {"building": "yes"}, "heightStatus": "unknown", "source": "OpenStreetMap", "license": "ODbL-1.0"}, "geometry": {"type": "MultiPolygon", "coordinates": [[[[113.7952708, 22.6262496], [113.7956263, 22.6256121], [113.7957893, 22.625679], [113.7954247, 22.6263228], [113.7952708, 22.6262496]]]]}}]}