{"type": "FeatureCollection", "features": [{"type": "Feature", "id": "way/1431648247", "properties": {"tags": {"building": "fire_station"}, "heightStatus": "unknown", "source": "OpenStreetMap", "license": "ODbL-1.0"}, "geometry": {"type": "MultiPolygon", "coordinates": [[[[113.7892472, 22.6548558], [113.7893441, 22.6546683], [113.7893697, 22.6546796], [113.7894424, 22.6545388], [113.7896148, 22.6546147], [113.7894291, 22.6549742], [113.7893491, 22.654939], [113.7893652, 22.6549077], [113.7892472, 22.6548558]]]]}}, {"type": "Feature", "id": "way/1431648248", "properties": {"tags": {"building": "fire_station"}, "heightStatus": "unknown", "source": "OpenStreetMap", "license": "ODbL-1.0"}, "geometry": {"type": "MultiPolygon", "coordinates": [[[[113.7890182, 22.6550715], [113.7890625, 22.6549912], [113.7891507, 22.6550326], [113.7891951, 22.6549521], [113.7894006, 22.6550486], [113.789312, 22.6552094], [113.7890182, 22.6550715]]]]}}, {"type": "Feature", "id": "way/1431648252", "properties": {"tags": {"building": "fire_station"}, "heightStatus": "unknown", "source": "OpenStreetMap", "license": "ODbL-1.0"}, "geometry": {"type": "MultiPolygon", "coordinates": [[[[113.788887, 22.6550044], [113.7889674, 22.6548503], [113.7890492, 22.6548866], [113.7889687, 22.6550407], [113.788887, 22.6550044]]]]}}, {"type": "Feature", "id": "relation/20688796", "properties": {"tags": {"building": "construction", "construction": "train_station", "construction:building": "train_station", "layer": "-1", "location": "underground", "name": "T4枢纽站", "name:en": "T4 Transport Hub Station", "name:zh": "T4枢纽站", "name:zh-Hans": "T4枢纽站", "name:zh-Hant": "T4樞紐站", "note": "深大城际", "proposed:building:levels": "0"}, "heightStatus": "unknown", "source": "OpenStreetMap", "license": "ODbL-1.0"}, "geometry": {"type": "MultiPolygon", "coordinates": [[[[113.7897693, 22.6614405], [113.7901492, 22.6607761], [113.7901121, 22.6607581], [113.7902081, 22.6605903], [113.790248, 22.6606097], [113.7905681, 22.66005], [113.7905214, 22.6600273], [113.7906187, 22.659857], [113.7907049, 22.6598989], [113.7907509, 22.6599213], [113.7908273, 22.6597876], [113.7908839, 22.6598152], [113.7909892, 22.6598665], [113.7910591, 22.6599005], [113.7909875, 22.6600256], [113.7910302, 22.6600464], [113.7911005, 22.6600806], [113.7910033, 22.6602508], [113.7909783, 22.6602386], [113.7906566, 22.6608012], [113.790699, 22.6608219], [113.7906034, 22.660989], [113.7905747, 22.660975], [113.7901961, 22.6616373], [113.7901051, 22.661593], [113.7902964, 22.6612584], [113.7902825, 22.6612516], [113.790382, 22.6610776], [113.7903628, 22.6610682], [113.790451, 22.660914], [113.790276, 22.6608288], [113.7901873, 22.6609839], [113.7901732, 22.660977], [113.7900735, 22.6611512], [113.7900575, 22.6611434], [113.7898618, 22.6614856], [113.7897693, 22.6614405]]], [[[113.7915914, 22.65814], [113.7916898, 22.6579672], [113.7917309, 22.6579842], [113.7920469, 22.6574809], [113.7922947, 22.6570246], [113.7923131, 22.6570296], [113.7924765, 22.6567155], [113.7924944, 22.656724], [113.7927668, 22.6562364], [113.7926962, 22.6562042], [113.7929894, 22.6556675], [113.7930906, 22.6557154], [113.7934033, 22.6551722], [113.7933568, 22.6551517], [113.7930976, 22.6556096], [113.7930446, 22.6555846], [113.793089, 22.6554952], [113.7930522, 22.6554788], [113.7932183, 22.6551882], [113.7932453, 22.6551991], [113.7933476, 22.6550109], [113.7934591, 22.6550603], [113.793676, 22.6546699], [113.7934436, 22.654562], [113.793851, 22.6538401], [113.7940531, 22.6539309], [113.7944329, 22.6532549], [113.7947324, 22.6534137], [113.7946398, 22.6535668], [113.794604, 22.6535794], [113.793135, 22.6561591], [113.792588, 22.6571334], [113.7926074, 22.6571474], [113.7924614, 22.6573841], [113.792483, 22.657396], [113.7918987, 22.6585354], [113.7919333, 22.6585534], [113.7918467, 22.6587192], [113.7916249, 22.6586113], [113.7918359, 22.6582538], [113.7915914, 22.65814]]]]}}]}