{"type": "FeatureCollection", "features": [{"type": "Feature", "id": "way/493091795", "properties": {"tags": {"building": "yes", "building:levels": "4"}, "heightStatus": "levels_only_unverified", "source": "OpenStreetMap", "license": "ODbL-1.0"}, "geometry": {"type": "MultiPolygon", "coordinates": [[[[113.7784101, 22.6995262], [113.7789573, 22.6994871], [113.7789742, 22.6996881], [113.778427, 22.6997271], [113.7784101, 22.6995262]]]]}}, {"type": "Feature", "id": "way/493091796", "properties": {"tags": {"building": "yes", "building:levels": "4"}, "heightStatus": "levels_only_unverified", "source": "OpenStreetMap", "license": "ODbL-1.0"}, "geometry": {"type": "MultiPolygon", "coordinates": [[[[113.7778287, 22.6995649], [113.7782706, 22.6995295], [113.778289, 22.6997252], [113.7778471, 22.6997606], [113.7778287, 22.6995649]]]]}}, {"type": "Feature", "id": "way/493091797", "properties": {"tags": {"building": "warehouse"}, "heightStatus": "unknown", "source": "OpenStreetMap", "license": "ODbL-1.0"}, "geometry": {"type": "MultiPolygon", "coordinates": [[[[113.7776618, 22.6991161], [113.7782226, 22.699068], [113.778252, 22.699359], [113.7776911, 22.699407], [113.7776618, 22.6991161]]]]}}, {"type": "Feature", "id": "way/493091798", "properties": {"tags": {"building": "warehouse"}, "heightStatus": "unknown", "source": "OpenStreetMap", "license": "ODbL-1.0"}, "geometry": {"type": "MultiPolygon", "coordinates": [[[[113.7783868, 22.6990649], [113.7789476, 22.6990168], [113.778977, 22.6993077], [113.7784161, 22.6993558], [113.7783868, 22.6990649]]]]}}, {"type": "Feature", "id": "way/493091799", "properties": {"tags": {"building": "yes"}, "heightStatus": "unknown", "source": "OpenStreetMap", "license": "ODbL-1.0"}, "geometry": {"type": "MultiPolygon", "coordinates": [[[[113.7780054, 22.6985987], [113.7788849, 22.698526], [113.7789246, 22.698935], [113.7780451, 22.6990077], [113.7780054, 22.6985987]]]]}}, {"type": "Feature", "id": "way/493091801", "properties": {"tags": {"building": "yes"}, "heightStatus": "unknown", "source": "OpenStreetMap", "license": "ODbL-1.0"}, "geometry": {"type": "MultiPolygon", "coordinates": [[[[113.7790804, 22.6990127], [113.779208, 22.6990051], [113.7792511, 22.6996202], [113.7791234, 22.6996278], [113.7790804, 22.6990127]]]]}}, {"type": "Feature", "id": "way/493091802", "properties": {"tags": {"building": "yes"}, "heightStatus": "unknown", "source": "OpenStreetMap", "license": "ODbL-1.0"}, "geometry": {"type": "MultiPolygon", "coordinates": [[[[113.7799367, 22.6993918], [113.7805509, 22.6993399], [113.7805795, 22.6996286], [113.7799653, 22.6996805], [113.7799367, 22.6993918]]]]}}, {"type": "Feature", "id": "way/493091803", "properties": {"tags": {"building": "yes"}, "heightStatus": "unknown", "source": "OpenStreetMap", "license": "ODbL-1.0"}, "geometry": {"type": "MultiPolygon", "coordinates": [[[[113.7796401, 22.6989804], [113.7804705, 22.698924], [113.780496, 22.6992435], [113.7796657, 22.6993], [113.7796401, 22.6989804]]]]}}, {"type": "Feature", "id": "way/493091804", "properties": {"tags": {"building": "yes"}, "heightStatus": "unknown", "source": "OpenStreetMap", "license": "ODbL-1.0"}, "geometry": {"type": "MultiPolygon", "coordinates": [[[[113.7792919, 22.6990153], [113.7794106, 22.6990075], [113.7794587, 22.6996294], [113.7793401, 22.6996372], [113.7792919, 22.6990153]]]]}}, {"type": "Feature", "id": "way/493091805", "properties": {"tags": {"building": "yes"}, "heightStatus": "unknown", "source": "OpenStreetMap", "license": "ODbL-1.0"}, "geometry": {"type": "MultiPolygon", "coordinates": [[[[113.7777146, 22.6986401], [113.7779235, 22.6986223], [113.7779608, 22.6989943], [113.7777519, 22.6990122], [113.7777146, 22.6986401]]]]}}, {"type": "Feature", "id": "way/493091806", "properties": {"tags": {"building": "industrial"}, "heightStatus": "unknown", "source": "OpenStreetMap", "license": "ODbL-1.0"}, "geometry": {"type": "MultiPolygon", "coordinates": [[[[113.7780053, 22.6980948], [113.7788782, 22.6980282], [113.7789071, 22.6983511], [113.7780341, 22.6984175], [113.7780053, 22.6980948]]]]}}, {"type": "Feature", "id": "way/493091807", "properties": {"tags": {"building": "yes"}, "heightStatus": "unknown", "source": "OpenStreetMap", "license": "ODbL-1.0"}, "geometry": {"type": "MultiPolygon", "coordinates": [[[[113.7790212, 22.6983773], [113.7791736, 22.6983674], [113.7792143, 22.6989044], [113.7790619, 22.6989142], [113.7790212, 22.6983773]]]]}}, {"type": "Feature", "id": "way/493091808", "properties": {"tags": {"building": "yes"}, "heightStatus": "unknown", "source": "OpenStreetMap", "license": "ODbL-1.0"}, "geometry": {"type": "MultiPolygon", "coordinates": [[[[113.7789346, 22.6979766], [113.7791168, 22.6979615], [113.77915, 22.6983027], [113.7789678, 22.6983178], [113.7789346, 22.6979766]]]]}}, {"type": "Feature", "id": "way/1017154681", "properties": {"tags": {"building": "train_station", "layer": "-1", "location": "underground", "name": "国展站", "name:en": "Shenzhen World", "name:zh": "国展站", "name:zh-Hans": "国展站", "name:zh-Hant": "國展站", "public_transport": "station"}, "heightStatus": "unknown", "source": "OpenStreetMap", "license": "ODbL-1.0"}, "geometry": {"type": "MultiPolygon", "coordinates": [[[[113.7728811, 22.6992449], [113.7731656, 22.6971738], [113.7736883, 22.6972495], [113.7736439, 22.6975716], [113.7734042, 22.6993081], [113.7731553, 22.6992761], [113.7728811, 22.6992449]]]]}}, {"type": "Feature", "id": "way/1281100993", "properties": {"tags": {"building": "industrial"}, "heightStatus": "unknown", "source": "OpenStreetMap", "license": "ODbL-1.0"}, "geometry": {"type": "MultiPolygon", "coordinates": [[[[113.7775806, 22.6976318], [113.7776935, 22.6976266], [113.7777137, 22.6979993], [113.7776009, 22.6980045], [113.7775806, 22.6976318]]]]}}, {"type": "Feature", "id": "way/1281100994", "properties": {"tags": {"building": "industrial"}, "heightStatus": "unknown", "source": "OpenStreetMap", "license": "ODbL-1.0"}, "geometry": {"type": "MultiPolygon", "coordinates": [[[[113.7777643, 22.6978834], [113.7783904, 22.6978395], [113.7783979, 22.69793], [113.7777718, 22.6979738], [113.7777643, 22.6978834]]]]}}, {"type": "Feature", "id": "way/1281100995", "properties": {"tags": {"building": "industrial"}, "heightStatus": "unknown", "source": "OpenStreetMap", "license": "ODbL-1.0"}, "geometry": {"type": "MultiPolygon", "coordinates": [[[[113.7784697, 22.6976222], [113.7790516, 22.6975759], [113.7790785, 22.6978641], [113.7784967, 22.6979106], [113.7784697, 22.6976222]]]]}}, {"type": "Feature", "id": "way/1281100996", "properties": {"tags": {"building": "industrial"}, "heightStatus": "unknown", "source": "OpenStreetMap", "license": "ODbL-1.0"}, "geometry": {"type": "MultiPolygon", "coordinates": [[[[113.7791734, 22.6977732], [113.7795873, 22.6977364], [113.7795968, 22.6978276], [113.7791829, 22.6978644], [113.7791734, 22.6977732]]]]}}, {"type": "Feature", "id": "way/1281100997", "properties": {"tags": {"building": "industrial"}, "heightStatus": "unknown", "source": "OpenStreetMap", "license": "ODbL-1.0"}, "geometry": {"type": "MultiPolygon", "coordinates": [[[[113.7796615, 22.6977357], [113.7800754, 22.6976989], [113.780085, 22.6977901], [113.7796711, 22.6978269], [113.7796615, 22.6977357]]]]}}, {"type": "Feature", "id": "way/1281100998", "properties": {"tags": {"building": "industrial"}, "heightStatus": "unknown", "source": "OpenStreetMap", "license": "ODbL-1.0"}, "geometry": {"type": "MultiPolygon", "coordinates": [[[[113.7801527, 22.6977028], [113.7805666, 22.697666], [113.7805761, 22.6977572], [113.7801622, 22.6977941], [113.7801527, 22.6977028]]]]}}, {"type": "Feature", "id": "way/1281100999", "properties": {"tags": {"building": "yes"}, "heightStatus": "unknown", "source": "OpenStreetMap", "license": "ODbL-1.0"}, "geometry": {"type": "MultiPolygon", "coordinates": [[[[113.7796326, 22.6979476], [113.7804059, 22.6978951], [113.7804287, 22.6981801], [113.7796553, 22.6982326], [113.7796326, 22.6979476]]]]}}, {"type": "Feature", "id": "way/1281101000", "properties": {"tags": {"building": "yes"}, "heightStatus": "unknown", "source": "OpenStreetMap", "license": "ODbL-1.0"}, "geometry": {"type": "MultiPolygon", "coordinates": [[[[113.7796799, 22.6984396], [113.7804532, 22.6983871], [113.780476, 22.6986721], [113.7797026, 22.6987245], [113.7796799, 22.6984396]]]]}}, {"type": "Feature", "id": "way/1281101001", "properties": {"tags": {"building": "industrial"}, "heightStatus": "unknown", "source": "OpenStreetMap", "license": "ODbL-1.0"}, "geometry": {"type": "MultiPolygon", "coordinates": [[[[113.7777064, 22.6981364], [113.7779079, 22.6981213], [113.7779359, 22.6984395], [113.7777344, 22.6984546], [113.7777064, 22.6981364]]]]}}, {"type": "Feature", "id": "way/1281101002", "properties": {"tags": {"building": "industrial"}, "heightStatus": "unknown", "source": "OpenStreetMap", "license": "ODbL-1.0"}, "geometry": {"type": "MultiPolygon", "coordinates": [[[[113.7792121, 22.6980072], [113.77933, 22.6979988], [113.7793652, 22.698422], [113.7792474, 22.6984303], [113.7792121, 22.6980072]]]]}}, {"type": "Feature", "id": "way/1281101003", "properties": {"tags": {"building": "industrial"}, "heightStatus": "unknown", "source": "OpenStreetMap", "license": "ODbL-1.0"}, "geometry": {"type": "MultiPolygon", "coordinates": [[[[113.7792518, 22.698507], [113.7793697, 22.6984986], [113.7794049, 22.6989217], [113.7792871, 22.6989301], [113.7792518, 22.698507]]]]}}, {"type": "Feature", "id": "way/1281383014", "properties": {"tags": {"building": "apartments"}, "heightStatus": "unknown", "source": "OpenStreetMap", "license": "ODbL-1.0"}, "geometry": {"type": "MultiPolygon", "coordinates": [[[[113.7811447, 22.6978967], [113.7813199, 22.6978882], [113.7813398, 22.6982375], [113.7811647, 22.698246], [113.7811447, 22.6978967]]]]}}, {"type": "Feature", "id": "way/1281383015", "properties": {"tags": {"building": "apartments"}, "heightStatus": "unknown", "source": "OpenStreetMap", "license": "ODbL-1.0"}, "geometry": {"type": "MultiPolygon", "coordinates": [[[[113.7811896, 22.6983736], [113.7813274, 22.6983668], [113.7813475, 22.6987168], [113.7812097, 22.6987236], [113.7811896, 22.6983736]]]]}}, {"type": "Feature", "id": "way/1281383016", "properties": {"tags": {"building": "apartments"}, "heightStatus": "unknown", "source": "OpenStreetMap", "license": "ODbL-1.0"}, "geometry": {"type": "MultiPolygon", "coordinates": [[[[113.7812154, 22.6987648], [113.7813826, 22.6987536], [113.7814101, 22.6991012], [113.7812428, 22.6991124], [113.7812154, 22.6987648]]]]}}, {"type": "Feature", "id": "way/1281383017", "properties": {"tags": {"building": "apartments"}, "heightStatus": "unknown", "source": "OpenStreetMap", "license": "ODbL-1.0"}, "geometry": {"type": "MultiPolygon", "coordinates": [[[[113.7812562, 22.6991906], [113.7814204, 22.6991809], [113.7814434, 22.6995124], [113.7813744, 22.6995164], [113.7812727, 22.6994283], [113.7812562, 22.6991906]]]]}}, {"type": "Feature", "id": "way/1281383018", "properties": {"tags": {"building": "apartments"}, "heightStatus": "unknown", "source": "OpenStreetMap", "license": "ODbL-1.0"}, "geometry": {"type": "MultiPolygon", "coordinates": [[[[113.7815024, 22.6979455], [113.7820627, 22.6979116], [113.7820796, 22.6981484], [113.7815192, 22.6981822], [113.7815024, 22.6979455]]]]}}, {"type": "Feature", "id": "way/1281383019", "properties": {"tags": {"building": "apartments"}, "heightStatus": "unknown", "source": "OpenStreetMap", "license": "ODbL-1.0"}, "geometry": {"type": "MultiPolygon", "coordinates": [[[[113.7815375, 22.6983974], [113.7820979, 22.6983635], [113.7821147, 22.6986003], [113.7815543, 22.6986341], [113.7815375, 22.6983974]]]]}}, {"type": "Feature", "id": "way/1281383037", "properties": {"tags": {"building": "dormitory"}, "heightStatus": "unknown", "source": "OpenStreetMap", "license": "ODbL-1.0"}, "geometry": {"type": "MultiPolygon", "coordinates": [[[[113.7816631, 22.7032216], [113.7821712, 22.7031828], [113.7821747, 22.703222], [113.7821904, 22.7032208], [113.7821937, 22.7032578], [113.7821036, 22.7032646], [113.7821083, 22.7033174], [113.7820388, 22.7033226], [113.7820341, 22.7032699], [113.7817754, 22.7032894], [113.7817805, 22.7033464], [113.7818312, 22.7033426], [113.7818395, 22.7034368], [113.7817915, 22.7034405], [113.7817958, 22.7034893], [113.7820508, 22.7034701], [113.7820479, 22.7034372], [113.7821322, 22.7034309], [113.7821352, 22.7034651], [113.7822134, 22.7034592], [113.7822173, 22.7035025], [113.7822065, 22.7035033], [113.7822098, 22.70354], [113.7816952, 22.7035793], [113.7816631, 22.7032216]]]]}}, {"type": "Feature", "id": "way/1281383039", "properties": {"tags": {"building": "yes"}, "heightStatus": "unknown", "source": "OpenStreetMap", "license": "ODbL-1.0"}, "geometry": {"type": "MultiPolygon", "coordinates": [[[[113.7816114, 22.7026642], [113.7818633, 22.7026453], [113.7818921, 22.7029714], [113.7816402, 22.7029904], [113.7816114, 22.7026642]]]]}}, {"type": "Feature", "id": "way/1281383040", "properties": {"tags": {"building": "dormitory"}, "heightStatus": "unknown", "source": "OpenStreetMap", "license": "ODbL-1.0"}, "geometry": {"type": "MultiPolygon", "coordinates": [[[[113.7815705, 22.7020672], [113.7820786, 22.7020283], [113.7820822, 22.7020675], [113.7820978, 22.7020663], [113.7821011, 22.7021033], [113.782011, 22.7021101], [113.7820157, 22.7021629], [113.7819462, 22.7021681], [113.7819416, 22.7021154], [113.7816829, 22.702135], [113.7816879, 22.7021919], [113.7817386, 22.7021881], [113.781747, 22.7022823], [113.7816989, 22.702286], [113.7817032, 22.7023348], [113.7819583, 22.7023156], [113.7819554, 22.7022827], [113.7820396, 22.7022764], [113.7820426, 22.7023106], [113.7821209, 22.7023047], [113.7821247, 22.702348], [113.7821139, 22.7023488], [113.7821172, 22.7023855], [113.7816026, 22.7024248], [113.7815705, 22.7020672]]]]}}, {"type": "Feature", "id": "way/1281960156", "properties": {"tags": {"building": "industrial"}, "heightStatus": "unknown", "source": "OpenStreetMap", "license": "ODbL-1.0"}, "geometry": {"type": "MultiPolygon", "coordinates": [[[[113.7778287, 22.7003957], [113.7783487, 22.7003578], [113.7783687, 22.7005926], [113.7778487, 22.7006304], [113.7778287, 22.7003957]]]]}}, {"type": "Feature", "id": "way/1281960157", "properties": {"tags": {"building": "industrial"}, "heightStatus": "unknown", "source": "OpenStreetMap", "license": "ODbL-1.0"}, "geometry": {"type": "MultiPolygon", "coordinates": [[[[113.7778533, 22.700751], [113.7783733, 22.7007131], [113.7783934, 22.7009479], [113.7778734, 22.7009857], [113.7778533, 22.700751]]]]}}, {"type": "Feature", "id": "way/1281960158", "properties": {"tags": {"building": "industrial"}, "heightStatus": "unknown", "source": "OpenStreetMap", "license": "ODbL-1.0"}, "geometry": {"type": "MultiPolygon", "coordinates": [[[[113.7778893, 22.7011003], [113.7784093, 22.7010624], [113.7784293, 22.7012972], [113.7779093, 22.701335], [113.7778893, 22.7011003]]]]}}, {"type": "Feature", "id": "way/1281960159", "properties": {"tags": {"building": "industrial"}, "heightStatus": "unknown", "source": "OpenStreetMap", "license": "ODbL-1.0"}, "geometry": {"type": "MultiPolygon", "coordinates": [[[[113.7779127, 22.701685], [113.7784554, 22.7016453], [113.7784733, 22.7018529], [113.7779306, 22.7018927], [113.7779127, 22.701685]]]]}}, {"type": "Feature", "id": "way/1281960160", "properties": {"tags": {"building": "industrial"}, "heightStatus": "unknown", "source": "OpenStreetMap", "license": "ODbL-1.0"}, "geometry": {"type": "MultiPolygon", "coordinates": [[[[113.7779468, 22.7020353], [113.7784895, 22.7019956], [113.7785074, 22.7022032], [113.7779647, 22.702243], [113.7779468, 22.7020353]]]]}}, {"type": "Feature", "id": "way/1281960161", "properties": {"tags": {"building": "industrial"}, "heightStatus": "unknown", "source": "OpenStreetMap", "license": "ODbL-1.0"}, "geometry": {"type": "MultiPolygon", "coordinates": [[[[113.7784623, 22.7002703], [113.7785744, 22.7002639], [113.778595, 22.7005729], [113.7784829, 22.7005793], [113.7784623, 22.7002703]]]]}}, {"type": "Feature", "id": "way/1281960162", "properties": {"tags": {"building": "industrial"}, "heightStatus": "unknown", "source": "OpenStreetMap", "license": "ODbL-1.0"}, "geometry": {"type": "MultiPolygon", "coordinates": [[[[113.7785105, 22.7007142], [113.7786234, 22.700706], [113.7786718, 22.7012759], [113.7785588, 22.701284], [113.7785105, 22.7007142]]]]}}, {"type": "Feature", "id": "way/1281960163", "properties": {"tags": {"building": "industrial"}, "heightStatus": "unknown", "source": "OpenStreetMap", "license": "ODbL-1.0"}, "geometry": {"type": "MultiPolygon", "coordinates": [[[[113.7786675, 22.7001833], [113.7789263, 22.700167], [113.7789599, 22.700622], [113.7787012, 22.7006383], [113.7786675, 22.7001833]]]]}}, {"type": "Feature", "id": "way/1281960164", "properties": {"tags": {"building": "industrial"}, "heightStatus": "unknown", "source": "OpenStreetMap", "license": "ODbL-1.0"}, "geometry": {"type": "MultiPolygon", "coordinates": [[[[113.7790637, 22.7001789], [113.7793722, 22.7001566], [113.7794161, 22.7006725], [113.7793157, 22.7006797], [113.7792796, 22.7002553], [113.7790715, 22.7002703], [113.7790637, 22.7001789]]]]}}, {"type": "Feature", "id": "way/1281960165", "properties": {"tags": {"building": "industrial"}, "heightStatus": "unknown", "source": "OpenStreetMap", "license": "ODbL-1.0"}, "geometry": {"type": "MultiPolygon", "coordinates": [[[[113.7787187, 22.700795], [113.7789777, 22.7007761], [113.77902, 22.7012693], [113.7787611, 22.7012882], [113.7787187, 22.700795]]]]}}, {"type": "Feature", "id": "way/1281960166", "properties": {"tags": {"building": "industrial"}, "heightStatus": "unknown", "source": "OpenStreetMap", "license": "ODbL-1.0"}, "geometry": {"type": "MultiPolygon", "coordinates": [[[[113.7791753, 22.7007591], [113.7794343, 22.7007402], [113.7794765, 22.7012333], [113.7792176, 22.7012523], [113.7791753, 22.7007591]]]]}}, {"type": "Feature", "id": "way/1281960167", "properties": {"tags": {"building": "industrial"}, "heightStatus": "unknown", "source": "OpenStreetMap", "license": "ODbL-1.0"}, "geometry": {"type": "MultiPolygon", "coordinates": [[[[113.7789402, 22.7016139], [113.7794895, 22.701565], [113.7795116, 22.7017757], [113.7789623, 22.7018247], [113.7789402, 22.7016139]]]]}}, {"type": "Feature", "id": "way/1281960168", "properties": {"tags": {"building": "industrial"}, "heightStatus": "unknown", "source": "OpenStreetMap", "license": "ODbL-1.0"}, "geometry": {"type": "MultiPolygon", "coordinates": [[[[113.7789664, 22.7019603], [113.7795157, 22.7019113], [113.7795378, 22.702122], [113.7789885, 22.7021711], [113.7789664, 22.7019603]]]]}}, {"type": "Feature", "id": "way/1281960169", "properties": {"tags": {"building": "industrial"}, "heightStatus": "unknown", "source": "OpenStreetMap", "license": "ODbL-1.0"}, "geometry": {"type": "MultiPolygon", "coordinates": [[[[113.7786008, 22.701643], [113.7787935, 22.7016264], [113.7788191, 22.7018785], [113.7786263, 22.7018951], [113.7786008, 22.701643]]]]}}, {"type": "Feature", "id": "way/1281960170", "properties": {"tags": {"building": "industrial"}, "heightStatus": "unknown", "source": "OpenStreetMap", "license": "ODbL-1.0"}, "geometry": {"type": "MultiPolygon", "coordinates": [[[[113.7786202, 22.7019532], [113.7788129, 22.7019366], [113.7788385, 22.7021886], [113.7786457, 22.7022053], [113.7786202, 22.7019532]]]]}}, {"type": "Feature", "id": "way/1281960171", "properties": {"tags": {"building": "industrial"}, "heightStatus": "unknown", "source": "OpenStreetMap", "license": "ODbL-1.0"}, "geometry": {"type": "MultiPolygon", "coordinates": [[[[113.7782604, 22.7023301], [113.778456, 22.7023183], [113.7784679, 22.7024861], [113.7782722, 22.7024978], [113.7782604, 22.7023301]]]]}}, {"type": "Feature", "id": "way/1281960172", "properties": {"tags": {"building": "industrial"}, "heightStatus": "unknown", "source": "OpenStreetMap", "license": "ODbL-1.0"}, "geometry": {"type": "MultiPolygon", "coordinates": [[[[113.7785612, 22.7023317], [113.7790939, 22.7022946], [113.7791067, 22.7024508], [113.778574, 22.7024878], [113.7785612, 22.7023317]]]]}}, {"type": "Feature", "id": "way/1281960173", "properties": {"tags": {"building": "industrial"}, "heightStatus": "unknown", "source": "OpenStreetMap", "license": "ODbL-1.0"}, "geometry": {"type": "MultiPolygon", "coordinates": [[[[113.7779966, 22.7027468], [113.7784818, 22.7027099], [113.7784957, 22.7028663], [113.7780106, 22.7029031], [113.7779966, 22.7027468]]]]}}, {"type": "Feature", "id": "way/1281960174", "properties": {"tags": {"building": "industrial"}, "heightStatus": "unknown", "source": "OpenStreetMap", "license": "ODbL-1.0"}, "geometry": {"type": "MultiPolygon", "coordinates": [[[[113.7785964, 22.7026986], [113.7791274, 22.7026591], [113.7791408, 22.7028122], [113.7786098, 22.7028518], [113.7785964, 22.7026986]]]]}}, {"type": "Feature", "id": "way/1281960175", "properties": {"tags": {"building": "industrial"}, "heightStatus": "unknown", "source": "OpenStreetMap", "license": "ODbL-1.0"}, "geometry": {"type": "MultiPolygon", "coordinates": [[[[113.7779202, 22.7014098], [113.7784604, 22.7013715], [113.7784728, 22.7015197], [113.7779326, 22.7015581], [113.7779202, 22.7014098]]]]}}, {"type": "Feature", "id": "way/1281960176", "properties": {"tags": {"building": "industrial"}, "heightStatus": "unknown", "source": "OpenStreetMap", "license": "ODbL-1.0"}, "geometry": {"type": "MultiPolygon", "coordinates": [[[[113.7792453, 22.7023385], [113.7793532, 22.7023301], [113.7793856, 22.7026834], [113.7794841, 22.7026757], [113.7794522, 22.7023283], [113.779561, 22.7023198], [113.7796009, 22.7027547], [113.7792857, 22.7027792], [113.7792453, 22.7023385]]]]}}, {"type": "Feature", "id": "way/1281960177", "properties": {"tags": {"building": "industrial"}, "heightStatus": "unknown", "source": "OpenStreetMap", "license": "ODbL-1.0"}, "geometry": {"type": "MultiPolygon", "coordinates": [[[[113.7780445, 22.7030086], [113.7786975, 22.702956], [113.7787074, 22.7030602], [113.7782342, 22.7030983], [113.7782428, 22.7031894], [113.7787097, 22.7031517], [113.7787187, 22.7032463], [113.7780719, 22.7032983], [113.7780445, 22.7030086]]]]}}, {"type": "Feature", "id": "way/1281960178", "properties": {"tags": {"building": "industrial"}, "heightStatus": "unknown", "source": "OpenStreetMap", "license": "ODbL-1.0"}, "geometry": {"type": "MultiPolygon", "coordinates": [[[[113.7788986, 22.7029432], [113.7795702, 22.7029011], [113.7795917, 22.7031922], [113.7789196, 22.7032344], [113.7789119, 22.7031301], [113.7793861, 22.7031004], [113.7793793, 22.7030086], [113.7789055, 22.7030382], [113.7788986, 22.7029432]]]]}}, {"type": "Feature", "id": "way/1281960179", "properties": {"tags": {"building": "industrial"}, "heightStatus": "unknown", "source": "OpenStreetMap", "license": "ODbL-1.0"}, "geometry": {"type": "MultiPolygon", "coordinates": [[[[113.7789337, 22.7033484], [113.7796077, 22.7033014], [113.7796256, 22.7035198], [113.7789516, 22.7035667], [113.7789337, 22.7033484]]]]}}, {"type": "Feature", "id": "way/1281960180", "properties": {"tags": {"building": "industrial"}, "heightStatus": "unknown", "source": "OpenStreetMap", "license": "ODbL-1.0"}, "geometry": {"type": "MultiPolygon", "coordinates": [[[[113.7780544, 22.7034119], [113.7787283, 22.7033649], [113.7787462, 22.7035833], [113.7780722, 22.7036302], [113.7780544, 22.7034119]]]]}}, {"type": "Feature", "id": "way/1281960181", "properties": {"tags": {"building": "industrial"}, "heightStatus": "unknown", "source": "OpenStreetMap", "license": "ODbL-1.0"}, "geometry": {"type": "MultiPolygon", "coordinates": [[[[113.7780974, 22.7037729], [113.7787714, 22.7037259], [113.7787892, 22.7039444], [113.7781153, 22.7039912], [113.7780974, 22.7037729]]]]}}, {"type": "Feature", "id": "way/1281960182", "properties": {"tags": {"building": "industrial"}, "heightStatus": "unknown", "source": "OpenStreetMap", "license": "ODbL-1.0"}, "geometry": {"type": "MultiPolygon", "coordinates": [[[[113.778957, 22.703709], [113.779631, 22.703662], [113.7796488, 22.7038804], [113.7789749, 22.7039273], [113.778957, 22.703709]]]]}}, {"type": "Feature", "id": "way/1281960183", "properties": {"tags": {"building": "industrial"}, "heightStatus": "unknown", "source": "OpenStreetMap", "license": "ODbL-1.0"}, "geometry": {"type": "MultiPolygon", "coordinates": [[[[113.7795016, 22.7001292], [113.7799029, 22.7001062], [113.7799133, 22.7002608], [113.779512, 22.7002839], [113.7795016, 22.7001292]]]]}}, {"type": "Feature", "id": "way/1281960184", "properties": {"tags": {"building": "industrial"}, "heightStatus": "unknown", "source": "OpenStreetMap", "license": "ODbL-1.0"}, "geometry": {"type": "MultiPolygon", "coordinates": [[[[113.779526, 22.7004306], [113.780108, 22.7003905], [113.780128, 22.7006379], [113.7795461, 22.700678], [113.779526, 22.7004306]]]]}}, {"type": "Feature", "id": "way/1281960185", "properties": {"tags": {"building": "industrial"}, "heightStatus": "unknown", "source": "OpenStreetMap", "license": "ODbL-1.0"}, "geometry": {"type": "MultiPolygon", "coordinates": [[[[113.7801979, 22.7003767], [113.7807798, 22.7003365], [113.7807999, 22.700584], [113.7802179, 22.700624], [113.7801979, 22.7003767]]]]}}, {"type": "Feature", "id": "way/1281960186", "properties": {"tags": {"building": "industrial"}, "heightStatus": "unknown", "source": "OpenStreetMap", "license": "ODbL-1.0"}, "geometry": {"type": "MultiPolygon", "coordinates": [[[[113.780304, 22.7000671], [113.7806035, 22.7000445], [113.7807732, 22.7001805], [113.7807817, 22.7002766], [113.7807087, 22.7002792], [113.7806834, 22.7002959], [113.7805954, 22.7002227], [113.7803197, 22.7002435], [113.780304, 22.7000671]]]]}}, {"type": "Feature", "id": "way/1281960187", "properties": {"tags": {"building": "industrial"}, "heightStatus": "unknown", "source": "OpenStreetMap", "license": "ODbL-1.0"}, "geometry": {"type": "MultiPolygon", "coordinates": [[[[113.7795608, 22.7008022], [113.7801427, 22.7007621], [113.7801628, 22.7010095], [113.7795808, 22.7010496], [113.7795608, 22.7008022]]]]}}, {"type": "Feature", "id": "way/1281960188", "properties": {"tags": {"building": "industrial"}, "heightStatus": "unknown", "source": "OpenStreetMap", "license": "ODbL-1.0"}, "geometry": {"type": "MultiPolygon", "coordinates": [[[[113.7795892, 22.7011558], [113.7801711, 22.7011156], [113.7801912, 22.7013631], [113.7796092, 22.7014031], [113.7795892, 22.7011558]]]]}}, {"type": "Feature", "id": "way/1281960189", "properties": {"tags": {"building": "industrial"}, "heightStatus": "unknown", "source": "OpenStreetMap", "license": "ODbL-1.0"}, "geometry": {"type": "MultiPolygon", "coordinates": [[[[113.7802926, 22.701209], [113.7805667, 22.7011949], [113.7805769, 22.701364], [113.7803028, 22.701378], [113.7802926, 22.701209]]]]}}, {"type": "Feature", "id": "way/1281960190", "properties": {"tags": {"building": "industrial"}, "heightStatus": "unknown", "source": "OpenStreetMap", "license": "ODbL-1.0"}, "geometry": {"type": "MultiPolygon", "coordinates": [[[[113.7805959, 22.700884], [113.780688, 22.7008783], [113.7806926, 22.700941], [113.7808031, 22.7009341], [113.780825, 22.7012314], [113.7807337, 22.7012371], [113.7807409, 22.7013356], [113.7806297, 22.7013426], [113.7805959, 22.700884]]]]}}, {"type": "Feature", "id": "way/1281960191", "properties": {"tags": {"building": "industrial"}, "heightStatus": "unknown", "source": "OpenStreetMap", "license": "ODbL-1.0"}, "geometry": {"type": "MultiPolygon", "coordinates": [[[[113.7799367, 22.701623], [113.7802488, 22.7016013], [113.780288, 22.7020815], [113.780466, 22.7020691], [113.7804274, 22.7015972], [113.7807233, 22.7015766], [113.7807714, 22.7021637], [113.7804762, 22.7021843], [113.7804702, 22.7021115], [113.7802901, 22.7021241], [113.7802961, 22.7021977], [113.7799853, 22.7022193], [113.7799367, 22.701623]]]]}}, {"type": "Feature", "id": "way/1281960192", "properties": {"tags": {"building": "industrial"}, "heightStatus": "unknown", "source": "OpenStreetMap", "license": "ODbL-1.0"}, "geometry": {"type": "MultiPolygon", "coordinates": [[[[113.7796791, 22.7017068], [113.7798055, 22.7017012], [113.779831, 22.7021964], [113.7797048, 22.702202], [113.7796791, 22.7017068]]]]}}, {"type": "Feature", "id": "way/1281960193", "properties": {"tags": {"building": "industrial"}, "heightStatus": "unknown", "source": "OpenStreetMap", "license": "ODbL-1.0"}, "geometry": {"type": "MultiPolygon", "coordinates": [[[[113.7797445, 22.7024015], [113.780216, 22.7023668], [113.7802344, 22.7025803], [113.779763, 22.7026149], [113.7797445, 22.7024015]]]]}}, {"type": "Feature", "id": "way/1281960194", "properties": {"tags": {"building": "industrial"}, "heightStatus": "unknown", "source": "OpenStreetMap", "license": "ODbL-1.0"}, "geometry": {"type": "MultiPolygon", "coordinates": [[[[113.7803785, 22.7023632], [113.7809674, 22.7023152], [113.7809875, 22.7025243], [113.7803985, 22.7025722], [113.7803785, 22.7023632]]]]}}, {"type": "Feature", "id": "way/1281960195", "properties": {"tags": {"building": "industrial"}, "heightStatus": "unknown", "source": "OpenStreetMap", "license": "ODbL-1.0"}, "geometry": {"type": "MultiPolygon", "coordinates": [[[[113.7804191, 22.7026961], [113.7809965, 22.7026554], [113.7810144, 22.7028721], [113.780437, 22.7029126], [113.7804191, 22.7026961]]]]}}, {"type": "Feature", "id": "way/1281960196", "properties": {"tags": {"building": "industrial"}, "heightStatus": "unknown", "source": "OpenStreetMap", "license": "ODbL-1.0"}, "geometry": {"type": "MultiPolygon", "coordinates": [[[[113.779759, 22.7027591], [113.7798693, 22.702751], [113.7798856, 22.7029391], [113.7802557, 22.7029118], [113.7802646, 22.7030143], [113.7797841, 22.7030496], [113.779759, 22.7027591]]]]}}, {"type": "Feature", "id": "way/1281960197", "properties": {"tags": {"building": "industrial"}, "heightStatus": "unknown", "source": "OpenStreetMap", "license": "ODbL-1.0"}, "geometry": {"type": "MultiPolygon", "coordinates": [[[[113.7797826, 22.7032036], [113.7800055, 22.7031876], [113.7800132, 22.7032785], [113.7798969, 22.7032869], [113.7799205, 22.7035664], [113.7800448, 22.7035574], [113.7800527, 22.7036499], [113.7798219, 22.7036666], [113.7797826, 22.7032036]]]]}}, {"type": "Feature", "id": "way/1281960198", "properties": {"tags": {"building": "industrial"}, "heightStatus": "unknown", "source": "OpenStreetMap", "license": "ODbL-1.0"}, "geometry": {"type": "MultiPolygon", "coordinates": [[[[113.7802153, 22.7032175], [113.7810113, 22.7031479], [113.7810418, 22.7034448], [113.7802458, 22.7035145], [113.7802153, 22.7032175]]]]}}, {"type": "Feature", "id": "way/1281960199", "properties": {"tags": {"building": "industrial"}, "heightStatus": "unknown", "source": "OpenStreetMap", "license": "ODbL-1.0"}, "geometry": {"type": "MultiPolygon", "coordinates": [[[[113.7798422, 22.7037341], [113.7800155, 22.7037224], [113.7800355, 22.703973], [113.7798622, 22.7039848], [113.7798422, 22.7037341]]]]}}, {"type": "Feature", "id": "way/1281960200", "properties": {"tags": {"building": "industrial"}, "heightStatus": "unknown", "source": "OpenStreetMap", "license": "ODbL-1.0"}, "geometry": {"type": "MultiPolygon", "coordinates": [[[[113.7802649, 22.7037668], [113.7809615, 22.7037258], [113.7809746, 22.703915], [113.780278, 22.7039559], [113.7802649, 22.7037668]]]]}}, {"type": "Feature", "id": "way/1281960201", "properties": {"tags": {"building": "industrial"}, "heightStatus": "unknown", "source": "OpenStreetMap", "license": "ODbL-1.0"}, "geometry": {"type": "MultiPolygon", "coordinates": [[[[113.7807737, 22.7035174], [113.7809493, 22.7035027], [113.7809664, 22.7036762], [113.7807908, 22.703691], [113.7807737, 22.7035174]]]]}}, {"type": "Feature", "id": "way/1281960212", "properties": {"tags": {"building": "industrial"}, "heightStatus": "unknown", "source": "OpenStreetMap", "license": "ODbL-1.0"}, "geometry": {"type": "MultiPolygon", "coordinates": [[[[113.7788183, 22.7047141], [113.7794994, 22.7046676], [113.7795168, 22.7048841], [113.7788357, 22.7049308], [113.7788183, 22.7047141]]]]}}, {"type": "Feature", "id": "way/1281960213", "properties": {"tags": {"building": "industrial"}, "heightStatus": "unknown", "source": "OpenStreetMap", "license": "ODbL-1.0"}, "geometry": {"type": "MultiPolygon", "coordinates": [[[[113.7781781, 22.7047502], [113.7786624, 22.7047237], [113.7786697, 22.7048369], [113.7782938, 22.7048575], [113.7783044, 22.7050205], [113.77869, 22.7049993], [113.7786965, 22.7051003], [113.7783183, 22.7051211], [113.7783285, 22.70528], [113.7787062, 22.7052593], [113.7787132, 22.7053687], [113.7783474, 22.7053887], [113.7783779, 22.7058622], [113.7782501, 22.7058692], [113.7781781, 22.7047502]]]]}}, {"type": "Feature", "id": "way/1281960214", "properties": {"tags": {"building": "industrial"}, "heightStatus": "unknown", "source": "OpenStreetMap", "license": "ODbL-1.0"}, "geometry": {"type": "MultiPolygon", "coordinates": [[[[113.7796318, 22.7047564], [113.780293, 22.7047004], [113.7803151, 22.704923], [113.779654, 22.7049791], [113.7796318, 22.7047564]]]]}}, {"type": "Feature", "id": "way/1281960215", "properties": {"tags": {"building": "industrial"}, "heightStatus": "unknown", "source": "OpenStreetMap", "license": "ODbL-1.0"}, "geometry": {"type": "MultiPolygon", "coordinates": [[[[113.7804714, 22.7046842], [113.7811224, 22.7046385], [113.7811409, 22.7048631], [113.7804899, 22.7049089], [113.7804714, 22.7046842]]]]}}, {"type": "Feature", "id": "way/1281960216", "properties": {"tags": {"building": "industrial"}, "heightStatus": "unknown", "source": "OpenStreetMap", "license": "ODbL-1.0"}, "geometry": {"type": "MultiPolygon", "coordinates": [[[[113.7788539, 22.705084], [113.7795315, 22.7050358], [113.779543, 22.7051735], [113.7788654, 22.7052216], [113.7788539, 22.705084]]]]}}, {"type": "Feature", "id": "way/1281960217", "properties": {"tags": {"building": "industrial"}, "heightStatus": "unknown", "source": "OpenStreetMap", "license": "ODbL-1.0"}, "geometry": {"type": "MultiPolygon", "coordinates": [[[[113.7788758, 22.7053171], [113.7795493, 22.7052727], [113.7795612, 22.7054268], [113.7788878, 22.7054713], [113.7788758, 22.7053171]]]]}}, {"type": "Feature", "id": "way/1281960218", "properties": {"tags": {"building": "industrial"}, "heightStatus": "unknown", "source": "OpenStreetMap", "license": "ODbL-1.0"}, "geometry": {"type": "MultiPolygon", "coordinates": [[[[113.7796694, 22.7051301], [113.7803198, 22.7050801], [113.7803403, 22.7053073], [113.77969, 22.7053573], [113.7796694, 22.7051301]]]]}}, {"type": "Feature", "id": "way/1281960219", "properties": {"tags": {"building": "industrial"}, "heightStatus": "unknown", "source": "OpenStreetMap", "license": "ODbL-1.0"}, "geometry": {"type": "MultiPolygon", "coordinates": [[[[113.780496, 22.7050655], [113.7811464, 22.7050155], [113.7811669, 22.7052427], [113.7805166, 22.7052927], [113.780496, 22.7050655]]]]}}, {"type": "Feature", "id": "way/1281960220", "properties": {"tags": {"building": "industrial"}, "heightStatus": "unknown", "source": "OpenStreetMap", "license": "ODbL-1.0"}, "geometry": {"type": "MultiPolygon", "coordinates": [[[[113.7790055, 22.7061725], [113.7797004, 22.7061265], [113.7797223, 22.7064075], [113.7790273, 22.7064534], [113.7790055, 22.7061725]]]]}}, {"type": "Feature", "id": "way/1281960221", "properties": {"tags": {"building": "industrial"}, "heightStatus": "unknown", "source": "OpenStreetMap", "license": "ODbL-1.0"}, "geometry": {"type": "MultiPolygon", "coordinates": [[[[113.7789011, 22.7056329], [113.7795809, 22.7055886], [113.7796035, 22.7058839], [113.7789237, 22.7059283], [113.7789011, 22.7056329]]]]}}, {"type": "Feature", "id": "relation/17582979", "properties": {"tags": {"building": "industrial"}, "heightStatus": "unknown", "source": "OpenStreetMap", "license": "ODbL-1.0"}, "geometry": {"type": "MultiPolygon", "coordinates": [[[[113.7798641, 22.7060828], [113.7804573, 22.7060321], [113.780486, 22.7063177], [113.7798928, 22.7063683], [113.7798641, 22.7060828]], [[113.7799705, 22.7061578], [113.7799829, 22.7062862], [113.7803962, 22.7062522], [113.7803838, 22.7061238], [113.7799705, 22.7061578]]]]}}, {"type": "Feature", "id": "relation/17582980", "properties": {"tags": {"building": "industrial"}, "heightStatus": "unknown", "source": "OpenStreetMap", "license": "ODbL-1.0"}, "geometry": {"type": "MultiPolygon", "coordinates": [[[[113.7805893, 22.7060247], [113.7811826, 22.705974], [113.7812112, 22.7062596], [113.780618, 22.7063102], [113.7805893, 22.7060247]], [[113.7806957, 22.7060997], [113.7807081, 22.7062281], [113.7811214, 22.7061941], [113.781109, 22.7060657], [113.7806957, 22.7060997]]]]}}, {"type": "Feature", "id": "way/1281960228", "properties": {"tags": {"building": "industrial"}, "heightStatus": "unknown", "source": "OpenStreetMap", "license": "ODbL-1.0"}, "geometry": {"type": "MultiPolygon", "coordinates": [[[[113.7797156, 22.7057515], [113.7803797, 22.7057004], [113.7803887, 22.7058005], [113.7797247, 22.7058517], [113.7797156, 22.7057515]]]]}}, {"type": "Feature", "id": "way/1281960229", "properties": {"tags": {"building": "industrial"}, "heightStatus": "unknown", "source": "OpenStreetMap", "license": "ODbL-1.0"}, "geometry": {"type": "MultiPolygon", "coordinates": [[[[113.7805264, 22.7054543], [113.7811869, 22.7054086], [113.7812139, 22.7057414], [113.780552, 22.7057872], [113.7805436, 22.705684], [113.7811187, 22.705644], [113.7811077, 22.7055094], [113.7805342, 22.7055492], [113.7805264, 22.7054543]]]]}}, {"type": "Feature", "id": "way/1282373520", "properties": {"tags": {"building": "office", "building:levels": "18", "name": "卓越写字楼", "name:zh": "卓越写字楼", "name:zh-Hans": "卓越写字楼", "name:zh-Hant": "卓越寫字樓"}, "heightStatus": "levels_only_unverified", "source": "OpenStreetMap", "license": "ODbL-1.0"}, "geometry": {"type": "MultiPolygon", "coordinates": [[[[113.7729613, 22.7058217], [113.7736113, 22.705704], [113.7736835, 22.706043], [113.7730335, 22.7061608], [113.7729613, 22.7058217]]]]}}, {"type": "Feature", "id": "way/1282373542", "properties": {"tags": {"building": "commercial"}, "heightStatus": "unknown", "source": "OpenStreetMap", "license": "ODbL-1.0"}, "geometry": {"type": "MultiPolygon", "coordinates": [[[[113.774482, 22.6988564], [113.7745394, 22.6981267], [113.7747415, 22.6981402], [113.7746839, 22.6988699], [113.774482, 22.6988564]]]]}}, {"type": "Feature", "id": "way/1282373543", "properties": {"tags": {"building": "commercial"}, "heightStatus": "unknown", "source": "OpenStreetMap", "license": "ODbL-1.0"}, "geometry": {"type": "MultiPolygon", "coordinates": [[[[113.7738035, 22.699168], [113.7739926, 22.6978633], [113.7744518, 22.6979199], [113.774389, 22.698353], [113.7741933, 22.6983289], [113.7740668, 22.6992005], [113.7738035, 22.699168]]]]}}, {"type": "Feature", "id": "way/1282373544", "properties": {"tags": {"building": "commercial"}, "heightStatus": "unknown", "source": "OpenStreetMap", "license": "ODbL-1.0"}, "geometry": {"type": "MultiPolygon", "coordinates": [[[[113.7741192, 22.6994189], [113.7741354, 22.6993116], [113.7741659, 22.6993078], [113.7741797, 22.6992221], [113.7746222, 22.6992826], [113.7745899, 22.6994787], [113.7741192, 22.6994189]]]]}}, {"type": "Feature", "id": "way/1282373545", "properties": {"tags": {"building": "commercial"}, "heightStatus": "unknown", "source": "OpenStreetMap", "license": "ODbL-1.0"}, "geometry": {"type": "MultiPolygon", "coordinates": [[[[113.7737749, 22.7002327], [113.7738229, 22.6999586], [113.7743909, 22.7000432], [113.7743429, 22.7003174], [113.7737749, 22.7002327]]]]}}, {"type": "Feature", "id": "way/1282373548", "properties": {"tags": {"building": "yes"}, "heightStatus": "unknown", "source": "OpenStreetMap", "license": "ODbL-1.0"}, "geometry": {"type": "MultiPolygon", "coordinates": [[[[113.7727736, 22.7009152], [113.772802, 22.7007399], [113.7728874, 22.7006977], [113.7729138, 22.7007165], [113.7729931, 22.7009105], [113.7729779, 22.700933], [113.7727736, 22.7009152]]]]}}, {"type": "Feature", "id": "way/1282373549", "properties": {"tags": {"building": "yes"}, "heightStatus": "unknown", "source": "OpenStreetMap", "license": "ODbL-1.0"}, "geometry": {"type": "MultiPolygon", "coordinates": [[[[113.7727525, 22.7011214], [113.7727749, 22.7009695], [113.772781, 22.700962], [113.7729792, 22.7009807], [113.7729883, 22.7009967], [113.7729588, 22.7012208], [113.7729406, 22.701248], [113.7729111, 22.7012442], [113.7727525, 22.7011214]]]]}}, {"type": "Feature", "id": "way/1282373550", "properties": {"tags": {"building": "yes"}, "heightStatus": "unknown", "source": "OpenStreetMap", "license": "ODbL-1.0"}, "geometry": {"type": "MultiPolygon", "coordinates": [[[[113.7726786, 22.7015302], [113.7727063, 22.7013607], [113.7727146, 22.7013447], [113.7728989, 22.7013629], [113.7729202, 22.7013784], [113.7729175, 22.7014004], [113.7727804, 22.7015686], [113.7727485, 22.7015792], [113.7726786, 22.7015302]]]]}}, {"type": "Feature", "id": "way/1282373551", "properties": {"tags": {"building": "yes"}, "heightStatus": "unknown", "source": "OpenStreetMap", "license": "ODbL-1.0"}, "geometry": {"type": "MultiPolygon", "coordinates": [[[[113.772877, 22.7018338], [113.7728832, 22.7017587], [113.7729416, 22.7016975], [113.7730132, 22.7017505], [113.7730008, 22.7018428], [113.772992, 22.7018518], [113.7728902, 22.7018436], [113.772877, 22.7018338]]]]}}, {"type": "Feature", "id": "way/1282373552", "properties": {"tags": {"building": "yes"}, "heightStatus": "unknown", "source": "OpenStreetMap", "license": "ODbL-1.0"}, "geometry": {"type": "MultiPolygon", "coordinates": [[[[113.7727509, 22.7021147], [113.7727694, 22.7019883], [113.7728172, 22.70193], [113.7728356, 22.7019254], [113.7729805, 22.7020195], [113.772962, 22.7021524], [113.7729496, 22.7021581], [113.7727671, 22.7021346], [113.7727509, 22.7021147]]]]}}, {"type": "Feature", "id": "way/1282373553", "properties": {"tags": {"building": "yes"}, "heightStatus": "unknown", "source": "OpenStreetMap", "license": "ODbL-1.0"}, "geometry": {"type": "MultiPolygon", "coordinates": [[[[113.7727316, 22.7021993], [113.7727356, 22.7021839], [113.772761, 22.7021671], [113.7729475, 22.7021938], [113.7729254, 22.7023769], [113.7729167, 22.7023868], [113.7728382, 22.7024115], [113.7728235, 22.7024066], [113.7727316, 22.7021993]]]]}}, {"type": "Feature", "id": "way/1282373554", "properties": {"tags": {"building": "yes"}, "heightStatus": "unknown", "source": "OpenStreetMap", "license": "ODbL-1.0"}, "geometry": {"type": "MultiPolygon", "coordinates": [[[[113.7725284, 22.702532], [113.772552, 22.7023528], [113.7725624, 22.7023412], [113.7726357, 22.7023173], [113.7726491, 22.7023198], [113.7727457, 22.7025295], [113.7727403, 22.7025462], [113.7727149, 22.7025573], [113.7725284, 22.702532]]]]}}, {"type": "Feature", "id": "way/1282373555", "properties": {"tags": {"building": "yes"}, "heightStatus": "unknown", "source": "OpenStreetMap", "license": "ODbL-1.0"}, "geometry": {"type": "MultiPolygon", "coordinates": [[[[113.7724939, 22.7028237], [113.7725104, 22.7026844], [113.7725251, 22.7026638], [113.7727107, 22.7025928], [113.7727292, 22.7025949], [113.7727446, 22.7026126], [113.7727038, 22.7028528], [113.7726884, 22.7028592], [113.7725004, 22.7028351], [113.7724939, 22.7028237]]]]}}, {"type": "Feature", "id": "way/1282373556", "properties": {"tags": {"building": "yes"}, "heightStatus": "unknown", "source": "OpenStreetMap", "license": "ODbL-1.0"}, "geometry": {"type": "MultiPolygon", "coordinates": [[[[113.7724913, 22.7030109], [113.7725046, 22.7028876], [113.7725231, 22.7028705], [113.7727054, 22.7028966], [113.7727173, 22.7029062], [113.7726886, 22.7030574], [113.7726506, 22.7031088], [113.7726205, 22.703108], [113.7724913, 22.7030109]]]]}}, {"type": "Feature", "id": "way/1282373557", "properties": {"tags": {"building": "yes"}, "heightStatus": "unknown", "source": "OpenStreetMap", "license": "ODbL-1.0"}, "geometry": {"type": "MultiPolygon", "coordinates": [[[[113.7724583, 22.7032834], [113.7724689, 22.703192], [113.7724786, 22.7031798], [113.772583, 22.7031928], [113.7725875, 22.7032026], [113.7725777, 22.7032851], [113.7725273, 22.7033357], [113.7724583, 22.7032834]]]]}}, {"type": "Feature", "id": "way/1282373558", "properties": {"tags": {"building": "yes"}, "heightStatus": "unknown", "source": "OpenStreetMap", "license": "ODbL-1.0"}, "geometry": {"type": "MultiPolygon", "coordinates": [[[[113.7725173, 22.7035957], [113.7725287, 22.7035759], [113.7726581, 22.7034212], [113.7726715, 22.7034082], [113.7727017, 22.7034144], [113.7727553, 22.7034577], [113.7727275, 22.7036446], [113.7725466, 22.703623], [113.7725246, 22.7036149], [113.7725173, 22.7035957]]]]}}, {"type": "Feature", "id": "way/1282373559", "properties": {"tags": {"building": "yes"}, "heightStatus": "unknown", "source": "OpenStreetMap", "license": "ODbL-1.0"}, "geometry": {"type": "MultiPolygon", "coordinates": [[[[113.7724558, 22.7039039], [113.7724881, 22.703684], [113.7724931, 22.7036715], [113.7725058, 22.7036591], [113.7725235, 22.7036563], [113.7725382, 22.7036648], [113.7726961, 22.7037834], [113.7726737, 22.7039362], [113.7726568, 22.7039476], [113.7724789, 22.7039241], [113.7724558, 22.7039039]]]]}}, {"type": "Feature", "id": "way/1282373560", "properties": {"tags": {"building": "yes"}, "heightStatus": "unknown", "source": "OpenStreetMap", "license": "ODbL-1.0"}, "geometry": {"type": "MultiPolygon", "coordinates": [[[[113.7724355, 22.7041503], [113.7724559, 22.7040295], [113.7724727, 22.7040091], [113.7724851, 22.7040027], [113.77267, 22.7040295], [113.7726461, 22.7041724], [113.7724912, 22.7042303], [113.7724691, 22.704223], [113.7724355, 22.7041503]]]]}}, {"type": "Feature", "id": "way/1282373561", "properties": {"tags": {"building": "yes"}, "heightStatus": "unknown", "source": "OpenStreetMap", "license": "ODbL-1.0"}, "geometry": {"type": "MultiPolygon", "coordinates": [[[[113.7724848, 22.704403], [113.7725011, 22.7043158], [113.7726201, 22.7043385], [113.7726024, 22.7044397], [113.7725175, 22.7044683], [113.7725069, 22.704465], [113.7724848, 22.704403]]]]}}, {"type": "Feature", "id": "way/1282373562", "properties": {"tags": {"building": "yes"}, "heightStatus": "unknown", "source": "OpenStreetMap", "license": "ODbL-1.0"}, "geometry": {"type": "MultiPolygon", "coordinates": [[[[113.772217, 22.7045247], [113.7722412, 22.7043519], [113.7723264, 22.704311], [113.7723567, 22.7043293], [113.7724373, 22.7045081], [113.7724338, 22.7045382], [113.7724116, 22.704549], [113.772217, 22.7045247]]]]}}, {"type": "Feature", "id": "way/1282373563", "properties": {"tags": {"building": "yes"}, "heightStatus": "unknown", "source": "OpenStreetMap", "license": "ODbL-1.0"}, "geometry": {"type": "MultiPolygon", "coordinates": [[[[113.7721909, 22.7048136], [113.7722184, 22.7046526], [113.7723963, 22.7045776], [113.7724215, 22.7045789], [113.772439, 22.7046014], [113.7724035, 22.7048291], [113.7723854, 22.7048414], [113.7721909, 22.7048136]]]]}}, {"type": "Feature", "id": "way/1282373564", "properties": {"tags": {"building": "yes"}, "heightStatus": "unknown", "source": "OpenStreetMap", "license": "ODbL-1.0"}, "geometry": {"type": "MultiPolygon", "coordinates": [[[[113.7721438, 22.7050098], [113.7721676, 22.7048549], [113.7721826, 22.704843], [113.7723666, 22.7048651], [113.7723781, 22.7048773], [113.7723821, 22.7048941], [113.7722406, 22.7050673], [113.7722281, 22.7050747], [113.7722086, 22.7050736], [113.7721461, 22.7050273], [113.7721438, 22.7050098]]]]}}, {"type": "Feature", "id": "way/1282373593", "properties": {"tags": {"building": "apartments"}, "heightStatus": "unknown", "source": "OpenStreetMap", "license": "ODbL-1.0"}, "geometry": {"type": "MultiPolygon", "coordinates": [[[[113.776963, 22.7061138], [113.7769716, 22.7059308], [113.7772521, 22.705942], [113.7774998, 22.7061636], [113.7773687, 22.7062883], [113.7771837, 22.7061226], [113.776963, 22.7061138]]]]}}, {"type": "Feature", "id": "way/1282373594", "properties": {"tags": {"building": "apartments"}, "heightStatus": "unknown", "source": "OpenStreetMap", "license": "ODbL-1.0"}, "geometry": {"type": "MultiPolygon", "coordinates": [[[[113.7760052, 22.7061203], [113.7762667, 22.7059037], [113.7765696, 22.7058963], [113.7765749, 22.7060838], [113.776347, 22.7060893], [113.7761411, 22.7062599], [113.7760052, 22.7061203]]]]}}, {"type": "Feature", "id": "way/1431919756", "properties": {"tags": {"building": "commercial", "layer": "2"}, "heightStatus": "unknown", "source": "OpenStreetMap", "license": "ODbL-1.0"}, "geometry": {"type": "MultiPolygon", "coordinates": [[[[113.7739907, 22.7016425], [113.7740875, 22.7010417], [113.7742902, 22.7010695], [113.7741933, 22.7016703], [113.7739907, 22.7016425]]]]}}, {"type": "Feature", "id": "way/1431919761", "properties": {"tags": {"building": "commercial", "layer": "2"}, "heightStatus": "unknown", "source": "OpenStreetMap", "license": "ODbL-1.0"}, "geometry": {"type": "MultiPolygon", "coordinates": [[[[113.7738731, 22.702342], [113.7739699, 22.7017412], [113.7741726, 22.701769], [113.7740757, 22.7023698], [113.7738731, 22.702342]]]]}}, {"type": "Feature", "id": "way/1431919762", "properties": {"tags": {"building": "commercial", "layer": "2"}, "heightStatus": "unknown", "source": "OpenStreetMap", "license": "ODbL-1.0"}, "geometry": {"type": "MultiPolygon", "coordinates": [[[[113.773462, 22.7040926], [113.7735461, 22.7035053], [113.7739054, 22.7035491], [113.7738214, 22.7041364], [113.773462, 22.7040926]]]]}}, {"type": "Feature", "id": "way/1431919769", "properties": {"tags": {"building": "commercial", "layer": "2"}, "heightStatus": "unknown", "source": "OpenStreetMap", "license": "ODbL-1.0"}, "geometry": {"type": "MultiPolygon", "coordinates": [[[[113.7732515, 22.7048427], [113.7733224, 22.7043515], [113.7737613, 22.7044075], [113.7737038, 22.7047895], [113.7733294, 22.7048678], [113.7732515, 22.7048427]]]]}}, {"type": "Feature", "id": "way/1431919770", "properties": {"tags": {"building": "commercial", "layer": "2"}, "heightStatus": "unknown", "source": "OpenStreetMap", "license": "ODbL-1.0"}, "geometry": {"type": "MultiPolygon", "coordinates": [[[[113.7737737, 22.7008522], [113.7738028, 22.7006828], [113.7742893, 22.7007509], [113.7743327, 22.7008047], [113.774307, 22.7009191], [113.7737737, 22.7008522]]]]}}, {"type": "Feature", "id": "way/1431919771", "properties": {"tags": {"building": "commercial", "layer": "2"}, "heightStatus": "unknown", "source": "OpenStreetMap", "license": "ODbL-1.0"}, "geometry": {"type": "MultiPolygon", "coordinates": [[[[113.7730329, 22.7044139], [113.7731577, 22.7034227], [113.7732379, 22.7034356], [113.7732581, 22.7033286], [113.7731709, 22.7033178], [113.7732052, 22.7031309], [113.7732358, 22.7029642], [113.773506, 22.7029087], [113.7735697, 22.7024157], [113.7733279, 22.702296], [113.7735591, 22.7007723], [113.7737136, 22.7006624], [113.7743589, 22.7007669], [113.7743094, 22.701039], [113.7744132, 22.7010509], [113.77417, 22.7029293], [113.773985, 22.7043584], [113.7738045, 22.7043388], [113.7737172, 22.7048078], [113.7733408, 22.7048884], [113.7732417, 22.7048568], [113.7731804, 22.7046359], [113.7730329, 22.7044139]]]]}}, {"type": "Feature", "id": "way/1431919799", "properties": {"tags": {"building": "yes", "layer": "2"}, "heightStatus": "unknown", "source": "OpenStreetMap", "license": "ODbL-1.0"}, "geometry": {"type": "MultiPolygon", "coordinates": [[[[113.7731007, 22.700031], [113.773252, 22.6990205], [113.7731116, 22.6990031], [113.77332, 22.6973828], [113.7733878, 22.6973028], [113.7733824, 22.6972596], [113.7733465, 22.6972328], [113.7736456, 22.695356], [113.7736946, 22.6950257], [113.7737639, 22.6948354], [113.7738075, 22.6947988], [113.7738736, 22.6948182], [113.7739756, 22.6949711], [113.7743243, 22.6957158], [113.774357, 22.6958587], [113.7743181, 22.6959535], [113.7742488, 22.6960109], [113.7741647, 22.6960224], [113.7740137, 22.6960439], [113.7739383, 22.6960626], [113.773816, 22.696369], [113.7732769, 22.7000497], [113.7731007, 22.700031]]]]}}, {"type": "Feature", "id": "way/1431919806", "properties": {"tags": {"building": "apartments", "building:levels": "25", "name": "1栋", "name:en": "Block 1", "name:zh": "1栋"}, "heightStatus": "levels_only_unverified", "source": "OpenStreetMap", "license": "ODbL-1.0"}, "geometry": {"type": "MultiPolygon", "coordinates": [[[[113.7762078, 22.7042958], [113.7763121, 22.7037273], [113.7764526, 22.7037492], [113.7764311, 22.7038666], [113.7764616, 22.7038713], [113.7764531, 22.7039178], [113.7764292, 22.703914], [113.7763831, 22.704166], [113.7764151, 22.704171], [113.7764055, 22.7042234], [113.7763741, 22.7042186], [113.7763557, 22.7043189], [113.7762078, 22.7042958]]]]}}, {"type": "Feature", "id": "way/1431919807", "properties": {"tags": {"building": "apartments", "building:levels": "25", "name": "2栋", "name:en": "Block 2", "name:zh": "2栋"}, "heightStatus": "levels_only_unverified", "source": "OpenStreetMap", "license": "ODbL-1.0"}, "geometry": {"type": "MultiPolygon", "coordinates": [[[[113.7765573, 22.7041291], [113.7766802, 22.7041045], [113.7766735, 22.7040761], [113.7771379, 22.703983], [113.7771517, 22.7040413], [113.7771278, 22.7040461], [113.7771338, 22.7040718], [113.7771645, 22.7040657], [113.7771795, 22.7041296], [113.7767042, 22.704225], [113.7767094, 22.704247], [113.7765907, 22.7042708], [113.7765573, 22.7041291]]]]}}, {"type": "Feature", "id": "way/1431919808", "properties": {"tags": {"building": "apartments", "building:levels": "25", "name": "3栋", "name:en": "Block 3", "name:zh": "3栋"}, "heightStatus": "levels_only_unverified", "source": "OpenStreetMap", "license": "ODbL-1.0"}, "geometry": {"type": "MultiPolygon", "coordinates": [[[[113.7771122, 22.703343], [113.7772795, 22.7033315], [113.7773226, 22.7038689], [113.7772536, 22.7038736], [113.7772516, 22.7038489], [113.777224, 22.7038508], [113.7772262, 22.7038785], [113.7771556, 22.7038833], [113.7771122, 22.703343]]]]}}, {"type": "Feature", "id": "way/1431919809", "properties": {"tags": {"building": "apartments", "building:levels": "21", "name": "4栋", "name:en": "Block 4", "name:zh": "4栋"}, "heightStatus": "levels_only_unverified", "source": "OpenStreetMap", "license": "ODbL-1.0"}, "geometry": {"type": "MultiPolygon", "coordinates": [[[[113.7767489, 22.7029745], [113.7767622, 22.7028586], [113.7772691, 22.7029083], [113.7772637, 22.7029552], [113.7772154, 22.7029505], [113.7772121, 22.7029788], [113.7772589, 22.7029834], [113.7772543, 22.703024], [113.7767489, 22.7029745]]]]}}, {"type": "Feature", "id": "way/1431919810", "properties": {"tags": {"building": "apartments", "building:levels": "20", "name": "7栋", "name:en": "Block 7", "name:zh": "7栋"}, "heightStatus": "levels_only_unverified", "source": "OpenStreetMap", "license": "ODbL-1.0"}, "geometry": {"type": "MultiPolygon", "coordinates": [[[[113.7769621, 22.7009655], [113.7770989, 22.7009581], [113.7771288, 22.7014303], [113.7769921, 22.7014377], [113.7769621, 22.7009655]]]]}}, {"type": "Feature", "id": "way/1431919811", "properties": {"tags": {"building": "apartments", "building:levels": "21", "name": "5栋", "name:en": "Block 5", "name:zh": "5栋"}, "heightStatus": "levels_only_unverified", "source": "OpenStreetMap", "license": "ODbL-1.0"}, "geometry": {"type": "MultiPolygon", "coordinates": [[[[113.7764295, 22.7027616], [113.7765223, 22.7021858], [113.7766645, 22.7022053], [113.7765715, 22.7027811], [113.7764295, 22.7027616]]]]}}, {"type": "Feature", "id": "way/1431919812", "properties": {"tags": {"building": "apartments", "building:levels": "20", "name": "6栋", "name:en": "Block 6", "name:zh": "6栋"}, "heightStatus": "levels_only_unverified", "source": "OpenStreetMap", "license": "ODbL-1.0"}, "geometry": {"type": "MultiPolygon", "coordinates": [[[[113.7765247, 22.7021219], [113.7766352, 22.7014344], [113.7767818, 22.7014545], [113.7766711, 22.702142], [113.7765247, 22.7021219]]]]}}, {"type": "Feature", "id": "way/1431919813", "properties": {"tags": {"building": "apartments", "building:levels": "16", "name": "8栋", "name:en": "Block 8", "name:zh": "8栋"}, "heightStatus": "levels_only_unverified", "source": "OpenStreetMap", "license": "ODbL-1.0"}, "geometry": {"type": "MultiPolygon", "coordinates": [[[[113.7767666, 22.7006026], [113.7770727, 22.7005795], [113.7770793, 22.7006541], [113.7770064, 22.7006596], [113.7770081, 22.7006796], [113.7770832, 22.7006739], [113.7770897, 22.7007475], [113.7769499, 22.700758], [113.7769441, 22.7006927], [113.7769151, 22.7006949], [113.7769212, 22.7007636], [113.7767829, 22.700774], [113.7767775, 22.7007126], [113.7768484, 22.7007073], [113.7768455, 22.7006744], [113.7767735, 22.7006798], [113.7767666, 22.7006026]]]]}}, {"type": "Feature", "id": "way/1431919814", "properties": {"tags": {"building": "kindergarten", "name": "深圳市宝安区福海纯水岸幼儿园"}, "heightStatus": "unknown", "source": "OpenStreetMap", "license": "ODbL-1.0"}, "geometry": {"type": "MultiPolygon", "coordinates": [[[[113.7770102, 22.7019051], [113.7771561, 22.7019099], [113.7771643, 22.7020596], [113.7772218, 22.7021756], [113.7771735, 22.702241], [113.7772013, 22.7022931], [113.7772018, 22.7023803], [113.7772403, 22.7025101], [113.7771099, 22.7025551], [113.7770878, 22.7025461], [113.7770308, 22.702385], [113.7770498, 22.7023755], [113.7770421, 22.7023485], [113.7770403, 22.702285], [113.7770275, 22.7022604], [113.7770373, 22.7022377], [113.7770344, 22.702123], [113.7770159, 22.7021027], [113.7770102, 22.7019051]]]]}}, {"type": "Feature", "id": "way/1431919815", "properties": {"tags": {"building": "hotel"}, "heightStatus": "unknown", "source": "OpenStreetMap", "license": "ODbL-1.0"}, "geometry": {"type": "MultiPolygon", "coordinates": [[[[113.7760744, 22.7052801], [113.7761779, 22.7052568], [113.7761715, 22.7052326], [113.776259, 22.7052129], [113.7763641, 22.7056089], [113.776173, 22.705652], [113.7760744, 22.7052801]]]]}}, {"type": "Feature", "id": "way/1431919816", "properties": {"tags": {"building": "hotel"}, "heightStatus": "unknown", "source": "OpenStreetMap", "license": "ODbL-1.0"}, "geometry": {"type": "MultiPolygon", "coordinates": [[[[113.776793, 22.7050621], [113.7772809, 22.7049882], [113.7773435, 22.704947], [113.777382, 22.7050896], [113.777359, 22.7050948], [113.7773802, 22.7051663], [113.7773982, 22.7051658], [113.7774263, 22.7052847], [113.7769571, 22.7053682], [113.7768734, 22.7054205], [113.7768372, 22.7052562], [113.7768585, 22.7052537], [113.7768406, 22.7051912], [113.7768243, 22.7051949], [113.776793, 22.7050621]]]]}}, {"type": "Feature", "id": "way/1431919817", "properties": {"tags": {"building": "yes", "name": "深圳国际会展中心洲际酒店", "name:zh": "深圳国际会展中心洲际酒店", "name:zh-Hans": "深圳国际会展中心洲际酒店", "name:zh-Hant": "深圳國際會展中心洲際酒店", "tourism": "hotel"}, "heightStatus": "unknown", "source": "OpenStreetMap", "license": "ODbL-1.0"}, "geometry": {"type": "MultiPolygon", "coordinates": [[[[113.7759198, 22.7058836], [113.7759903, 22.705126], [113.7774159, 22.7048785], [113.777527, 22.704946], [113.7775716, 22.7058277], [113.7759198, 22.7058836]]]]}}]}