{"type": "FeatureCollection", "features": [{"type": "Feature", "id": "way/1283551823", "properties": {"tags": {"building": "yes", "name": "深圳澔悦格兰云天国际酒店", "tourism": "hotel"}, "heightStatus": "unknown", "source": "OpenStreetMap", "license": "ODbL-1.0"}, "geometry": {"type": "MultiPolygon", "coordinates": [[[[113.7793656, 22.7376232], [113.7803737, 22.7376853], [113.7805507, 22.7378881], [113.7806241, 22.7388439], [113.7794958, 22.7389332], [113.7793656, 22.7376232]]]]}}, {"type": "Feature", "id": "way/1285064375", "properties": {"tags": {"building": "industrial"}, "heightStatus": "unknown", "source": "OpenStreetMap", "license": "ODbL-1.0"}, "geometry": {"type": "MultiPolygon", "coordinates": [[[[113.7771691, 22.7415122], [113.777626, 22.7414781], [113.7776492, 22.7417423], [113.7771923, 22.7417764], [113.7771691, 22.7415122]]]]}}, {"type": "Feature", "id": "way/1285064376", "properties": {"tags": {"building": "industrial"}, "heightStatus": "unknown", "source": "OpenStreetMap", "license": "ODbL-1.0"}, "geometry": {"type": "MultiPolygon", "coordinates": [[[[113.7772028, 22.7418941], [113.7776596, 22.74186], [113.7776828, 22.7421241], [113.7772259, 22.7421582], [113.7772028, 22.7418941]]]]}}, {"type": "Feature", "id": "way/1285064377", "properties": {"tags": {"building": "industrial"}, "heightStatus": "unknown", "source": "OpenStreetMap", "license": "ODbL-1.0"}, "geometry": {"type": "MultiPolygon", "coordinates": [[[[113.7778522, 22.7418428], [113.7783091, 22.7418087], [113.7783323, 22.7420728], [113.7778754, 22.7421069], [113.7778522, 22.7418428]]]]}}, {"type": "Feature", "id": "way/1285064378", "properties": {"tags": {"building": "industrial"}, "heightStatus": "unknown", "source": "OpenStreetMap", "license": "ODbL-1.0"}, "geometry": {"type": "MultiPolygon", "coordinates": [[[[113.7778186, 22.7414609], [113.7782755, 22.7414268], [113.7782987, 22.7416909], [113.7778418, 22.741725], [113.7778186, 22.7414609]]]]}}, {"type": "Feature", "id": "way/1285064379", "properties": {"tags": {"building": "industrial"}, "heightStatus": "unknown", "source": "OpenStreetMap", "license": "ODbL-1.0"}, "geometry": {"type": "MultiPolygon", "coordinates": [[[[113.7772562, 22.7423919], [113.7777042, 22.742351], [113.7777132, 22.7424349], [113.7772653, 22.7424758], [113.7772562, 22.7423919]]]]}}, {"type": "Feature", "id": "way/1285064380", "properties": {"tags": {"building": "industrial"}, "heightStatus": "unknown", "source": "OpenStreetMap", "license": "ODbL-1.0"}, "geometry": {"type": "MultiPolygon", "coordinates": [[[[113.77786, 22.7423559], [113.7781099, 22.7423427], [113.7780989, 22.7421654], [113.778333, 22.742153], [113.7783498, 22.7424232], [113.7778657, 22.7424488], [113.77786, 22.7423559]]]]}}, {"type": "Feature", "id": "way/1285064381", "properties": {"tags": {"building": "industrial"}, "heightStatus": "unknown", "source": "OpenStreetMap", "license": "ODbL-1.0"}, "geometry": {"type": "MultiPolygon", "coordinates": [[[[113.775608, 22.7405484], [113.7757992, 22.7405453], [113.7758161, 22.7414309], [113.7756248, 22.741434], [113.775608, 22.7405484]]]]}}, {"type": "Feature", "id": "way/1285064382", "properties": {"tags": {"building": "industrial"}, "heightStatus": "unknown", "source": "OpenStreetMap", "license": "ODbL-1.0"}, "geometry": {"type": "MultiPolygon", "coordinates": [[[[113.7759489, 22.7405907], [113.7769005, 22.7405591], [113.776914, 22.7409057], [113.7759625, 22.7409374], [113.7759489, 22.7405907]]]]}}, {"type": "Feature", "id": "way/1285064383", "properties": {"tags": {"building": "industrial"}, "heightStatus": "unknown", "source": "OpenStreetMap", "license": "ODbL-1.0"}, "geometry": {"type": "MultiPolygon", "coordinates": [[[[113.7759742, 22.7411111], [113.7769302, 22.741087], [113.7769378, 22.7413432], [113.7759818, 22.7413675], [113.7759742, 22.7411111]]]]}}, {"type": "Feature", "id": "way/1285064384", "properties": {"tags": {"building": "industrial"}, "heightStatus": "unknown", "source": "OpenStreetMap", "license": "ODbL-1.0"}, "geometry": {"type": "MultiPolygon", "coordinates": [[[[113.7771411, 22.7411446], [113.7775979, 22.7411105], [113.7776211, 22.7413746], [113.7771642, 22.7414087], [113.7771411, 22.7411446]]]]}}, {"type": "Feature", "id": "way/1285064385", "properties": {"tags": {"building": "industrial"}, "heightStatus": "unknown", "source": "OpenStreetMap", "license": "ODbL-1.0"}, "geometry": {"type": "MultiPolygon", "coordinates": [[[[113.7777906, 22.7410933], [113.7782474, 22.7410592], [113.7782706, 22.7413233], [113.7778137, 22.7413574], [113.7777906, 22.7410933]]]]}}, {"type": "Feature", "id": "way/1285064386", "properties": {"tags": {"building": "industrial"}, "heightStatus": "unknown", "source": "OpenStreetMap", "license": "ODbL-1.0"}, "geometry": {"type": "MultiPolygon", "coordinates": [[[[113.7777569, 22.7407114], [113.7782138, 22.7406773], [113.778237, 22.7409414], [113.7777801, 22.7409755], [113.7777569, 22.7407114]]]]}}, {"type": "Feature", "id": "way/1285064387", "properties": {"tags": {"building": "industrial"}, "heightStatus": "unknown", "source": "OpenStreetMap", "license": "ODbL-1.0"}, "geometry": {"type": "MultiPolygon", "coordinates": [[[[113.7771074, 22.7407627], [113.7775643, 22.7407286], [113.7775875, 22.7409927], [113.7771306, 22.7410268], [113.7771074, 22.7407627]]]]}}, {"type": "Feature", "id": "way/1285064388", "properties": {"tags": {"building": "industrial"}, "heightStatus": "unknown", "source": "OpenStreetMap", "license": "ODbL-1.0"}, "geometry": {"type": "MultiPolygon", "coordinates": [[[[113.7770857, 22.7404413], [113.7775135, 22.7404094], [113.7775211, 22.7404961], [113.7770933, 22.7405279], [113.7770857, 22.7404413]]]]}}, {"type": "Feature", "id": "way/1285064389", "properties": {"tags": {"building": "industrial"}, "heightStatus": "unknown", "source": "OpenStreetMap", "license": "ODbL-1.0"}, "geometry": {"type": "MultiPolygon", "coordinates": [[[[113.7777605, 22.7403945], [113.7781883, 22.7403625], [113.7781959, 22.7404492], [113.7777681, 22.7404811], [113.7777605, 22.7403945]]]]}}, {"type": "Feature", "id": "way/1285064393", "properties": {"tags": {"building": "industrial"}, "heightStatus": "unknown", "source": "OpenStreetMap", "license": "ODbL-1.0"}, "geometry": {"type": "MultiPolygon", "coordinates": [[[[113.7761665, 22.7386228], [113.7762024, 22.7386203], [113.7762019, 22.7386142], [113.7762254, 22.7386126], [113.7762247, 22.7386035], [113.7764296, 22.7385896], [113.7764304, 22.7385992], [113.7764561, 22.7385975], [113.7764568, 22.7386061], [113.7764909, 22.7386038], [113.7765292, 22.7390853], [113.7762051, 22.7391072], [113.7761665, 22.7386228]]]]}}, {"type": "Feature", "id": "way/1285064394", "properties": {"tags": {"building": "industrial"}, "heightStatus": "unknown", "source": "OpenStreetMap", "license": "ODbL-1.0"}, "geometry": {"type": "MultiPolygon", "coordinates": [[[[113.776584, 22.7384277], [113.776672, 22.738421], [113.7766707, 22.7384067], [113.7767759, 22.7383986], [113.7768334, 22.7390365], [113.7766404, 22.7390513], [113.776584, 22.7384277]]]]}}, {"type": "Feature", "id": "way/1285064395", "properties": {"tags": {"building": "industrial"}, "heightStatus": "unknown", "source": "OpenStreetMap", "license": "ODbL-1.0"}, "geometry": {"type": "MultiPolygon", "coordinates": [[[[113.7756779, 22.7388234], [113.7756896, 22.7387804], [113.7757083, 22.7387545], [113.775687, 22.7385261], [113.7761204, 22.7384917], [113.7761803, 22.739133], [113.7757478, 22.7391674], [113.7757246, 22.7389193], [113.7757001, 22.7388956], [113.7756814, 22.7388547], [113.7756779, 22.7388234]]]]}}, {"type": "Feature", "id": "way/1285064396", "properties": {"tags": {"building": "industrial"}, "heightStatus": "unknown", "source": "OpenStreetMap", "license": "ODbL-1.0"}, "geometry": {"type": "MultiPolygon", "coordinates": [[[[113.7757781, 22.7383653], [113.7759671, 22.738356], [113.7759708, 22.7384209], [113.7759918, 22.7384198], [113.775996, 22.7384915], [113.7757959, 22.7385013], [113.7757908, 22.7384123], [113.7757809, 22.7384128], [113.7757781, 22.7383653]]]]}}, {"type": "Feature", "id": "way/1285064397", "properties": {"tags": {"building": "industrial"}, "heightStatus": "unknown", "source": "OpenStreetMap", "license": "ODbL-1.0"}, "geometry": {"type": "MultiPolygon", "coordinates": [[[[113.7764177, 22.7391837], [113.7769009, 22.7391501], [113.7769182, 22.7393611], [113.7764349, 22.7393948], [113.7764177, 22.7391837]]]]}}, {"type": "Feature", "id": "way/1285064398", "properties": {"tags": {"building": "industrial"}, "heightStatus": "unknown", "source": "OpenStreetMap", "license": "ODbL-1.0"}, "geometry": {"type": "MultiPolygon", "coordinates": [[[[113.7764441, 22.7395324], [113.7769273, 22.7394988], [113.7769446, 22.7397098], [113.7764614, 22.7397435], [113.7764441, 22.7395324]]]]}}, {"type": "Feature", "id": "way/1285064399", "properties": {"tags": {"building": "industrial"}, "heightStatus": "unknown", "source": "OpenStreetMap", "license": "ODbL-1.0"}, "geometry": {"type": "MultiPolygon", "coordinates": [[[[113.7764766, 22.7398848], [113.7769598, 22.7398512], [113.7769771, 22.7400623], [113.7764939, 22.7400959], [113.7764766, 22.7398848]]]]}}, {"type": "Feature", "id": "way/1285064400", "properties": {"tags": {"building": "industrial"}, "heightStatus": "unknown", "source": "OpenStreetMap", "license": "ODbL-1.0"}, "geometry": {"type": "MultiPolygon", "coordinates": [[[[113.7758361, 22.7399249], [113.7763193, 22.7398913], [113.7763366, 22.7401023], [113.7758534, 22.740136], [113.7758361, 22.7399249]]]]}}, {"type": "Feature", "id": "way/1285064401", "properties": {"tags": {"building": "industrial"}, "heightStatus": "unknown", "source": "OpenStreetMap", "license": "ODbL-1.0"}, "geometry": {"type": "MultiPolygon", "coordinates": [[[[113.7758036, 22.7395724], [113.7762868, 22.7395388], [113.7763041, 22.7397499], [113.7758209, 22.7397835], [113.7758036, 22.7395724]]]]}}, {"type": "Feature", "id": "way/1285064402", "properties": {"tags": {"building": "industrial"}, "heightStatus": "unknown", "source": "OpenStreetMap", "license": "ODbL-1.0"}, "geometry": {"type": "MultiPolygon", "coordinates": [[[[113.7757772, 22.7392237], [113.7762604, 22.7391901], [113.7762777, 22.7394012], [113.7757944, 22.7394348], [113.7757772, 22.7392237]]]]}}, {"type": "Feature", "id": "way/1285064403", "properties": {"tags": {"building": "industrial"}, "heightStatus": "unknown", "source": "OpenStreetMap", "license": "ODbL-1.0"}, "geometry": {"type": "MultiPolygon", "coordinates": [[[[113.775574, 22.7391771], [113.7756984, 22.7391762], [113.7757071, 22.7401932], [113.7755829, 22.7401941], [113.775574, 22.7391771]]]]}}, {"type": "Feature", "id": "way/1285064474", "properties": {"tags": {"building": "industrial"}, "heightStatus": "unknown", "source": "OpenStreetMap", "license": "ODbL-1.0"}, "geometry": {"type": "MultiPolygon", "coordinates": [[[[113.7758164, 22.7417087], [113.7763099, 22.7416667], [113.7763336, 22.7419033], [113.7758401, 22.7419451], [113.7758164, 22.7417087]]]]}}, {"type": "Feature", "id": "way/1285064475", "properties": {"tags": {"building": "industrial"}, "heightStatus": "unknown", "source": "OpenStreetMap", "license": "ODbL-1.0"}, "geometry": {"type": "MultiPolygon", "coordinates": [[[[113.7758408, 22.7421552], [113.7763343, 22.7421133], [113.7763579, 22.7423498], [113.7758644, 22.7423917], [113.7758408, 22.7421552]]]]}}, {"type": "Feature", "id": "way/1285064476", "properties": {"tags": {"building": "industrial"}, "heightStatus": "unknown", "source": "OpenStreetMap", "license": "ODbL-1.0"}, "geometry": {"type": "MultiPolygon", "coordinates": [[[[113.7765031, 22.7416704], [113.7769966, 22.7416285], [113.7770202, 22.741865], [113.7765267, 22.7419069], [113.7765031, 22.7416704]]]]}}, {"type": "Feature", "id": "way/1285064477", "properties": {"tags": {"building": "industrial"}, "heightStatus": "unknown", "source": "OpenStreetMap", "license": "ODbL-1.0"}, "geometry": {"type": "MultiPolygon", "coordinates": [[[[113.7765486, 22.742088], [113.7770307, 22.7420593], [113.7770556, 22.7424158], [113.7765736, 22.7424444], [113.7765486, 22.742088]]]]}}, {"type": "Feature", "id": "way/1285064479", "properties": {"tags": {"building": "industrial"}, "heightStatus": "unknown", "source": "OpenStreetMap", "license": "ODbL-1.0"}, "geometry": {"type": "MultiPolygon", "coordinates": [[[[113.7756015, 22.741729], [113.7757149, 22.7417253], [113.7757242, 22.7419623], [113.7756107, 22.741966], [113.7756015, 22.741729]]]]}}, {"type": "Feature", "id": "way/1285064480", "properties": {"tags": {"building": "industrial"}, "heightStatus": "unknown", "source": "OpenStreetMap", "license": "ODbL-1.0"}, "geometry": {"type": "MultiPolygon", "coordinates": [[[[113.7756357, 22.7421617], [113.7757522, 22.7421547], [113.7757735, 22.7424555], [113.7758035, 22.7424848], [113.7763497, 22.7424436], [113.776358, 22.7425363], [113.7757991, 22.7425784], [113.775659, 22.7424901], [113.7756357, 22.7421617]]]]}}, {"type": "Feature", "id": "way/1285871805", "properties": {"tags": {"building": "industrial"}, "heightStatus": "unknown", "source": "OpenStreetMap", "license": "ODbL-1.0"}, "geometry": {"type": "MultiPolygon", "coordinates": [[[[113.7786173, 22.7406371], [113.778664, 22.7406338], [113.7786334, 22.7402681], [113.7792048, 22.7402276], [113.7792829, 22.7411625], [113.7787101, 22.7412032], [113.7786869, 22.7409253], [113.7786415, 22.7409285], [113.7786173, 22.7406371]]]]}}, {"type": "Feature", "id": "way/1285871806", "properties": {"tags": {"building": "industrial"}, "heightStatus": "unknown", "source": "OpenStreetMap", "license": "ODbL-1.0"}, "geometry": {"type": "MultiPolygon", "coordinates": [[[[113.7783385, 22.7403055], [113.7784501, 22.7402975], [113.778529, 22.7412295], [113.7784172, 22.7412375], [113.7783385, 22.7403055]]]]}}, {"type": "Feature", "id": "way/1285871807", "properties": {"tags": {"building": "industrial"}, "heightStatus": "unknown", "source": "OpenStreetMap", "license": "ODbL-1.0"}, "geometry": {"type": "MultiPolygon", "coordinates": [[[[113.7793856, 22.7401937], [113.7795328, 22.740184], [113.7795598, 22.7405352], [113.7794455, 22.7405427], [113.7794221, 22.7402403], [113.7793894, 22.7402425], [113.7793856, 22.7401937]]]]}}, {"type": "Feature", "id": "way/1285871808", "properties": {"tags": {"building": "industrial"}, "heightStatus": "unknown", "source": "OpenStreetMap", "license": "ODbL-1.0"}, "geometry": {"type": "MultiPolygon", "coordinates": [[[[113.7794434, 22.7407028], [113.7795596, 22.7406941], [113.7796037, 22.7411926], [113.7794876, 22.7412014], [113.7794434, 22.7407028]]]]}}, {"type": "Feature", "id": "way/1285871809", "properties": {"tags": {"building": "industrial"}, "heightStatus": "unknown", "source": "OpenStreetMap", "license": "ODbL-1.0"}, "geometry": {"type": "MultiPolygon", "coordinates": [[[[113.7797033, 22.7401908], [113.7805387, 22.7401304], [113.780561, 22.7403929], [113.7801842, 22.7404201], [113.7802412, 22.7410929], [113.780028, 22.7411083], [113.7797828, 22.741126], [113.7797033, 22.7401908]]]]}}, {"type": "Feature", "id": "way/1285871810", "properties": {"tags": {"building": "industrial"}, "heightStatus": "unknown", "source": "OpenStreetMap", "license": "ODbL-1.0"}, "geometry": {"type": "MultiPolygon", "coordinates": [[[[113.7798291, 22.7413079], [113.7800424, 22.7412943], [113.7802528, 22.741281], [113.7803012, 22.741931], [113.7807036, 22.7419055], [113.7807247, 22.7421892], [113.7798989, 22.7422416], [113.7798291, 22.7413079]]]]}}, {"type": "Feature", "id": "way/1285871812", "properties": {"tags": {"building": "industrial"}, "heightStatus": "unknown", "source": "OpenStreetMap", "license": "ODbL-1.0"}, "geometry": {"type": "MultiPolygon", "coordinates": [[[[113.7784235, 22.7414394], [113.7785351, 22.7414314], [113.778614, 22.7423633], [113.7785022, 22.7423713], [113.7784235, 22.7414394]]]]}}, {"type": "Feature", "id": "way/1285871813", "properties": {"tags": {"building": "industrial"}, "heightStatus": "unknown", "source": "OpenStreetMap", "license": "ODbL-1.0"}, "geometry": {"type": "MultiPolygon", "coordinates": [[[[113.7786839, 22.7414274], [113.7787955, 22.7414194], [113.7788744, 22.7423513], [113.7787627, 22.7423594], [113.7786839, 22.7414274]]]]}}, {"type": "Feature", "id": "way/1285871814", "properties": {"tags": {"building": "industrial"}, "heightStatus": "unknown", "source": "OpenStreetMap", "license": "ODbL-1.0"}, "geometry": {"type": "MultiPolygon", "coordinates": [[[[113.7790521, 22.7418041], [113.7794057, 22.7417769], [113.7794132, 22.7418603], [113.7790597, 22.7418876], [113.7790521, 22.7418041]]]]}}, {"type": "Feature", "id": "way/1285871815", "properties": {"tags": {"building": "industrial"}, "heightStatus": "unknown", "source": "OpenStreetMap", "license": "ODbL-1.0"}, "geometry": {"type": "MultiPolygon", "coordinates": [[[[113.7794575, 22.7417044], [113.7795398, 22.7417004], [113.7795201, 22.7413622], [113.7796263, 22.741357], [113.7796554, 22.7418579], [113.779467, 22.7418672], [113.7794575, 22.7417044]]]]}}, {"type": "Feature", "id": "way/1285871816", "properties": {"tags": {"building": "industrial"}, "heightStatus": "unknown", "source": "OpenStreetMap", "license": "ODbL-1.0"}, "geometry": {"type": "MultiPolygon", "coordinates": [[[[113.7794959, 22.7419788], [113.7796705, 22.7419673], [113.7796958, 22.7422969], [113.7795918, 22.7423037], [113.7795872, 22.7422438], [113.7795166, 22.7422484], [113.7794959, 22.7419788]]]]}}, {"type": "Feature", "id": "way/1285871817", "properties": {"tags": {"building": "industrial"}, "heightStatus": "unknown", "source": "OpenStreetMap", "license": "ODbL-1.0"}, "geometry": {"type": "MultiPolygon", "coordinates": [[[[113.7775048, 22.7391585], [113.7776164, 22.7391504], [113.7776953, 22.7400824], [113.7775835, 22.7400904], [113.7775048, 22.7391585]]]]}}, {"type": "Feature", "id": "way/1285871818", "properties": {"tags": {"building": "industrial"}, "heightStatus": "unknown", "source": "OpenStreetMap", "license": "ODbL-1.0"}, "geometry": {"type": "MultiPolygon", "coordinates": [[[[113.7772443, 22.7391704], [113.7773559, 22.7391624], [113.7774349, 22.7400944], [113.7773231, 22.7401024], [113.7772443, 22.7391704]]]]}}, {"type": "Feature", "id": "way/1285871819", "properties": {"tags": {"building": "industrial"}, "heightStatus": "unknown", "source": "OpenStreetMap", "license": "ODbL-1.0"}, "geometry": {"type": "MultiPolygon", "coordinates": [[[[113.7777301, 22.7391362], [113.7778417, 22.7391282], [113.7779206, 22.7400601], [113.7778088, 22.7400682], [113.7777301, 22.7391362]]]]}}, {"type": "Feature", "id": "way/1285871820", "properties": {"tags": {"building": "industrial"}, "heightStatus": "unknown", "source": "OpenStreetMap", "license": "ODbL-1.0"}, "geometry": {"type": "MultiPolygon", "coordinates": [[[[113.7785424, 22.7391211], [113.7794328, 22.73906], [113.7794833, 22.7396862], [113.778593, 22.7397474], [113.7785424, 22.7391211]]]]}}, {"type": "Feature", "id": "way/1285871821", "properties": {"tags": {"building": "hotel", "building:levels": "3", "layer": "1"}, "heightStatus": "levels_only_unverified", "source": "OpenStreetMap", "license": "ODbL-1.0"}, "geometry": {"type": "MultiPolygon", "coordinates": [[[[113.7796079, 22.7384719], [113.7796207, 22.7384116], [113.7796837, 22.738375], [113.78012, 22.7383399], [113.7801437, 22.7382803], [113.7802313, 22.7382469], [113.7803317, 22.7382523], [113.7803901, 22.7382846], [113.7804212, 22.7384813], [113.7804524, 22.7385615], [113.7804099, 22.7386792], [113.779717, 22.7387626], [113.7796721, 22.7387379], [113.7796604, 22.7386474], [113.7797118, 22.7386151], [113.7796674, 22.7385742], [113.7796172, 22.7385355], [113.7796079, 22.7384719]]]]}}, {"type": "Feature", "id": "way/1285871822", "properties": {"tags": {"building": "hotel", "building:levels": "14", "layer": "2"}, "heightStatus": "levels_only_unverified", "source": "OpenStreetMap", "license": "ODbL-1.0"}, "geometry": {"type": "MultiPolygon", "coordinates": [[[[113.7797419, 22.738594], [113.7797699, 22.7385509], [113.779812, 22.7385218], [113.7803093, 22.7384831], [113.7803642, 22.73851], [113.7803945, 22.7385509], [113.780398, 22.7385961], [113.7803747, 22.7386424], [113.7803315, 22.7386726], [113.7798201, 22.7387189], [113.7797664, 22.7386887], [113.7797454, 22.7386446], [113.7797419, 22.738594]]]]}}, {"type": "Feature", "id": "way/1285871823", "properties": {"tags": {"building": "industrial"}, "heightStatus": "unknown", "source": "OpenStreetMap", "license": "ODbL-1.0"}, "geometry": {"type": "MultiPolygon", "coordinates": [[[[113.7795966, 22.7389957], [113.7803424, 22.7389302], [113.7803635, 22.7391353], [113.780185, 22.739151], [113.7802174, 22.739466], [113.7801012, 22.7394761], [113.7801205, 22.7396631], [113.7804152, 22.7396373], [113.7804377, 22.7398549], [113.7796921, 22.7399204], [113.7795966, 22.7389957]]]]}}, {"type": "Feature", "id": "way/1285871841", "properties": {"tags": {"building": "industrial"}, "heightStatus": "unknown", "source": "OpenStreetMap", "license": "ODbL-1.0"}, "geometry": {"type": "MultiPolygon", "coordinates": [[[[113.7814129, 22.7398745], [113.7814714, 22.7398704], [113.7814685, 22.7398347], [113.782102, 22.7397907], [113.7821046, 22.7398225], [113.7821823, 22.7398171], [113.7821952, 22.739975], [113.7821362, 22.7399791], [113.7821383, 22.7400044], [113.7814976, 22.7400492], [113.7814952, 22.7400188], [113.7814251, 22.7400237], [113.7814129, 22.7398745]]]]}}, {"type": "Feature", "id": "way/1285871842", "properties": {"tags": {"building": "industrial"}, "heightStatus": "unknown", "source": "OpenStreetMap", "license": "ODbL-1.0"}, "geometry": {"type": "MultiPolygon", "coordinates": [[[[113.7813822, 22.7394942], [113.7814407, 22.7394901], [113.7814378, 22.7394544], [113.7820846, 22.7394104], [113.7820872, 22.7394423], [113.7821516, 22.7394369], [113.7821646, 22.7395947], [113.7821056, 22.7395988], [113.7821076, 22.7396242], [113.781467, 22.7396689], [113.7814645, 22.7396386], [113.7813944, 22.7396434], [113.7813822, 22.7394942]]]]}}, {"type": "Feature", "id": "way/1285871843", "properties": {"tags": {"building": "industrial"}, "heightStatus": "unknown", "source": "OpenStreetMap", "license": "ODbL-1.0"}, "geometry": {"type": "MultiPolygon", "coordinates": [[[[113.7814516, 22.7403555], [113.7815101, 22.7403514], [113.7815072, 22.7403157], [113.7821407, 22.7402717], [113.7821433, 22.7403036], [113.782221, 22.7402982], [113.7822339, 22.740456], [113.7821749, 22.7404601], [113.782177, 22.7404855], [113.7815363, 22.7405302], [113.7815338, 22.7404999], [113.7814638, 22.7405047], [113.7814516, 22.7403555]]]]}}, {"type": "Feature", "id": "way/1285871863", "properties": {"tags": {"building": "school", "building:levels": "6"}, "heightStatus": "levels_only_unverified", "source": "OpenStreetMap", "license": "ODbL-1.0"}, "geometry": {"type": "MultiPolygon", "coordinates": [[[[113.7778022, 22.7342876], [113.7778274, 22.7341143], [113.7787923, 22.7342339], [113.7787671, 22.734407], [113.7778022, 22.7342876]]]]}}, {"type": "Feature", "id": "way/1285871864", "properties": {"tags": {"building": "school", "building:levels": "6"}, "heightStatus": "levels_only_unverified", "source": "OpenStreetMap", "license": "ODbL-1.0"}, "geometry": {"type": "MultiPolygon", "coordinates": [[[[113.7777686, 22.7338252], [113.7777959, 22.7336591], [113.7778411, 22.7336497], [113.7788558, 22.7337731], [113.7788306, 22.7339461], [113.778345, 22.7338886], [113.7783481, 22.7338737], [113.778304, 22.7338668], [113.7782996, 22.7338807], [113.7778117, 22.7338166], [113.7778034, 22.7338332], [113.7777686, 22.7338252]]]]}}, {"type": "Feature", "id": "way/1285871865", "properties": {"tags": {"building": "school"}, "heightStatus": "unknown", "source": "OpenStreetMap", "license": "ODbL-1.0"}, "geometry": {"type": "MultiPolygon", "coordinates": [[[[113.7792097, 22.7339523], [113.7792297, 22.7338213], [113.7796427, 22.7338749], [113.7796227, 22.7340058], [113.7792097, 22.7339523]]]]}}, {"type": "Feature", "id": "way/1285871866", "properties": {"tags": {"building": "school"}, "heightStatus": "unknown", "source": "OpenStreetMap", "license": "ODbL-1.0"}, "geometry": {"type": "MultiPolygon", "coordinates": [[[[113.7797478, 22.7339972], [113.7797623, 22.7338795], [113.7799669, 22.7339011], [113.7799524, 22.7340187], [113.7797478, 22.7339972]]]]}}, {"type": "Feature", "id": "way/1345140558", "properties": {"tags": {"building": "train_station", "building:levels": "0", "building:levels:underground": "2", "layer": "-1", "location": "underground", "name": "海上田园东站", "name:en": "Waterlands Resort East Station", "name:zh": "海上田园东站", "start_date": "2022-11-28", "wikidata": "Q113530838", "wikipedia": "zh:海上田园东站"}, "heightStatus": "levels_only_unverified", "source": "OpenStreetMap", "license": "ODbL-1.0"}, "geometry": {"type": "MultiPolygon", "coordinates": [[[[113.7754186, 22.7365475], [113.7754367, 22.7364124], [113.7754544, 22.7364129], [113.7755634, 22.7357471], [113.775619, 22.7355359], [113.7757099, 22.7351749], [113.7756857, 22.7351688], [113.7755804, 22.7355787], [113.775505, 22.7355622], [113.77563, 22.7350755], [113.7757321, 22.7350978], [113.7758829, 22.7344501], [113.7758711, 22.7344477], [113.7758427, 22.7345715], [113.7757377, 22.7345511], [113.7757782, 22.7343745], [113.7758171, 22.7343821], [113.7758399, 22.7342826], [113.7758781, 22.7342901], [113.7758545, 22.7343932], [113.7758837, 22.7343989], [113.7758804, 22.7344137], [113.7758908, 22.7344157], [113.7760666, 22.7336069], [113.776055, 22.7336043], [113.7760441, 22.7336466], [113.7760348, 22.7336446], [113.7759372, 22.7340245], [113.7758617, 22.734008], [113.7758877, 22.7339071], [113.7758629, 22.7339017], [113.775936, 22.7336169], [113.7759565, 22.7336214], [113.7759855, 22.7335087], [113.7760843, 22.7335303], [113.7762462, 22.7329001], [113.7761222, 22.732873], [113.776134, 22.732827], [113.7761628, 22.7328333], [113.7762864, 22.732352], [113.7763521, 22.7323663], [113.7763597, 22.7323365], [113.776655, 22.732401], [113.7766684, 22.7323488], [113.7767386, 22.7323641], [113.7766399, 22.7327484], [113.7765216, 22.7327226], [113.7763022, 22.733577], [113.7764719, 22.733614], [113.7764597, 22.7336616], [113.7764339, 22.7336559], [113.7764062, 22.7337637], [113.7764271, 22.7337683], [113.7763643, 22.7340129], [113.7763329, 22.734006], [113.776297, 22.7341457], [113.7762224, 22.7341294], [113.7763202, 22.7337487], [113.7763163, 22.7337478], [113.7763373, 22.7336662], [113.7762808, 22.7336539], [113.7761256, 22.7343798], [113.7761686, 22.7343892], [113.7761783, 22.7343514], [113.7762113, 22.7343587], [113.7761377, 22.7346454], [113.7760615, 22.7346287], [113.7759236, 22.7352273], [113.7759911, 22.735242], [113.7759073, 22.7355686], [113.7758441, 22.7355571], [113.7757874, 22.7357954], [113.7756855, 22.7364416], [113.7757009, 22.7364434], [113.7756804, 22.7365784], [113.7754186, 22.7365475]]]]}}, {"type": "Feature", "id": "way/1349693030", "properties": {"tags": {"building": "grandstand"}, "heightStatus": "unknown", "source": "OpenStreetMap", "license": "ODbL-1.0"}, "geometry": {"type": "MultiPolygon", "coordinates": [[[[113.7801394, 22.7347734], [113.7802446, 22.7347637], [113.7803351, 22.7357736], [113.7802313, 22.7357789], [113.7801394, 22.7347734]]]]}}]}