{"type": "FeatureCollection", "features": [{"type": "Feature", "id": "way/1248087041", "properties": {"tags": {"building": "apartments", "name": "7B座", "name:zh": "7B座"}, "heightStatus": "unknown", "source": "OpenStreetMap", "license": "ODbL-1.0"}, "geometry": {"type": "MultiPolygon", "coordinates": [[[[113.9666406, 22.6933165], [113.9669392, 22.6928395], [113.9672423, 22.693001], [113.9671509, 22.693147], [113.9670133, 22.6930737], [113.9668061, 22.6934047], [113.9666406, 22.6933165]]]]}}, {"type": "Feature", "id": "way/1248087043", "properties": {"tags": {"building": "apartments", "name": "7C座", "name:zh": "7C座"}, "heightStatus": "unknown", "source": "OpenStreetMap", "license": "ODbL-1.0"}, "geometry": {"type": "MultiPolygon", "coordinates": [[[[113.967443, 22.6940007], [113.9677987, 22.6934471], [113.9679468, 22.6935281], [113.9675909, 22.6940817], [113.967443, 22.6940007]]]]}}, {"type": "Feature", "id": "way/1248087044", "properties": {"tags": {"building": "apartments", "name": "6座", "name:zh": "6座"}, "heightStatus": "unknown", "source": "OpenStreetMap", "license": "ODbL-1.0"}, "geometry": {"type": "MultiPolygon", "coordinates": [[[[113.9671455, 22.6927352], [113.9674925, 22.6922007], [113.9676779, 22.6923032], [113.9673308, 22.6928376], [113.9671455, 22.6927352]]]]}}, {"type": "Feature", "id": "way/1248087045", "properties": {"tags": {"building": "apartments"}, "heightStatus": "unknown", "source": "OpenStreetMap", "license": "ODbL-1.0"}, "geometry": {"type": "MultiPolygon", "coordinates": [[[[113.9670281, 22.6951177], [113.967425, 22.6945522], [113.9675894, 22.6946504], [113.9671926, 22.695216], [113.9670281, 22.6951177]]]]}}, {"type": "Feature", "id": "way/1248087046", "properties": {"tags": {"building": "apartments"}, "heightStatus": "unknown", "source": "OpenStreetMap", "license": "ODbL-1.0"}, "geometry": {"type": "MultiPolygon", "coordinates": [[[[113.966624, 22.6953611], [113.9667265, 22.6952115], [113.9671214, 22.6954418], [113.9670189, 22.6955914], [113.966624, 22.6953611]]]]}}, {"type": "Feature", "id": "way/1248087051", "properties": {"tags": {"building": "apartments", "name": "5座", "name:zh": "5座"}, "heightStatus": "unknown", "source": "OpenStreetMap", "license": "ODbL-1.0"}, "geometry": {"type": "MultiPolygon", "coordinates": [[[[113.9666993, 22.6920884], [113.9668629, 22.6918512], [113.9670929, 22.6919861], [113.9669293, 22.6922234], [113.9666993, 22.6920884]]]]}}, {"type": "Feature", "id": "way/1424604929", "properties": {"tags": {"building": "industrial", "name": "4栋", "name:zh": "4栋"}, "heightStatus": "unknown", "source": "OpenStreetMap", "license": "ODbL-1.0"}, "geometry": {"type": "MultiPolygon", "coordinates": [[[[113.9665333, 22.69772], [113.9665464, 22.6975501], [113.9672752, 22.697598], [113.967262, 22.697768], [113.9665333, 22.69772]]]]}}, {"type": "Feature", "id": "way/1424604930", "properties": {"tags": {"building": "industrial", "name": "3栋", "name:zh": "3栋"}, "heightStatus": "unknown", "source": "OpenStreetMap", "license": "ODbL-1.0"}, "geometry": {"type": "MultiPolygon", "coordinates": [[[[113.9667171, 22.6972486], [113.9668296, 22.6970315], [113.9676366, 22.6973876], [113.9675241, 22.6976047], [113.9667171, 22.6972486]]]]}}, {"type": "Feature", "id": "way/1424604931", "properties": {"tags": {"building": "industrial", "name": "2栋", "name:zh": "2栋"}, "heightStatus": "unknown", "source": "OpenStreetMap", "license": "ODbL-1.0"}, "geometry": {"type": "MultiPolygon", "coordinates": [[[[113.9669089, 22.6968639], [113.9670111, 22.6966668], [113.9674579, 22.696864], [113.9676532, 22.6964873], [113.9679311, 22.6966099], [113.9677358, 22.6969866], [113.9678181, 22.6970229], [113.9677159, 22.6972199], [113.9669089, 22.6968639]]]]}}]}