{"type": "FeatureCollection", "features": [{"type": "Feature", "id": "way/1424604903", "properties": {"tags": {"building": "industrial"}, "heightStatus": "unknown", "source": "OpenStreetMap", "license": "ODbL-1.0"}, "geometry": {"type": "MultiPolygon", "coordinates": [[[[113.9685379, 22.6995531], [113.9685444, 22.6993738], [113.9693381, 22.6993985], [113.9693316, 22.6995778], [113.9685379, 22.6995531]]]]}}, {"type": "Feature", "id": "way/1424604907", "properties": {"tags": {"building": "industrial"}, "heightStatus": "unknown", "source": "OpenStreetMap", "license": "ODbL-1.0"}, "geometry": {"type": "MultiPolygon", "coordinates": [[[[113.9692805, 22.6986836], [113.9692915, 22.6983833], [113.9698208, 22.6983998], [113.9698098, 22.6987001], [113.9692805, 22.6986836]]]]}}, {"type": "Feature", "id": "way/1424604908", "properties": {"tags": {"building": "industrial"}, "heightStatus": "unknown", "source": "OpenStreetMap", "license": "ODbL-1.0"}, "geometry": {"type": "MultiPolygon", "coordinates": [[[[113.9684735, 22.6986585], [113.9684845, 22.6983594], [113.9690442, 22.6983768], [113.9690332, 22.6986759], [113.9684735, 22.6986585]]]]}}, {"type": "Feature", "id": "way/1424604909", "properties": {"tags": {"building": "industrial"}, "heightStatus": "unknown", "source": "OpenStreetMap", "license": "ODbL-1.0"}, "geometry": {"type": "MultiPolygon", "coordinates": [[[[113.9692612, 22.6992121], [113.9692721, 22.6989143], [113.9697847, 22.6989302], [113.9697738, 22.699228], [113.9692612, 22.6992121]]]]}}, {"type": "Feature", "id": "way/1424604910", "properties": {"tags": {"building": "industrial"}, "heightStatus": "unknown", "source": "OpenStreetMap", "license": "ODbL-1.0"}, "geometry": {"type": "MultiPolygon", "coordinates": [[[[113.9684898, 22.699192], [113.9685008, 22.6988903], [113.9690248, 22.6989066], [113.9690138, 22.6992083], [113.9684898, 22.699192]]]]}}, {"type": "Feature", "id": "way/1424604914", "properties": {"tags": {"building": "industrial"}, "heightStatus": "unknown", "source": "OpenStreetMap", "license": "ODbL-1.0"}, "geometry": {"type": "MultiPolygon", "coordinates": [[[[113.9672797, 22.6993198], [113.9676943, 22.6993021], [113.967699, 22.6993957], [113.9672844, 22.6994134], [113.9672797, 22.6993198]]]]}}, {"type": "Feature", "id": "relation/19520448", "properties": {"tags": {"building": "industrial"}, "heightStatus": "unknown", "source": "OpenStreetMap", "license": "ODbL-1.0"}, "geometry": {"type": "MultiPolygon", "coordinates": [[[[113.9666558, 22.6983567], [113.9671932, 22.6983337], [113.9671867, 22.6982047], [113.9676742, 22.6981839], [113.9676807, 22.6983129], [113.9682181, 22.6982899], [113.9682444, 22.6988136], [113.9666821, 22.6988804], [113.9666558, 22.6983567]], [[113.9672945, 22.6983627], [113.9673089, 22.6986489], [113.967597, 22.6986366], [113.9675826, 22.6983504], [113.9672945, 22.6983627]]]]}}, {"type": "Feature", "id": "relation/19520449", "properties": {"tags": {"building": "industrial"}, "heightStatus": "unknown", "source": "OpenStreetMap", "license": "ODbL-1.0"}, "geometry": {"type": "MultiPolygon", "coordinates": [[[[113.9677713, 22.6990393], [113.9682809, 22.6990175], [113.9682986, 22.69937], [113.967789, 22.6993918], [113.9677713, 22.6990393]], [[113.9678705, 22.6991227], [113.9678794, 22.6993003], [113.9681994, 22.6992866], [113.9681905, 22.699109], [113.9678705, 22.6991227]]]]}}, {"type": "Feature", "id": "way/1424604919", "properties": {"tags": {"building": "industrial"}, "heightStatus": "unknown", "source": "OpenStreetMap", "license": "ODbL-1.0"}, "geometry": {"type": "MultiPolygon", "coordinates": [[[[113.9666893, 22.6990855], [113.9671767, 22.6990647], [113.9671944, 22.6994172], [113.966707, 22.6994381], [113.9666893, 22.6990855]]]]}}]}