{"type": "FeatureCollection", "features": [{"type": "Feature", "id": "way/1161629011", "properties": {"tags": {"building": "yes"}, "heightStatus": "unknown", "source": "OpenStreetMap", "license": "ODbL-1.0"}, "geometry": {"type": "MultiPolygon", "coordinates": [[[[113.9537573, 22.7040258], [113.9540444, 22.7037609], [113.954303, 22.7039995], [113.9540159, 22.7042644], [113.9537573, 22.7040258]]]]}}, {"type": "Feature", "id": "way/1161629012", "properties": {"tags": {"building": "yes"}, "heightStatus": "unknown", "source": "OpenStreetMap", "license": "ODbL-1.0"}, "geometry": {"type": "MultiPolygon", "coordinates": [[[[113.95426, 22.7042096], [113.9545301, 22.7039557], [113.9545811, 22.7040018], [113.9546054, 22.7039789], [113.9547193, 22.704082], [113.9546893, 22.7041102], [113.9549958, 22.7043877], [113.9547314, 22.7046363], [113.95426, 22.7042096]]]]}}, {"type": "Feature", "id": "way/1161629013", "properties": {"tags": {"building": "yes"}, "heightStatus": "unknown", "source": "OpenStreetMap", "license": "ODbL-1.0"}, "geometry": {"type": "MultiPolygon", "coordinates": [[[[113.9541529, 22.7036363], [113.9544079, 22.7034154], [113.9546438, 22.7036471], [113.9543888, 22.7038681], [113.9541529, 22.7036363]]]]}}, {"type": "Feature", "id": "way/1424537870", "properties": {"tags": {"building": "apartments", "name": "3号宿舍楼", "name:zh": "3号宿舍楼"}, "heightStatus": "unknown", "source": "OpenStreetMap", "license": "ODbL-1.0"}, "geometry": {"type": "MultiPolygon", "coordinates": [[[[113.9501718, 22.6983933], [113.950175, 22.6982898], [113.950241, 22.6982915], [113.9502417, 22.6982701], [113.9504612, 22.6982759], [113.9504605, 22.6982973], [113.9505265, 22.6982991], [113.9505233, 22.6984026], [113.950448, 22.6984006], [113.9504466, 22.6984452], [113.9503712, 22.6984432], [113.950373, 22.698383], [113.950323, 22.6983817], [113.9503212, 22.6984419], [113.9502457, 22.6984399], [113.9502471, 22.6983953], [113.9501718, 22.6983933]]]]}}, {"type": "Feature", "id": "way/1424537871", "properties": {"tags": {"building": "apartments", "name": "2号宿舍楼", "name:zh": "2号宿舍楼"}, "heightStatus": "unknown", "source": "OpenStreetMap", "license": "ODbL-1.0"}, "geometry": {"type": "MultiPolygon", "coordinates": [[[[113.9497201, 22.6981566], [113.949761, 22.6980601], [113.9498225, 22.6980823], [113.949831, 22.6980624], [113.9500354, 22.6981363], [113.950027, 22.6981562], [113.9500885, 22.6981784], [113.9500475, 22.6982749], [113.9499773, 22.6982495], [113.9499597, 22.698291], [113.9498894, 22.6982656], [113.9499133, 22.6982096], [113.9498667, 22.6981928], [113.9498429, 22.6982488], [113.9497726, 22.6982234], [113.9497902, 22.6981819], [113.9497201, 22.6981566]]]]}}, {"type": "Feature", "id": "way/1424537872", "properties": {"tags": {"building": "apartments", "name": "1号宿舍楼", "name:zh": "1号宿舍楼"}, "heightStatus": "unknown", "source": "OpenStreetMap", "license": "ODbL-1.0"}, "geometry": {"type": "MultiPolygon", "coordinates": [[[[113.9494925, 22.6978127], [113.949494, 22.6977053], [113.9499341, 22.6977105], [113.9499325, 22.6978179], [113.9498206, 22.6978166], [113.9498197, 22.6978768], [113.9497443, 22.6978759], [113.9497451, 22.6978157], [113.94968, 22.6978149], [113.9496791, 22.6978751], [113.9496037, 22.6978742], [113.9496045, 22.697814], [113.9494925, 22.6978127]]]]}}, {"type": "Feature", "id": "way/1424537877", "properties": {"tags": {"building": "industrial"}, "heightStatus": "unknown", "source": "OpenStreetMap", "license": "ODbL-1.0"}, "geometry": {"type": "MultiPolygon", "coordinates": [[[[113.9507421, 22.6985829], [113.9507491, 22.6977082], [113.9512466, 22.6977116], [113.9512396, 22.6985863], [113.9507421, 22.6985829]]]]}}, {"type": "Feature", "id": "way/1424611359", "properties": {"tags": {"building": "industrial"}, "heightStatus": "unknown", "source": "OpenStreetMap", "license": "ODbL-1.0"}, "geometry": {"type": "MultiPolygon", "coordinates": [[[[113.9543014, 22.7013313], [113.9543703, 22.7012681], [113.9550227, 22.7018736], [113.9549537, 22.7019368], [113.9543014, 22.7013313]]]]}}, {"type": "Feature", "id": "way/1424611360", "properties": {"tags": {"building": "industrial"}, "heightStatus": "unknown", "source": "OpenStreetMap", "license": "ODbL-1.0"}, "geometry": {"type": "MultiPolygon", "coordinates": [[[[113.9536128, 22.7019626], [113.9541588, 22.701462], [113.954363, 22.7016516], [113.9539687, 22.7020131], [113.9542126, 22.7022395], [113.9546069, 22.701878], [113.9548111, 22.7020675], [113.9542652, 22.7025681], [113.9536128, 22.7019626]]]]}}, {"type": "Feature", "id": "way/1424611361", "properties": {"tags": {"building": "industrial"}, "heightStatus": "unknown", "source": "OpenStreetMap", "license": "ODbL-1.0"}, "geometry": {"type": "MultiPolygon", "coordinates": [[[[113.9560584, 22.7042286], [113.9562837, 22.7040221], [113.9565942, 22.7043103], [113.956369, 22.7045168], [113.9560584, 22.7042286]]]]}}, {"type": "Feature", "id": "way/1424611363", "properties": {"tags": {"building": "industrial"}, "heightStatus": "unknown", "source": "OpenStreetMap", "license": "ODbL-1.0"}, "geometry": {"type": "MultiPolygon", "coordinates": [[[[113.9563792, 22.7039345], [113.9566044, 22.703728], [113.9569149, 22.7040162], [113.9566897, 22.7042227], [113.9563792, 22.7039345]]]]}}, {"type": "Feature", "id": "way/1424611366", "properties": {"tags": {"building": "industrial"}, "heightStatus": "unknown", "source": "OpenStreetMap", "license": "ODbL-1.0"}, "geometry": {"type": "MultiPolygon", "coordinates": [[[[113.955202, 22.7034397], [113.9554272, 22.7032332], [113.9557377, 22.7035214], [113.9555125, 22.7037279], [113.955202, 22.7034397]]]]}}, {"type": "Feature", "id": "way/1424611367", "properties": {"tags": {"building": "industrial"}, "heightStatus": "unknown", "source": "OpenStreetMap", "license": "ODbL-1.0"}, "geometry": {"type": "MultiPolygon", "coordinates": [[[[113.9558906, 22.7028084], [113.9559595, 22.7027452], [113.95627, 22.7030334], [113.9562011, 22.7030966], [113.9558906, 22.7028084]]]]}}, {"type": "Feature", "id": "way/1424611368", "properties": {"tags": {"building": "industrial"}, "heightStatus": "unknown", "source": "OpenStreetMap", "license": "ODbL-1.0"}, "geometry": {"type": "MultiPolygon", "coordinates": [[[[113.9555227, 22.7031457], [113.955748, 22.7029392], [113.9560585, 22.7032274], [113.9558332, 22.7034339], [113.9555227, 22.7031457]]]]}}, {"type": "Feature", "id": "way/1424611369", "properties": {"tags": {"building": "industrial"}, "heightStatus": "unknown", "source": "OpenStreetMap", "license": "ODbL-1.0"}, "geometry": {"type": "MultiPolygon", "coordinates": [[[[113.9563035, 22.7031919], [113.9563724, 22.7031287], [113.9566829, 22.7034169], [113.956614, 22.7034801], [113.9563035, 22.7031919]]]]}}, {"type": "Feature", "id": "way/1424611370", "properties": {"tags": {"building": "industrial"}, "heightStatus": "unknown", "source": "OpenStreetMap", "license": "ODbL-1.0"}, "geometry": {"type": "MultiPolygon", "coordinates": [[[[113.9559356, 22.7035292], [113.9561609, 22.7033227], [113.9564714, 22.7036109], [113.9562462, 22.7038174], [113.9559356, 22.7035292]]]]}}, {"type": "Feature", "id": "way/1424611371", "properties": {"tags": {"building": "industrial"}, "heightStatus": "unknown", "source": "OpenStreetMap", "license": "ODbL-1.0"}, "geometry": {"type": "MultiPolygon", "coordinates": [[[[113.9556149, 22.7038232], [113.9558402, 22.7036167], [113.9561507, 22.7039049], [113.9559254, 22.7041114], [113.9556149, 22.7038232]]]]}}, {"type": "Feature", "id": "way/1424611372", "properties": {"tags": {"building": "industrial"}, "heightStatus": "unknown", "source": "OpenStreetMap", "license": "ODbL-1.0"}, "geometry": {"type": "MultiPolygon", "coordinates": [[[[113.9554273, 22.7023766], [113.9554962, 22.7023134], [113.9558067, 22.7026016], [113.9557378, 22.7026648], [113.9554273, 22.7023766]]]]}}, {"type": "Feature", "id": "way/1424611373", "properties": {"tags": {"building": "industrial"}, "heightStatus": "unknown", "source": "OpenStreetMap", "license": "ODbL-1.0"}, "geometry": {"type": "MultiPolygon", "coordinates": [[[[113.9550595, 22.7027139], [113.9552847, 22.7025074], [113.9555952, 22.7027956], [113.95537, 22.7030021], [113.9550595, 22.7027139]]]]}}, {"type": "Feature", "id": "way/1424611374", "properties": {"tags": {"building": "industrial"}, "heightStatus": "unknown", "source": "OpenStreetMap", "license": "ODbL-1.0"}, "geometry": {"type": "MultiPolygon", "coordinates": [[[[113.9547387, 22.7030079], [113.954964, 22.7028014], [113.9552745, 22.7030896], [113.9550492, 22.7032961], [113.9547387, 22.7030079]]]]}}, {"type": "Feature", "id": "way/1424611375", "properties": {"tags": {"building": "industrial"}, "heightStatus": "unknown", "source": "OpenStreetMap", "license": "ODbL-1.0"}, "geometry": {"type": "MultiPolygon", "coordinates": [[[[113.9550144, 22.7019931], [113.9550833, 22.7019299], [113.9553938, 22.7022181], [113.9553249, 22.7022813], [113.9550144, 22.7019931]]]]}}, {"type": "Feature", "id": "way/1424611376", "properties": {"tags": {"building": "industrial"}, "heightStatus": "unknown", "source": "OpenStreetMap", "license": "ODbL-1.0"}, "geometry": {"type": "MultiPolygon", "coordinates": [[[[113.9546465, 22.7023304], [113.9548718, 22.7021238], [113.9551823, 22.7024121], [113.954957, 22.7026186], [113.9546465, 22.7023304]]]]}}, {"type": "Feature", "id": "way/1424611377", "properties": {"tags": {"building": "industrial"}, "heightStatus": "unknown", "source": "OpenStreetMap", "license": "ODbL-1.0"}, "geometry": {"type": "MultiPolygon", "coordinates": [[[[113.9543258, 22.7026244], [113.954551, 22.7024179], [113.9548616, 22.7027061], [113.9546363, 22.7029126], [113.9543258, 22.7026244]]]]}}]}