{"type":"FeatureCollection","features":[{"type":"Feature","id":"way/1424028770","geometry":{"type":"MultiPolygon","coordinates":[[[[113.9353497,22.6722599],[113.9354095,22.6721319],[113.9358429,22.6723043],[113.9357831,22.6724323],[113.9353497,22.6722599]]]]},"properties":{"name":"way/1424028770","height":0,"kind":"unknown","label":"缺少可用高度；仅展示轮廓"}},{"type":"Feature","id":"way/1424028772","geometry":{"type":"MultiPolygon","coordinates":[[[[113.9369097,22.6730122],[113.9370142,22.6729193],[113.9370778,22.6729802],[113.9371097,22.6729519],[113.9370831,22.6729263],[113.9371289,22.6728855],[113.9372553,22.6730065],[113.9372095,22.6730473],[113.9371706,22.6730101],[113.9371148,22.6730597],[113.9371873,22.6731292],[113.9371337,22.6731769],[113.9370693,22.6731154],[113.9370022,22.6731751],[113.9369331,22.673109],[113.9369734,22.6730732],[113.9369097,22.6730122]]]]},"properties":{"name":"6栋","height":0,"kind":"unknown","label":"缺少可用高度；仅展示轮廓"}},{"type":"Feature","id":"way/1424028774","geometry":{"type":"MultiPolygon","coordinates":[[[[113.9361812,22.6726919],[113.9362856,22.672599],[113.9363493,22.6726599],[113.9363812,22.6726315],[113.9363545,22.672606],[113.9364003,22.6725652],[113.9365267,22.6726862],[113.9364809,22.672727],[113.936442,22.6726897],[113.9363862,22.6727394],[113.9364588,22.6728088],[113.9364051,22.6728566],[113.9363408,22.672795],[113.9362737,22.6728547],[113.9362046,22.6727886],[113.9362448,22.6727528],[113.9361812,22.6726919]]]]},"properties":{"name":"5栋","height":0,"kind":"unknown","label":"缺少可用高度；仅展示轮廓"}},{"type":"Feature","id":"way/1424028777","geometry":{"type":"MultiPolygon","coordinates":[[[[113.9363202,22.6735546],[113.9363519,22.6734859],[113.936466,22.6735306],[113.9364842,22.673491],[113.9364476,22.6734766],[113.9364815,22.6734031],[113.9366365,22.673464],[113.9366026,22.6735374],[113.936566,22.673523],[113.9365477,22.6735627],[113.9366618,22.6736075],[113.9366301,22.6736762],[113.9365872,22.6736593],[113.9365837,22.6736667],[113.9364999,22.6736339],[113.9365079,22.6736165],[113.9364797,22.6736054],[113.9364516,22.6735944],[113.9364436,22.6736117],[113.9363597,22.6735789],[113.9363632,22.6735714],[113.9363202,22.6735546]]]]},"properties":{"name":"3栋","height":0,"kind":"unknown","label":"缺少可用高度；仅展示轮廓"}},{"type":"Feature","id":"way/1424028786","geometry":{"type":"MultiPolygon","coordinates":[[[[113.9366177,22.6776424],[113.9367586,22.6775369],[113.9367865,22.6775686],[113.9368116,22.6775497],[113.9369067,22.6776578],[113.9368385,22.6777089],[113.9367733,22.6776347],[113.9367184,22.6776758],[113.9367837,22.6777499],[113.9367155,22.677801],[113.9366204,22.6776929],[113.9366456,22.6776741],[113.9366177,22.6776424]]]]},"properties":{"name":"way/1424028786","height":0,"kind":"unknown","label":"缺少可用高度；仅展示轮廓"}},{"type":"Feature","id":"way/1424028787","geometry":{"type":"MultiPolygon","coordinates":[[[[113.9363589,22.6778377],[113.9364999,22.6777321],[113.9365277,22.6777638],[113.9365529,22.677745],[113.936648,22.6778531],[113.9365797,22.6779041],[113.9365145,22.67783],[113.9364597,22.677871],[113.9365249,22.6779452],[113.9364567,22.6779963],[113.9363617,22.6778882],[113.9363868,22.6778694],[113.9363589,22.6778377]]]]},"properties":{"name":"way/1424028787","height":0,"kind":"unknown","label":"缺少可用高度；仅展示轮廓"}},{"type":"Feature","id":"way/1424028788","geometry":{"type":"MultiPolygon","coordinates":[[[[113.9368854,22.6774413],[113.9370264,22.6773358],[113.9370542,22.6773675],[113.9370794,22.6773486],[113.9371744,22.6774567],[113.9371062,22.6775078],[113.937041,22.6774336],[113.9369862,22.6774747],[113.9370514,22.6775488],[113.9369832,22.6775999],[113.9368882,22.6774919],[113.9369133,22.677473],[113.9368854,22.6774413]]]]},"properties":{"name":"way/1424028788","height":0,"kind":"unknown","label":"缺少可用高度；仅展示轮廓"}},{"type":"Feature","id":"way/1424028791","geometry":{"type":"MultiPolygon","coordinates":[[[[113.9356812,22.674926],[113.9356818,22.6748394],[113.9357545,22.6748398],[113.9357546,22.6748237],[113.9358151,22.6748241],[113.9358152,22.6748009],[113.9357893,22.6748007],[113.9357901,22.6746915],[113.9359158,22.6746923],[113.9359149,22.6748015],[113.935889,22.6748014],[113.9358888,22.6748245],[113.9359492,22.6748249],[113.9359491,22.6748411],[113.9360945,22.674842],[113.9360946,22.6748259],[113.936155,22.6748263],[113.9361552,22.6748031],[113.9361292,22.6748029],[113.9361301,22.6746937],[113.9362557,22.6746945],[113.9362549,22.6748037],[113.9362289,22.6748036],[113.9362287,22.6748267],[113.9362892,22.6748271],[113.9362891,22.6748433],[113.9363617,22.6748438],[113.9363611,22.6749304],[113.936243,22.6749296],[113.9362426,22.6749829],[113.9361388,22.6749822],[113.9361392,22.6749289],[113.9359031,22.6749274],[113.9359027,22.6749807],[113.9357988,22.67498],[113.9357992,22.6749267],[113.9356812,22.674926]]]]},"properties":{"name":"6栋","height":0,"kind":"unknown","label":"缺少可用高度；仅展示轮廓"}},{"type":"Feature","id":"way/1424028792","geometry":{"type":"MultiPolygon","coordinates":[[[[113.9371442,22.6772461],[113.9372851,22.6771405],[113.937313,22.6771722],[113.9373381,22.6771534],[113.9374332,22.6772614],[113.937365,22.6773125],[113.9372998,22.6772384],[113.9372449,22.6772794],[113.9373102,22.6773536],[113.937242,22.6774047],[113.9371469,22.6772966],[113.9371721,22.6772778],[113.9371442,22.6772461]]]]},"properties":{"name":"way/1424028792","height":0,"kind":"unknown","label":"缺少可用高度；仅展示轮廓"}},{"type":"Feature","id":"way/1424028796","geometry":{"type":"MultiPolygon","coordinates":[[[[113.9358135,22.6740196],[113.9358532,22.673981],[113.9358257,22.6739568],[113.9358873,22.6738969],[113.9359502,22.6739519],[113.9360496,22.6738553],[113.9361738,22.6739639],[113.9360825,22.6740527],[113.9362186,22.6741719],[113.9362353,22.6741557],[113.936374,22.6742771],[113.9363573,22.6742933],[113.9364174,22.6743459],[113.9363272,22.6744336],[113.9362336,22.6743517],[113.9362027,22.6743817],[113.9361311,22.674319],[113.936162,22.674289],[113.9360684,22.6742071],[113.9360749,22.6742007],[113.9359603,22.6741005],[113.9359771,22.6740842],[113.9359247,22.6740383],[113.9358821,22.6740797],[113.9358135,22.6740196]]]]},"properties":{"name":"5栋","height":0,"kind":"unknown","label":"缺少可用高度；仅展示轮廓"}},{"type":"Feature","id":"way/1424028808","geometry":{"type":"MultiPolygon","coordinates":[[[[113.9351772,22.6746836],[113.9352003,22.6746621],[113.9351817,22.6746451],[113.9352307,22.6745995],[113.9353234,22.6746841],[113.935415,22.6745985],[113.9354645,22.6746437],[113.9354462,22.6746608],[113.9354695,22.6746821],[113.9353962,22.6747505],[113.9354704,22.6748182],[113.9354473,22.6748397],[113.9354658,22.6748567],[113.9354169,22.6749023],[113.9353242,22.6748177],[113.9352325,22.6749033],[113.935183,22.6748581],[113.9352014,22.674841],[113.935178,22.6748197],[113.9352513,22.6747513],[113.9351772,22.6746836]]]]},"properties":{"name":"1栋","height":0,"kind":"unknown","label":"缺少可用高度；仅展示轮廓"}},{"type":"Feature","id":"way/1424028814","geometry":{"type":"MultiPolygon","coordinates":[[[[113.9351753,22.6736007],[113.9352397,22.6735405],[113.9353383,22.6736305],[113.9354102,22.6735635],[113.9354965,22.6736423],[113.9354247,22.6737093],[113.9355268,22.6738025],[113.9354623,22.6738626],[113.9353602,22.6737695],[113.93527,22.6738537],[113.9351836,22.6737749],[113.9352739,22.6736907],[113.9351753,22.6736007]]]]},"properties":{"name":"3栋","height":0,"kind":"unknown","label":"缺少可用高度；仅展示轮廓"}},{"type":"Feature","id":"way/1424028815","geometry":{"type":"MultiPolygon","coordinates":[[[[113.9351963,22.6741181],[113.9352608,22.6740579],[113.9353594,22.6741479],[113.9354313,22.6740808],[113.9355176,22.6741596],[113.9354458,22.6742267],[113.9355479,22.6743198],[113.9354834,22.67438],[113.9353813,22.6742868],[113.935291,22.674371],[113.9352047,22.6742922],[113.9352949,22.674208],[113.9351963,22.6741181]]]]},"properties":{"name":"2栋","height":0,"kind":"unknown","label":"缺少可用高度；仅展示轮廓"}},{"type":"Feature","id":"way/1424028817","geometry":{"type":"MultiPolygon","coordinates":[[[[113.9351411,22.6731044],[113.9351517,22.6727941],[113.9353297,22.6727985],[113.9353985,22.6726697],[113.9351588,22.6725608],[113.9351734,22.6721542],[113.9353348,22.6721588],[113.9353236,22.672488],[113.9355907,22.6726093],[113.93543,22.6729105],[113.9354259,22.6729195],[113.9354186,22.6729266],[113.9354089,22.6729307],[113.9353983,22.6729314],[113.9353087,22.6729291],[113.9353025,22.6731091],[113.9356317,22.6732452],[113.9355743,22.6733634],[113.9351867,22.6732051],[113.9351411,22.6731044]]]]},"properties":{"name":"way/1424028817","height":0,"kind":"unknown","label":"缺少可用高度；仅展示轮廓"}},{"type":"Feature","id":"way/1424028821","geometry":{"type":"MultiPolygon","coordinates":[[[[113.9357914,22.6734347],[113.9358515,22.6733],[113.9360376,22.6733707],[113.9360889,22.6732559],[113.9359029,22.6731851],[113.9359696,22.6730357],[113.9362677,22.6731491],[113.9360895,22.6735481],[113.9357914,22.6734347]]]]},"properties":{"name":"way/1424028821","height":0,"kind":"unknown","label":"缺少可用高度；仅展示轮廓"}},{"type":"Feature","id":"way/1424028824","geometry":{"type":"MultiPolygon","coordinates":[[[[113.9371247,22.6737209],[113.9372782,22.6736305],[113.9373127,22.6736803],[113.9372696,22.6737057],[113.9373111,22.6737656],[113.9373942,22.6737166],[113.9374419,22.6737855],[113.9373588,22.6738345],[113.9374251,22.6739303],[113.9373462,22.6739768],[113.9372799,22.673881],[113.9371874,22.6739354],[113.9371397,22.6738665],[113.9372322,22.6738121],[113.9371902,22.6737515],[113.9371587,22.67377],[113.9371247,22.6737209]]]]},"properties":{"name":"2栋","height":0,"kind":"unknown","label":"缺少可用高度；仅展示轮廓"}},{"type":"Feature","id":"way/1424522856","geometry":{"type":"MultiPolygon","coordinates":[[[[113.9342767,22.679204],[113.9342989,22.6791837],[113.9342841,22.67917],[113.9343466,22.6791126],[113.9343613,22.6791262],[113.9343815,22.6791077],[113.934372,22.6790989],[113.9344001,22.679073],[113.9343371,22.6790148],[113.9343702,22.6789843],[113.9343923,22.6790047],[113.9344217,22.6789777],[113.9344551,22.6790086],[113.9344787,22.6789869],[113.934555,22.6790576],[113.9345315,22.6790793],[113.9345649,22.6791102],[113.9345355,22.6791373],[113.9346146,22.6792106],[113.9345362,22.6792827],[113.9344585,22.6792108],[113.9345038,22.6791691],[113.9344615,22.6791299],[113.9344059,22.679181],[113.9344143,22.6791887],[113.934337,22.6792598],[113.9342767,22.679204]]]]},"properties":{"name":"way/1424522856","height":0,"kind":"unknown","label":"缺少可用高度；仅展示轮廓"}},{"type":"Feature","id":"way/1424522857","geometry":{"type":"MultiPolygon","coordinates":[[[[113.933605,22.6790902],[113.9336347,22.6790629],[113.9336226,22.6790518],[113.933671,22.6790073],[113.9336604,22.6789975],[113.9337088,22.678953],[113.9337329,22.6789753],[113.9337652,22.6789457],[113.9337983,22.6789764],[113.9337706,22.6790018],[113.9338052,22.6790338],[113.9338609,22.6789825],[113.9338772,22.6789976],[113.9339107,22.6789668],[113.9339487,22.679002],[113.9339124,22.6790353],[113.9339224,22.6790446],[113.9338734,22.6790896],[113.933856,22.6790735],[113.9337908,22.6791335],[113.9337599,22.6791049],[113.9337286,22.6791337],[113.933712,22.6791183],[113.9336736,22.6791537],[113.933605,22.6790902]]]]},"properties":{"name":"way/1424522857","height":0,"kind":"unknown","label":"缺少可用高度；仅展示轮廓"}},{"type":"Feature","id":"way/1424522858","geometry":{"type":"MultiPolygon","coordinates":[[[[113.9334479,22.6792375],[113.9334801,22.6792079],[113.933456,22.6791856],[113.9335044,22.6791411],[113.9335149,22.6791508],[113.9335633,22.6791063],[113.9335753,22.6791175],[113.933605,22.6790902],[113.9336736,22.6791537],[113.9336352,22.679189],[113.9336518,22.6792044],[113.9336205,22.6792331],[113.9336513,22.6792617],[113.9335862,22.6793217],[113.9336036,22.6793378],[113.9335545,22.6793829],[113.9335446,22.6793737],[113.9335083,22.6794071],[113.9334703,22.6793719],[113.9335038,22.679341],[113.9334875,22.6793259],[113.9335432,22.6792747],[113.9335087,22.6792428],[113.933481,22.6792682],[113.9334479,22.6792375]]]]},"properties":{"name":"way/1424522858","height":0,"kind":"unknown","label":"缺少可用高度；仅展示轮廓"}},{"type":"Feature","id":"way/1424522859","geometry":{"type":"MultiPolygon","coordinates":[[[[113.9334929,22.6796782],[113.9335277,22.6796447],[113.9335148,22.6796334],[113.9336026,22.6795486],[113.9336155,22.67956],[113.9336502,22.6795265],[113.93369,22.6795616],[113.9336795,22.6795717],[113.9336981,22.6795881],[113.9336564,22.6796283],[113.9336843,22.679653],[113.9336617,22.6796748],[113.9336675,22.6796798],[113.9339888,22.6796732],[113.9339911,22.6797689],[113.9336924,22.6797751],[113.9335909,22.6798729],[113.9335224,22.6798124],[113.9335372,22.679798],[113.933524,22.6797863],[113.9335819,22.6797305],[113.9335951,22.6797422],[113.9336202,22.679718],[113.9335906,22.6796918],[113.9335618,22.6797197],[113.9335431,22.6797032],[113.9335326,22.6797133],[113.9334929,22.6796782]]]]},"properties":{"name":"way/1424522859","height":0,"kind":"unknown","label":"缺少可用高度；仅展示轮廓"}},{"type":"Feature","id":"way/1424522860","geometry":{"type":"MultiPolygon","coordinates":[[[[113.9339888,22.6796732],[113.9343101,22.6796666],[113.9343157,22.6796613],[113.934292,22.6796405],[113.9343187,22.6796147],[113.9342751,22.6795763],[113.934293,22.6795591],[113.934282,22.6795494],[113.93432,22.6795127],[113.9343563,22.6795448],[113.9343687,22.6795329],[113.9344605,22.6796139],[113.9344482,22.6796258],[113.9344845,22.6796579],[113.9344465,22.6796945],[113.9344355,22.6796849],[113.9344177,22.6797021],[113.9343875,22.6796755],[113.9343592,22.6797028],[113.9343855,22.679726],[113.9343981,22.6797137],[113.9344587,22.6797671],[113.934446,22.6797794],[113.9344615,22.6797931],[113.9343959,22.6798564],[113.9342899,22.6797628],[113.9339911,22.6797689],[113.9339888,22.6796732]]]]},"properties":{"name":"way/1424522860","height":0,"kind":"unknown","label":"缺少可用高度；仅展示轮廓"}},{"type":"Feature","id":"way/1424522861","geometry":{"type":"MultiPolygon","coordinates":[[[[113.9339394,22.6781126],[113.9339579,22.6775522],[113.9340926,22.677556],[113.934074,22.6781164],[113.9339394,22.6781126]]]]},"properties":{"name":"4号楼","height":0,"kind":"unknown","label":"缺少可用高度；仅展示轮廓"}},{"type":"Feature","id":"way/1424522862","geometry":{"type":"MultiPolygon","coordinates":[[[[113.9341096,22.6781162],[113.9341281,22.6775558],[113.9342627,22.6775596],[113.9342442,22.67812],[113.9341096,22.6781162]]]]},"properties":{"name":"3号楼","height":0,"kind":"unknown","label":"缺少可用高度；仅展示轮廓"}},{"type":"Feature","id":"way/1424522863","geometry":{"type":"MultiPolygon","coordinates":[[[[113.9343169,22.6781243],[113.9343354,22.6775639],[113.93447,22.6775677],[113.9344515,22.6781281],[113.9343169,22.6781243]]]]},"properties":{"name":"2号楼","height":0,"kind":"unknown","label":"缺少可用高度；仅展示轮廓"}},{"type":"Feature","id":"way/1424522864","geometry":{"type":"MultiPolygon","coordinates":[[[[113.9344871,22.6781279],[113.9345056,22.6775675],[113.9346402,22.6775713],[113.9346217,22.6781316],[113.9344871,22.6781279]]]]},"properties":{"name":"1号楼","height":0,"kind":"unknown","label":"缺少可用高度；仅展示轮廓"}},{"type":"Feature","id":"way/1424522865","geometry":{"type":"MultiPolygon","coordinates":[[[[113.9342971,22.6787668],[113.9343157,22.6782065],[113.9344503,22.6782103],[113.9344317,22.6787706],[113.9342971,22.6787668]]]]},"properties":{"name":"6号楼","height":0,"kind":"unknown","label":"缺少可用高度；仅展示轮廓"}},{"type":"Feature","id":"way/1424522866","geometry":{"type":"MultiPolygon","coordinates":[[[[113.9344673,22.6787704],[113.9344858,22.6782101],[113.9346205,22.6782139],[113.9346019,22.6787742],[113.9344673,22.6787704]]]]},"properties":{"name":"5号楼","height":0,"kind":"unknown","label":"缺少可用高度；仅展示轮廓"}},{"type":"Feature","id":"way/1424522867","geometry":{"type":"MultiPolygon","coordinates":[[[[113.9340899,22.6787587],[113.9341084,22.6781984],[113.934243,22.6782022],[113.9342245,22.6787625],[113.9340899,22.6787587]]]]},"properties":{"name":"7号楼","height":0,"kind":"unknown","label":"缺少可用高度；仅展示轮廓"}},{"type":"Feature","id":"way/1424522868","geometry":{"type":"MultiPolygon","coordinates":[[[[113.9339197,22.6787552],[113.9339382,22.6781948],[113.9340728,22.6781986],[113.9340543,22.6787589],[113.9339197,22.6787552]]]]},"properties":{"name":"8号楼","height":0,"kind":"unknown","label":"缺少可用高度；仅展示轮廓"}},{"type":"Feature","id":"way/1424522877","geometry":{"type":"MultiPolygon","coordinates":[[[[113.9298577,22.6738259],[113.9298965,22.6738042],[113.9298696,22.6737597],[113.9300723,22.6736552],[113.9301211,22.6737359],[113.9300195,22.6737883],[113.9301766,22.6740282],[113.9303832,22.6740282],[113.9303832,22.6741234],[113.9301243,22.6741234],[113.9301007,22.6740874],[113.9300481,22.6741167],[113.9298577,22.6738259]]]]},"properties":{"name":"石岩街道罗租社区工作站","height":0,"kind":"unknown","label":"缺少可用高度；仅展示轮廓"}},{"type":"Feature","id":"way/1424522879","geometry":{"type":"MultiPolygon","coordinates":[[[[113.928816,22.672817],[113.9292538,22.6725855],[113.9295544,22.6730694],[113.9291166,22.6733009],[113.928816,22.672817]]]]},"properties":{"name":"way/1424522879","height":0,"kind":"unknown","label":"缺少可用高度；仅展示轮廓"}},{"type":"Feature","id":"way/1424522880","geometry":{"type":"MultiPolygon","coordinates":[[[[113.9274377,22.6735601],[113.9279018,22.6733136],[113.9282034,22.673797],[113.9277393,22.6740435],[113.9274377,22.6735601]]]]},"properties":{"name":"way/1424522880","height":0,"kind":"unknown","label":"缺少可用高度；仅展示轮廓"}},{"type":"Feature","id":"way/1424522881","geometry":{"type":"MultiPolygon","coordinates":[[[[113.9279777,22.6732732],[113.9281564,22.6731783],[113.928458,22.6736617],[113.9282793,22.6737566],[113.9279777,22.6732732]]]]},"properties":{"name":"way/1424522881","height":0,"kind":"unknown","label":"缺少可用高度；仅展示轮廓"}},{"type":"Feature","id":"way/1424522882","geometry":{"type":"MultiPolygon","coordinates":[[[[113.9285391,22.6729642],[113.9287178,22.6728693],[113.9290194,22.6733527],[113.9288407,22.6734476],[113.9285391,22.6729642]]]]},"properties":{"name":"way/1424522882","height":0,"kind":"unknown","label":"缺少可用高度；仅展示轮廓"}},{"type":"Feature","id":"way/1424522883","geometry":{"type":"MultiPolygon","coordinates":[[[[113.9282735,22.6731106],[113.9284522,22.6730157],[113.9287538,22.6734991],[113.9285751,22.673594],[113.9282735,22.6731106]]]]},"properties":{"name":"way/1424522883","height":0,"kind":"unknown","label":"缺少可用高度；仅展示轮廓"}},{"type":"Feature","id":"way/1424522884","geometry":{"type":"MultiPolygon","coordinates":[[[[113.9291627,22.6733751],[113.9296005,22.6731436],[113.9296677,22.6732519],[113.9292299,22.6734834],[113.9291627,22.6733751]]]]},"properties":{"name":"way/1424522884","height":0,"kind":"unknown","label":"缺少可用高度；仅展示轮廓"}},{"type":"Feature","id":"way/1424522885","geometry":{"type":"MultiPolygon","coordinates":[[[[113.9286165,22.6736697],[113.9290842,22.6734213],[113.9291495,22.6735259],[113.9286813,22.6737735],[113.9286165,22.6736697]]]]},"properties":{"name":"way/1424522885","height":0,"kind":"unknown","label":"缺少可用高度；仅展示轮廓"}},{"type":"Feature","id":"way/1424522886","geometry":{"type":"MultiPolygon","coordinates":[[[[113.9275709,22.6742314],[113.9285087,22.6737333],[113.9285704,22.6738322],[113.9276316,22.6743286],[113.9275709,22.6742314]]]]},"properties":{"name":"way/1424522886","height":0,"kind":"unknown","label":"缺少可用高度；仅展示轮廓"}},{"type":"Feature","id":"way/1424522932","geometry":{"type":"MultiPolygon","coordinates":[[[[113.9314309,22.6717598],[113.9315433,22.6716355],[113.9316037,22.6716821],[113.931585,22.6717028],[113.9316161,22.6717267],[113.9315411,22.6718097],[113.93151,22.6717857],[113.9314913,22.6718064],[113.9314309,22.6717598]]]]},"properties":{"name":"way/1424522932","height":0,"kind":"unknown","label":"缺少可用高度；仅展示轮廓"}},{"type":"Feature","id":"way/1424522933","geometry":{"type":"MultiPolygon","coordinates":[[[[113.9314563,22.6719035],[113.9315411,22.6718097],[113.9316161,22.6717267],[113.9316668,22.6716707],[113.9318178,22.671787],[113.9316072,22.6720197],[113.9314563,22.6719035]]]]},"properties":{"name":"way/1424522933","height":0,"kind":"unknown","label":"缺少可用高度；仅展示轮廓"}},{"type":"Feature","id":"way/1424522935","geometry":{"type":"MultiPolygon","coordinates":[[[[113.9329352,22.6747625],[113.9336073,22.6746605],[113.933639,22.6748384],[113.9334275,22.6748705],[113.933415,22.6748007],[113.9329545,22.6748706],[113.9329352,22.6747625]]]]},"properties":{"name":"way/1424522935","height":0,"kind":"unknown","label":"缺少可用高度；仅展示轮廓"}},{"type":"Feature","id":"way/1424522936","geometry":{"type":"MultiPolygon","coordinates":[[[[113.9325603,22.6744206],[113.9327081,22.6743915],[113.9327451,22.6745517],[113.9329921,22.6745031],[113.9329588,22.674359],[113.9330255,22.6743458],[113.9330894,22.6746219],[113.9326278,22.6747128],[113.9325603,22.6744206]]]]},"properties":{"name":"way/1424522936","height":0,"kind":"unknown","label":"缺少可用高度；仅展示轮廓"}},{"type":"Feature","id":"way/1424522937","geometry":{"type":"MultiPolygon","coordinates":[[[[113.9324116,22.6737776],[113.9328315,22.6736949],[113.9329802,22.6743379],[113.9327081,22.6743915],[113.9325603,22.6744206],[113.9324116,22.6737776]]]]},"properties":{"name":"way/1424522937","height":0,"kind":"unknown","label":"缺少可用高度；仅展示轮廓"}},{"type":"Feature","id":"way/1424522938","geometry":{"type":"MultiPolygon","coordinates":[[[[113.9329049,22.6736885],[113.9335013,22.6735846],[113.9335542,22.6738428],[113.9329578,22.6739467],[113.9329049,22.6736885]]]]},"properties":{"name":"way/1424522938","height":0,"kind":"unknown","label":"缺少可用高度；仅展示轮廓"}},{"type":"Feature","id":"way/1424522939","geometry":{"type":"MultiPolygon","coordinates":[[[[113.932969,22.6740133],[113.9337516,22.673877],[113.9338125,22.6741746],[113.9335733,22.6742162],[113.9336054,22.674373],[113.9332999,22.6744262],[113.9332678,22.6742695],[113.9330299,22.6743109],[113.932969,22.6740133]]]]},"properties":{"name":"way/1424522939","height":0,"kind":"unknown","label":"缺少可用高度；仅展示轮廓"}},{"type":"Feature","id":"way/1424522944","geometry":{"type":"MultiPolygon","coordinates":[[[[113.9342432,22.6719356],[113.9343536,22.6719128],[113.9344282,22.672221],[113.9343178,22.6722437],[113.9342432,22.6719356]]]]},"properties":{"name":"4栋","height":0,"kind":"unknown","label":"缺少可用高度；仅展示轮廓"}},{"type":"Feature","id":"way/1424522945","geometry":{"type":"MultiPolygon","coordinates":[[[[113.9343389,22.6723241],[113.9344493,22.6723013],[113.9345239,22.6726095],[113.9344135,22.6726323],[113.9343389,22.6723241]]]]},"properties":{"name":"3栋","height":0,"kind":"unknown","label":"缺少可用高度；仅展示轮廓"}},{"type":"Feature","id":"way/1424522946","geometry":{"type":"MultiPolygon","coordinates":[[[[113.9339056,22.6728895],[113.9342719,22.6728259],[113.9342938,22.6729329],[113.9339274,22.6729966],[113.9339056,22.6728895]]]]},"properties":{"name":"2栋","height":0,"kind":"unknown","label":"缺少可用高度；仅展示轮廓"}},{"type":"Feature","id":"way/1424522947","geometry":{"type":"MultiPolygon","coordinates":[[[[113.9339438,22.6730306],[113.934055,22.6730113],[113.9341184,22.6733216],[113.9340072,22.6733409],[113.9339438,22.6730306]]]]},"properties":{"name":"1栋","height":0,"kind":"unknown","label":"缺少可用高度；仅展示轮廓"}},{"type":"Feature","id":"way/1424522948","geometry":{"type":"MultiPolygon","coordinates":[[[[113.9337393,22.6719718],[113.9341228,22.6719052],[113.9341596,22.6720849],[113.9337759,22.6721515],[113.9337393,22.6719718]]]]},"properties":{"name":"18栋","height":0,"kind":"unknown","label":"缺少可用高度；仅展示轮廓"}},{"type":"Feature","id":"way/1424522949","geometry":{"type":"MultiPolygon","coordinates":[[[[113.9338544,22.6725367],[113.9342383,22.6724701],[113.9342751,22.6726498],[113.933891,22.6727164],[113.9338544,22.6725367]]]]},"properties":{"name":"16栋","height":0,"kind":"unknown","label":"缺少可用高度；仅展示轮廓"}},{"type":"Feature","id":"way/1424522950","geometry":{"type":"MultiPolygon","coordinates":[[[[113.9338001,22.6722704],[113.9341839,22.6722038],[113.9342206,22.6723835],[113.9338368,22.6724501],[113.9338001,22.6722704]]]]},"properties":{"name":"17栋","height":0,"kind":"unknown","label":"缺少可用高度；仅展示轮廓"}},{"type":"Feature","id":"way/1424522951","geometry":{"type":"MultiPolygon","coordinates":[[[[113.9321287,22.6722582],[113.9325122,22.6721917],[113.932549,22.6723714],[113.9321653,22.6724379],[113.9321287,22.6722582]]]]},"properties":{"name":"5栋","height":0,"kind":"unknown","label":"缺少可用高度；仅展示轮廓"}},{"type":"Feature","id":"way/1424522952","geometry":{"type":"MultiPolygon","coordinates":[[[[113.9321895,22.6725569],[113.9325733,22.6724903],[113.93261,22.67267],[113.9322262,22.6727366],[113.9321895,22.6725569]]]]},"properties":{"name":"4栋","height":0,"kind":"unknown","label":"缺少可用高度；仅展示轮廓"}},{"type":"Feature","id":"way/1424522953","geometry":{"type":"MultiPolygon","coordinates":[[[[113.932372,22.6734452],[113.9327549,22.6733785],[113.9327916,22.6735582],[113.9324088,22.6736249],[113.932372,22.6734452]]]]},"properties":{"name":"1栋","height":0,"kind":"unknown","label":"缺少可用高度；仅展示轮廓"}},{"type":"Feature","id":"way/1424522954","geometry":{"type":"MultiPolygon","coordinates":[[[[113.9322438,22.6728231],[113.9326277,22.6727565],[113.9326645,22.6729362],[113.9322804,22.6730029],[113.9322438,22.6728231]]]]},"properties":{"name":"3栋","height":0,"kind":"unknown","label":"缺少可用高度；仅展示轮廓"}},{"type":"Feature","id":"way/1424522955","geometry":{"type":"MultiPolygon","coordinates":[[[[113.9323163,22.673179],[113.9327005,22.6731123],[113.9327372,22.673292],[113.932353,22.6733587],[113.9323163,22.673179]]]]},"properties":{"name":"2栋","height":0,"kind":"unknown","label":"缺少可用高度；仅展示轮廓"}},{"type":"Feature","id":"way/1424522956","geometry":{"type":"MultiPolygon","coordinates":[[[[113.9334905,22.6732476],[113.9338733,22.6731809],[113.9339101,22.6733606],[113.9335272,22.6734273],[113.9334905,22.6732476]]]]},"properties":{"name":"11栋","height":0,"kind":"unknown","label":"缺少可用高度；仅展示轮廓"}},{"type":"Feature","id":"way/1424522957","geometry":{"type":"MultiPolygon","coordinates":[[[[113.9334348,22.6729814],[113.9338189,22.6729148],[113.9338557,22.6730945],[113.9334714,22.6731611],[113.9334348,22.6729814]]]]},"properties":{"name":"12栋","height":0,"kind":"unknown","label":"缺少可用高度；仅展示轮廓"}},{"type":"Feature","id":"way/1424522958","geometry":{"type":"MultiPolygon","coordinates":[[[[113.9332471,22.6720606],[113.9336307,22.6719941],[113.9336674,22.6721738],[113.9332838,22.6722404],[113.9332471,22.6720606]]]]},"properties":{"name":"15栋","height":0,"kind":"unknown","label":"缺少可用高度；仅展示轮廓"}},{"type":"Feature","id":"way/1424522959","geometry":{"type":"MultiPolygon","coordinates":[[[[113.9333623,22.6726256],[113.9337462,22.6725589],[113.9337829,22.6727386],[113.9333989,22.6728053],[113.9333623,22.6726256]]]]},"properties":{"name":"13栋","height":0,"kind":"unknown","label":"缺少可用高度；仅展示轮廓"}},{"type":"Feature","id":"way/1424522960","geometry":{"type":"MultiPolygon","coordinates":[[[[113.933308,22.6723593],[113.9336917,22.6722927],[113.9337285,22.6724724],[113.9333446,22.672539],[113.933308,22.6723593]]]]},"properties":{"name":"14栋","height":0,"kind":"unknown","label":"缺少可用高度；仅展示轮廓"}},{"type":"Feature","id":"way/1424522961","geometry":{"type":"MultiPolygon","coordinates":[[[[113.9326418,22.672169],[113.9331227,22.6720855],[113.9331593,22.6722653],[113.9326784,22.6723487],[113.9326418,22.672169]]]]},"properties":{"name":"10栋","height":0,"kind":"unknown","label":"缺少可用高度；仅展示轮廓"}},{"type":"Feature","id":"way/1424522962","geometry":{"type":"MultiPolygon","coordinates":[[[[113.9327569,22.6727339],[113.9332378,22.6726505],[113.9332745,22.6728302],[113.9327936,22.6729136],[113.9327569,22.6727339]]]]},"properties":{"name":"8栋","height":0,"kind":"unknown","label":"缺少可用高度；仅展示轮廓"}},{"type":"Feature","id":"way/1424522963","geometry":{"type":"MultiPolygon","coordinates":[[[[113.9327027,22.6724676],[113.9331836,22.6723842],[113.9332202,22.6725639],[113.9327393,22.6726473],[113.9327027,22.6724676]]]]},"properties":{"name":"9栋","height":0,"kind":"unknown","label":"缺少可用高度；仅展示轮廓"}},{"type":"Feature","id":"way/1424522964","geometry":{"type":"MultiPolygon","coordinates":[[[[113.9328295,22.6730898],[113.9333104,22.6730063],[113.933347,22.673186],[113.9328661,22.6732695],[113.9328295,22.6730898]]]]},"properties":{"name":"7栋","height":0,"kind":"unknown","label":"缺少可用高度；仅展示轮廓"}},{"type":"Feature","id":"way/1424522965","geometry":{"type":"MultiPolygon","coordinates":[[[[113.9328851,22.6733559],[113.933366,22.6732722],[113.9334027,22.6734519],[113.9329219,22.6735356],[113.9328851,22.6733559]]]]},"properties":{"name":"6栋","height":0,"kind":"unknown","label":"缺少可用高度；仅展示轮廓"}},{"type":"Feature","id":"way/1424538049","geometry":{"type":"MultiPolygon","coordinates":[[[[113.93669,22.6769255],[113.9369229,22.676746],[113.9370255,22.6768593],[113.9367926,22.6770388],[113.93669,22.6769255]]]]},"properties":{"name":"way/1424538049","height":0,"kind":"unknown","label":"缺少可用高度；仅展示轮廓"}},{"type":"Feature","id":"way/1424538050","geometry":{"type":"MultiPolygon","coordinates":[[[[113.9361894,22.6771928],[113.9364227,22.6771193],[113.9366067,22.6769775],[113.9367253,22.6771085],[113.936515,22.6772706],[113.9362492,22.6773543],[113.9361894,22.6771928]]]]},"properties":{"name":"way/1424538050","height":0,"kind":"unknown","label":"缺少可用高度；仅展示轮廓"}},{"type":"Feature","id":"way/1424538051","geometry":{"type":"MultiPolygon","coordinates":[[[[113.9358135,22.6773497],[113.9358231,22.6771764],[113.9361102,22.6771899],[113.9361006,22.6773632],[113.9358135,22.6773497]]]]},"properties":{"name":"way/1424538051","height":0,"kind":"unknown","label":"缺少可用高度；仅展示轮廓"}},{"type":"Feature","id":"way/1424538052","geometry":{"type":"MultiPolygon","coordinates":[[[[113.935482,22.6773328],[113.9354916,22.6771595],[113.9357787,22.677173],[113.9357691,22.6773463],[113.935482,22.6773328]]]]},"properties":{"name":"way/1424538052","height":0,"kind":"unknown","label":"缺少可用高度；仅展示轮廓"}},{"type":"Feature","id":"way/1424538053","geometry":{"type":"MultiPolygon","coordinates":[[[[113.9350477,22.6768638],[113.9350697,22.676466],[113.9351918,22.6764718],[113.9351698,22.6768695],[113.9350477,22.6768638]]]]},"properties":{"name":"way/1424538053","height":0,"kind":"unknown","label":"缺少可用高度；仅展示轮廓"}},{"type":"Feature","id":"way/1424538054","geometry":{"type":"MultiPolygon","coordinates":[[[[113.9352677,22.6773135],[113.9353056,22.6766293],[113.9354822,22.6766376],[113.9354443,22.6773219],[113.9352677,22.6773135]]]]},"properties":{"name":"way/1424538054","height":0,"kind":"unknown","label":"缺少可用高度；仅展示轮廓"}},{"type":"Feature","id":"way/1424538055","geometry":{"type":"MultiPolygon","coordinates":[[[[113.9367172,22.677919],[113.9367537,22.6779182],[113.9367534,22.6779061],[113.9368889,22.6779034],[113.936887,22.677821],[113.9369425,22.6778199],[113.9369861,22.6778584],[113.9369897,22.678011],[113.936948,22.6780512],[113.9368925,22.6780523],[113.9368918,22.6780251],[113.9367563,22.6780278],[113.9367552,22.6779827],[113.9367188,22.6779834],[113.9367172,22.677919]]]]},"properties":{"name":"way/1424538055","height":0,"kind":"unknown","label":"缺少可用高度；仅展示轮廓"}},{"type":"Feature","id":"way/1424538056","geometry":{"type":"MultiPolygon","coordinates":[[[[113.9371349,22.6778602],[113.9371765,22.6778201],[113.9372321,22.677819],[113.937234,22.6779013],[113.9373695,22.6778986],[113.9373698,22.6779107],[113.9374063,22.6779099],[113.9374078,22.6779744],[113.9373714,22.6779751],[113.9373724,22.6780203],[113.9372369,22.678023],[113.9372376,22.6780502],[113.937182,22.6780514],[113.9371385,22.6780129],[113.9371349,22.6778602]]]]},"properties":{"name":"way/1424538056","height":0,"kind":"unknown","label":"缺少可用高度；仅展示轮廓"}},{"type":"Feature","id":"way/1424538057","geometry":{"type":"MultiPolygon","coordinates":[[[[113.9372273,22.6776001],[113.937269,22.6775599],[113.9373246,22.6775588],[113.9373265,22.6776412],[113.937462,22.6776384],[113.9374623,22.6776505],[113.9374988,22.6776498],[113.9375003,22.6777143],[113.9374638,22.677715],[113.9374649,22.6777602],[113.9373294,22.6777629],[113.93733,22.6777901],[113.9372745,22.6777912],[113.9372309,22.6777528],[113.9372273,22.6776001]]]]},"properties":{"name":"way/1424538057","height":0,"kind":"unknown","label":"缺少可用高度；仅展示轮廓"}}]}