{"type":"FeatureCollection","features":[{"type":"Feature","id":"way/1424384552","geometry":{"type":"MultiPolygon","coordinates":[[[[113.9207415,22.6958012],[113.9210021,22.6955285],[113.9215337,22.695961],[113.9212731,22.6962337],[113.9207415,22.6958012]]]]},"properties":{"name":"way/1424384552","height":0,"kind":"unknown","label":"缺少可用高度；仅展示轮廓"}},{"type":"Feature","id":"way/1424384553","geometry":{"type":"MultiPolygon","coordinates":[[[[113.9199616,22.6965309],[113.9204847,22.6959837],[113.9205336,22.6960236],[113.9205708,22.6959847],[113.9209321,22.6962787],[113.9208949,22.6963175],[113.9209474,22.6963602],[113.9204242,22.6969074],[113.9203718,22.6968647],[113.9203347,22.6969036],[113.9199734,22.6966096],[113.9200105,22.6965707],[113.9199616,22.6965309]]]]},"properties":{"name":"way/1424384553","height":0,"kind":"unknown","label":"缺少可用高度；仅展示轮廓"}},{"type":"Feature","id":"way/1424384554","geometry":{"type":"MultiPolygon","coordinates":[[[[113.9197791,22.6975007],[113.9202133,22.6970641],[113.9205945,22.6973868],[113.9201602,22.6978234],[113.9197791,22.6975007]]]]},"properties":{"name":"way/1424384554","height":0,"kind":"unknown","label":"缺少可用高度；仅展示轮廓"}},{"type":"Feature","id":"way/1424384555","geometry":{"type":"MultiPolygon","coordinates":[[[[113.9194626,22.6971542],[113.9198244,22.6967905],[113.919991,22.6969315],[113.9197211,22.6972028],[113.9197592,22.697235],[113.9196672,22.6973275],[113.9194626,22.6971542]]]]},"properties":{"name":"way/1424384555","height":0,"kind":"unknown","label":"缺少可用高度；仅展示轮廓"}},{"type":"Feature","id":"way/1424384556","geometry":{"type":"MultiPolygon","coordinates":[[[[113.9188457,22.6976269],[113.9192261,22.6972445],[113.9197361,22.6976764],[113.9193557,22.6980587],[113.9188457,22.6976269]]]]},"properties":{"name":"way/1424384556","height":0,"kind":"unknown","label":"缺少可用高度；仅展示轮廓"}},{"type":"Feature","id":"relation/19514809","geometry":{"type":"MultiPolygon","coordinates":[[[[113.9220067,22.6957491],[113.9229266,22.6955017],[113.923017,22.6957879],[113.9220971,22.6960352],[113.9220067,22.6957491]],[[113.9222079,22.6958091],[113.922241,22.6959141],[113.9229647,22.6957195],[113.9229315,22.6956145],[113.9222079,22.6958091]]]]},"properties":{"name":"D栋","height":0,"kind":"unknown","label":"缺少可用高度；仅展示轮廓"}},{"type":"Feature","id":"way/1424384570","geometry":{"type":"MultiPolygon","coordinates":[[[[113.9216909,22.6953818],[113.9228674,22.6950655],[113.9229509,22.6953297],[113.9217744,22.695646],[113.9216909,22.6953818]]]]},"properties":{"name":"C栋","height":0,"kind":"unknown","label":"缺少可用高度；仅展示轮廓"}},{"type":"Feature","id":"way/1424384571","geometry":{"type":"MultiPolygon","coordinates":[[[[113.9221918,22.6948303],[113.9228721,22.6946474],[113.9229464,22.6948826],[113.9222661,22.6950655],[113.9221918,22.6948303]]]]},"properties":{"name":"B栋","height":0,"kind":"unknown","label":"缺少可用高度；仅展示轮廓"}},{"type":"Feature","id":"way/1424384572","geometry":{"type":"MultiPolygon","coordinates":[[[[113.9213852,22.6950499],[113.9220655,22.694867],[113.9221398,22.6951022],[113.9214594,22.6952851],[113.9213852,22.6950499]]]]},"properties":{"name":"A栋","height":0,"kind":"unknown","label":"缺少可用高度；仅展示轮廓"}},{"type":"Feature","id":"way/1424384574","geometry":{"type":"MultiPolygon","coordinates":[[[[113.9238189,22.6969026],[113.9238218,22.6965227],[113.9242294,22.6965253],[113.9242265,22.6969053],[113.9238189,22.6969026]]]]},"properties":{"name":"way/1424384574","height":0,"kind":"unknown","label":"缺少可用高度；仅展示轮廓"}},{"type":"Feature","id":"way/1424384575","geometry":{"type":"MultiPolygon","coordinates":[[[[113.9236922,22.6945771],[113.9241612,22.6944885],[113.924192,22.6946275],[113.923723,22.694716],[113.9236922,22.6945771]]]]},"properties":{"name":"way/1424384575","height":0,"kind":"unknown","label":"缺少可用高度；仅展示轮廓"}},{"type":"Feature","id":"way/1424384576","geometry":{"type":"MultiPolygon","coordinates":[[[[113.9240559,22.6947293],[113.9244317,22.6946584],[113.9245151,22.6950346],[113.9241393,22.6951055],[113.9240559,22.6947293]]]]},"properties":{"name":"way/1424384576","height":0,"kind":"unknown","label":"缺少可用高度；仅展示轮廓"}},{"type":"Feature","id":"way/1424384577","geometry":{"type":"MultiPolygon","coordinates":[[[[113.9234499,22.6948437],[113.923956,22.6947482],[113.9240395,22.6951244],[113.9235334,22.6952199],[113.9234499,22.6948437]]]]},"properties":{"name":"way/1424384577","height":0,"kind":"unknown","label":"缺少可用高度；仅展示轮廓"}},{"type":"Feature","id":"way/1424384578","geometry":{"type":"MultiPolygon","coordinates":[[[[113.9233285,22.6958568],[113.9233383,22.6953879],[113.9236339,22.6953932],[113.9236241,22.6958621],[113.9233285,22.6958568]]]]},"properties":{"name":"way/1424384578","height":0,"kind":"unknown","label":"缺少可用高度；仅展示轮廓"}},{"type":"Feature","id":"way/1424384579","geometry":{"type":"MultiPolygon","coordinates":[[[[113.9241365,22.6958376],[113.9241414,22.6956008],[113.9246676,22.6956101],[113.9246626,22.6958469],[113.9241365,22.6958376]]]]},"properties":{"name":"way/1424384579","height":0,"kind":"unknown","label":"缺少可用高度；仅展示轮廓"}},{"type":"Feature","id":"way/1424384580","geometry":{"type":"MultiPolygon","coordinates":[[[[113.9242503,22.6961561],[113.9242552,22.6959192],[113.9247813,22.6959286],[113.9247764,22.6961654],[113.9242503,22.6961561]]]]},"properties":{"name":"way/1424384580","height":0,"kind":"unknown","label":"缺少可用高度；仅展示轮廓"}},{"type":"Feature","id":"way/1424384581","geometry":{"type":"MultiPolygon","coordinates":[[[[113.924366,22.6964868],[113.9243709,22.6962499],[113.924897,22.6962593],[113.9248921,22.6964961],[113.924366,22.6964868]]]]},"properties":{"name":"way/1424384581","height":0,"kind":"unknown","label":"缺少可用高度；仅展示轮廓"}},{"type":"Feature","id":"way/1424384582","geometry":{"type":"MultiPolygon","coordinates":[[[[113.9243148,22.6967212],[113.9243173,22.6966002],[113.9246315,22.6966057],[113.9246234,22.6969935],[113.9245027,22.6969914],[113.9245083,22.6967247],[113.9243148,22.6967212]]]]},"properties":{"name":"way/1424384582","height":0,"kind":"unknown","label":"缺少可用高度；仅展示轮廓"}},{"type":"Feature","id":"way/1424384583","geometry":{"type":"MultiPolygon","coordinates":[[[[113.9247244,22.6974666],[113.9247325,22.6970798],[113.9249369,22.6970834],[113.9249288,22.6974702],[113.9247244,22.6974666]]]]},"properties":{"name":"6栋","height":0,"kind":"unknown","label":"缺少可用高度；仅展示轮廓"}},{"type":"Feature","id":"way/1424384584","geometry":{"type":"MultiPolygon","coordinates":[[[[113.923531,22.6974465],[113.9235323,22.6973816],[113.923581,22.6973825],[113.9235832,22.6972806],[113.9236965,22.6972826],[113.9236943,22.6973845],[113.923743,22.6973854],[113.9237417,22.6974502],[113.923531,22.6974465]]]]},"properties":{"name":"2栋","height":0,"kind":"unknown","label":"缺少可用高度；仅展示轮廓"}},{"type":"Feature","id":"way/1424384585","geometry":{"type":"MultiPolygon","coordinates":[[[[113.9232328,22.6974412],[113.9232351,22.6973302],[113.9234915,22.6973347],[113.9234892,22.6974458],[113.9232328,22.6974412]]]]},"properties":{"name":"1栋","height":0,"kind":"unknown","label":"缺少可用高度；仅展示轮廓"}},{"type":"Feature","id":"way/1424384586","geometry":{"type":"MultiPolygon","coordinates":[[[[113.9243107,22.6972265],[113.924313,22.6971154],[113.9246639,22.6971217],[113.9246616,22.6972327],[113.9243107,22.6972265]]]]},"properties":{"name":"7栋","height":0,"kind":"unknown","label":"缺少可用高度；仅展示轮廓"}},{"type":"Feature","id":"way/1424384587","geometry":{"type":"MultiPolygon","coordinates":[[[[113.9238614,22.6972189],[113.9238637,22.6971079],[113.9242146,22.6971141],[113.9242122,22.6972251],[113.9238614,22.6972189]]]]},"properties":{"name":"3栋","height":0,"kind":"unknown","label":"缺少可用高度；仅展示轮廓"}},{"type":"Feature","id":"way/1424384588","geometry":{"type":"MultiPolygon","coordinates":[[[[113.9238532,22.6974522],[113.9238555,22.6973412],[113.9242064,22.6973474],[113.9242041,22.6974585],[113.9238532,22.6974522]]]]},"properties":{"name":"4栋","height":0,"kind":"unknown","label":"缺少可用高度；仅展示轮廓"}},{"type":"Feature","id":"way/1424384589","geometry":{"type":"MultiPolygon","coordinates":[[[[113.9243025,22.6974598],[113.9243048,22.6973488],[113.9246557,22.697355],[113.9246534,22.697466],[113.9243025,22.6974598]]]]},"properties":{"name":"5栋","height":0,"kind":"unknown","label":"缺少可用高度；仅展示轮廓"}},{"type":"Feature","id":"way/1424384590","geometry":{"type":"MultiPolygon","coordinates":[[[[113.9232746,22.6964064],[113.9232778,22.6959825],[113.9237196,22.6959853],[113.9237164,22.6964092],[113.9232746,22.6964064]]]]},"properties":{"name":"way/1424384590","height":0,"kind":"unknown","label":"缺少可用高度；仅展示轮廓"}},{"type":"Feature","id":"way/1424384591","geometry":{"type":"MultiPolygon","coordinates":[[[[113.9232402,22.6969854],[113.9232434,22.6965615],[113.9236853,22.6965644],[113.9236821,22.6969883],[113.9232402,22.6969854]]]]},"properties":{"name":"way/1424384591","height":0,"kind":"unknown","label":"缺少可用高度；仅展示轮廓"}},{"type":"Feature","id":"way/1424384592","geometry":{"type":"MultiPolygon","coordinates":[[[[113.927447,22.6937875],[113.9280153,22.6936901],[113.9280366,22.6937958],[113.9274683,22.6938932],[113.927447,22.6937875]]]]},"properties":{"name":"way/1424384592","height":0,"kind":"unknown","label":"缺少可用高度；仅展示轮廓"}},{"type":"Feature","id":"way/1424384593","geometry":{"type":"MultiPolygon","coordinates":[[[[113.9268907,22.693946],[113.9272256,22.6938886],[113.9272434,22.693977],[113.9269085,22.6940344],[113.9268907,22.693946]]]]},"properties":{"name":"way/1424384593","height":0,"kind":"unknown","label":"缺少可用高度；仅展示轮廓"}},{"type":"Feature","id":"way/1424384594","geometry":{"type":"MultiPolygon","coordinates":[[[[113.9275053,22.6939903],[113.927607,22.6939756],[113.9276912,22.6944684],[113.9275895,22.6944832],[113.9275053,22.6939903]]]]},"properties":{"name":"way/1424384594","height":0,"kind":"unknown","label":"缺少可用高度；仅展示轮廓"}},{"type":"Feature","id":"way/1424384597","geometry":{"type":"MultiPolygon","coordinates":[[[[113.9274794,22.6954116],[113.9278718,22.6951983],[113.9279308,22.6952906],[113.9275385,22.695504],[113.9274794,22.6954116]]]]},"properties":{"name":"way/1424384597","height":0,"kind":"unknown","label":"缺少可用高度；仅展示轮廓"}},{"type":"Feature","id":"way/1424384598","geometry":{"type":"MultiPolygon","coordinates":[[[[113.926682,22.6955279],[113.9267724,22.6953673],[113.9271408,22.6955439],[113.9270504,22.6957044],[113.926682,22.6955279]]]]},"properties":{"name":"way/1424384598","height":0,"kind":"unknown","label":"缺少可用高度；仅展示轮廓"}},{"type":"Feature","id":"way/1424384599","geometry":{"type":"MultiPolygon","coordinates":[[[[113.9269691,22.6948422],[113.9271623,22.6948367],[113.9271735,22.6951677],[113.9269803,22.6951733],[113.9269691,22.6948422]]]]},"properties":{"name":"way/1424384599","height":0,"kind":"unknown","label":"缺少可用高度；仅展示轮廓"}},{"type":"Feature","id":"way/1424384603","geometry":{"type":"MultiPolygon","coordinates":[[[[113.9272513,22.6964915],[113.9275302,22.6960133],[113.9278636,22.6961789],[113.9275847,22.696657],[113.9272513,22.6964915]]]]},"properties":{"name":"way/1424384603","height":0,"kind":"unknown","label":"缺少可用高度；仅展示轮廓"}},{"type":"Feature","id":"way/1424384604","geometry":{"type":"MultiPolygon","coordinates":[[[[113.9268356,22.6962792],[113.9271145,22.695801],[113.927448,22.6959665],[113.9271691,22.6964447],[113.9268356,22.6962792]]]]},"properties":{"name":"way/1424384604","height":0,"kind":"unknown","label":"缺少可用高度；仅展示轮廓"}},{"type":"Feature","id":"way/1424384605","geometry":{"type":"MultiPolygon","coordinates":[[[[113.9258976,22.6967009],[113.9258985,22.696462],[113.9264257,22.6964637],[113.9264248,22.6967025],[113.9258976,22.6967009]]]]},"properties":{"name":"way/1424384605","height":0,"kind":"unknown","label":"缺少可用高度；仅展示轮廓"}},{"type":"Feature","id":"way/1424384606","geometry":{"type":"MultiPolygon","coordinates":[[[[113.9258049,22.6975054],[113.9258057,22.6972665],[113.9265443,22.6972688],[113.9265434,22.6975077],[113.9258049,22.6975054]]]]},"properties":{"name":"way/1424384606","height":0,"kind":"unknown","label":"缺少可用高度；仅展示轮廓"}},{"type":"Feature","id":"way/1424384607","geometry":{"type":"MultiPolygon","coordinates":[[[[113.9258133,22.697104],[113.9258142,22.6968651],[113.9265528,22.6968675],[113.9265519,22.6971063],[113.9258133,22.697104]]]]},"properties":{"name":"way/1424384607","height":0,"kind":"unknown","label":"缺少可用高度；仅展示轮廓"}},{"type":"Feature","id":"way/1424496081","geometry":{"type":"MultiPolygon","coordinates":[[[[113.9189259,22.6926836],[113.9190496,22.6926028],[113.9190935,22.69266],[113.9190577,22.6926834],[113.9190758,22.692707],[113.9191123,22.6926831],[113.9191735,22.6927629],[113.9191371,22.6927868],[113.9191551,22.6928103],[113.9191909,22.6927869],[113.9192349,22.6928441],[113.9191112,22.6929249],[113.9190672,22.6928677],[113.9191085,22.6928407],[113.9190905,22.6928172],[113.9190499,22.6928438],[113.9189886,22.6927639],[113.9190292,22.6927374],[113.9190111,22.6927139],[113.9189698,22.6927409],[113.9189259,22.6926836]]]]},"properties":{"name":"way/1424496081","height":0,"kind":"unknown","label":"缺少可用高度；仅展示轮廓"}},{"type":"Feature","id":"way/1424496082","geometry":{"type":"MultiPolygon","coordinates":[[[[113.9183234,22.6924413],[113.9187546,22.6921544],[113.9189227,22.6923696],[113.9188242,22.6924351],[113.9187534,22.6923445],[113.9185611,22.6924724],[113.9186319,22.692563],[113.9184915,22.6926564],[113.9183234,22.6924413]]]]},"properties":{"name":"way/1424496082","height":0,"kind":"unknown","label":"缺少可用高度；仅展示轮廓"}},{"type":"Feature","id":"way/1424496084","geometry":{"type":"MultiPolygon","coordinates":[[[[113.9192305,22.6932175],[113.9193136,22.6931021],[113.9193923,22.6931503],[113.9193695,22.693182],[113.9194111,22.6932074],[113.9194239,22.6931897],[113.9194015,22.6931759],[113.9194485,22.6931107],[113.9195625,22.6931806],[113.9195155,22.6932458],[113.9194824,22.6932255],[113.9194181,22.6933148],[113.9194383,22.6933272],[113.9193805,22.6934076],[113.9192968,22.6933563],[113.9193545,22.6932761],[113.9193724,22.6932871],[113.9193867,22.6932672],[113.9193325,22.6932339],[113.9193095,22.6932659],[113.9192305,22.6932175]]]]},"properties":{"name":"way/1424496084","height":0,"kind":"unknown","label":"缺少可用高度；仅展示轮廓"}},{"type":"Feature","id":"way/1424496085","geometry":{"type":"MultiPolygon","coordinates":[[[[113.9188509,22.6935993],[113.9189483,22.6935646],[113.9189561,22.6935833],[113.9189804,22.6935746],[113.9189569,22.6935186],[113.9189183,22.6935323],[113.9188842,22.6934509],[113.9190243,22.693401],[113.9190584,22.6934824],[113.9190198,22.6934962],[113.9190272,22.6935137],[113.9190504,22.6935055],[113.9190611,22.693531],[113.9191599,22.6934958],[113.9191948,22.6935792],[113.9190718,22.6936231],[113.919062,22.6935998],[113.9189759,22.6936305],[113.9189845,22.6936511],[113.9188871,22.6936858],[113.9188509,22.6935993]]]]},"properties":{"name":"way/1424496085","height":0,"kind":"unknown","label":"缺少可用高度；仅展示轮廓"}},{"type":"Feature","id":"way/1424496086","geometry":{"type":"MultiPolygon","coordinates":[[[[113.9183093,22.6932514],[113.9183934,22.6931589],[113.9184606,22.6932109],[113.9184372,22.6932366],[113.9184571,22.693252],[113.9184989,22.693206],[113.9184672,22.6931815],[113.9185281,22.6931146],[113.9186431,22.6932036],[113.9185823,22.6932705],[113.9185506,22.693246],[113.9185129,22.6932874],[113.918602,22.6933564],[113.9185452,22.6934189],[113.918514,22.6933948],[113.918523,22.6933849],[113.9184828,22.6933538],[113.9184912,22.6933445],[113.9184019,22.6932754],[113.9183765,22.6933034],[113.9183093,22.6932514]]]]},"properties":{"name":"way/1424496086","height":0,"kind":"unknown","label":"缺少可用高度；仅展示轮廓"}},{"type":"Feature","id":"way/1424496087","geometry":{"type":"MultiPolygon","coordinates":[[[[113.9180142,22.6927985],[113.9181259,22.6926757],[113.9181903,22.6927256],[113.9181575,22.6927617],[113.9182012,22.6927956],[113.9182808,22.692708],[113.9183497,22.6927613],[113.9182838,22.6928338],[113.9182604,22.6928157],[113.9182195,22.6928607],[113.9182348,22.6928725],[113.9182076,22.6929024],[113.9182263,22.692917],[113.918213,22.6929316],[113.9182266,22.692942],[113.9182019,22.6929692],[113.918195,22.6929639],[113.9181742,22.6929867],[113.9181469,22.6929656],[113.9181543,22.6929574],[113.9181087,22.6929221],[113.9181013,22.6929303],[113.918074,22.6929091],[113.9180947,22.6928863],[113.9180879,22.692881],[113.9181126,22.6928538],[113.9181261,22.6928643],[113.9181394,22.6928497],[113.9181581,22.6928642],[113.9181666,22.6928549],[113.9181115,22.6928122],[113.9180787,22.6928484],[113.9180142,22.6927985]]]]},"properties":{"name":"way/1424496087","height":0,"kind":"unknown","label":"缺少可用高度；仅展示轮廓"}},{"type":"Feature","id":"way/1424496088","geometry":{"type":"MultiPolygon","coordinates":[[[[113.9192607,22.693758],[113.9196117,22.6935286],[113.9196568,22.6935872],[113.9197061,22.693555],[113.9196613,22.6934967],[113.9197515,22.6934377],[113.9200453,22.6938203],[113.919955,22.6938793],[113.9197495,22.6936116],[113.919668,22.6936648],[113.9196493,22.6936405],[113.9193304,22.6938489],[113.9192607,22.693758]]]]},"properties":{"name":"way/1424496088","height":0,"kind":"unknown","label":"缺少可用高度；仅展示轮廓"}},{"type":"Feature","id":"way/1424496089","geometry":{"type":"MultiPolygon","coordinates":[[[[113.9192579,22.6940156],[113.9193141,22.6939292],[113.9198866,22.6942461],[113.920135,22.6939756],[113.9202146,22.6940378],[113.9198997,22.6943807],[113.9198568,22.6943472],[113.9192579,22.6940156]]]]},"properties":{"name":"way/1424496089","height":0,"kind":"unknown","label":"缺少可用高度；仅展示轮廓"}},{"type":"Feature","id":"way/1424496092","geometry":{"type":"MultiPolygon","coordinates":[[[[113.9176896,22.6950766],[113.9176969,22.6950319],[113.9177123,22.6949891],[113.9178252,22.6948253],[113.9179259,22.6948844],[113.917821,22.6950367],[113.9178099,22.6950772],[113.9178107,22.695119],[113.9178235,22.6951592],[113.9178473,22.6951948],[113.9178805,22.6952233],[113.9180165,22.695303],[113.9181959,22.6950428],[113.9185605,22.6952567],[113.9184926,22.6953551],[113.9183598,22.6952772],[113.9183066,22.6953543],[113.9182712,22.6953852],[113.9182304,22.6954097],[113.9181856,22.695427],[113.918138,22.6954366],[113.9180894,22.6954383],[113.9180412,22.6954318],[113.9179951,22.6954175],[113.9179525,22.6953959],[113.9178093,22.6953118],[113.9177722,22.6952824],[113.917741,22.6952476],[113.9177165,22.6952085],[113.9176995,22.6951661],[113.9176904,22.6951218],[113.9176896,22.6950766]]]]},"properties":{"name":"way/1424496092","height":0,"kind":"unknown","label":"缺少可用高度；仅展示轮廓"}},{"type":"Feature","id":"way/1424496093","geometry":{"type":"MultiPolygon","coordinates":[[[[113.917946,22.694738],[113.9184111,22.6940631],[113.9187493,22.6942615],[113.9182841,22.6949364],[113.917946,22.694738]]]]},"properties":{"name":"way/1424496093","height":0,"kind":"unknown","label":"缺少可用高度；仅展示轮廓"}},{"type":"Feature","id":"way/1424496094","geometry":{"type":"MultiPolygon","coordinates":[[[[113.9185159,22.6950723],[113.918981,22.6943975],[113.9195012,22.6947027],[113.9193902,22.6948638],[113.9190446,22.694661],[113.9188015,22.6950137],[113.9191471,22.6952165],[113.9190361,22.6953775],[113.9185159,22.6950723]]]]},"properties":{"name":"way/1424496094","height":0,"kind":"unknown","label":"缺少可用高度；仅展示轮廓"}},{"type":"Feature","id":"way/1424496101","geometry":{"type":"MultiPolygon","coordinates":[[[[113.9179231,22.6967411],[113.9185509,22.696714],[113.9185558,22.6968102],[113.917928,22.6968372],[113.9179231,22.6967411]]]]},"properties":{"name":"A栋","height":0,"kind":"unknown","label":"缺少可用高度；仅展示轮廓"}},{"type":"Feature","id":"way/1424496104","geometry":{"type":"MultiPolygon","coordinates":[[[[113.9185867,22.6956267],[113.9188391,22.6956158],[113.9188793,22.6964102],[113.9186269,22.696421],[113.9185867,22.6956267]]]]},"properties":{"name":"1栋","height":0,"kind":"unknown","label":"缺少可用高度；仅展示轮廓"}},{"type":"Feature","id":"way/1424496105","geometry":{"type":"MultiPolygon","coordinates":[[[[113.9181468,22.6956465],[113.9183992,22.6956356],[113.9184394,22.69643],[113.918187,22.6964408],[113.9181468,22.6956465]]]]},"properties":{"name":"2栋","height":0,"kind":"unknown","label":"缺少可用高度；仅展示轮廓"}},{"type":"Feature","id":"way/1424497746","geometry":{"type":"MultiPolygon","coordinates":[[[[113.9180651,22.6892554],[113.9181816,22.6889046],[113.9183706,22.688958],[113.9182938,22.6891894],[113.918172,22.6892856],[113.9180651,22.6892554]]]]},"properties":{"name":"way/1424497746","height":0,"kind":"unknown","label":"缺少可用高度；仅展示轮廓"}},{"type":"Feature","id":"way/1424511754","geometry":{"type":"MultiPolygon","coordinates":[[[[113.9205683,22.6929198],[113.9206679,22.6928852],[113.9208397,22.6933057],[113.92074,22.6933403],[113.9205683,22.6929198]]]]},"properties":{"name":"way/1424511754","height":0,"kind":"unknown","label":"缺少可用高度；仅展示轮廓"}},{"type":"Feature","id":"way/1424511755","geometry":{"type":"MultiPolygon","coordinates":[[[[113.9204136,22.6930177],[113.9205132,22.6929831],[113.9207105,22.6934661],[113.9206108,22.6935007],[113.9204136,22.6930177]]]]},"properties":{"name":"way/1424511755","height":0,"kind":"unknown","label":"缺少可用高度；仅展示轮廓"}},{"type":"Feature","id":"way/1424511756","geometry":{"type":"MultiPolygon","coordinates":[[[[113.9202532,22.693131],[113.9203528,22.6930964],[113.920482,22.6934127],[113.9203824,22.6934473],[113.9202532,22.693131]]]]},"properties":{"name":"way/1424511756","height":0,"kind":"unknown","label":"缺少可用高度；仅展示轮廓"}},{"type":"Feature","id":"way/1424511757","geometry":{"type":"MultiPolygon","coordinates":[[[[113.9202261,22.6937504],[113.9204988,22.6934635],[113.9205811,22.6935301],[113.9203084,22.693817],[113.9202261,22.6937504]]]]},"properties":{"name":"way/1424511757","height":0,"kind":"unknown","label":"缺少可用高度；仅展示轮廓"}},{"type":"Feature","id":"way/1424511758","geometry":{"type":"MultiPolygon","coordinates":[[[[113.9199246,22.6933649],[113.9200234,22.6932994],[113.920253,22.6935936],[113.9201543,22.6936592],[113.9199246,22.6933649]]]]},"properties":{"name":"way/1424511758","height":0,"kind":"unknown","label":"缺少可用高度；仅展示轮廓"}},{"type":"Feature","id":"way/1424511759","geometry":{"type":"MultiPolygon","coordinates":[[[[113.9195355,22.6928636],[113.9199234,22.6926066],[113.920038,22.6927537],[113.9196501,22.6930108],[113.9195355,22.6928636]]]]},"properties":{"name":"A7栋","height":0,"kind":"unknown","label":"缺少可用高度；仅展示轮廓"}},{"type":"Feature","id":"way/1424511760","geometry":{"type":"MultiPolygon","coordinates":[[[[113.9200255,22.6925389],[113.9203705,22.6923103],[113.920485,22.6924574],[113.92014,22.6926861],[113.9200255,22.6925389]]]]},"properties":{"name":"A8栋","height":0,"kind":"unknown","label":"缺少可用高度；仅展示轮廓"}},{"type":"Feature","id":"way/1424511761","geometry":{"type":"MultiPolygon","coordinates":[[[[113.9197172,22.6930945],[113.9201051,22.6928374],[113.9202197,22.6929846],[113.9198318,22.6932417],[113.9197172,22.6930945]]]]},"properties":{"name":"A9栋","height":0,"kind":"unknown","label":"缺少可用高度；仅展示轮廓"}},{"type":"Feature","id":"way/1424511762","geometry":{"type":"MultiPolygon","coordinates":[[[[113.9202071,22.6927698],[113.9204602,22.6926021],[113.9205748,22.6927492],[113.9203217,22.692917],[113.9202071,22.6927698]]]]},"properties":{"name":"A10栋","height":0,"kind":"unknown","label":"缺少可用高度；仅展示轮廓"}},{"type":"Feature","id":"way/1424511763","geometry":{"type":"MultiPolygon","coordinates":[[[[113.9193495,22.6926256],[113.9197373,22.6923685],[113.9198519,22.6925157],[113.9194641,22.6927728],[113.9193495,22.6926256]]]]},"properties":{"name":"A5栋","height":0,"kind":"unknown","label":"缺少可用高度；仅展示轮廓"}},{"type":"Feature","id":"way/1424511764","geometry":{"type":"MultiPolygon","coordinates":[[[[113.9198394,22.6923009],[113.9202276,22.6920436],[113.9203422,22.6921908],[113.919954,22.6924481],[113.9198394,22.6923009]]]]},"properties":{"name":"A6栋","height":0,"kind":"unknown","label":"缺少可用高度；仅展示轮廓"}},{"type":"Feature","id":"way/1424511765","geometry":{"type":"MultiPolygon","coordinates":[[[[113.9196577,22.69207],[113.9200971,22.6917788],[113.9202117,22.6919259],[113.9197723,22.6922172],[113.9196577,22.69207]]]]},"properties":{"name":"A4栋","height":0,"kind":"unknown","label":"缺少可用高度；仅展示轮廓"}},{"type":"Feature","id":"way/1424511766","geometry":{"type":"MultiPolygon","coordinates":[[[[113.9191678,22.6923947],[113.9195557,22.6921377],[113.9196702,22.6922848],[113.9192824,22.6925419],[113.9191678,22.6923947]]]]},"properties":{"name":"A3栋","height":0,"kind":"unknown","label":"缺少可用高度；仅展示轮廓"}},{"type":"Feature","id":"way/1424513823","geometry":{"type":"MultiPolygon","coordinates":[[[[113.9275322,22.6910835],[113.9276117,22.6910463],[113.9278079,22.6914044],[113.9276666,22.6914704],[113.9276187,22.691383],[113.9276805,22.6913542],[113.9275322,22.6910835]]]]},"properties":{"name":"way/1424513823","height":0,"kind":"unknown","label":"缺少可用高度；仅展示轮廓"}},{"type":"Feature","id":"way/1424513832","geometry":{"type":"MultiPolygon","coordinates":[[[[113.9271906,22.6894316],[113.9274194,22.6892646],[113.927722,22.6896174],[113.9274932,22.6897845],[113.9271906,22.6894316]]]]},"properties":{"name":"way/1424513832","height":0,"kind":"unknown","label":"缺少可用高度；仅展示轮廓"}},{"type":"Feature","id":"way/1424513840","geometry":{"type":"MultiPolygon","coordinates":[[[[113.9271417,22.6914776],[113.9271451,22.6910283],[113.9274209,22.6910301],[113.9274175,22.6914794],[113.9271417,22.6914776]]]]},"properties":{"name":"way/1424513840","height":0,"kind":"unknown","label":"缺少可用高度；仅展示轮廓"}},{"type":"Feature","id":"way/1424513841","geometry":{"type":"MultiPolygon","coordinates":[[[[113.9266187,22.6911386],[113.9266205,22.6909008],[113.9270532,22.6909035],[113.9270514,22.6911414],[113.9266187,22.6911386]]]]},"properties":{"name":"way/1424513841","height":0,"kind":"unknown","label":"缺少可用高度；仅展示轮廓"}},{"type":"Feature","id":"way/1424513842","geometry":{"type":"MultiPolygon","coordinates":[[[[113.9265946,22.6914851],[113.926596,22.6912897],[113.926954,22.691292],[113.9269525,22.6914874],[113.9265946,22.6914851]]]]},"properties":{"name":"way/1424513842","height":0,"kind":"unknown","label":"缺少可用高度；仅展示轮廓"}},{"type":"Feature","id":"way/1424513843","geometry":{"type":"MultiPolygon","coordinates":[[[[113.9272582,22.6924197],[113.9272589,22.6923276],[113.92778,22.6923309],[113.9277793,22.6924231],[113.9272582,22.6924197]]]]},"properties":{"name":"way/1424513843","height":0,"kind":"unknown","label":"缺少可用高度；仅展示轮廓"}},{"type":"Feature","id":"way/1424513844","geometry":{"type":"MultiPolygon","coordinates":[[[[113.9272595,22.6922433],[113.9272614,22.6919925],[113.9277825,22.6919958],[113.9277806,22.6922466],[113.9272595,22.6922433]]]]},"properties":{"name":"way/1424513844","height":0,"kind":"unknown","label":"缺少可用高度；仅展示轮廓"}},{"type":"Feature","id":"way/1424513845","geometry":{"type":"MultiPolygon","coordinates":[[[[113.9271348,22.6919032],[113.9271355,22.6918063],[113.9275766,22.6918091],[113.9275758,22.6919061],[113.9271348,22.6919032]]]]},"properties":{"name":"way/1424513845","height":0,"kind":"unknown","label":"缺少可用高度；仅展示轮廓"}},{"type":"Feature","id":"way/1424513846","geometry":{"type":"MultiPolygon","coordinates":[[[[113.9271482,22.6916682],[113.9271489,22.6915712],[113.9276127,22.6915742],[113.927612,22.6916711],[113.9271482,22.6916682]]]]},"properties":{"name":"way/1424513846","height":0,"kind":"unknown","label":"缺少可用高度；仅展示轮廓"}},{"type":"Feature","id":"way/1424513847","geometry":{"type":"MultiPolygon","coordinates":[[[[113.9265835,22.6916688],[113.9265842,22.6915718],[113.927048,22.6915748],[113.9270472,22.6916717],[113.9265835,22.6916688]]]]},"properties":{"name":"way/1424513847","height":0,"kind":"unknown","label":"缺少可用高度；仅展示轮廓"}},{"type":"Feature","id":"way/1424513848","geometry":{"type":"MultiPolygon","coordinates":[[[[113.9266809,22.6922653],[113.9266844,22.6917987],[113.9269854,22.6918007],[113.9269819,22.6922672],[113.9266809,22.6922653]]]]},"properties":{"name":"way/1424513848","height":0,"kind":"unknown","label":"缺少可用高度；仅展示轮廓"}},{"type":"Feature","id":"way/1424513849","geometry":{"type":"MultiPolygon","coordinates":[[[[113.9236008,22.6905487],[113.9241582,22.6903622],[113.924203,22.6904761],[113.9236455,22.6906626],[113.9236008,22.6905487]]]]},"properties":{"name":"way/1424513849","height":0,"kind":"unknown","label":"缺少可用高度；仅展示轮廓"}},{"type":"Feature","id":"way/1424513850","geometry":{"type":"MultiPolygon","coordinates":[[[[113.924,22.6897879],[113.9241623,22.6897336],[113.9243596,22.6902353],[113.9241973,22.6902896],[113.924,22.6897879]]]]},"properties":{"name":"way/1424513850","height":0,"kind":"unknown","label":"缺少可用高度；仅展示轮廓"}},{"type":"Feature","id":"way/1424513851","geometry":{"type":"MultiPolygon","coordinates":[[[[113.9233809,22.6899894],[113.9239383,22.6898029],[113.9241356,22.6903046],[113.9235781,22.6904912],[113.9233809,22.6899894]]]]},"properties":{"name":"way/1424513851","height":0,"kind":"unknown","label":"缺少可用高度；仅展示轮廓"}},{"type":"Feature","id":"way/1424513852","geometry":{"type":"MultiPolygon","coordinates":[[[[113.9244767,22.6913115],[113.9245816,22.6912703],[113.924744,22.6916219],[113.9246391,22.6916632],[113.9244767,22.6913115]]]]},"properties":{"name":"way/1424513852","height":0,"kind":"unknown","label":"缺少可用高度；仅展示轮廓"}},{"type":"Feature","id":"way/1424513853","geometry":{"type":"MultiPolygon","coordinates":[[[[113.9242765,22.6913897],[113.9243814,22.6913485],[113.9245438,22.6917002],[113.9244389,22.6917414],[113.9242765,22.6913897]]]]},"properties":{"name":"way/1424513853","height":0,"kind":"unknown","label":"缺少可用高度；仅展示轮廓"}},{"type":"Feature","id":"way/1424513855","geometry":{"type":"MultiPolygon","coordinates":[[[[113.9254653,22.6899063],[113.9255607,22.689839],[113.9261734,22.6905794],[113.926078,22.6906466],[113.9254653,22.6899063]]]]},"properties":{"name":"9栋","height":0,"kind":"unknown","label":"缺少可用高度；仅展示轮廓"}},{"type":"Feature","id":"way/1424513857","geometry":{"type":"MultiPolygon","coordinates":[[[[113.9243677,22.6906161],[113.9247742,22.6903297],[113.9249012,22.6904832],[113.9244947,22.6907696],[113.9243677,22.6906161]]]]},"properties":{"name":"5栋","height":0,"kind":"unknown","label":"缺少可用高度；仅展示轮廓"}},{"type":"Feature","id":"way/1424513858","geometry":{"type":"MultiPolygon","coordinates":[[[[113.9245566,22.6908429],[113.9249631,22.6905565],[113.9250901,22.6907099],[113.9246835,22.6909963],[113.9245566,22.6908429]]]]},"properties":{"name":"6栋","height":0,"kind":"unknown","label":"缺少可用高度；仅展示轮廓"}},{"type":"Feature","id":"way/1424513859","geometry":{"type":"MultiPolygon","coordinates":[[[[113.9247269,22.6910523],[113.9251334,22.6907659],[113.9252604,22.6909193],[113.9248538,22.6912057],[113.9247269,22.6910523]]]]},"properties":{"name":"7栋","height":0,"kind":"unknown","label":"缺少可用高度；仅展示轮廓"}},{"type":"Feature","id":"way/1424513860","geometry":{"type":"MultiPolygon","coordinates":[[[[113.9249104,22.6912642],[113.9253169,22.6909778],[113.9254439,22.6911312],[113.9250373,22.6914176],[113.9249104,22.6912642]]]]},"properties":{"name":"8栋","height":0,"kind":"unknown","label":"缺少可用高度；仅展示轮廓"}},{"type":"Feature","id":"way/1424513861","geometry":{"type":"MultiPolygon","coordinates":[[[[113.9253078,22.6906606],[113.9257143,22.6903742],[113.9258413,22.6905276],[113.9254348,22.690814],[113.9253078,22.6906606]]]]},"properties":{"name":"3栋","height":0,"kind":"unknown","label":"缺少可用高度；仅展示轮廓"}},{"type":"Feature","id":"way/1424513862","geometry":{"type":"MultiPolygon","coordinates":[[[[113.9254913,22.6908725],[113.9258978,22.6905861],[113.9260248,22.6907395],[113.9256183,22.6910259],[113.9254913,22.6908725]]]]},"properties":{"name":"4栋","height":0,"kind":"unknown","label":"缺少可用高度；仅展示轮廓"}},{"type":"Feature","id":"way/1424513863","geometry":{"type":"MultiPolygon","coordinates":[[[[113.9251375,22.6904512],[113.925544,22.6901648],[113.925671,22.6903182],[113.9252644,22.6906046],[113.9251375,22.6904512]]]]},"properties":{"name":"2栋","height":0,"kind":"unknown","label":"缺少可用高度；仅展示轮廓"}},{"type":"Feature","id":"way/1424513864","geometry":{"type":"MultiPolygon","coordinates":[[[[113.9249486,22.6902244],[113.9253552,22.689938],[113.9254821,22.6900914],[113.9250756,22.6903778],[113.9249486,22.6902244]]]]},"properties":{"name":"1栋","height":0,"kind":"unknown","label":"缺少可用高度；仅展示轮廓"}},{"type":"Feature","id":"way/1424513865","geometry":{"type":"MultiPolygon","coordinates":[[[[113.9242786,22.6919877],[113.9249086,22.6917389],[113.9253551,22.6927012],[113.9247251,22.69295],[113.924614,22.6927105],[113.9248268,22.6926265],[113.9247741,22.6925129],[113.9245613,22.692597],[113.9244424,22.6923408],[113.9246552,22.6922567],[113.9246026,22.6921431],[113.9243897,22.6922272],[113.9242786,22.6919877]]]]},"properties":{"name":"way/1424513865","height":0,"kind":"unknown","label":"缺少可用高度；仅展示轮廓"}},{"type":"Feature","id":"way/1424513866","geometry":{"type":"MultiPolygon","coordinates":[[[[113.9238131,22.693341],[113.9239363,22.6933049],[113.9240463,22.6936241],[113.9239231,22.6936602],[113.9238131,22.693341]]]]},"properties":{"name":"way/1424513866","height":0,"kind":"unknown","label":"缺少可用高度；仅展示轮廓"}},{"type":"Feature","id":"way/1424513867","geometry":{"type":"MultiPolygon","coordinates":[[[[113.9229928,22.693655],[113.9237691,22.6935206],[113.9238009,22.6936768],[113.9230245,22.6938112],[113.9229928,22.693655]]]]},"properties":{"name":"way/1424513867","height":0,"kind":"unknown","label":"缺少可用高度；仅展示轮廓"}},{"type":"Feature","id":"way/1424513869","geometry":{"type":"MultiPolygon","coordinates":[[[[113.9221947,22.6923797],[113.9232706,22.6919667],[113.9234218,22.6923019],[113.9223459,22.6927149],[113.9221947,22.6923797]]]]},"properties":{"name":"way/1424513869","height":0,"kind":"unknown","label":"缺少可用高度；仅展示轮廓"}},{"type":"Feature","id":"way/1424513870","geometry":{"type":"MultiPolygon","coordinates":[[[[113.9233752,22.6924848],[113.9234971,22.692438],[113.9235696,22.6925986],[113.9234477,22.6926454],[113.9233752,22.6924848]]]]},"properties":{"name":"C栋","height":0,"kind":"unknown","label":"缺少可用高度；仅展示轮廓"}},{"type":"Feature","id":"way/1424513872","geometry":{"type":"MultiPolygon","coordinates":[[[[113.923296,22.6928449],[113.9236472,22.69271],[113.9236962,22.6928187],[113.923345,22.6929535],[113.923296,22.6928449]]]]},"properties":{"name":"B2栋","height":0,"kind":"unknown","label":"缺少可用高度；仅展示轮廓"}},{"type":"Feature","id":"way/1424513873","geometry":{"type":"MultiPolygon","coordinates":[[[[113.9234652,22.693208],[113.9238164,22.6930732],[113.9238654,22.6931818],[113.9235142,22.6933166],[113.9234652,22.693208]]]]},"properties":{"name":"B1栋","height":0,"kind":"unknown","label":"缺少可用高度；仅展示轮廓"}},{"type":"Feature","id":"way/1424513874","geometry":{"type":"MultiPolygon","coordinates":[[[[113.9226702,22.6933567],[113.9232943,22.6931171],[113.9234091,22.6933716],[113.922785,22.6936112],[113.9226702,22.6933567]]]]},"properties":{"name":"A2栋","height":0,"kind":"unknown","label":"缺少可用高度；仅展示轮廓"}},{"type":"Feature","id":"way/1424513875","geometry":{"type":"MultiPolygon","coordinates":[[[[113.9224542,22.6929468],[113.9231017,22.6926982],[113.9232366,22.6929972],[113.9225891,22.6932458],[113.9224542,22.6929468]]]]},"properties":{"name":"A1栋","height":0,"kind":"unknown","label":"缺少可用高度；仅展示轮廓"}},{"type":"Feature","id":"way/1424513935","geometry":{"type":"MultiPolygon","coordinates":[[[[113.9252396,22.6915666],[113.9252405,22.6914446],[113.9254381,22.6914459],[113.9254371,22.6915679],[113.9252396,22.6915666]]]]},"properties":{"name":"way/1424513935","height":0,"kind":"unknown","label":"缺少可用高度；仅展示轮廓"}},{"type":"Feature","id":"way/1424513936","geometry":{"type":"MultiPolygon","coordinates":[[[[113.9255689,22.6916332],[113.9255703,22.6914528],[113.9261102,22.6914563],[113.9261088,22.6916368],[113.9255689,22.6916332]]]]},"properties":{"name":"way/1424513936","height":0,"kind":"unknown","label":"缺少可用高度；仅展示轮廓"}},{"type":"Feature","id":"way/1424513937","geometry":{"type":"MultiPolygon","coordinates":[[[[113.926169,22.6921285],[113.9261726,22.6916756],[113.9263628,22.6916769],[113.9263593,22.6921298],[113.926169,22.6921285]]]]},"properties":{"name":"way/1424513937","height":0,"kind":"unknown","label":"缺少可用高度；仅展示轮廓"}},{"type":"Feature","id":"way/1424513938","geometry":{"type":"MultiPolygon","coordinates":[[[[113.9254696,22.6920098],[113.9254719,22.6917185],[113.9260546,22.6917224],[113.9260523,22.6920137],[113.9254696,22.6920098]]]]},"properties":{"name":"way/1424513938","height":0,"kind":"unknown","label":"缺少可用高度；仅展示轮廓"}},{"type":"Feature","id":"way/1424513939","geometry":{"type":"MultiPolygon","coordinates":[[[[113.9250907,22.6916498],[113.9252129,22.6916017],[113.9254114,22.6920304],[113.9252892,22.6920785],[113.9250907,22.6916498]]]]},"properties":{"name":"way/1424513939","height":0,"kind":"unknown","label":"缺少可用高度；仅展示轮廓"}},{"type":"Feature","id":"way/1424513940","geometry":{"type":"MultiPolygon","coordinates":[[[[113.925967,22.6911658],[113.9261711,22.6911629],[113.9261667,22.6909028],[113.926398,22.6908995],[113.9264057,22.6913564],[113.9259704,22.6913627],[113.925967,22.6911658]]]]},"properties":{"name":"way/1424513940","height":0,"kind":"unknown","label":"缺少可用高度；仅展示轮廓"}},{"type":"Feature","id":"way/1424513941","geometry":{"type":"MultiPolygon","coordinates":[[[[113.9270685,22.6900247],[113.9273152,22.6897693],[113.9278649,22.6905824],[113.9273707,22.6908668],[113.9273315,22.6908088],[113.9272984,22.6908278],[113.9272338,22.6907322],[113.9274592,22.6906025],[113.9270685,22.6900247]]]]},"properties":{"name":"way/1424513941","height":0,"kind":"unknown","label":"缺少可用高度；仅展示轮廓"}},{"type":"Feature","id":"way/1424514806","geometry":{"type":"MultiPolygon","coordinates":[[[[113.918969,22.6897768],[113.9194064,22.6894789],[113.9194552,22.6895399],[113.9190179,22.6898378],[113.918969,22.6897768]]]]},"properties":{"name":"F栋","height":0,"kind":"unknown","label":"缺少可用高度；仅展示轮廓"}},{"type":"Feature","id":"way/1424514807","geometry":{"type":"MultiPolygon","coordinates":[[[[113.9184624,22.6918482],[113.9186724,22.6917029],[113.9187306,22.6917746],[113.9185206,22.6919199],[113.9184624,22.6918482]]]]},"properties":{"name":"way/1424514807","height":0,"kind":"unknown","label":"缺少可用高度；仅展示轮廓"}},{"type":"Feature","id":"way/1424514808","geometry":{"type":"MultiPolygon","coordinates":[[[[113.9180235,22.6920981],[113.9183367,22.6918814],[113.9184109,22.6919726],[113.9180977,22.6921893],[113.9180235,22.6920981]]]]},"properties":{"name":"way/1424514808","height":0,"kind":"unknown","label":"缺少可用高度；仅展示轮廓"}},{"type":"Feature","id":"way/1424514809","geometry":{"type":"MultiPolygon","coordinates":[[[[113.918222,22.6916738],[113.9190142,22.6911257],[113.9191341,22.6912732],[113.9183419,22.6918213],[113.918222,22.6916738]]]]},"properties":{"name":"4栋","height":0,"kind":"unknown","label":"缺少可用高度；仅展示轮廓"}},{"type":"Feature","id":"way/1424514810","geometry":{"type":"MultiPolygon","coordinates":[[[[113.9198413,22.6908677],[113.9201295,22.6906699],[113.9201986,22.6907556],[113.9199104,22.6909534],[113.9198413,22.6908677]]]]},"properties":{"name":"way/1424514810","height":0,"kind":"unknown","label":"缺少可用高度；仅展示轮廓"}},{"type":"Feature","id":"way/1424514811","geometry":{"type":"MultiPolygon","coordinates":[[[[113.9192932,22.6912399],[113.91978,22.6909086],[113.9198487,22.6909945],[113.9193619,22.6913258],[113.9192932,22.6912399]]]]},"properties":{"name":"way/1424514811","height":0,"kind":"unknown","label":"缺少可用高度；仅展示轮廓"}},{"type":"Feature","id":"way/1424514812","geometry":{"type":"MultiPolygon","coordinates":[[[[113.9194814,22.6904107],[113.9198292,22.690174],[113.9200669,22.6905991],[113.9197853,22.6907908],[113.9194814,22.6904107]]]]},"properties":{"name":"8栋","height":0,"kind":"unknown","label":"缺少可用高度；仅展示轮廓"}},{"type":"Feature","id":"way/1424514813","geometry":{"type":"MultiPolygon","coordinates":[[[[113.9190778,22.6899057],[113.9195194,22.6896052],[113.9197928,22.6901072],[113.919434,22.6903514],[113.9190778,22.6899057]]]]},"properties":{"name":"7栋","height":0,"kind":"unknown","label":"缺少可用高度；仅展示轮廓"}},{"type":"Feature","id":"way/1424514814","geometry":{"type":"MultiPolygon","coordinates":[[[[113.9188871,22.689625],[113.9193582,22.6893329],[113.9194095,22.6894033],[113.9189384,22.6896954],[113.9188871,22.689625]]]]},"properties":{"name":"A栋","height":0,"kind":"unknown","label":"缺少可用高度；仅展示轮廓"}},{"type":"Feature","id":"way/1424514815","geometry":{"type":"MultiPolygon","coordinates":[[[[113.9181692,22.6903148],[113.9188728,22.6896054],[113.9188871,22.689625],[113.9189384,22.6896954],[113.9182535,22.690386],[113.9181692,22.6903148]]]]},"properties":{"name":"B栋","height":0,"kind":"unknown","label":"缺少可用高度；仅展示轮廓"}},{"type":"Feature","id":"way/1424514820","geometry":{"type":"MultiPolygon","coordinates":[[[[113.9180761,22.6908452],[113.9183841,22.6906321],[113.9187002,22.6908254],[113.9182904,22.6911089],[113.9180761,22.6908452]]]]},"properties":{"name":"2栋","height":0,"kind":"unknown","label":"缺少可用高度；仅展示轮廓"}},{"type":"Feature","id":"way/1424514821","geometry":{"type":"MultiPolygon","coordinates":[[[[113.9183327,22.6911923],[113.9188001,22.6908689],[113.9189938,22.6911072],[113.9185265,22.6914306],[113.9183327,22.6911923]]]]},"properties":{"name":"3栋","height":0,"kind":"unknown","label":"缺少可用高度；仅展示轮廓"}},{"type":"Feature","id":"way/1424514822","geometry":{"type":"MultiPolygon","coordinates":[[[[113.9177594,22.6912277],[113.9180662,22.6910154],[113.9184122,22.691441],[113.9181054,22.6916533],[113.9177594,22.6912277]]]]},"properties":{"name":"1栋","height":0,"kind":"unknown","label":"缺少可用高度；仅展示轮廓"}},{"type":"Feature","id":"way/1424514823","geometry":{"type":"MultiPolygon","coordinates":[[[[113.9189767,22.690844],[113.9194636,22.6905127],[113.919716,22.6908285],[113.9192291,22.6911597],[113.9189767,22.690844]]]]},"properties":{"name":"6栋","height":0,"kind":"unknown","label":"缺少可用高度；仅展示轮廓"}},{"type":"Feature","id":"way/1424514824","geometry":{"type":"MultiPolygon","coordinates":[[[[113.9185824,22.6903507],[113.9190692,22.6900195],[113.9193121,22.6903232],[113.9188252,22.6906545],[113.9185824,22.6903507]]]]},"properties":{"name":"5栋","height":0,"kind":"unknown","label":"缺少可用高度；仅展示轮廓"}}]}