{"type":"FeatureCollection","features":[{"type":"Feature","id":"way/1424497736","geometry":{"type":"MultiPolygon","coordinates":[[[[113.9171653,22.6880689],[113.9174389,22.6876592],[113.9177355,22.6878278],[113.9178056,22.6876566],[113.9182282,22.6878039],[113.9182617,22.687703],[113.9184233,22.6877487],[113.9182293,22.6883328],[113.9180678,22.6882871],[113.9180951,22.6882047],[113.9176422,22.6880468],[113.917554,22.6881788],[113.9171653,22.6880689]]]]},"properties":{"name":"way/1424497736","height":0,"kind":"unknown","label":"缺少可用高度；仅展示轮廓"}},{"type":"Feature","id":"way/1424497739","geometry":{"type":"MultiPolygon","coordinates":[[[[113.9176065,22.6883485],[113.9176468,22.6882271],[113.9179896,22.688324],[113.9179493,22.6884454],[113.9176065,22.6883485]]]]},"properties":{"name":"way/1424497739","height":0,"kind":"unknown","label":"缺少可用高度；仅展示轮廓"}},{"type":"Feature","id":"way/1424497740","geometry":{"type":"MultiPolygon","coordinates":[[[[113.917102,22.6881927],[113.9171344,22.688095],[113.9174244,22.688177],[113.917392,22.6882747],[113.917102,22.6881927]]]]},"properties":{"name":"way/1424497740","height":0,"kind":"unknown","label":"缺少可用高度；仅展示轮廓"}},{"type":"Feature","id":"way/1424497741","geometry":{"type":"MultiPolygon","coordinates":[[[[113.9169562,22.6884397],[113.9170295,22.6882189],[113.9173683,22.6883147],[113.9173524,22.6883626],[113.9180694,22.6885653],[113.918012,22.6887381],[113.9169562,22.6884397]]]]},"properties":{"name":"way/1424497741","height":0,"kind":"unknown","label":"缺少可用高度；仅展示轮廓"}},{"type":"Feature","id":"way/1424497744","geometry":{"type":"MultiPolygon","coordinates":[[[[113.9171423,22.6886761],[113.9171881,22.6885381],[113.9176379,22.6886653],[113.9175921,22.6888033],[113.9171423,22.6886761]]]]},"properties":{"name":"way/1424497744","height":0,"kind":"unknown","label":"缺少可用高度；仅展示轮廓"}},{"type":"Feature","id":"way/1424497745","geometry":{"type":"MultiPolygon","coordinates":[[[[113.9166666,22.6887429],[113.9168644,22.6884466],[113.9171881,22.6885381],[113.9171423,22.6886761],[113.9171142,22.6887607],[113.9176467,22.6889113],[113.9176137,22.6890106],[113.9166666,22.6887429]]]]},"properties":{"name":"way/1424497745","height":0,"kind":"unknown","label":"缺少可用高度；仅展示轮廓"}},{"type":"Feature","id":"way/1467331028","geometry":{"type":"MultiPolygon","coordinates":[[[[113.9172344,22.6823644],[113.9173514,22.6823268],[113.9174367,22.6825529],[113.9173197,22.6825905],[113.9172344,22.6823644]]]]},"properties":{"name":"way/1467331028","height":0,"kind":"unknown","label":"缺少可用高度；仅展示轮廓"}},{"type":"Feature","id":"way/1468853219","geometry":{"type":"MultiPolygon","coordinates":[[[[113.9111745,22.6802475],[113.9111819,22.6802326],[113.9111926,22.6802196],[113.9112087,22.6802079],[113.9112087,22.680198],[113.9112201,22.6801875],[113.9112698,22.6801862],[113.9112691,22.680146],[113.911306,22.6801448],[113.9113073,22.6801027],[113.911375,22.6801021],[113.9113737,22.6801182],[113.9114669,22.6801212],[113.9114696,22.6802741],[113.9114179,22.6803093],[113.9113026,22.6803075],[113.911304,22.6803186],[113.9112054,22.6803186],[113.9112047,22.6802858],[113.9111933,22.6802784],[113.9111819,22.6802685],[113.9111765,22.6802574],[113.9111745,22.6802475]]]]},"properties":{"name":"way/1468853219","height":0,"kind":"unknown","label":"缺少可用高度；仅展示轮廓"}},{"type":"Feature","id":"way/1469550585","geometry":{"type":"MultiPolygon","coordinates":[[[[113.9179625,22.6856307],[113.9180427,22.6855984],[113.9180588,22.6856324],[113.9179786,22.6856647],[113.9179625,22.6856307]]]]},"properties":{"name":"way/1469550585","height":0,"kind":"unknown","label":"缺少可用高度；仅展示轮廓"}},{"type":"Feature","id":"way/1469550617","geometry":{"type":"MultiPolygon","coordinates":[[[[113.9095212,22.6883535],[113.9095689,22.6883331],[113.9096383,22.688471],[113.9095907,22.6884914],[113.9095212,22.6883535]]]]},"properties":{"name":"way/1469550617","height":0,"kind":"unknown","label":"缺少可用高度；仅展示轮廓"}},{"type":"Feature","id":"way/1469550618","geometry":{"type":"MultiPolygon","coordinates":[[[[113.9092643,22.6878972],[113.9093045,22.6878781],[113.9093795,22.6880119],[113.9093392,22.6880311],[113.9092643,22.6878972]]]]},"properties":{"name":"way/1469550618","height":0,"kind":"unknown","label":"缺少可用高度；仅展示轮廓"}},{"type":"Feature","id":"way/1469550619","geometry":{"type":"MultiPolygon","coordinates":[[[[113.9092702,22.687496],[113.9092954,22.6873417],[113.9093443,22.6873485],[113.9093191,22.6875028],[113.9092702,22.687496]]]]},"properties":{"name":"way/1469550619","height":0,"kind":"unknown","label":"缺少可用高度；仅展示轮廓"}},{"type":"Feature","id":"way/1469550620","geometry":{"type":"MultiPolygon","coordinates":[[[[113.9089465,22.6864415],[113.9089975,22.6864248],[113.9090542,22.6865723],[113.9090033,22.686589],[113.9089465,22.6864415]]]]},"properties":{"name":"way/1469550620","height":0,"kind":"unknown","label":"缺少可用高度；仅展示轮廓"}},{"type":"Feature","id":"way/1469550639","geometry":{"type":"MultiPolygon","coordinates":[[[[113.9111906,22.6820924],[113.9111914,22.6820591],[113.9112571,22.6820604],[113.9112563,22.6820937],[113.9111906,22.6820924]]]]},"properties":{"name":"way/1469550639","height":0,"kind":"unknown","label":"缺少可用高度；仅展示轮廓"}},{"type":"Feature","id":"way/1469550640","geometry":{"type":"MultiPolygon","coordinates":[[[[113.9105883,22.6827599],[113.9105971,22.6827114],[113.9106232,22.6826685],[113.9106637,22.6826365],[113.9107136,22.6826192],[113.9107669,22.6826187],[113.9108172,22.6826351],[113.9108584,22.6826663],[113.9108855,22.6827086],[113.9108953,22.682757],[113.9108866,22.6828055],[113.9108605,22.6828484],[113.91082,22.6828804],[113.9107701,22.6828977],[113.9107167,22.6828982],[113.9106665,22.6828818],[113.9106253,22.6828506],[113.9105981,22.6828083],[113.9105883,22.6827599]]]]},"properties":{"name":"自然教育中心","height":0,"kind":"unknown","label":"缺少可用高度；仅展示轮廓"}},{"type":"Feature","id":"way/1469550641","geometry":{"type":"MultiPolygon","coordinates":[[[[113.9105563,22.6823498],[113.9105878,22.6822471],[113.9106777,22.6822706],[113.9106461,22.6823733],[113.9105563,22.6823498]]]]},"properties":{"name":"way/1469550641","height":0,"kind":"unknown","label":"缺少可用高度；仅展示轮廓"}},{"type":"Feature","id":"way/1469550642","geometry":{"type":"MultiPolygon","coordinates":[[[[113.9134009,22.6797661],[113.9135206,22.6797588],[113.9135344,22.6799525],[113.9134147,22.6799598],[113.9134009,22.6797661]]]]},"properties":{"name":"way/1469550642","height":0,"kind":"unknown","label":"缺少可用高度；仅展示轮廓"}},{"type":"Feature","id":"way/1469550665","geometry":{"type":"MultiPolygon","coordinates":[[[[113.9164705,22.6809499],[113.9166543,22.6809231],[113.9166784,22.6810641],[113.9164947,22.6810909],[113.9164705,22.6809499]]]]},"properties":{"name":"way/1469550665","height":0,"kind":"unknown","label":"缺少可用高度；仅展示轮廓"}},{"type":"Feature","id":"way/1469550666","geometry":{"type":"MultiPolygon","coordinates":[[[[113.9156163,22.6811285],[113.9157314,22.6811082],[113.9157663,22.6812765],[113.9156511,22.6812968],[113.9156163,22.6811285]]]]},"properties":{"name":"way/1469550666","height":0,"kind":"unknown","label":"缺少可用高度；仅展示轮廓"}},{"type":"Feature","id":"way/1469550667","geometry":{"type":"MultiPolygon","coordinates":[[[[113.9166477,22.681121],[113.9168788,22.6810745],[113.9168942,22.6811397],[113.9166631,22.6811862],[113.9166477,22.681121]]]]},"properties":{"name":"way/1469550667","height":0,"kind":"unknown","label":"缺少可用高度；仅展示轮廓"}},{"type":"Feature","id":"way/1469553611","geometry":{"type":"MultiPolygon","coordinates":[[[[113.9154781,22.687074],[113.9155553,22.686997],[113.9155909,22.6870273],[113.9155137,22.6871043],[113.9154781,22.687074]]]]},"properties":{"name":"way/1469553611","height":0,"kind":"unknown","label":"缺少可用高度；仅展示轮廓"}}]}