{"type":"FeatureCollection","features":[{"type":"Feature","id":"way/712068827","geometry":{"type":"MultiPolygon","coordinates":[[[[113.9059766,22.6570526],[113.9059849,22.6562585],[113.9066062,22.656264],[113.9066035,22.656524],[113.9061722,22.6565202],[113.9061696,22.6567681],[113.9065696,22.6567716],[113.9065667,22.6570579],[113.9059766,22.6570526]]]]},"properties":{"name":"way/712068827","height":0,"kind":"unknown","label":"缺少可用高度；仅展示轮廓"}},{"type":"Feature","id":"way/1361382165","geometry":{"type":"MultiPolygon","coordinates":[[[[113.9031977,22.6555155],[113.9032032,22.6552496],[113.9038263,22.6552607],[113.9038207,22.6555265],[113.9031977,22.6555155]]]]},"properties":{"name":"way/1361382165","height":0,"kind":"unknown","label":"缺少可用高度；仅展示轮廓"}},{"type":"Feature","id":"way/1361382166","geometry":{"type":"MultiPolygon","coordinates":[[[[113.9031881,22.6559797],[113.9031937,22.6557138],[113.9038167,22.6557249],[113.9038112,22.6559907],[113.9031881,22.6559797]]]]},"properties":{"name":"way/1361382166","height":0,"kind":"unknown","label":"缺少可用高度；仅展示轮廓"}},{"type":"Feature","id":"way/1361382167","geometry":{"type":"MultiPolygon","coordinates":[[[[113.9040127,22.6557287],[113.9047983,22.6557209],[113.9048014,22.6559862],[113.9040158,22.6559939],[113.9040127,22.6557287]]]]},"properties":{"name":"way/1361382167","height":0,"kind":"unknown","label":"缺少可用高度；仅展示轮廓"}},{"type":"Feature","id":"way/1361382168","geometry":{"type":"MultiPolygon","coordinates":[[[[113.9040294,22.655281],[113.904815,22.6552732],[113.9048181,22.6555385],[113.9040325,22.6555462],[113.9040294,22.655281]]]]},"properties":{"name":"way/1361382168","height":0,"kind":"unknown","label":"缺少可用高度；仅展示轮廓"}},{"type":"Feature","id":"way/1361382169","geometry":{"type":"MultiPolygon","coordinates":[[[[113.9040502,22.6548179],[113.9048358,22.65481],[113.9048388,22.6550754],[113.9040532,22.6550831],[113.9040502,22.6548179]]]]},"properties":{"name":"way/1361382169","height":0,"kind":"unknown","label":"缺少可用高度；仅展示轮廓"}},{"type":"Feature","id":"way/1361382170","geometry":{"type":"MultiPolygon","coordinates":[[[[113.9040625,22.6543885],[113.9048481,22.6543807],[113.9048512,22.654646],[113.9040656,22.6546537],[113.9040625,22.6543885]]]]},"properties":{"name":"way/1361382170","height":0,"kind":"unknown","label":"缺少可用高度；仅展示轮廓"}},{"type":"Feature","id":"way/1361382171","geometry":{"type":"MultiPolygon","coordinates":[[[[113.9031812,22.6569271],[113.903183,22.6566619],[113.9038012,22.6566655],[113.9037994,22.6569307],[113.9035351,22.6569238],[113.9035315,22.6569341],[113.9035256,22.6569434],[113.9035143,22.6569538],[113.9035001,22.6569606],[113.9034843,22.6569632],[113.9034692,22.6569615],[113.9034551,22.6569559],[113.9034434,22.6569468],[113.9034355,22.6569359],[113.903431,22.6569235],[113.9031812,22.6569271]]]]},"properties":{"name":"way/1361382171","height":0,"kind":"unknown","label":"缺少可用高度；仅展示轮廓"}},{"type":"Feature","id":"way/1361382172","geometry":{"type":"MultiPolygon","coordinates":[[[[113.9040094,22.6569248],[113.9040149,22.6566629],[113.9047806,22.6566765],[113.9047751,22.6569386],[113.9044612,22.6569317],[113.9044546,22.6569451],[113.9044448,22.6569567],[113.9044294,22.6569672],[113.9044114,22.6569732],[113.9043922,22.6569741],[113.9043765,22.6569709],[113.9043621,22.6569643],[113.9043499,22.6569546],[113.9043405,22.6569422],[113.9043346,22.656928],[113.9040094,22.6569248]]]]},"properties":{"name":"way/1361382172","height":0,"kind":"unknown","label":"缺少可用高度；仅展示轮廓"}},{"type":"Feature","id":"way/1361382173","geometry":{"type":"MultiPolygon","coordinates":[[[[113.9031832,22.6564769],[113.903185,22.6562117],[113.9038033,22.6562153],[113.9038014,22.6564804],[113.9035371,22.6564735],[113.9035336,22.6564839],[113.9035277,22.6564932],[113.9035163,22.6565036],[113.9035021,22.6565104],[113.9034864,22.656513],[113.9034712,22.6565113],[113.9034571,22.6565056],[113.9034454,22.6564966],[113.9034375,22.6564857],[113.903433,22.6564733],[113.9031832,22.6564769]]]]},"properties":{"name":"way/1361382173","height":0,"kind":"unknown","label":"缺少可用高度；仅展示轮廓"}},{"type":"Feature","id":"way/1361382174","geometry":{"type":"MultiPolygon","coordinates":[[[[113.9040228,22.6564594],[113.9040283,22.6561975],[113.904794,22.6562112],[113.9047885,22.6564733],[113.9044746,22.6564663],[113.9044681,22.6564797],[113.9044582,22.6564913],[113.9044428,22.6565019],[113.9044248,22.6565078],[113.9044056,22.6565088],[113.9043899,22.6565055],[113.9043755,22.6564989],[113.9043633,22.6564892],[113.9043539,22.6564769],[113.904348,22.6564627],[113.9040228,22.6564594]]]]},"properties":{"name":"way/1361382174","height":0,"kind":"unknown","label":"缺少可用高度；仅展示轮廓"}},{"type":"Feature","id":"relation/18730460","geometry":{"type":"MultiPolygon","coordinates":[[[[113.9032022,22.6549099],[113.9032099,22.6546526],[113.903868,22.6546692],[113.9038603,22.6549264],[113.9032022,22.6549099]],[[113.9032373,22.6548168],[113.9035009,22.6548214],[113.9035025,22.6547428],[113.9032389,22.6547382],[113.9032373,22.6548168]],[[113.903553,22.6547455],[113.9035532,22.6548241],[113.9038169,22.6548235],[113.9038167,22.6547449],[113.903553,22.6547455]]]]},"properties":{"name":"relation/18730460","height":0,"kind":"unknown","label":"缺少可用高度；仅展示轮廓"}},{"type":"Feature","id":"relation/18730461","geometry":{"type":"MultiPolygon","coordinates":[[[[113.9032022,22.6545146],[113.9032099,22.6542573],[113.903868,22.654274],[113.9038603,22.6545312],[113.9032022,22.6545146]],[[113.9032373,22.6544216],[113.9035009,22.6544262],[113.9035025,22.6543476],[113.9032389,22.654343],[113.9032373,22.6544216]],[[113.903553,22.6543503],[113.9035532,22.6544289],[113.9038169,22.6544283],[113.9038167,22.6543497],[113.903553,22.6543503]]]]},"properties":{"name":"relation/18730461","height":0,"kind":"unknown","label":"缺少可用高度；仅展示轮廓"}},{"type":"Feature","id":"relation/18730462","geometry":{"type":"MultiPolygon","coordinates":[[[[113.9050774,22.6545551],[113.9050805,22.6544643],[113.9051304,22.6544658],[113.9051337,22.6543696],[113.9050795,22.654368],[113.9050823,22.6542857],[113.9057865,22.6543108],[113.905781,22.6544007],[113.9057348,22.6543989],[113.9057312,22.6545045],[113.9057786,22.6545059],[113.9057762,22.6545756],[113.9050774,22.6545551]],[[113.9052091,22.654471],[113.905653,22.6544828],[113.9056558,22.6543955],[113.9052118,22.6543838],[113.9052091,22.654471]]]]},"properties":{"name":"relation/18730462","height":0,"kind":"unknown","label":"缺少可用高度；仅展示轮廓"}},{"type":"Feature","id":"relation/18730463","geometry":{"type":"MultiPolygon","coordinates":[[[[113.9050827,22.6549961],[113.9050859,22.6549052],[113.9051357,22.6549067],[113.905139,22.6548105],[113.9050848,22.6548089],[113.9050876,22.6547266],[113.9057918,22.6547517],[113.9057863,22.6548417],[113.9057401,22.6548399],[113.9057365,22.6549454],[113.9057839,22.6549468],[113.9057815,22.6550165],[113.9050827,22.6549961]],[[113.9052144,22.6549119],[113.9056584,22.6549237],[113.9056611,22.6548364],[113.9052171,22.6548247],[113.9052144,22.6549119]]]]},"properties":{"name":"relation/18730463","height":0,"kind":"unknown","label":"缺少可用高度；仅展示轮廓"}},{"type":"Feature","id":"relation/18730464","geometry":{"type":"MultiPolygon","coordinates":[[[[113.9060252,22.6550238],[113.9060283,22.654933],[113.9060782,22.6549345],[113.9060815,22.6548383],[113.9060273,22.6548367],[113.9060301,22.6547544],[113.9067343,22.6547795],[113.9067288,22.6548694],[113.9066826,22.6548677],[113.906679,22.6549732],[113.9067264,22.6549746],[113.906724,22.6550443],[113.9060252,22.6550238]],[[113.9061569,22.6549397],[113.9066008,22.6549515],[113.9066036,22.6548642],[113.9061596,22.6548525],[113.9061569,22.6549397]]]]},"properties":{"name":"relation/18730464","height":0,"kind":"unknown","label":"缺少可用高度；仅展示轮廓"}},{"type":"Feature","id":"relation/18730465","geometry":{"type":"MultiPolygon","coordinates":[[[[113.9060199,22.6545829],[113.906023,22.6544921],[113.9060729,22.6544935],[113.9060762,22.6543974],[113.9060219,22.6543958],[113.9060248,22.6543134],[113.906729,22.6543386],[113.9067235,22.6544285],[113.9066773,22.6544267],[113.9066737,22.6545323],[113.9067211,22.6545336],[113.9067187,22.6546034],[113.9060199,22.6545829]],[[113.9061516,22.6544987],[113.9065955,22.6545105],[113.9065982,22.6544233],[113.9061543,22.6544116],[113.9061516,22.6544987]]]]},"properties":{"name":"relation/18730465","height":0,"kind":"unknown","label":"缺少可用高度；仅展示轮廓"}},{"type":"Feature","id":"way/1361382189","geometry":{"type":"MultiPolygon","coordinates":[[[[113.903994,22.6573513],[113.9039995,22.6570894],[113.9047652,22.657103],[113.9047597,22.6573651],[113.9044458,22.6573581],[113.9044392,22.6573716],[113.9044294,22.6573832],[113.904414,22.6573937],[113.904396,22.6573997],[113.9043768,22.6574006],[113.9043611,22.6573974],[113.9043467,22.6573907],[113.9043345,22.6573811],[113.904325,22.6573687],[113.9043192,22.6573545],[113.903994,22.6573513]]]]},"properties":{"name":"way/1361382189","height":0,"kind":"unknown","label":"缺少可用高度；仅展示轮廓"}},{"type":"Feature","id":"way/1361382190","geometry":{"type":"MultiPolygon","coordinates":[[[[113.903994,22.6577176],[113.9039995,22.6574557],[113.9047652,22.6574694],[113.9047597,22.6577314],[113.9044458,22.6577245],[113.9044392,22.6577379],[113.9044294,22.6577495],[113.904414,22.65776],[113.904396,22.657766],[113.9043768,22.6577669],[113.9043611,22.6577637],[113.9043467,22.6577571],[113.9043345,22.6577474],[113.904325,22.657735],[113.9043192,22.6577208],[113.903994,22.6577176]]]]},"properties":{"name":"way/1361382190","height":0,"kind":"unknown","label":"缺少可用高度；仅展示轮廓"}},{"type":"Feature","id":"way/1361382191","geometry":{"type":"MultiPolygon","coordinates":[[[[113.9030886,22.6571022],[113.9038171,22.6570951],[113.9038182,22.6571925],[113.9030897,22.6571997],[113.9030886,22.6571022]]]]},"properties":{"name":"way/1361382191","height":0,"kind":"unknown","label":"缺少可用高度；仅展示轮廓"}},{"type":"Feature","id":"way/1361382192","geometry":{"type":"MultiPolygon","coordinates":[[[[113.9027515,22.6563199],[113.9030391,22.656319],[113.9030417,22.6570199],[113.9027541,22.6570208],[113.9027515,22.6563199]]]]},"properties":{"name":"way/1361382192","height":0,"kind":"unknown","label":"缺少可用高度；仅展示轮廓"}},{"type":"Feature","id":"way/1361382193","geometry":{"type":"MultiPolygon","coordinates":[[[[113.9053662,22.6560139],[113.9053853,22.6552693],[113.9057188,22.6552766],[113.9057104,22.6556067],[113.9058067,22.6556088],[113.9058034,22.6557377],[113.9056945,22.6557354],[113.9056872,22.6560209],[113.9053662,22.6560139]]]]},"properties":{"name":"way/1361382193","height":0,"kind":"unknown","label":"缺少可用高度；仅展示轮廓"}},{"type":"Feature","id":"way/1361382194","geometry":{"type":"MultiPolygon","coordinates":[[[[113.9060065,22.6554525],[113.9060143,22.6553324],[113.9065909,22.6553641],[113.9065832,22.655484],[113.9060065,22.6554525]]]]},"properties":{"name":"way/1361382194","height":0,"kind":"unknown","label":"缺少可用高度；仅展示轮廓"}},{"type":"Feature","id":"way/1361382195","geometry":{"type":"MultiPolygon","coordinates":[[[[113.9059748,22.6559993],[113.9059799,22.6558757],[113.9065654,22.6558965],[113.9065602,22.6560201],[113.9059748,22.6559993]]]]},"properties":{"name":"way/1361382195","height":0,"kind":"unknown","label":"缺少可用高度；仅展示轮廓"}},{"type":"Feature","id":"way/1361382196","geometry":{"type":"MultiPolygon","coordinates":[[[[113.9024819,22.6552449],[113.9028707,22.6552417],[113.9028778,22.6559827],[113.9024889,22.6559858],[113.9024819,22.6552449]]]]},"properties":{"name":"way/1361382196","height":0,"kind":"unknown","label":"缺少可用高度；仅展示轮廓"}},{"type":"Feature","id":"way/1361382197","geometry":{"type":"MultiPolygon","coordinates":[[[[113.9029845,22.6560189],[113.9029929,22.6556119],[113.9031098,22.655614],[113.9031012,22.6560209],[113.9029845,22.6560189]]]]},"properties":{"name":"way/1361382197","height":0,"kind":"unknown","label":"缺少可用高度；仅展示轮廓"}},{"type":"Feature","id":"way/1361382198","geometry":{"type":"MultiPolygon","coordinates":[[[[113.9030027,22.6555176],[113.903017,22.6550622],[113.9031315,22.6550653],[113.9031171,22.6555206],[113.9030027,22.6555176]]]]},"properties":{"name":"way/1361382198","height":0,"kind":"unknown","label":"缺少可用高度；仅展示轮廓"}},{"type":"Feature","id":"way/1361382199","geometry":{"type":"MultiPolygon","coordinates":[[[[113.9030298,22.6550353],[113.9030362,22.6548876],[113.9031233,22.6548908],[113.9031169,22.6550385],[113.9030298,22.6550353]]]]},"properties":{"name":"way/1361382199","height":0,"kind":"unknown","label":"缺少可用高度；仅展示轮廓"}},{"type":"Feature","id":"way/1361382200","geometry":{"type":"MultiPolygon","coordinates":[[[[113.9053949,22.6579149],[113.905396,22.6578681],[113.9057904,22.6578758],[113.9057849,22.6581152],[113.9054568,22.6581088],[113.9054612,22.6579162],[113.9053949,22.6579149]]]]},"properties":{"name":"way/1361382200","height":0,"kind":"unknown","label":"缺少可用高度；仅展示轮廓"}},{"type":"Feature","id":"way/1361382202","geometry":{"type":"MultiPolygon","coordinates":[[[[113.9032075,22.6577554],[113.9032329,22.6577554],[113.9032329,22.6577211],[113.9038464,22.6577212],[113.9038464,22.6577506],[113.9038757,22.6577506],[113.9038757,22.6578203],[113.9038418,22.6578203],[113.9038418,22.6578811],[113.903235,22.6578813],[113.903235,22.6578091],[113.9032075,22.6578091],[113.9032075,22.6577554]]]]},"properties":{"name":"way/1361382202","height":0,"kind":"unknown","label":"缺少可用高度；仅展示轮廓"}},{"type":"Feature","id":"way/1361382203","geometry":{"type":"MultiPolygon","coordinates":[[[[113.903114,22.6572811],[113.9038006,22.6572773],[113.9038012,22.657374],[113.9031147,22.6573776],[113.903114,22.6572811]]]]},"properties":{"name":"way/1361382203","height":0,"kind":"unknown","label":"缺少可用高度；仅展示轮廓"}},{"type":"Feature","id":"way/1361382204","geometry":{"type":"MultiPolygon","coordinates":[[[[113.9033639,22.657587],[113.903364,22.6575296],[113.9037242,22.6575305],[113.903724,22.6575813],[113.9036864,22.6575812],[113.9036863,22.6576131],[113.9037043,22.6576132],[113.9037043,22.6576423],[113.9035753,22.6576419],[113.9035754,22.6576151],[113.9035892,22.6576152],[113.9035893,22.6575796],[113.903512,22.6575793],[113.9035119,22.6576076],[113.9035334,22.6576077],[113.9035333,22.6576454],[113.9033903,22.657645],[113.9033904,22.6576057],[113.9034053,22.6576058],[113.9034053,22.6575871],[113.9033639,22.657587]]]]},"properties":{"name":"way/1361382204","height":0,"kind":"unknown","label":"缺少可用高度；仅展示轮廓"}},{"type":"Feature","id":"way/1361382205","geometry":{"type":"MultiPolygon","coordinates":[[[[113.9031537,22.6575302],[113.9033327,22.6575293],[113.9033331,22.6575828],[113.9032913,22.657583],[113.9032914,22.6576099],[113.9033158,22.6576097],[113.903316,22.6576424],[113.9031755,22.6576432],[113.9031753,22.6576079],[113.9031909,22.6576078],[113.9031908,22.6575808],[113.903154,22.6575809],[113.9031537,22.6575302]]]]},"properties":{"name":"way/1361382205","height":0,"kind":"unknown","label":"缺少可用高度；仅展示轮廓"}},{"type":"Feature","id":"way/1361382206","geometry":{"type":"MultiPolygon","coordinates":[[[[113.9050396,22.6576054],[113.9050459,22.6571662],[113.9051415,22.6571674],[113.905135,22.6576066],[113.9050396,22.6576054]]]]},"properties":{"name":"way/1361382206","height":0,"kind":"unknown","label":"缺少可用高度；仅展示轮廓"}},{"type":"Feature","id":"way/1361382209","geometry":{"type":"MultiPolygon","coordinates":[[[[113.9053694,22.6578452],[113.9053699,22.65756],[113.9055941,22.6575603],[113.905592,22.6576228],[113.9056097,22.6576031],[113.9056321,22.6575879],[113.9056578,22.6575782],[113.9056905,22.6575743],[113.905723,22.6575792],[113.9057507,22.6575912],[113.9057757,22.6576114],[113.905788,22.6576274],[113.9057969,22.6576453],[113.9058033,22.6576771],[113.905799,22.6577093],[113.9057895,22.657731],[113.905775,22.6577502],[113.9057456,22.6577724],[113.9057101,22.6577846],[113.9056837,22.6577864],[113.9056836,22.6578457],[113.9053694,22.6578452]]]]},"properties":{"name":"way/1361382209","height":0,"kind":"unknown","label":"缺少可用高度；仅展示轮廓"}},{"type":"Feature","id":"way/1361382210","geometry":{"type":"MultiPolygon","coordinates":[[[[113.9052422,22.6540546],[113.9052551,22.6536951],[113.9054379,22.6537007],[113.9054313,22.6538858],[113.9059232,22.6539007],[113.9059294,22.653726],[113.9061007,22.6537313],[113.9060881,22.6540806],[113.9052422,22.6540546]]]]},"properties":{"name":"way/1361382210","height":0,"kind":"unknown","label":"缺少可用高度；仅展示轮廓"}},{"type":"Feature","id":"way/1361382211","geometry":{"type":"MultiPolygon","coordinates":[[[[113.9035633,22.6535956],[113.9035718,22.6531246],[113.9036814,22.6531263],[113.9036728,22.6535973],[113.9035633,22.6535956]]]]},"properties":{"name":"way/1361382211","height":0,"kind":"unknown","label":"缺少可用高度；仅展示轮廓"}},{"type":"Feature","id":"way/1361382212","geometry":{"type":"MultiPolygon","coordinates":[[[[113.9036302,22.6537628],[113.9040548,22.6537607],[113.9040562,22.6539926],[113.9036316,22.6539946],[113.9036302,22.6537628]]]]},"properties":{"name":"way/1361382212","height":0,"kind":"unknown","label":"缺少可用高度；仅展示轮廓"}},{"type":"Feature","id":"way/1361382213","geometry":{"type":"MultiPolygon","coordinates":[[[[113.9041655,22.6537594],[113.9045901,22.6537573],[113.9045914,22.6539892],[113.9041668,22.6539912],[113.9041655,22.6537594]]]]},"properties":{"name":"way/1361382213","height":0,"kind":"unknown","label":"缺少可用高度；仅展示轮廓"}},{"type":"Feature","id":"way/1361382214","geometry":{"type":"MultiPolygon","coordinates":[[[[113.9046885,22.6537659],[113.9051131,22.6537638],[113.9051144,22.6539957],[113.9046898,22.6539977],[113.9046885,22.6537659]]]]},"properties":{"name":"way/1361382214","height":0,"kind":"unknown","label":"缺少可用高度；仅展示轮廓"}},{"type":"Feature","id":"way/1361382215","geometry":{"type":"MultiPolygon","coordinates":[[[[113.9071273,22.6547652],[113.9071327,22.6544831],[113.9077362,22.6544929],[113.9077308,22.654775],[113.9071273,22.6547652]]]]},"properties":{"name":"way/1361382215","height":0,"kind":"unknown","label":"缺少可用高度；仅展示轮廓"}},{"type":"Feature","id":"way/1361382216","geometry":{"type":"MultiPolygon","coordinates":[[[[113.907906,22.6548044],[113.9079113,22.6545223],[113.9085148,22.6545321],[113.9085094,22.6548142],[113.907906,22.6548044]]]]},"properties":{"name":"way/1361382216","height":0,"kind":"unknown","label":"缺少可用高度；仅展示轮廓"}},{"type":"Feature","id":"way/1361382217","geometry":{"type":"MultiPolygon","coordinates":[[[[113.9071091,22.6552053],[113.9071157,22.654953],[113.9077229,22.6549665],[113.9077163,22.6552189],[113.9071091,22.6552053]]]]},"properties":{"name":"way/1361382217","height":0,"kind":"unknown","label":"缺少可用高度；仅展示轮廓"}},{"type":"Feature","id":"way/1361382218","geometry":{"type":"MultiPolygon","coordinates":[[[[113.907887,22.655238],[113.9078937,22.6549857],[113.9085009,22.6549992],[113.9084943,22.6552516],[113.907887,22.655238]]]]},"properties":{"name":"way/1361382218","height":0,"kind":"unknown","label":"缺少可用高度；仅展示轮廓"}},{"type":"Feature","id":"way/1361382223","geometry":{"type":"MultiPolygon","coordinates":[[[[113.907892,22.6554306],[113.908502,22.6554154],[113.9085083,22.6556327],[113.9078984,22.6556479],[113.907892,22.6554306]]]]},"properties":{"name":"way/1361382223","height":0,"kind":"unknown","label":"缺少可用高度；仅展示轮廓"}},{"type":"Feature","id":"way/1361382224","geometry":{"type":"MultiPolygon","coordinates":[[[[113.9078871,22.6558495],[113.908497,22.6558343],[113.9085033,22.6560516],[113.9078934,22.6560668],[113.9078871,22.6558495]]]]},"properties":{"name":"way/1361382224","height":0,"kind":"unknown","label":"缺少可用高度；仅展示轮廓"}},{"type":"Feature","id":"way/1361382225","geometry":{"type":"MultiPolygon","coordinates":[[[[113.9078844,22.6562692],[113.9084943,22.656254],[113.9085007,22.6564714],[113.9078907,22.6564865],[113.9078844,22.6562692]]]]},"properties":{"name":"way/1361382225","height":0,"kind":"unknown","label":"缺少可用高度；仅展示轮廓"}},{"type":"Feature","id":"way/1361382226","geometry":{"type":"MultiPolygon","coordinates":[[[[113.9070871,22.6562686],[113.9076971,22.6562534],[113.9077034,22.6564708],[113.9070935,22.6564859],[113.9070871,22.6562686]]]]},"properties":{"name":"way/1361382226","height":0,"kind":"unknown","label":"缺少可用高度；仅展示轮廓"}},{"type":"Feature","id":"way/1361382232","geometry":{"type":"MultiPolygon","coordinates":[[[[113.9070309,22.6527877],[113.907707,22.6527388],[113.9077262,22.6529656],[113.9070501,22.6530144],[113.9070309,22.6527877]]]]},"properties":{"name":"way/1361382232","height":0,"kind":"unknown","label":"缺少可用高度；仅展示轮廓"}},{"type":"Feature","id":"way/1361382233","geometry":{"type":"MultiPolygon","coordinates":[[[[113.9075041,22.6557525],[113.9075157,22.6556405],[113.9075458,22.655557],[113.9075525,22.6554007],[113.9077227,22.655405],[113.9077031,22.6560673],[113.907533,22.6560631],[113.9075394,22.6559081],[113.907511,22.6558303],[113.9075041,22.6557525]]]]},"properties":{"name":"way/1361382233","height":0,"kind":"unknown","label":"缺少可用高度；仅展示轮廓"}},{"type":"Feature","id":"way/1361382235","geometry":{"type":"MultiPolygon","coordinates":[[[[113.9070773,22.6566721],[113.90769,22.6566677],[113.9076913,22.6568211],[113.9070786,22.6568254],[113.9070773,22.6566721]]]]},"properties":{"name":"way/1361382235","height":0,"kind":"unknown","label":"缺少可用高度；仅展示轮廓"}},{"type":"Feature","id":"way/1361382236","geometry":{"type":"MultiPolygon","coordinates":[[[[113.9070702,22.6569955],[113.907683,22.656991],[113.9076843,22.6571444],[113.9070715,22.6571488],[113.9070702,22.6569955]]]]},"properties":{"name":"way/1361382236","height":0,"kind":"unknown","label":"缺少可用高度；仅展示轮廓"}},{"type":"Feature","id":"way/1361382238","geometry":{"type":"MultiPolygon","coordinates":[[[[113.9070402,22.6576278],[113.9070429,22.6573571],[113.907699,22.6573626],[113.9076964,22.6576332],[113.9070402,22.6576278]]]]},"properties":{"name":"way/1361382238","height":0,"kind":"unknown","label":"缺少可用高度；仅展示轮廓"}},{"type":"Feature","id":"way/1361382239","geometry":{"type":"MultiPolygon","coordinates":[[[[113.907035,22.6580635],[113.9070358,22.6577698],[113.9076919,22.6577712],[113.9076912,22.6580648],[113.907035,22.6580635]]]]},"properties":{"name":"way/1361382239","height":0,"kind":"unknown","label":"缺少可用高度；仅展示轮廓"}},{"type":"Feature","id":"way/1361382241","geometry":{"type":"MultiPolygon","coordinates":[[[[113.9078389,22.6573011],[113.9085944,22.6572786],[113.9085977,22.6573722],[113.9082133,22.6573837],[113.9078422,22.6573949],[113.9078389,22.6573011]]]]},"properties":{"name":"way/1361382241","height":0,"kind":"unknown","label":"缺少可用高度；仅展示轮廓"}},{"type":"Feature","id":"way/1361382242","geometry":{"type":"MultiPolygon","coordinates":[[[[113.9078362,22.657462],[113.9082177,22.6574507],[113.9085917,22.6574395],[113.908595,22.6575331],[113.9078395,22.6575558],[113.9078362,22.657462]]]]},"properties":{"name":"way/1361382242","height":0,"kind":"unknown","label":"缺少可用高度；仅展示轮廓"}},{"type":"Feature","id":"way/1361382248","geometry":{"type":"MultiPolygon","coordinates":[[[[113.9078517,22.653669],[113.9078616,22.6531222],[113.908115,22.6531261],[113.908105,22.6536729],[113.9078517,22.653669]]]]},"properties":{"name":"way/1361382248","height":0,"kind":"unknown","label":"缺少可用高度；仅展示轮廓"}},{"type":"Feature","id":"way/1361382250","geometry":{"type":"MultiPolygon","coordinates":[[[[113.9072045,22.6531976],[113.9073923,22.6531956],[113.9073987,22.6537095],[113.9072108,22.6537114],[113.9072045,22.6531976]]]]},"properties":{"name":"way/1361382250","height":0,"kind":"unknown","label":"缺少可用高度；仅展示轮廓"}},{"type":"Feature","id":"way/1361382251","geometry":{"type":"MultiPolygon","coordinates":[[[[113.9075456,22.6531979],[113.9077376,22.6531971],[113.9077411,22.6539123],[113.9075493,22.6539131],[113.9075456,22.6531979]]]]},"properties":{"name":"way/1361382251","height":0,"kind":"unknown","label":"缺少可用高度；仅展示轮廓"}},{"type":"Feature","id":"relation/18730466","geometry":{"type":"MultiPolygon","coordinates":[[[[113.9063464,22.6536639],[113.9063476,22.6533553],[113.9067442,22.6533566],[113.906743,22.6536651],[113.9063464,22.6536639]],[[113.9064495,22.6534964],[113.9064503,22.6535882],[113.9066241,22.6535868],[113.9066232,22.6534951],[113.9064495,22.6534964]]]]},"properties":{"name":"relation/18730466","height":0,"kind":"unknown","label":"缺少可用高度；仅展示轮廓"}},{"type":"Feature","id":"relation/18730467","geometry":{"type":"MultiPolygon","coordinates":[[[[113.9064712,22.6528577],[113.9068216,22.6528285],[113.9068439,22.6530566],[113.9064935,22.6530858],[113.9064712,22.6528577]],[[113.906533,22.652927],[113.906541,22.6530022],[113.9067984,22.652979],[113.9067905,22.6529039],[113.906533,22.652927]]]]},"properties":{"name":"relation/18730467","height":0,"kind":"unknown","label":"缺少可用高度；仅展示轮廓"}},{"type":"Feature","id":"way/1361607997","geometry":{"type":"MultiPolygon","coordinates":[[[[113.9063441,22.6539796],[113.9066761,22.6539752],[113.9066728,22.6537631],[113.9067658,22.6537619],[113.9067705,22.6540674],[113.9063455,22.6540729],[113.9063441,22.6539796]]]]},"properties":{"name":"way/1361607997","height":0,"kind":"unknown","label":"缺少可用高度；仅展示轮廓"}},{"type":"Feature","id":"way/1361607998","geometry":{"type":"MultiPolygon","coordinates":[[[[113.9070398,22.6538954],[113.9071345,22.6538947],[113.9071351,22.6539807],[113.907743,22.6539767],[113.9077437,22.654061],[113.907041,22.6540655],[113.9070398,22.6538954]]]]},"properties":{"name":"way/1361607998","height":0,"kind":"unknown","label":"缺少可用高度；仅展示轮廓"}},{"type":"Feature","id":"way/1361608000","geometry":{"type":"MultiPolygon","coordinates":[[[[113.9078764,22.6528544],[113.9083644,22.6528305],[113.908374,22.6529984],[113.907886,22.6530222],[113.9078764,22.6528544]]]]},"properties":{"name":"way/1361608000","height":0,"kind":"unknown","label":"缺少可用高度；仅展示轮廓"}},{"type":"Feature","id":"relation/18734013","geometry":{"type":"MultiPolygon","coordinates":[[[[113.9078689,22.6540696],[113.9078804,22.6538261],[113.9085345,22.6538525],[113.908523,22.6540959],[113.9078689,22.6540696]],[[113.90795,22.653982],[113.9084662,22.6540071],[113.9084716,22.6539126],[113.9079555,22.6538874],[113.90795,22.653982]]]]},"properties":{"name":"relation/18734013","height":0,"kind":"unknown","label":"缺少可用高度；仅展示轮廓"}},{"type":"Feature","id":"way/1361608003","geometry":{"type":"MultiPolygon","coordinates":[[[[113.9078058,22.6580651],[113.9078065,22.6577714],[113.9083727,22.6577726],[113.9083724,22.6579218],[113.9083123,22.6579217],[113.9083119,22.6580661],[113.9078058,22.6580651]]]]},"properties":{"name":"way/1361608003","height":0,"kind":"unknown","label":"缺少可用高度；仅展示轮廓"}}]}