{"type":"FeatureCollection","features":[{"type":"Feature","id":"way/1429747032","geometry":{"type":"MultiPolygon","coordinates":[[[[113.8837601,22.835231],[113.8837609,22.8352055],[113.8837927,22.8352063],[113.8837919,22.8352319],[113.8837601,22.835231]]]]},"properties":{"name":"保安岗亭","height":0,"kind":"unknown","label":"缺少可用高度；仅展示轮廓"}},{"type":"Feature","id":"way/1433733873","geometry":{"type":"MultiPolygon","coordinates":[[[[113.8869938,22.8335781],[113.8870758,22.8335503],[113.8871,22.8336109],[113.887018,22.8336387],[113.8869938,22.8335781]]]]},"properties":{"name":"way/1433733873","height":0,"kind":"unknown","label":"缺少可用高度；仅展示轮廓"}},{"type":"Feature","id":"way/1436331535","geometry":{"type":"MultiPolygon","coordinates":[[[[113.885773,22.8326507],[113.8859981,22.8325397],[113.8860355,22.832604],[113.8858104,22.8327151],[113.885773,22.8326507]]]]},"properties":{"name":"way/1436331535","height":0,"kind":"unknown","label":"缺少可用高度；仅展示轮廓"}},{"type":"Feature","id":"way/1436331536","geometry":{"type":"MultiPolygon","coordinates":[[[[113.885979,22.8324323],[113.8860735,22.8323858],[113.8861185,22.8324634],[113.886024,22.8325099],[113.885979,22.8324323]]]]},"properties":{"name":"way/1436331536","height":0,"kind":"unknown","label":"缺少可用高度；仅展示轮廓"}},{"type":"Feature","id":"way/1436861827","geometry":{"type":"MultiPolygon","coordinates":[[[[113.8791536,22.8403085],[113.8792683,22.8403071],[113.8792717,22.8405413],[113.879157,22.8405427],[113.8791536,22.8403085]]]]},"properties":{"name":"罗田泵站110kV变电站","height":0,"kind":"unknown","label":"缺少可用高度；仅展示轮廓"}}]}