{"type":"FeatureCollection","features":[{"type":"Feature","id":"way/972622891","geometry":{"type":"MultiPolygon","coordinates":[[[[113.8664445,22.6085337],[113.8668121,22.6081041],[113.8671513,22.6083515],[113.8669345,22.6086049],[113.8671041,22.6087287],[113.8667698,22.6091191],[113.8666519,22.6087026],[113.8666234,22.6086744],[113.8665523,22.6086913],[113.8664445,22.6085337]]]]},"properties":{"name":"平峦山公交总站","height":0,"kind":"unknown","label":"缺少可用高度；仅展示轮廓"}},{"type":"Feature","id":"way/1424757291","geometry":{"type":"MultiPolygon","coordinates":[[[[113.8614828,22.6109733],[113.8616998,22.6107738],[113.8626189,22.6112319],[113.8624796,22.6114701],[113.8614828,22.6109733]]]]},"properties":{"name":"way/1424757291","height":0,"kind":"unknown","label":"缺少可用高度；仅展示轮廓"}},{"type":"Feature","id":"way/1424757292","geometry":{"type":"MultiPolygon","coordinates":[[[[113.862143,22.6127302],[113.8625221,22.6123615],[113.8627349,22.612548],[113.8625058,22.6127707],[113.8624564,22.6127274],[113.8623064,22.6128733],[113.862143,22.6127302]]]]},"properties":{"name":"way/1424757292","height":0,"kind":"unknown","label":"缺少可用高度；仅展示轮廓"}},{"type":"Feature","id":"way/1424757293","geometry":{"type":"MultiPolygon","coordinates":[[[[113.8625989,22.6122952],[113.8626685,22.6122275],[113.8629237,22.6124511],[113.863036,22.6123419],[113.8631037,22.6124012],[113.8629218,22.6125781],[113.8625989,22.6122952]]]]},"properties":{"name":"way/1424757293","height":0,"kind":"unknown","label":"缺少可用高度；仅展示轮廓"}},{"type":"Feature","id":"way/1424757294","geometry":{"type":"MultiPolygon","coordinates":[[[[113.8628313,22.6120148],[113.8628547,22.6116638],[113.863226,22.6116653],[113.8633326,22.611464],[113.8630465,22.6113348],[113.8632233,22.6110011],[113.863605,22.6111735],[113.8635427,22.611291],[113.8632481,22.6111579],[113.8631888,22.6112699],[113.8634301,22.6113788],[113.8632312,22.611754],[113.8628995,22.6117527],[113.8628881,22.611924],[113.8633135,22.6121315],[113.8633416,22.6121062],[113.8632947,22.6120618],[113.8634231,22.6119462],[113.86347,22.6119905],[113.8634905,22.6119721],[113.8635527,22.612031],[113.863311,22.6122487],[113.8628313,22.6120148]]]]},"properties":{"name":"way/1424757294","height":0,"kind":"unknown","label":"缺少可用高度；仅展示轮廓"}},{"type":"Feature","id":"way/1424757295","geometry":{"type":"MultiPolygon","coordinates":[[[[113.8637069,22.6114021],[113.863785,22.6112548],[113.86416,22.6114242],[113.8640636,22.6116062],[113.8639728,22.6115652],[113.8640229,22.6114707],[113.8638994,22.6114149],[113.8638677,22.6114747],[113.8637069,22.6114021]]]]},"properties":{"name":"way/1424757295","height":0,"kind":"unknown","label":"缺少可用高度；仅展示轮廓"}},{"type":"Feature","id":"way/1424757296","geometry":{"type":"MultiPolygon","coordinates":[[[[113.8633991,22.6117487],[113.8634836,22.6115892],[113.8637126,22.6116926],[113.863762,22.6115994],[113.8638583,22.6116429],[113.8637243,22.6118956],[113.8633991,22.6117487]]]]},"properties":{"name":"way/1424757296","height":0,"kind":"unknown","label":"缺少可用高度；仅展示轮廓"}},{"type":"Feature","id":"way/1424757297","geometry":{"type":"MultiPolygon","coordinates":[[[[113.863787,22.6120283],[113.8639236,22.6118704],[113.8641261,22.6120197],[113.8642576,22.6118677],[113.8640551,22.6117184],[113.8641917,22.6115605],[113.8644714,22.6117667],[113.8640667,22.6122345],[113.863787,22.6120283]]]]},"properties":{"name":"way/1424757297","height":0,"kind":"unknown","label":"缺少可用高度；仅展示轮廓"}},{"type":"Feature","id":"way/1424757298","geometry":{"type":"MultiPolygon","coordinates":[[[[113.8631815,22.6126883],[113.8632192,22.6125815],[113.863551,22.6126815],[113.8637043,22.6125042],[113.8634927,22.6123483],[113.8635686,22.6122605],[113.8638752,22.6124866],[113.8635934,22.6128124],[113.8631815,22.6126883]]]]},"properties":{"name":"way/1424757298","height":0,"kind":"unknown","label":"缺少可用高度；仅展示轮廓"}},{"type":"Feature","id":"way/1424757301","geometry":{"type":"MultiPolygon","coordinates":[[[[113.8625408,22.6120662],[113.8625685,22.6113533],[113.8627623,22.6113597],[113.8627375,22.6119985],[113.8626583,22.6119959],[113.8626555,22.61207],[113.8625408,22.6120662]]]]},"properties":{"name":"way/1424757301","height":0,"kind":"unknown","label":"缺少可用高度；仅展示轮廓"}},{"type":"Feature","id":"way/1424757305","geometry":{"type":"MultiPolygon","coordinates":[[[[113.8610476,22.6128762],[113.8610534,22.6128302],[113.8610693,22.6127863],[113.8610948,22.6127465],[113.8611287,22.6127124],[113.8611696,22.6126855],[113.8612156,22.6126671],[113.8612647,22.612658],[113.8613149,22.6126584],[113.8613638,22.6126685],[113.8614094,22.6126877],[113.8614497,22.6127153],[113.8614829,22.61275],[113.8615075,22.6127903],[113.8615225,22.6128344],[113.8615273,22.6128805],[113.8615216,22.6129265],[113.8615056,22.6129704],[113.8614801,22.6130102],[113.8614462,22.6130443],[113.8614053,22.6130712],[113.8613593,22.6130896],[113.8613102,22.6130988],[113.8612601,22.6130983],[113.8612111,22.6130882],[113.8611655,22.613069],[113.8611252,22.6130414],[113.8610921,22.6130067],[113.8610674,22.6129664],[113.8610524,22.6129223],[113.8610476,22.6128762]]]]},"properties":{"name":"way/1424757305","height":0,"kind":"unknown","label":"缺少可用高度；仅展示轮廓"}},{"type":"Feature","id":"way/1424757306","geometry":{"type":"MultiPolygon","coordinates":[[[[113.8600588,22.6120307],[113.8600601,22.6117882],[113.8602608,22.6117891],[113.8602595,22.6120316],[113.8600588,22.6120307]]]]},"properties":{"name":"way/1424757306","height":0,"kind":"unknown","label":"缺少可用高度；仅展示轮廓"}},{"type":"Feature","id":"relation/19523290","geometry":{"type":"MultiPolygon","coordinates":[[[[113.8600333,22.6127556],[113.8600339,22.6126534],[113.8600554,22.6126535],[113.8600565,22.6124425],[113.8600571,22.6123399],[113.8600588,22.6120307],[113.8602595,22.6120316],[113.8606104,22.6120333],[113.8606107,22.6119836],[113.8609481,22.6119852],[113.8609493,22.6117765],[113.8605347,22.6117745],[113.8605371,22.6113405],[113.861002,22.6113427],[113.8609963,22.6123762],[113.860534,22.612374],[113.8605325,22.6126557],[113.8607255,22.6126566],[113.860725,22.6127589],[113.8600333,22.6127556]],[[113.8600912,22.6126536],[113.8604194,22.6126552],[113.8604206,22.6124442],[113.8600923,22.6124426],[113.8600912,22.6126536]],[[113.8600929,22.6123401],[113.8604211,22.6123416],[113.8604213,22.6123107],[113.8606163,22.6123116],[113.8606165,22.6122759],[113.8609466,22.6122774],[113.8609474,22.6121456],[113.8609232,22.6121454],[113.8609235,22.6120789],[113.860554,22.6120771],[113.8605535,22.612162],[113.8600939,22.6121599],[113.8600929,22.6123401]],[[113.8606569,22.6116628],[113.8609498,22.6116642],[113.860951,22.6114548],[113.8606581,22.6114534],[113.8606569,22.6116628]]]]},"properties":{"name":"relation/19523290","height":0,"kind":"unknown","label":"缺少可用高度；仅展示轮廓"}},{"type":"Feature","id":"way/1424757311","geometry":{"type":"MultiPolygon","coordinates":[[[[113.860546,22.6133766],[113.8605478,22.6130601],[113.860548,22.6130195],[113.8607497,22.6130204],[113.8607478,22.6133776],[113.8605811,22.6133768],[113.860546,22.6133766]]]]},"properties":{"name":"way/1424757311","height":0,"kind":"unknown","label":"缺少可用高度；仅展示轮廓"}},{"type":"Feature","id":"relation/19523291","geometry":{"type":"MultiPolygon","coordinates":[[[[113.8595543,22.6138985],[113.8595546,22.6138518],[113.8595551,22.6137652],[113.859557,22.6134117],[113.8596603,22.6134122],[113.8596602,22.613444],[113.8600321,22.6134457],[113.8600336,22.6131677],[113.8599961,22.6131676],[113.8599967,22.6130575],[113.8605478,22.6130601],[113.860546,22.6133766],[113.8605811,22.6133768],[113.8605804,22.6135014],[113.8600526,22.6134989],[113.8600506,22.6138541],[113.8596122,22.613852],[113.8596119,22.6138987],[113.8595543,22.6138985]],[[113.8596077,22.6137531],[113.8599568,22.6137548],[113.8599578,22.6135666],[113.8596087,22.613565],[113.8596077,22.6137531]],[[113.8600696,22.6133912],[113.8604267,22.6133929],[113.8604277,22.6132141],[113.8604812,22.6132143],[113.8604814,22.6131676],[113.8600709,22.6131657],[113.8600696,22.6133912]]]]},"properties":{"name":"relation/19523291","height":0,"kind":"unknown","label":"缺少可用高度；仅展示轮廓"}},{"type":"Feature","id":"way/1425767681","geometry":{"type":"MultiPolygon","coordinates":[[[[113.8671246,22.6081398],[113.8674596,22.6078027],[113.8676136,22.6079331],[113.8672786,22.6082702],[113.8671246,22.6081398]]]]},"properties":{"name":"way/1425767681","height":0,"kind":"unknown","label":"缺少可用高度；仅展示轮廓"}},{"type":"Feature","id":"way/1425767683","geometry":{"type":"MultiPolygon","coordinates":[[[[113.8633719,22.608433],[113.8634884,22.608321],[113.8638766,22.6086652],[113.8637601,22.6087772],[113.8633719,22.608433]]]]},"properties":{"name":"11栋","height":30,"kind":"levels","label":"10层 × 3米（估算）"}},{"type":"Feature","id":"way/1425767684","geometry":{"type":"MultiPolygon","coordinates":[[[[113.8629016,22.60888],[113.8630181,22.608768],[113.8634091,22.6091146],[113.8632926,22.6092266],[113.8629016,22.60888]]]]},"properties":{"name":"10栋","height":69,"kind":"levels","label":"23层 × 3米（估算）"}},{"type":"Feature","id":"way/1425767685","geometry":{"type":"MultiPolygon","coordinates":[[[[113.8638141,22.6096714],[113.8638155,22.6095913],[113.8639411,22.6095932],[113.8639413,22.609582],[113.8641006,22.6095845],[113.8641004,22.6095957],[113.864226,22.6095977],[113.8642245,22.6096779],[113.8640825,22.6096756],[113.8640813,22.6097396],[113.8641187,22.6097402],[113.8641178,22.6097872],[113.8640805,22.6097866],[113.86408,22.6098128],[113.8640482,22.6098123],[113.8640477,22.609838],[113.8639849,22.609837],[113.8639854,22.6098113],[113.8639535,22.6098109],[113.863954,22.6097847],[113.8639167,22.6097841],[113.8639175,22.609737],[113.8639549,22.6097376],[113.863956,22.6096737],[113.8638141,22.6096714]]]]},"properties":{"name":"1栋","height":54,"kind":"levels","label":"18层 × 3米（估算）"}},{"type":"Feature","id":"way/1425767686","geometry":{"type":"MultiPolygon","coordinates":[[[[113.863455,22.6093632],[113.8635125,22.6093093],[113.8635957,22.6093849],[113.8636249,22.6093575],[113.8635972,22.6093323],[113.8636793,22.6092554],[113.8637829,22.6093496],[113.8637008,22.6094265],[113.8636731,22.6094013],[113.8636438,22.6094287],[113.863727,22.6095044],[113.8636696,22.6095582],[113.8635864,22.6094826],[113.8636095,22.6094609],[113.8635614,22.6094171],[113.8635382,22.6094388],[113.863455,22.6093632]]]]},"properties":{"name":"9栋","height":54,"kind":"levels","label":"18层 × 3米（估算）"}},{"type":"Feature","id":"way/1425767687","geometry":{"type":"MultiPolygon","coordinates":[[[[113.8642788,22.6093415],[113.8643893,22.6092457],[113.8644732,22.6093281],[113.8645441,22.6092665],[113.8646096,22.6093309],[113.8643573,22.6095497],[113.8642918,22.6094854],[113.8643627,22.6094239],[113.8642788,22.6093415]]]]},"properties":{"name":"2栋","height":54,"kind":"levels","label":"18层 × 3米（估算）"}},{"type":"Feature","id":"way/1425767688","geometry":{"type":"MultiPolygon","coordinates":[[[[113.8645525,22.6090683],[113.8646806,22.6090285],[113.8646756,22.6089979],[113.8646371,22.6090032],[113.8646231,22.6089182],[113.8647669,22.6088981],[113.8647809,22.6089831],[113.8647424,22.6089885],[113.8647474,22.6090192],[113.8648826,22.6090221],[113.8648807,22.6090977],[113.8647639,22.6090952],[113.8647645,22.60907],[113.8646806,22.6090818],[113.8646893,22.6091056],[113.8645786,22.6091399],[113.8645525,22.6090683]]]]},"properties":{"name":"3栋","height":54,"kind":"levels","label":"18层 × 3米（估算）"}},{"type":"Feature","id":"way/1425767689","geometry":{"type":"MultiPolygon","coordinates":[[[[113.8652449,22.6084084],[113.865373,22.6083687],[113.865368,22.608338],[113.8653295,22.6083434],[113.8653155,22.6082583],[113.8654593,22.6082382],[113.8654733,22.6083233],[113.8654348,22.6083287],[113.8654398,22.6083593],[113.865575,22.6083622],[113.8655731,22.6084378],[113.8654563,22.6084353],[113.8654569,22.6084102],[113.865373,22.6084219],[113.8653817,22.6084457],[113.865271,22.6084801],[113.8652449,22.6084084]]]]},"properties":{"name":"5栋","height":54,"kind":"levels","label":"18层 × 3米（估算）"}},{"type":"Feature","id":"way/1425767690","geometry":{"type":"MultiPolygon","coordinates":[[[[113.8649076,22.608731],[113.8650357,22.6086912],[113.8650307,22.6086606],[113.8649922,22.608666],[113.8649782,22.6085809],[113.865122,22.6085608],[113.865136,22.6086459],[113.8650975,22.6086512],[113.8651025,22.6086819],[113.8652376,22.6086848],[113.8652357,22.6087604],[113.865119,22.6087579],[113.8651196,22.6087327],[113.8650357,22.6087445],[113.8650443,22.6087683],[113.8649336,22.6088026],[113.8649076,22.608731]]]]},"properties":{"name":"4栋","height":54,"kind":"levels","label":"18层 × 3米（估算）"}},{"type":"Feature","id":"way/1425767691","geometry":{"type":"MultiPolygon","coordinates":[[[[113.8640409,22.6087614],[113.8641564,22.6087452],[113.8641501,22.6087072],[113.8641117,22.6087125],[113.8640941,22.6086058],[113.8642379,22.6085857],[113.8642554,22.6086924],[113.864217,22.6086978],[113.8642232,22.6087359],[113.8643387,22.6087197],[113.8643509,22.6087945],[113.8642355,22.6088106],[113.8642305,22.6087805],[113.8641637,22.6087899],[113.8641687,22.60882],[113.8640532,22.6088361],[113.8640409,22.6087614]]]]},"properties":{"name":"8栋","height":54,"kind":"levels","label":"18层 × 3米（估算）"}},{"type":"Feature","id":"way/1425767692","geometry":{"type":"MultiPolygon","coordinates":[[[[113.8648791,22.6080485],[113.8649946,22.6080323],[113.8649883,22.6079943],[113.8649499,22.6079997],[113.8649323,22.607893],[113.8650761,22.6078728],[113.8650936,22.6079795],[113.8650552,22.6079849],[113.8650614,22.608023],[113.8651769,22.6080068],[113.8651891,22.6080816],[113.8650737,22.6080977],[113.8650687,22.6080676],[113.8650019,22.608077],[113.8650069,22.6081071],[113.8648914,22.6081232],[113.8648791,22.6080485]]]]},"properties":{"name":"6栋","height":54,"kind":"levels","label":"18层 × 3米（估算）"}},{"type":"Feature","id":"way/1425767693","geometry":{"type":"MultiPolygon","coordinates":[[[[113.8644303,22.6083755],[113.8645457,22.6083594],[113.8645395,22.6083213],[113.864501,22.6083267],[113.8644835,22.60822],[113.8646273,22.6081999],[113.8646448,22.6083066],[113.8646063,22.608312],[113.8646125,22.60835],[113.864728,22.6083339],[113.8647403,22.6084086],[113.8646248,22.6084248],[113.8646199,22.6083947],[113.8645531,22.608404],[113.864558,22.6084341],[113.8644425,22.6084503],[113.8644303,22.6083755]]]]},"properties":{"name":"7栋","height":54,"kind":"levels","label":"18层 × 3米（估算）"}},{"type":"Feature","id":"way/1425770697","geometry":{"type":"MultiPolygon","coordinates":[[[[113.8616776,22.6168401],[113.8617157,22.6167194],[113.8621736,22.6168424],[113.8621356,22.6169631],[113.8616776,22.6168401]]]]},"properties":{"name":"7栋","height":0,"kind":"unknown","label":"缺少可用高度；仅展示轮廓"}},{"type":"Feature","id":"way/1435658968","geometry":{"type":"MultiPolygon","coordinates":[[[[113.8595898,22.6166845],[113.8596294,22.6165693],[113.8599678,22.6166683],[113.8599282,22.6167835],[113.8595898,22.6166845]]]]},"properties":{"name":"7-2栋","height":0,"kind":"unknown","label":"缺少可用高度；仅展示轮廓"}},{"type":"Feature","id":"way/1435658969","geometry":{"type":"MultiPolygon","coordinates":[[[[113.8596104,22.6162358],[113.8596511,22.6161076],[113.8598261,22.6161548],[113.8598304,22.6161414],[113.8600062,22.6161889],[113.8599655,22.6163172],[113.8597905,22.6162699],[113.8597862,22.6162833],[113.8596104,22.6162358]]]]},"properties":{"name":"7-3栋","height":0,"kind":"unknown","label":"缺少可用高度；仅展示轮廓"}},{"type":"Feature","id":"way/1435658970","geometry":{"type":"MultiPolygon","coordinates":[[[[113.8600135,22.616324],[113.8600478,22.6162157],[113.8603524,22.6162979],[113.860318,22.6164063],[113.8600135,22.616324]]]]},"properties":{"name":"11栋","height":0,"kind":"unknown","label":"缺少可用高度；仅展示轮廓"}},{"type":"Feature","id":"way/1435658971","geometry":{"type":"MultiPolygon","coordinates":[[[[113.8603792,22.6164228],[113.8604135,22.6163144],[113.8608644,22.6164362],[113.86083,22.6165446],[113.8603792,22.6164228]]]]},"properties":{"name":"12栋","height":0,"kind":"unknown","label":"缺少可用高度；仅展示轮廓"}},{"type":"Feature","id":"way/1435658972","geometry":{"type":"MultiPolygon","coordinates":[[[[113.8601646,22.616767],[113.8601971,22.6166646],[113.8605204,22.6167603],[113.8605285,22.616737],[113.8606678,22.6167782],[113.8606333,22.6168774],[113.860494,22.6168362],[113.8604851,22.6168619],[113.8601646,22.616767]]]]},"properties":{"name":"10栋","height":0,"kind":"unknown","label":"缺少可用高度；仅展示轮廓"}},{"type":"Feature","id":"way/1449337822","geometry":{"type":"MultiPolygon","coordinates":[[[[113.8657663,22.6092119],[113.8657693,22.6090468],[113.8663582,22.6090559],[113.8663552,22.6092211],[113.8661701,22.6092182],[113.8659606,22.6092149],[113.8657663,22.6092119]]]]},"properties":{"name":"way/1449337822","height":0,"kind":"unknown","label":"缺少可用高度；仅展示轮廓"}},{"type":"Feature","id":"way/1449337823","geometry":{"type":"MultiPolygon","coordinates":[[[[113.8652609,22.6099161],[113.8652647,22.6097302],[113.8657412,22.6097384],[113.8657466,22.6094719],[113.8654344,22.6094665],[113.8654381,22.6092846],[113.8657173,22.6092893],[113.8657237,22.608969],[113.8661749,22.6089767],[113.8661701,22.6092182],[113.8659606,22.6092149],[113.8659503,22.6097324],[113.8664423,22.6097407],[113.8664384,22.6099361],[113.8652609,22.6099161]]]]},"properties":{"name":"way/1449337823","height":0,"kind":"unknown","label":"缺少可用高度；仅展示轮廓"}},{"type":"Feature","id":"way/1449337824","geometry":{"type":"MultiPolygon","coordinates":[[[[113.86657,22.6098881],[113.8665741,22.6097326],[113.8668185,22.6097381],[113.8668151,22.6098642],[113.8667767,22.6098633],[113.8667753,22.6099158],[113.8667528,22.6099153],[113.8667522,22.6099365],[113.8665826,22.6099327],[113.8665838,22.6098885],[113.86657,22.6098881]]]]},"properties":{"name":"way/1449337824","height":0,"kind":"unknown","label":"缺少可用高度；仅展示轮廓"}},{"type":"Feature","id":"way/1449337826","geometry":{"type":"MultiPolygon","coordinates":[[[[113.8630561,22.6106876],[113.8631029,22.610603],[113.863489,22.6107851],[113.8635043,22.6107574],[113.8635433,22.6107758],[113.8638682,22.6109291],[113.8640256,22.6110034],[113.8640125,22.611027],[113.8641873,22.6111096],[113.864299,22.6111624],[113.8643392,22.61109],[113.8647795,22.611298],[113.8646793,22.6114787],[113.8638165,22.6110711],[113.8638351,22.6110375],[113.863562,22.6109085],[113.8635542,22.6109226],[113.8630561,22.6106876]]]]},"properties":{"name":"way/1449337826","height":0,"kind":"unknown","label":"缺少可用高度；仅展示轮廓"}},{"type":"Feature","id":"way/1449337827","geometry":{"type":"MultiPolygon","coordinates":[[[[113.8646535,22.6110714],[113.8646583,22.6109052],[113.8646644,22.6106709],[113.8646702,22.6104494],[113.8646736,22.6103215],[113.8646817,22.6103037],[113.8646959,22.6102882],[113.8649186,22.6101566],[113.8649318,22.6101505],[113.8649518,22.6101514],[113.8654329,22.6101605],[113.8654113,22.6111344],[113.8653064,22.6112192],[113.8649861,22.6112192],[113.8646535,22.6110714]]]]},"properties":{"name":"way/1449337827","height":0,"kind":"unknown","label":"缺少可用高度；仅展示轮廓"}},{"type":"Feature","id":"relation/19816764","geometry":{"type":"MultiPolygon","coordinates":[[[[113.8635433,22.6107758],[113.8636707,22.610558],[113.8638972,22.6104575],[113.8646702,22.6104494],[113.8646644,22.6106709],[113.8642622,22.6106729],[113.8639387,22.6108045],[113.8638682,22.6109291],[113.8635433,22.6107758]],[[113.8636974,22.6107423],[113.863744,22.6107655],[113.8638127,22.6106475],[113.8638476,22.6106324],[113.8638255,22.6105889],[113.8637736,22.6106114],[113.8636974,22.6107423]],[[113.8638633,22.6105747],[113.8638882,22.6106341],[113.8639734,22.6106037],[113.8640064,22.6106008],[113.8640369,22.6105431],[113.863953,22.6105427],[113.8638633,22.6105747]],[[113.864117,22.610543],[113.8641424,22.6106016],[113.8643772,22.6106006],[113.8643769,22.6105419],[113.864117,22.610543]],[[113.8644116,22.6105938],[113.8646011,22.6105942],[113.8646013,22.6105431],[113.8644117,22.6105427],[113.8644116,22.6105938]]]]},"properties":{"name":"relation/19816764","height":0,"kind":"unknown","label":"缺少可用高度；仅展示轮廓"}},{"type":"Feature","id":"relation/19816765","geometry":{"type":"MultiPolygon","coordinates":[[[[113.8638682,22.6109291],[113.8639387,22.6108045],[113.8642622,22.6106729],[113.8646644,22.6106709],[113.8646583,22.6109052],[113.8643943,22.6109107],[113.864222,22.6110252],[113.8641873,22.6111096],[113.8640125,22.611027],[113.8640256,22.6110034],[113.8638682,22.6109291]],[[113.8640119,22.6109378],[113.8640709,22.6109658],[113.8641042,22.610906],[113.8642381,22.610861],[113.8642202,22.6108157],[113.8640476,22.6108737],[113.8640119,22.6109378]],[[113.8643062,22.6107732],[113.8643162,22.6108207],[113.8643477,22.6108151],[113.8646062,22.6108156],[113.864606,22.6107718],[113.8643062,22.6107732]]]]},"properties":{"name":"relation/19816765","height":0,"kind":"unknown","label":"缺少可用高度；仅展示轮廓"}},{"type":"Feature","id":"way/1449337845","geometry":{"type":"MultiPolygon","coordinates":[[[[113.8608612,22.6108683],[113.8611537,22.6105914],[113.8612367,22.6106662],[113.8609441,22.610943],[113.8608612,22.6108683]]]]},"properties":{"name":"西乡交通运输管理所","height":0,"kind":"unknown","label":"缺少可用高度；仅展示轮廓"}},{"type":"Feature","id":"way/1449337847","geometry":{"type":"MultiPolygon","coordinates":[[[[113.8607029,22.6091242],[113.8609179,22.6088995],[113.8613153,22.6092237],[113.8611004,22.6094483],[113.8607029,22.6091242]]]]},"properties":{"name":"西乡投资大厦","height":0,"kind":"unknown","label":"缺少可用高度；仅展示轮廓"}},{"type":"Feature","id":"way/1449337848","geometry":{"type":"MultiPolygon","coordinates":[[[[113.8606173,22.6095571],[113.860757,22.6094238],[113.8609967,22.6096379],[113.8608569,22.6097713],[113.8606173,22.6095571]]]]},"properties":{"name":"中国石化","height":0,"kind":"unknown","label":"缺少可用高度；仅展示轮廓"}},{"type":"Feature","id":"way/1458433031","geometry":{"type":"MultiPolygon","coordinates":[[[[113.8593478,22.6098685],[113.8598371,22.6093768],[113.8600286,22.6095392],[113.8598147,22.6097542],[113.8601508,22.6100394],[113.8603648,22.6098244],[113.8605674,22.6099961],[113.8600782,22.6104877],[113.8593478,22.6098685]]]]},"properties":{"name":"宝华森国际中心","height":0,"kind":"unknown","label":"缺少可用高度；仅展示轮廓"}},{"type":"Feature","id":"way/1458433032","geometry":{"type":"MultiPolygon","coordinates":[[[[113.8595249,22.610492],[113.8596706,22.6103464],[113.859973,22.6106041],[113.8598508,22.6107263],[113.8597811,22.610667],[113.8597577,22.6106904],[113.8595249,22.610492]]]]},"properties":{"name":"way/1458433032","height":0,"kind":"unknown","label":"缺少可用高度；仅展示轮廓"}},{"type":"Feature","id":"way/1458469656","geometry":{"type":"MultiPolygon","coordinates":[[[[113.8601914,22.6093741],[113.8604868,22.6090769],[113.8606865,22.609246],[113.8603911,22.6095432],[113.8601914,22.6093741]]]]},"properties":{"name":"way/1458469656","height":0,"kind":"unknown","label":"缺少可用高度；仅展示轮廓"}},{"type":"Feature","id":"way/1458469657","geometry":{"type":"MultiPolygon","coordinates":[[[[113.8614012,22.6089852],[113.8618257,22.6085496],[113.8619406,22.608645],[113.8615162,22.6090807],[113.8614012,22.6089852]]]]},"properties":{"name":"河西创新公寓","height":0,"kind":"unknown","label":"缺少可用高度；仅展示轮廓"}}]}