{"type":"FeatureCollection","features":[{"type":"Feature","id":"way/300949859","geometry":{"type":"MultiPolygon","coordinates":[[[[113.8559086,22.7487846],[113.8562299,22.7487797],[113.856218,22.7481157],[113.8576032,22.7480945],[113.8576118,22.7485741],[113.8577027,22.7485727],[113.8577172,22.7493892],[113.8559198,22.7494163],[113.8559086,22.7487846]]]]},"properties":{"name":"way/300949859","height":0,"kind":"unknown","label":"缺少可用高度；仅展示轮廓"}},{"type":"Feature","id":"way/1337298431","geometry":{"type":"MultiPolygon","coordinates":[[[[113.8590922,22.7464742],[113.8597715,22.7464705],[113.8598582,22.7470293],[113.8595168,22.7470368],[113.8595173,22.7467944],[113.8590945,22.7467949],[113.8590922,22.7464742]]]]},"properties":{"name":"way/1337298431","height":0,"kind":"unknown","label":"缺少可用高度；仅展示轮廓"}},{"type":"Feature","id":"way/1337298435","geometry":{"type":"MultiPolygon","coordinates":[[[[113.8589431,22.745375],[113.8595725,22.7453713],[113.8595746,22.7456615],[113.8589451,22.7456653],[113.8589431,22.745375]]]]},"properties":{"name":"way/1337298435","height":0,"kind":"unknown","label":"缺少可用高度；仅展示轮廓"}},{"type":"Feature","id":"way/1337298437","geometry":{"type":"MultiPolygon","coordinates":[[[[113.8561535,22.7462975],[113.8572468,22.7462196],[113.8572295,22.7460135],[113.8574106,22.7460005],[113.8574422,22.7463773],[113.8561679,22.7464683],[113.8561535,22.7462975]]]]},"properties":{"name":"way/1337298437","height":78,"kind":"levels","label":"26层 × 3米（估算）"}},{"type":"Feature","id":"way/1358959432","geometry":{"type":"MultiPolygon","coordinates":[[[[113.8531787,22.7477949],[113.8538921,22.7477355],[113.8539141,22.7479603],[113.8532007,22.7480196],[113.8531787,22.7477949]]]]},"properties":{"name":"way/1358959432","height":0,"kind":"unknown","label":"缺少可用高度；仅展示轮廓"}},{"type":"Feature","id":"way/1358959433","geometry":{"type":"MultiPolygon","coordinates":[[[[113.8532106,22.748216],[113.853924,22.7481566],[113.853946,22.7483814],[113.8532326,22.7484406],[113.8532106,22.748216]]]]},"properties":{"name":"way/1358959433","height":0,"kind":"unknown","label":"缺少可用高度；仅展示轮廓"}},{"type":"Feature","id":"way/1358959434","geometry":{"type":"MultiPolygon","coordinates":[[[[113.8532495,22.7485652],[113.8539629,22.7485058],[113.8539849,22.7487306],[113.8532715,22.7487899],[113.8532495,22.7485652]]]]},"properties":{"name":"way/1358959434","height":0,"kind":"unknown","label":"缺少可用高度；仅展示轮廓"}},{"type":"Feature","id":"way/1358959435","geometry":{"type":"MultiPolygon","coordinates":[[[[113.8532814,22.7489014],[113.8539948,22.748842],[113.8540167,22.7490668],[113.8533033,22.7491261],[113.8532814,22.7489014]]]]},"properties":{"name":"way/1358959435","height":0,"kind":"unknown","label":"缺少可用高度；仅展示轮廓"}},{"type":"Feature","id":"way/1358959436","geometry":{"type":"MultiPolygon","coordinates":[[[[113.8533026,22.7492539],[113.854016,22.7491945],[113.854038,22.7494193],[113.8533246,22.7494786],[113.8533026,22.7492539]]]]},"properties":{"name":"way/1358959436","height":0,"kind":"unknown","label":"缺少可用高度；仅展示轮廓"}},{"type":"Feature","id":"way/1358959437","geometry":{"type":"MultiPolygon","coordinates":[[[[113.8560222,22.7496533],[113.8565536,22.7496458],[113.8565564,22.7498134],[113.856025,22.7498207],[113.8560222,22.7496533]]]]},"properties":{"name":"way/1358959437","height":0,"kind":"unknown","label":"缺少可用高度；仅展示轮廓"}},{"type":"Feature","id":"way/1358959438","geometry":{"type":"MultiPolygon","coordinates":[[[[113.8567582,22.7496496],[113.857727,22.7496318],[113.8577415,22.7503037],[113.8567727,22.7503216],[113.8567582,22.7496496]]]]},"properties":{"name":"way/1358959438","height":0,"kind":"unknown","label":"缺少可用高度；仅展示轮廓"}},{"type":"Feature","id":"way/1358959439","geometry":{"type":"MultiPolygon","coordinates":[[[[113.8567809,22.7504999],[113.8577465,22.7504956],[113.857748,22.7507793],[113.8567824,22.7507834],[113.8567809,22.7504999]]]]},"properties":{"name":"way/1358959439","height":0,"kind":"unknown","label":"缺少可用高度；仅展示轮廓"}},{"type":"Feature","id":"way/1358959441","geometry":{"type":"MultiPolygon","coordinates":[[[[113.8559891,22.7510362],[113.8577139,22.7510182],[113.8577216,22.7516353],[113.8559967,22.7516536],[113.8559891,22.7510362]]]]},"properties":{"name":"way/1358959441","height":0,"kind":"unknown","label":"缺少可用高度；仅展示轮廓"}},{"type":"Feature","id":"way/1358959468","geometry":{"type":"MultiPolygon","coordinates":[[[[113.8585596,22.744295],[113.8587666,22.7441882],[113.8593816,22.744153],[113.8594,22.744425],[113.8585716,22.7444725],[113.8585596,22.744295]]]]},"properties":{"name":"way/1358959468","height":0,"kind":"unknown","label":"缺少可用高度；仅展示轮廓"}},{"type":"Feature","id":"way/1358959469","geometry":{"type":"MultiPolygon","coordinates":[[[[113.8585901,22.7446737],[113.8587971,22.7445669],[113.8594121,22.7445317],[113.8594305,22.7448037],[113.858602,22.7448512],[113.8585901,22.7446737]]]]},"properties":{"name":"way/1358959469","height":0,"kind":"unknown","label":"缺少可用高度；仅展示轮廓"}},{"type":"Feature","id":"way/1358959470","geometry":{"type":"MultiPolygon","coordinates":[[[[113.8586442,22.7450687],[113.8588267,22.744962],[113.8593801,22.7449192],[113.8594052,22.7451952],[113.858661,22.7452528],[113.8586442,22.7450687]]]]},"properties":{"name":"way/1358959470","height":0,"kind":"unknown","label":"缺少可用高度；仅展示轮廓"}},{"type":"Feature","id":"way/1358959471","geometry":{"type":"MultiPolygon","coordinates":[[[[113.8577543,22.744672],[113.8582905,22.7446277],[113.8583053,22.7447802],[113.8577691,22.7448245],[113.8577543,22.744672]]]]},"properties":{"name":"way/1358959471","height":0,"kind":"unknown","label":"缺少可用高度；仅展示轮廓"}},{"type":"Feature","id":"way/1358959472","geometry":{"type":"MultiPolygon","coordinates":[[[[113.8577632,22.7450555],[113.8582994,22.7450112],[113.8583142,22.7451637],[113.857778,22.745208],[113.8577632,22.7450555]]]]},"properties":{"name":"way/1358959472","height":0,"kind":"unknown","label":"缺少可用高度；仅展示轮廓"}},{"type":"Feature","id":"way/1361891950","geometry":{"type":"MultiPolygon","coordinates":[[[[113.8561362,22.7460916],[113.8572295,22.7460135],[113.8574106,22.7460005],[113.8574422,22.7463773],[113.8561679,22.7464683],[113.8561535,22.7462975],[113.8561362,22.7460916]]]]},"properties":{"name":"way/1361891950","height":78,"kind":"levels","label":"26层 × 3米（估算）"}},{"type":"Feature","id":"way/1361891951","geometry":{"type":"MultiPolygon","coordinates":[[[[113.8561362,22.7460916],[113.8572295,22.7460135],[113.8572468,22.7462196],[113.8561535,22.7462975],[113.8561362,22.7460916]]]]},"properties":{"name":"way/1361891951","height":12,"kind":"levels","label":"4层 × 3米（估算）"}},{"type":"Feature","id":"way/1361891952","geometry":{"type":"MultiPolygon","coordinates":[[[[113.8572901,22.7467082],[113.8574886,22.746706],[113.857492,22.7469726],[113.8572936,22.7469748],[113.8572901,22.7467082]]]]},"properties":{"name":"way/1361891952","height":15,"kind":"levels","label":"5层 × 3米（估算）"}},{"type":"Feature","id":"way/1361891953","geometry":{"type":"MultiPolygon","coordinates":[[[[113.856952,22.7467103],[113.8571504,22.7467082],[113.8571538,22.7469747],[113.8569554,22.7469769],[113.856952,22.7467103]]]]},"properties":{"name":"way/1361891953","height":15,"kind":"levels","label":"5层 × 3米（估算）"}},{"type":"Feature","id":"way/1361891954","geometry":{"type":"MultiPolygon","coordinates":[[[[113.8566043,22.7467165],[113.8568028,22.7467143],[113.8568062,22.7469809],[113.8566078,22.7469831],[113.8566043,22.7467165]]]]},"properties":{"name":"way/1361891954","height":15,"kind":"levels","label":"5层 × 3米（估算）"}},{"type":"Feature","id":"way/1361891955","geometry":{"type":"MultiPolygon","coordinates":[[[[113.8562634,22.7467217],[113.8564619,22.7467195],[113.8564653,22.7469861],[113.8562669,22.7469882],[113.8562634,22.7467217]]]]},"properties":{"name":"way/1361891955","height":15,"kind":"levels","label":"5层 × 3米（估算）"}},{"type":"Feature","id":"way/1365534861","geometry":{"type":"MultiPolygon","coordinates":[[[[113.8509888,22.7422898],[113.8514256,22.7420737],[113.8520211,22.7430978],[113.8515843,22.7433138],[113.8509888,22.7422898]]]]},"properties":{"name":"way/1365534861","height":0,"kind":"unknown","label":"缺少可用高度；仅展示轮廓"}},{"type":"Feature","id":"way/1365534862","geometry":{"type":"MultiPolygon","coordinates":[[[[113.8523758,22.7430591],[113.8527273,22.7428802],[113.8529701,22.743286],[113.8526186,22.7434649],[113.8523758,22.7430591]]]]},"properties":{"name":"way/1365534862","height":0,"kind":"unknown","label":"缺少可用高度；仅展示轮廓"}},{"type":"Feature","id":"way/1365534863","geometry":{"type":"MultiPolygon","coordinates":[[[[113.8524486,22.743787],[113.8528724,22.7435223],[113.8529894,22.7436816],[113.8525656,22.7439463],[113.8524486,22.743787]]]]},"properties":{"name":"way/1365534863","height":0,"kind":"unknown","label":"缺少可用高度；仅展示轮廓"}},{"type":"Feature","id":"way/1365534864","geometry":{"type":"MultiPolygon","coordinates":[[[[113.8528269,22.7452236],[113.8529143,22.7451955],[113.8530913,22.745663],[113.8530039,22.7456911],[113.8528269,22.7452236]]]]},"properties":{"name":"way/1365534864","height":0,"kind":"unknown","label":"缺少可用高度；仅展示轮廓"}},{"type":"Feature","id":"way/1365534865","geometry":{"type":"MultiPolygon","coordinates":[[[[113.8553582,22.745056],[113.8556057,22.7450359],[113.8556111,22.745092],[113.8553636,22.7451121],[113.8553582,22.745056]]]]},"properties":{"name":"way/1365534865","height":0,"kind":"unknown","label":"缺少可用高度；仅展示轮廓"}},{"type":"Feature","id":"way/1365534915","geometry":{"type":"MultiPolygon","coordinates":[[[[113.8527721,22.7447626],[113.8532844,22.7447626],[113.8532844,22.7450025],[113.8527721,22.7450025],[113.8527721,22.7447626]]]]},"properties":{"name":"way/1365534915","height":0,"kind":"unknown","label":"缺少可用高度；仅展示轮廓"}},{"type":"Feature","id":"way/1365534916","geometry":{"type":"MultiPolygon","coordinates":[[[[113.8534822,22.7466128],[113.8537704,22.7466111],[113.8537724,22.7468926],[113.8534842,22.7468944],[113.8534822,22.7466128]]]]},"properties":{"name":"way/1365534916","height":0,"kind":"unknown","label":"缺少可用高度；仅展示轮廓"}},{"type":"Feature","id":"way/1365534917","geometry":{"type":"MultiPolygon","coordinates":[[[[113.8524656,22.7466233],[113.8533957,22.7466129],[113.8533993,22.7468835],[113.8524692,22.7468939],[113.8524656,22.7466233]]]]},"properties":{"name":"way/1365534917","height":0,"kind":"unknown","label":"缺少可用高度；仅展示轮廓"}},{"type":"Feature","id":"way/1365534918","geometry":{"type":"MultiPolygon","coordinates":[[[[113.8518895,22.7453582],[113.8524047,22.7451905],[113.8526943,22.7459475],[113.8521791,22.7461151],[113.8518895,22.7453582]]]]},"properties":{"name":"way/1365534918","height":0,"kind":"unknown","label":"缺少可用高度；仅展示轮廓"}},{"type":"Feature","id":"way/1365534919","geometry":{"type":"MultiPolygon","coordinates":[[[[113.8500777,22.7448935],[113.8503926,22.7447955],[113.8504902,22.7450624],[113.8501754,22.7451604],[113.8500777,22.7448935]]]]},"properties":{"name":"way/1365534919","height":0,"kind":"unknown","label":"缺少可用高度；仅展示轮廓"}},{"type":"Feature","id":"way/1365534920","geometry":{"type":"MultiPolygon","coordinates":[[[[113.8497279,22.7438392],[113.8500255,22.7437484],[113.8503715,22.7447131],[113.8500739,22.7448039],[113.8497279,22.7438392]]]]},"properties":{"name":"way/1365534920","height":0,"kind":"unknown","label":"缺少可用高度；仅展示轮廓"}}]}