{"type":"FeatureCollection","features":[{"type":"Feature","id":"way/1446177172","geometry":{"type":"MultiPolygon","coordinates":[[[[113.8406657,22.7232753],[113.8411684,22.7231283],[113.8415151,22.7241365],[113.8410122,22.7242836],[113.8406657,22.7232753]]]]},"properties":{"name":"way/1446177172","height":0,"kind":"unknown","label":"缺少可用高度；仅展示轮廓"}},{"type":"Feature","id":"way/1446177173","geometry":{"type":"MultiPolygon","coordinates":[[[[113.8412878,22.7233447],[113.8412925,22.7233026],[113.8413119,22.7232618],[113.8413535,22.7232043],[113.8414045,22.7231591],[113.8414749,22.7231208],[113.8415352,22.7230973],[113.8415976,22.7230917],[113.8416532,22.7230948],[113.8417223,22.7231065],[113.8417712,22.7231257],[113.8418112,22.7231585],[113.8418334,22.7232032],[113.8418343,22.7232487],[113.8418222,22.7232858],[113.8418081,22.7233298],[113.8417538,22.7233861],[113.8417433,22.7233933],[113.8416854,22.7234331],[113.8416331,22.7234498],[113.8415775,22.7234615],[113.8415244,22.7234615],[113.841495,22.7234615],[113.8414319,22.7234529],[113.841385,22.7234331],[113.841332,22.7234034],[113.8413079,22.7233824],[113.8412878,22.7233447]]]]},"properties":{"name":"way/1446177173","height":0,"kind":"unknown","label":"缺少可用高度；仅展示轮廓"}},{"type":"Feature","id":"way/1446177174","geometry":{"type":"MultiPolygon","coordinates":[[[[113.8415244,22.7234615],[113.8415775,22.7234615],[113.8416331,22.7234498],[113.8416854,22.7234331],[113.8417433,22.7233933],[113.8417705,22.7234814],[113.8415525,22.7235475],[113.8415244,22.7234615]]]]},"properties":{"name":"way/1446177174","height":0,"kind":"unknown","label":"缺少可用高度；仅展示轮廓"}},{"type":"Feature","id":"way/1446177195","geometry":{"type":"MultiPolygon","coordinates":[[[[113.8402557,22.7172699],[113.8404171,22.7172456],[113.8404133,22.7172257],[113.8404022,22.7172275],[113.8403846,22.7171332],[113.8405108,22.7171131],[113.8405286,22.7172084],[113.8405114,22.7172112],[113.8405144,22.7172271],[113.8406489,22.7172057],[113.8406674,22.7173042],[113.8405645,22.7173206],[113.8405694,22.7173468],[113.8403959,22.7173745],[113.840391,22.7173486],[113.8402739,22.7173685],[113.8402557,22.7172699]]]]},"properties":{"name":"way/1446177195","height":0,"kind":"unknown","label":"缺少可用高度；仅展示轮廓"}},{"type":"Feature","id":"way/1446177196","geometry":{"type":"MultiPolygon","coordinates":[[[[113.8408357,22.7171757],[113.8409441,22.7171587],[113.8409404,22.7171389],[113.8409294,22.7171406],[113.840912,22.7170466],[113.8410373,22.717027],[113.8410546,22.7171209],[113.8410373,22.7171236],[113.8410406,22.7171414],[113.8411462,22.7171248],[113.8411644,22.7172235],[113.8410931,22.7172348],[113.8410979,22.7172609],[113.8409223,22.7172885],[113.8409175,22.7172625],[113.8408536,22.7172725],[113.8408357,22.7171757]]]]},"properties":{"name":"way/1446177196","height":0,"kind":"unknown","label":"缺少可用高度；仅展示轮廓"}},{"type":"Feature","id":"way/1446177198","geometry":{"type":"MultiPolygon","coordinates":[[[[113.840484,22.7166602],[113.840548,22.7166502],[113.8405432,22.7166242],[113.8407188,22.7165966],[113.8407236,22.7166227],[113.8407949,22.7166115],[113.8408132,22.7167102],[113.8407075,22.7167268],[113.8407108,22.7167447],[113.8407281,22.716742],[113.8407455,22.7168358],[113.8406203,22.7168556],[113.8406029,22.7167616],[113.8406139,22.7167598],[113.8406103,22.71674],[113.8405019,22.716757],[113.840484,22.7166602]]]]},"properties":{"name":"way/1446177198","height":0,"kind":"unknown","label":"缺少可用高度；仅展示轮廓"}},{"type":"Feature","id":"way/1446177201","geometry":{"type":"MultiPolygon","coordinates":[[[[113.8411111,22.7164466],[113.8413776,22.7164231],[113.8414881,22.7167108],[113.8418068,22.7166056],[113.8418312,22.7166691],[113.8418552,22.7167318],[113.8417585,22.7167634],[113.8417441,22.7167257],[113.8415984,22.7167734],[113.8416434,22.7168906],[113.8415703,22.7169145],[113.8416156,22.7170324],[113.8418125,22.7169679],[113.8418539,22.7170756],[113.8415755,22.7171668],[113.8415318,22.7170534],[113.8415549,22.7170458],[113.8415366,22.7169985],[113.8414764,22.716843],[113.8413556,22.7168828],[113.8413665,22.716911],[113.8413384,22.7169203],[113.8413133,22.7169286],[113.8412566,22.7169474],[113.8411976,22.7167954],[113.8414474,22.7167128],[113.8414203,22.7166429],[113.8413928,22.716652],[113.8413475,22.7165358],[113.8412284,22.7165463],[113.841232,22.7165802],[113.841126,22.7165896],[113.8411111,22.7164466]]]]},"properties":{"name":"way/1446177201","height":0,"kind":"unknown","label":"缺少可用高度；仅展示轮廓"}},{"type":"Feature","id":"way/1446177202","geometry":{"type":"MultiPolygon","coordinates":[[[[113.8413072,22.7171846],[113.8413697,22.7171616],[113.8413515,22.7170437],[113.8413349,22.7170059],[113.8413422,22.7170035],[113.8413133,22.7169286],[113.8413384,22.7169203],[113.8413869,22.7170471],[113.8415267,22.7174122],[113.8415807,22.7174155],[113.8415909,22.7174298],[113.841591,22.7174587],[113.8418768,22.7174572],[113.8418772,22.7175323],[113.841835,22.7175325],[113.8418351,22.7175496],[113.8414657,22.7175514],[113.8413072,22.7171846]]]]},"properties":{"name":"way/1446177202","height":0,"kind":"unknown","label":"缺少可用高度；仅展示轮廓"}},{"type":"Feature","id":"way/1446177203","geometry":{"type":"MultiPolygon","coordinates":[[[[113.8419987,22.7175241],[113.8419995,22.7174402],[113.8424714,22.7174441],[113.8424706,22.7175279],[113.8419987,22.7175241]]]]},"properties":{"name":"way/1446177203","height":0,"kind":"unknown","label":"缺少可用高度；仅展示轮廓"}},{"type":"Feature","id":"way/1446177205","geometry":{"type":"MultiPolygon","coordinates":[[[[113.8413384,22.7169203],[113.8413665,22.716911],[113.8413556,22.7168828],[113.8414764,22.716843],[113.8415366,22.7169985],[113.8413869,22.7170471],[113.8413384,22.7169203]]]]},"properties":{"name":"way/1446177205","height":0,"kind":"unknown","label":"缺少可用高度；仅展示轮廓"}},{"type":"Feature","id":"way/1446177206","geometry":{"type":"MultiPolygon","coordinates":[[[[113.8417315,22.7164098],[113.8417492,22.7163466],[113.8419857,22.7163174],[113.842065,22.7163579],[113.8421455,22.7165662],[113.8418312,22.7166691],[113.8418068,22.7166056],[113.8417315,22.7164098]]]]},"properties":{"name":"way/1446177206","height":0,"kind":"unknown","label":"缺少可用高度；仅展示轮廓"}}]}