{"type":"FeatureCollection","features":[{"type":"Feature","id":"way/1445998650","geometry":{"type":"MultiPolygon","coordinates":[[[[113.845206,22.8004903],[113.8452145,22.8004149],[113.8455779,22.8004499],[113.8455696,22.8005231],[113.8455439,22.8005207],[113.8455402,22.8005535],[113.8452296,22.8005237],[113.8452331,22.8004929],[113.845206,22.8004903]]]]},"properties":{"name":"way/1445998650","height":0,"kind":"unknown","label":"缺少可用高度；仅展示轮廓"}},{"type":"Feature","id":"way/1445998651","geometry":{"type":"MultiPolygon","coordinates":[[[[113.84505,22.8006853],[113.8450586,22.8006099],[113.8454219,22.8006449],[113.8454136,22.8007181],[113.8453879,22.8007157],[113.8453842,22.8007485],[113.8450736,22.8007187],[113.8450771,22.8006879],[113.84505,22.8006853]]]]},"properties":{"name":"way/1445998651","height":0,"kind":"unknown","label":"缺少可用高度；仅展示轮廓"}},{"type":"Feature","id":"way/1445998652","geometry":{"type":"MultiPolygon","coordinates":[[[[113.8449642,22.8008774],[113.8449728,22.800802],[113.8453361,22.800837],[113.8453278,22.8009103],[113.8453021,22.8009078],[113.8452984,22.8009406],[113.8449878,22.8009108],[113.8449913,22.80088],[113.8449642,22.8008774]]]]},"properties":{"name":"way/1445998652","height":0,"kind":"unknown","label":"缺少可用高度；仅展示轮廓"}},{"type":"Feature","id":"way/1445998653","geometry":{"type":"MultiPolygon","coordinates":[[[[113.8447806,22.8011018],[113.8447933,22.8010149],[113.8449736,22.8010374],[113.8449609,22.8011243],[113.8447806,22.8011018]]]]},"properties":{"name":"way/1445998653","height":0,"kind":"unknown","label":"缺少可用高度；仅展示轮廓"}},{"type":"Feature","id":"way/1445998654","geometry":{"type":"MultiPolygon","coordinates":[[[[113.8449035,22.8004131],[113.8449623,22.8003811],[113.8450067,22.8003331],[113.8450318,22.8002745],[113.8450336,22.8002381],[113.8452072,22.800241],[113.8452032,22.8002924],[113.8452267,22.8002928],[113.8452187,22.8003266],[113.8452023,22.8003756],[113.8451714,22.8004355],[113.8451236,22.8004922],[113.8450873,22.8005191],[113.845055,22.8005412],[113.844967,22.8004217],[113.8449457,22.800431],[113.8449073,22.8004461],[113.8449035,22.8004131]]]]},"properties":{"name":"way/1445998654","height":0,"kind":"unknown","label":"缺少可用高度；仅展示轮廓"}},{"type":"Feature","id":"way/1445998655","geometry":{"type":"MultiPolygon","coordinates":[[[[113.8444604,22.8002625],[113.84447,22.8001918],[113.8444985,22.800112],[113.8445279,22.8000679],[113.844584,22.8001006],[113.8445986,22.8000826],[113.8446096,22.800078],[113.8446232,22.8000758],[113.8446352,22.8000785],[113.8446429,22.8000834],[113.8446471,22.8000897],[113.8446595,22.8000909],[113.8446703,22.8000957],[113.8446794,22.800104],[113.8446709,22.8001106],[113.84465,22.8001384],[113.8446358,22.8001646],[113.8446216,22.8002261],[113.8446298,22.8002886],[113.8446596,22.8003452],[113.8446938,22.8003797],[113.8447234,22.8003981],[113.8447059,22.8004149],[113.8445986,22.8005174],[113.8445757,22.800494],[113.8445625,22.8005047],[113.8445341,22.8004687],[113.8445016,22.8004124],[113.8444777,22.8003572],[113.8444604,22.8002625]]]]},"properties":{"name":"way/1445998655","height":0,"kind":"unknown","label":"缺少可用高度；仅展示轮廓"}},{"type":"Feature","id":"way/1445998656","geometry":{"type":"MultiPolygon","coordinates":[[[[113.8447059,22.8004149],[113.8447234,22.8003981],[113.8447626,22.8004186],[113.8447563,22.8004325],[113.8447552,22.8004524],[113.8447606,22.8004699],[113.8447717,22.800485],[113.8447873,22.8004961],[113.8448059,22.8005022],[113.8448256,22.8005026],[113.8448445,22.8004975],[113.8448607,22.8004871],[113.8448727,22.8004726],[113.8448791,22.8004554],[113.8448794,22.8004372],[113.8448727,22.8004183],[113.8449035,22.8004131],[113.8449073,22.8004461],[113.8449097,22.8004578],[113.8449073,22.8004806],[113.8448931,22.8005004],[113.844871,22.8005175],[113.8448481,22.8005285],[113.8448189,22.8005323],[113.8447862,22.8005255],[113.8447576,22.8005089],[113.8447389,22.8004857],[113.8447287,22.8004551],[113.8447319,22.8004343],[113.8447059,22.8004149]]]]},"properties":{"name":"way/1445998656","height":0,"kind":"unknown","label":"缺少可用高度；仅展示轮廓"}},{"type":"Feature","id":"way/1445998666","geometry":{"type":"MultiPolygon","coordinates":[[[[113.8400606,22.8027762],[113.8401269,22.8026872],[113.8405419,22.8029499],[113.8404652,22.8030529],[113.84007,22.8028028],[113.8400606,22.8027762]]]]},"properties":{"name":"勉耕黄公祠","height":0,"kind":"unknown","label":"缺少可用高度；仅展示轮廓"}},{"type":"Feature","id":"way/1446003306","geometry":{"type":"MultiPolygon","coordinates":[[[[113.8449373,22.8012615],[113.8449464,22.8011981],[113.8450081,22.8012056],[113.8449991,22.801269],[113.8449373,22.8012615]]]]},"properties":{"name":"way/1446003306","height":0,"kind":"unknown","label":"缺少可用高度；仅展示轮廓"}},{"type":"Feature","id":"way/1447315883","geometry":{"type":"MultiPolygon","coordinates":[[[[113.8488057,22.7992966],[113.8489237,22.7992893],[113.8489325,22.7994093],[113.8488144,22.7994166],[113.8488057,22.7992966]]]]},"properties":{"name":"way/1447315883","height":0,"kind":"unknown","label":"缺少可用高度；仅展示轮廓"}},{"type":"Feature","id":"way/1447315894","geometry":{"type":"MultiPolygon","coordinates":[[[[113.8496295,22.8021359],[113.849633,22.8018445],[113.8500008,22.8018483],[113.8499972,22.8021398],[113.8496295,22.8021359]]]]},"properties":{"name":"way/1447315894","height":0,"kind":"unknown","label":"缺少可用高度；仅展示轮廓"}},{"type":"Feature","id":"way/1447315895","geometry":{"type":"MultiPolygon","coordinates":[[[[113.849052,22.8014995],[113.8490523,22.8012116],[113.849325,22.8012118],[113.8494143,22.8012119],[113.849414,22.8014999],[113.849052,22.8014995]]]]},"properties":{"name":"way/1447315895","height":0,"kind":"unknown","label":"缺少可用高度；仅展示轮廓"}},{"type":"Feature","id":"way/1447315896","geometry":{"type":"MultiPolygon","coordinates":[[[[113.8490513,22.800945],[113.8493246,22.8009443],[113.849325,22.8012118],[113.8490523,22.8012116],[113.8490513,22.800945]]]]},"properties":{"name":"way/1447315896","height":0,"kind":"unknown","label":"缺少可用高度；仅展示轮廓"}},{"type":"Feature","id":"way/1447315897","geometry":{"type":"MultiPolygon","coordinates":[[[[113.8492121,22.8001954],[113.8492127,22.8000987],[113.8496874,22.8001011],[113.8496873,22.8000076],[113.849668,22.8000047],[113.8496507,22.7999962],[113.8496372,22.7999831],[113.8496289,22.7999667],[113.8496268,22.799948],[113.8496316,22.7999297],[113.8496426,22.7999138],[113.8496587,22.7999023],[113.8496745,22.7998974],[113.8496884,22.7998965],[113.849689,22.7998309],[113.8493605,22.7998293],[113.8493612,22.7997034],[113.8498364,22.7997058],[113.8498353,22.7998879],[113.8498666,22.799888],[113.8498657,22.8000499],[113.8498217,22.8000497],[113.8498208,22.8001983],[113.8492121,22.8001954]]]]},"properties":{"name":"way/1447315897","height":0,"kind":"unknown","label":"缺少可用高度；仅展示轮廓"}},{"type":"Feature","id":"relation/19791267","geometry":{"type":"MultiPolygon","coordinates":[[[[113.8494498,22.8010038],[113.8494509,22.800898],[113.8494916,22.8008983],[113.8494934,22.8007112],[113.8494701,22.800711],[113.8494711,22.8006133],[113.8494952,22.8006135],[113.8499573,22.8006175],[113.8499533,22.8010081],[113.8495217,22.8010044],[113.8495202,22.8012245],[113.8500032,22.8012324],[113.8499958,22.8016193],[113.8494816,22.801611],[113.849489,22.801224],[113.8494917,22.8010041],[113.8494498,22.8010038]],[[113.8495212,22.8008986],[113.8498715,22.8009015],[113.8498734,22.8007144],[113.8495217,22.8007114],[113.8495212,22.8008986]],[[113.8496104,22.8014966],[113.8498964,22.8015018],[113.8498998,22.8013455],[113.8496138,22.8013402],[113.8496104,22.8014966]]]]},"properties":{"name":"relation/19791267","height":0,"kind":"unknown","label":"缺少可用高度；仅展示轮廓"}},{"type":"Feature","id":"relation/19791269","geometry":{"type":"MultiPolygon","coordinates":[[[[113.8490925,22.80086],[113.8490937,22.8006153],[113.8493539,22.8006164],[113.8493526,22.8008611],[113.8490925,22.80086]],[[113.8491719,22.8007729],[113.8493317,22.8007734],[113.8493319,22.800733],[113.8492886,22.8007329],[113.8492887,22.800707],[113.8491721,22.8007067],[113.8491719,22.8007729]]]]},"properties":{"name":"relation/19791269","height":0,"kind":"unknown","label":"缺少可用高度；仅展示轮廓"}}]}