{"type":"FeatureCollection","features":[{"type":"Feature","id":"way/487803771","geometry":{"type":"MultiPolygon","coordinates":[[[[113.8344689,22.613981],[113.8348014,22.6132839],[113.8350605,22.6133893],[113.8347281,22.6140863],[113.8344689,22.613981]]]]},"properties":{"name":"way/487803771","height":0,"kind":"unknown","label":"缺少可用高度；仅展示轮廓"}},{"type":"Feature","id":"way/487803772","geometry":{"type":"MultiPolygon","coordinates":[[[[113.8349623,22.6132332],[113.8350646,22.6130188],[113.8355764,22.6132267],[113.8354742,22.6134412],[113.8349623,22.6132332]]]]},"properties":{"name":"way/487803772","height":0,"kind":"unknown","label":"缺少可用高度；仅展示轮廓"}},{"type":"Feature","id":"way/487803773","geometry":{"type":"MultiPolygon","coordinates":[[[[113.8350588,22.6136612],[113.8351639,22.6134395],[113.8356158,22.6136222],[113.8355107,22.6138438],[113.8350588,22.6136612]]]]},"properties":{"name":"way/487803773","height":0,"kind":"unknown","label":"缺少可用高度；仅展示轮廓"}},{"type":"Feature","id":"way/487803774","geometry":{"type":"MultiPolygon","coordinates":[[[[113.8337926,22.6138044],[113.8338957,22.6135905],[113.8343878,22.6137926],[113.8342847,22.6140065],[113.8337926,22.6138044]]]]},"properties":{"name":"way/487803774","height":0,"kind":"unknown","label":"缺少可用高度；仅展示轮廓"}},{"type":"Feature","id":"way/487803775","geometry":{"type":"MultiPolygon","coordinates":[[[[113.8340657,22.6132185],[113.8341518,22.6130275],[113.8346651,22.6132245],[113.834579,22.6134155],[113.8340657,22.6132185]]]]},"properties":{"name":"way/487803775","height":0,"kind":"unknown","label":"缺少可用高度；仅展示轮廓"}},{"type":"Feature","id":"way/487803776","geometry":{"type":"MultiPolygon","coordinates":[[[[113.8350087,22.6139266],[113.8350467,22.6138323],[113.8353911,22.6139504],[113.8353531,22.6140447],[113.8350087,22.6139266]]]]},"properties":{"name":"way/487803776","height":0,"kind":"unknown","label":"缺少可用高度；仅展示轮廓"}},{"type":"Feature","id":"way/487803777","geometry":{"type":"MultiPolygon","coordinates":[[[[113.834899,22.6140944],[113.834957,22.6139669],[113.8353353,22.6141135],[113.8352773,22.614241],[113.834899,22.6140944]]]]},"properties":{"name":"way/487803777","height":0,"kind":"unknown","label":"缺少可用高度；仅展示轮廓"}},{"type":"Feature","id":"way/487803779","geometry":{"type":"MultiPolygon","coordinates":[[[[113.8353605,22.6144445],[113.8354816,22.6141932],[113.8360057,22.6144084],[113.836316,22.6137647],[113.8365234,22.6138498],[113.836092,22.614745],[113.8353605,22.6144445]]]]},"properties":{"name":"way/487803779","height":0,"kind":"unknown","label":"缺少可用高度；仅展示轮廓"}},{"type":"Feature","id":"way/487803780","geometry":{"type":"MultiPolygon","coordinates":[[[[113.8360193,22.6134546],[113.8361125,22.6132563],[113.8366984,22.6134912],[113.8366051,22.6136894],[113.8360193,22.6134546]]]]},"properties":{"name":"way/487803780","height":0,"kind":"unknown","label":"缺少可用高度；仅展示轮廓"}},{"type":"Feature","id":"way/487803781","geometry":{"type":"MultiPolygon","coordinates":[[[[113.8343436,22.6129548],[113.834438,22.6127528],[113.8349995,22.6129763],[113.8349051,22.6131783],[113.8343436,22.6129548]]]]},"properties":{"name":"way/487803781","height":0,"kind":"unknown","label":"缺少可用高度；仅展示轮廓"}},{"type":"Feature","id":"way/487803782","geometry":{"type":"MultiPolygon","coordinates":[[[[113.8351408,22.612885],[113.8352054,22.6127411],[113.8357033,22.6129317],[113.8356387,22.6130756],[113.8351408,22.612885]]]]},"properties":{"name":"way/487803782","height":0,"kind":"unknown","label":"缺少可用高度；仅展示轮廓"}},{"type":"Feature","id":"way/487803783","geometry":{"type":"MultiPolygon","coordinates":[[[[113.8345412,22.6126413],[113.8346185,22.6124763],[113.8351404,22.6126846],[113.8350631,22.6128497],[113.8345412,22.6126413]]]]},"properties":{"name":"way/487803783","height":0,"kind":"unknown","label":"缺少可用高度；仅展示轮廓"}},{"type":"Feature","id":"way/487803784","geometry":{"type":"MultiPolygon","coordinates":[[[[113.8344952,22.6123554],[113.8345951,22.6121513],[113.8350375,22.6123359],[113.8349376,22.6125399],[113.8344952,22.6123554]]]]},"properties":{"name":"way/487803784","height":0,"kind":"unknown","label":"缺少可用高度；仅展示轮廓"}},{"type":"Feature","id":"way/487803785","geometry":{"type":"MultiPolygon","coordinates":[[[[113.8346328,22.612042],[113.8347496,22.6118133],[113.8352258,22.6120205],[113.835109,22.6122492],[113.8346328,22.612042]]]]},"properties":{"name":"way/487803785","height":0,"kind":"unknown","label":"缺少可用高度；仅展示轮廓"}},{"type":"Feature","id":"way/487803786","geometry":{"type":"MultiPolygon","coordinates":[[[[113.8356212,22.6128138],[113.8358819,22.6122724],[113.8360866,22.6123564],[113.835826,22.6128978],[113.8356212,22.6128138]]]]},"properties":{"name":"way/487803786","height":0,"kind":"unknown","label":"缺少可用高度；仅展示轮廓"}},{"type":"Feature","id":"way/487803787","geometry":{"type":"MultiPolygon","coordinates":[[[[113.8354559,22.6152733],[113.8354875,22.6152092],[113.8355052,22.6152166],[113.8355294,22.6151675],[113.8354763,22.6151451],[113.8355209,22.6150545],[113.835713,22.6151352],[113.8356684,22.6152258],[113.8356152,22.6152035],[113.835591,22.6152527],[113.8356087,22.6152601],[113.8355771,22.6153242],[113.8354559,22.6152733]]]]},"properties":{"name":"way/487803787","height":0,"kind":"unknown","label":"缺少可用高度；仅展示轮廓"}},{"type":"Feature","id":"way/488548864","geometry":{"type":"MultiPolygon","coordinates":[[[[113.834177,22.612875],[113.8342396,22.6127379],[113.8343559,22.6127832],[113.8342933,22.6129202],[113.834177,22.612875]]]]},"properties":{"name":"way/488548864","height":0,"kind":"unknown","label":"缺少可用高度；仅展示轮廓"}},{"type":"Feature","id":"way/488548865","geometry":{"type":"MultiPolygon","coordinates":[[[[113.8343068,22.6126002],[113.8343863,22.6124238],[113.834506,22.6124697],[113.8344265,22.6126461],[113.8343068,22.6126002]]]]},"properties":{"name":"way/488548865","height":0,"kind":"unknown","label":"缺少可用高度；仅展示轮廓"}},{"type":"Feature","id":"way/488548866","geometry":{"type":"MultiPolygon","coordinates":[[[[113.8350493,22.6125673],[113.8351847,22.6122944],[113.8352969,22.6123418],[113.8351617,22.6126146],[113.8350493,22.6125673]]]]},"properties":{"name":"way/488548866","height":0,"kind":"unknown","label":"缺少可用高度；仅展示轮廓"}},{"type":"Feature","id":"way/488548867","geometry":{"type":"MultiPolygon","coordinates":[[[[113.8351982,22.6122715],[113.8353334,22.6119987],[113.8354458,22.612046],[113.8353105,22.612319],[113.8351982,22.6122715]]]]},"properties":{"name":"way/488548867","height":0,"kind":"unknown","label":"缺少可用高度；仅展示轮廓"}},{"type":"Feature","id":"way/488548868","geometry":{"type":"MultiPolygon","coordinates":[[[[113.8352282,22.6126435],[113.8353013,22.6124963],[113.8356186,22.6126305],[113.8355456,22.6127777],[113.8352282,22.6126435]]]]},"properties":{"name":"way/488548868","height":0,"kind":"unknown","label":"缺少可用高度；仅展示轮廓"}},{"type":"Feature","id":"way/488548869","geometry":{"type":"MultiPolygon","coordinates":[[[[113.8353465,22.6124048],[113.8355212,22.6120191],[113.8356791,22.61208],[113.8355043,22.6124657],[113.8353465,22.6124048]]]]},"properties":{"name":"way/488548869","height":0,"kind":"unknown","label":"缺少可用高度；仅展示轮廓"}},{"type":"Feature","id":"way/488548870","geometry":{"type":"MultiPolygon","coordinates":[[[[113.8356351,22.6124249],[113.8357709,22.6121287],[113.835887,22.6121741],[113.8357512,22.6124702],[113.8356351,22.6124249]]]]},"properties":{"name":"way/488548870","height":0,"kind":"unknown","label":"缺少可用高度；仅展示轮廓"}},{"type":"Feature","id":"way/488548874","geometry":{"type":"MultiPolygon","coordinates":[[[[113.8361696,22.6127579],[113.8362606,22.6125618],[113.8365793,22.612933],[113.836382,22.6129925],[113.8361696,22.6127579]]]]},"properties":{"name":"way/488548874","height":0,"kind":"unknown","label":"缺少可用高度；仅展示轮廓"}},{"type":"Feature","id":"way/488548875","geometry":{"type":"MultiPolygon","coordinates":[[[[113.835748,22.6135551],[113.835798,22.613448],[113.8362414,22.6136242],[113.8361915,22.6137313],[113.835748,22.6135551]]]]},"properties":{"name":"way/488548875","height":0,"kind":"unknown","label":"缺少可用高度；仅展示轮廓"}},{"type":"Feature","id":"way/488548876","geometry":{"type":"MultiPolygon","coordinates":[[[[113.8358382,22.6133663],[113.8360474,22.6129242],[113.8361544,22.6129673],[113.8359452,22.6134094],[113.8358382,22.6133663]]]]},"properties":{"name":"way/488548876","height":0,"kind":"unknown","label":"缺少可用高度；仅展示轮廓"}},{"type":"Feature","id":"way/488548877","geometry":{"type":"MultiPolygon","coordinates":[[[[113.8348377,22.6142347],[113.8348781,22.6141468],[113.8352588,22.614296],[113.8352184,22.6143838],[113.8348377,22.6142347]]]]},"properties":{"name":"way/488548877","height":0,"kind":"unknown","label":"缺少可用高度；仅展示轮廓"}},{"type":"Feature","id":"way/488548878","geometry":{"type":"MultiPolygon","coordinates":[[[[113.8356056,22.6138434],[113.8356845,22.6136789],[113.8361332,22.6138622],[113.8360544,22.6140267],[113.8356056,22.6138434]]]]},"properties":{"name":"way/488548878","height":0,"kind":"unknown","label":"缺少可用高度；仅展示轮廓"}},{"type":"Feature","id":"way/488548879","geometry":{"type":"MultiPolygon","coordinates":[[[[113.8354888,22.6140785],[113.835571,22.6139043],[113.8359934,22.6140741],[113.8359113,22.6142483],[113.8354888,22.6140785]]]]},"properties":{"name":"way/488548879","height":0,"kind":"unknown","label":"缺少可用高度；仅展示轮廓"}},{"type":"Feature","id":"way/493742053","geometry":{"type":"MultiPolygon","coordinates":[[[[113.8358848,22.6111639],[113.8361001,22.6106971],[113.836394,22.6108126],[113.8361787,22.6112794],[113.8358848,22.6111639]]]]},"properties":{"name":"way/493742053","height":0,"kind":"unknown","label":"缺少可用高度；仅展示轮廓"}},{"type":"Feature","id":"way/493742054","geometry":{"type":"MultiPolygon","coordinates":[[[[113.8355661,22.6110894],[113.8357623,22.6106569],[113.8359851,22.610743],[113.8357888,22.6111756],[113.8355661,22.6110894]]]]},"properties":{"name":"way/493742054","height":0,"kind":"unknown","label":"缺少可用高度；仅展示轮廓"}},{"type":"Feature","id":"way/493742055","geometry":{"type":"MultiPolygon","coordinates":[[[[113.8352125,22.6109218],[113.8353993,22.6105185],[113.8356641,22.6106231],[113.8354774,22.6110264],[113.8352125,22.6109218]]]]},"properties":{"name":"way/493742055","height":0,"kind":"unknown","label":"缺少可用高度；仅展示轮廓"}},{"type":"Feature","id":"way/494900859","geometry":{"type":"MultiPolygon","coordinates":[[[[113.8374604,22.6102286],[113.8375527,22.6100335],[113.8381849,22.6102884],[113.8380926,22.6104835],[113.8374604,22.6102286]]]]},"properties":{"name":"way/494900859","height":0,"kind":"unknown","label":"缺少可用高度；仅展示轮廓"}},{"type":"Feature","id":"way/494900860","geometry":{"type":"MultiPolygon","coordinates":[[[[113.8365754,22.609873],[113.8366721,22.6096692],[113.8372627,22.609908],[113.8371661,22.6101117],[113.8365754,22.609873]]]]},"properties":{"name":"way/494900860","height":0,"kind":"unknown","label":"缺少可用高度；仅展示轮廓"}},{"type":"Feature","id":"way/494900861","geometry":{"type":"MultiPolygon","coordinates":[[[[113.8364055,22.6102071],[113.8365067,22.6099919],[113.8371395,22.6102455],[113.8370383,22.6104607],[113.8364055,22.6102071]]]]},"properties":{"name":"way/494900861","height":0,"kind":"unknown","label":"缺少可用高度；仅展示轮廓"}},{"type":"Feature","id":"way/494900862","geometry":{"type":"MultiPolygon","coordinates":[[[[113.8358746,22.6100064],[113.8359489,22.6098496],[113.8363275,22.6100025],[113.8362532,22.6101593],[113.8358746,22.6100064]]]]},"properties":{"name":"way/494900862","height":0,"kind":"unknown","label":"缺少可用高度；仅展示轮廓"}},{"type":"Feature","id":"way/494900863","geometry":{"type":"MultiPolygon","coordinates":[[[[113.8356508,22.6099132],[113.8358322,22.6095268],[113.8359314,22.6095392],[113.8360012,22.6095293],[113.8360977,22.6094501],[113.8361101,22.6094239],[113.836541,22.6095968],[113.8364813,22.6097235],[113.8361702,22.6095986],[113.8361406,22.6096308],[113.8360387,22.6096705],[113.8359448,22.609663],[113.8357995,22.6099727],[113.8356508,22.6099132]]]]},"properties":{"name":"way/494900863","height":0,"kind":"unknown","label":"缺少可用高度；仅展示轮廓"}},{"type":"Feature","id":"way/494900864","geometry":{"type":"MultiPolygon","coordinates":[[[[113.8363711,22.6112899],[113.8365559,22.6108802],[113.8367764,22.610965],[113.8366252,22.6113001],[113.8365081,22.6112551],[113.8364744,22.6113296],[113.8363711,22.6112899]]]]},"properties":{"name":"way/494900864","height":0,"kind":"unknown","label":"缺少可用高度；仅展示轮廓"}},{"type":"Feature","id":"way/494900865","geometry":{"type":"MultiPolygon","coordinates":[[[[113.8365641,22.6115391],[113.836665,22.6113295],[113.837427,22.611642],[113.8377312,22.61101],[113.8381067,22.6108491],[113.8375749,22.6119538],[113.8365641,22.6115391]]]]},"properties":{"name":"way/494900865","height":0,"kind":"unknown","label":"缺少可用高度；仅展示轮廓"}},{"type":"Feature","id":"way/494900866","geometry":{"type":"MultiPolygon","coordinates":[[[[113.8353884,22.6104307],[113.8354328,22.6103383],[113.8357365,22.6104627],[113.8356921,22.610555],[113.8353884,22.6104307]]]]},"properties":{"name":"way/494900866","height":0,"kind":"unknown","label":"缺少可用高度；仅展示轮廓"}},{"type":"Feature","id":"way/494900867","geometry":{"type":"MultiPolygon","coordinates":[[[[113.8357721,22.6105316],[113.8358165,22.6104392],[113.8361203,22.6105636],[113.8360759,22.610656],[113.8357721,22.6105316]]]]},"properties":{"name":"way/494900867","height":0,"kind":"unknown","label":"缺少可用高度；仅展示轮廓"}},{"type":"Feature","id":"way/494900868","geometry":{"type":"MultiPolygon","coordinates":[[[[113.8361515,22.6106113],[113.8361959,22.6105189],[113.8364997,22.6106433],[113.8364553,22.6107356],[113.8361515,22.6106113]]]]},"properties":{"name":"way/494900868","height":0,"kind":"unknown","label":"缺少可用高度；仅展示轮廓"}},{"type":"Feature","id":"way/494901280","geometry":{"type":"MultiPolygon","coordinates":[[[[113.8355584,22.6134686],[113.8357941,22.6129812],[113.8359133,22.6130303],[113.8356775,22.6135177],[113.8355584,22.6134686]]]]},"properties":{"name":"way/494901280","height":0,"kind":"unknown","label":"缺少可用高度；仅展示轮廓"}},{"type":"Feature","id":"way/494901281","geometry":{"type":"MultiPolygon","coordinates":[[[[113.8359081,22.6128785],[113.8360378,22.6126011],[113.8361239,22.6126354],[113.8359942,22.6129128],[113.8359081,22.6128785]]]]},"properties":{"name":"way/494901281","height":0,"kind":"unknown","label":"缺少可用高度；仅展示轮廓"}},{"type":"Feature","id":"way/1120219358","geometry":{"type":"MultiPolygon","coordinates":[[[[113.8351651,22.6163194],[113.8352261,22.61619],[113.8353207,22.616228],[113.83534,22.6161872],[113.8355844,22.6162855],[113.8354825,22.6165016],[113.835238,22.6164033],[113.8352597,22.6163574],[113.8351651,22.6163194]]]]},"properties":{"name":"way/1120219358","height":0,"kind":"unknown","label":"缺少可用高度；仅展示轮廓"}},{"type":"Feature","id":"way/1228071126","geometry":{"type":"MultiPolygon","coordinates":[[[[113.831595,22.6093614],[113.8317008,22.6091441],[113.8319757,22.6092581],[113.8318699,22.6094754],[113.831595,22.6093614]]]]},"properties":{"name":"白露9B","height":24,"kind":"levels","label":"8层 × 3米（估算）"}},{"type":"Feature","id":"way/1228071127","geometry":{"type":"MultiPolygon","coordinates":[[[[113.8322382,22.6096285],[113.832344,22.6094111],[113.8326189,22.6095252],[113.8325131,22.6097425],[113.8322382,22.6096285]]]]},"properties":{"name":"寒露10B","height":24,"kind":"levels","label":"8层 × 3米（估算）"}},{"type":"Feature","id":"way/1228071128","geometry":{"type":"MultiPolygon","coordinates":[[[[113.8333514,22.6101056],[113.8334458,22.6099113],[113.8337167,22.6100234],[113.8336222,22.6102178],[113.8333514,22.6101056]]]]},"properties":{"name":"小雪13B","height":24,"kind":"levels","label":"8层 × 3米（估算）"}},{"type":"Feature","id":"way/1228071129","geometry":{"type":"MultiPolygon","coordinates":[[[[113.8340163,22.6103718],[113.8341076,22.6101803],[113.8343821,22.6102918],[113.8342908,22.6104833],[113.8340163,22.6103718]]]]},"properties":{"name":"冬至14A","height":24,"kind":"levels","label":"8层 × 3米（估算）"}},{"type":"Feature","id":"way/1228071130","geometry":{"type":"MultiPolygon","coordinates":[[[[113.8313025,22.6091432],[113.8314256,22.6088893],[113.8316613,22.6089866],[113.8315381,22.6092406],[113.8313025,22.6091432]]]]},"properties":{"name":"处暑9A","height":21,"kind":"levels","label":"7层 × 3米（估算）"}},{"type":"Feature","id":"way/1228071131","geometry":{"type":"MultiPolygon","coordinates":[[[[113.832051,22.6094353],[113.8321834,22.6091677],[113.8323772,22.6092494],[113.8322448,22.609517],[113.832051,22.6094353]]]]},"properties":{"name":"秋分10A","height":24,"kind":"levels","label":"8层 × 3米（估算）"}},{"type":"Feature","id":"way/1228071132","geometry":{"type":"MultiPolygon","coordinates":[[[[113.83261,22.6098183],[113.8327474,22.6095399],[113.8329419,22.6096218],[113.8328045,22.6099001],[113.83261,22.6098183]]]]},"properties":{"name":"霜降11","height":24,"kind":"levels","label":"8层 × 3米（估算）"}},{"type":"Feature","id":"way/1228071133","geometry":{"type":"MultiPolygon","coordinates":[[[[113.8330122,22.6099743],[113.833143,22.6097112],[113.8333373,22.6097935],[113.8332065,22.6100566],[113.8330122,22.6099743]]]]},"properties":{"name":"立冬12","height":24,"kind":"levels","label":"8层 × 3米（估算）"}},{"type":"Feature","id":"way/1228071134","geometry":{"type":"MultiPolygon","coordinates":[[[[113.8337298,22.6101285],[113.8338575,22.6098701],[113.8340514,22.6099517],[113.8339237,22.6102102],[113.8337298,22.6101285]]]]},"properties":{"name":"大雪13A","height":24,"kind":"levels","label":"8层 × 3米（估算）"}},{"type":"Feature","id":"way/1228071135","geometry":{"type":"MultiPolygon","coordinates":[[[[113.8314561,22.6087817],[113.8315419,22.6086009],[113.8319374,22.608761],[113.8318515,22.6089418],[113.8314561,22.6087817]]]]},"properties":{"name":"立秋8","height":24,"kind":"levels","label":"8层 × 3米（估算）"}},{"type":"Feature","id":"way/1228071136","geometry":{"type":"MultiPolygon","coordinates":[[[[113.8316424,22.6084428],[113.8317283,22.6082621],[113.8321237,22.6084221],[113.8320378,22.6086029],[113.8316424,22.6084428]]]]},"properties":{"name":"大暑7","height":24,"kind":"levels","label":"8层 × 3米（估算）"}},{"type":"Feature","id":"way/1228071137","geometry":{"type":"MultiPolygon","coordinates":[[[[113.8344739,22.6100153],[113.8345598,22.6098345],[113.8349552,22.6099946],[113.8348693,22.6101754],[113.8344739,22.6100153]]]]},"properties":{"name":"桂竹15","height":24,"kind":"levels","label":"8层 × 3米（估算）"}},{"type":"Feature","id":"way/1228071138","geometry":{"type":"MultiPolygon","coordinates":[[[[113.8346322,22.6096765],[113.8347181,22.6094958],[113.8351135,22.6096559],[113.8350277,22.6098367],[113.8346322,22.6096765]]]]},"properties":{"name":"立春1","height":24,"kind":"levels","label":"8层 × 3米（估算）"}},{"type":"Feature","id":"way/1228071139","geometry":{"type":"MultiPolygon","coordinates":[[[[113.834065,22.6088303],[113.8341708,22.6086129],[113.8344457,22.6087269],[113.8343399,22.6089443],[113.834065,22.6088303]]]]},"properties":{"name":"木棉3B","height":24,"kind":"levels","label":"8层 × 3米（估算）"}},{"type":"Feature","id":"way/1228071140","geometry":{"type":"MultiPolygon","coordinates":[[[[113.8347291,22.6090999],[113.8348349,22.6088825],[113.8351098,22.6089966],[113.8350041,22.6092139],[113.8347291,22.6090999]]]]},"properties":{"name":"春桃2B","height":24,"kind":"levels","label":"8层 × 3米（估算）"}},{"type":"Feature","id":"way/1228071141","geometry":{"type":"MultiPolygon","coordinates":[[[[113.8327918,22.608297],[113.8328976,22.6080797],[113.8331725,22.6081937],[113.8330667,22.6084111],[113.8327918,22.608297]]]]},"properties":{"name":"小满5B","height":24,"kind":"levels","label":"8层 × 3米（估算）"}},{"type":"Feature","id":"way/1228071142","geometry":{"type":"MultiPolygon","coordinates":[[[[113.8321434,22.6080234],[113.8322492,22.607806],[113.8325241,22.60792],[113.8324183,22.6081374],[113.8321434,22.6080234]]]]},"properties":{"name":"夏至6A","height":24,"kind":"levels","label":"8层 × 3米（估算）"}},{"type":"Feature","id":"way/1228071143","geometry":{"type":"MultiPolygon","coordinates":[[[[113.8317939,22.6081305],[113.831917,22.6078766],[113.8321526,22.6079739],[113.8320295,22.6082279],[113.8317939,22.6081305]]]]},"properties":{"name":"小暑6B","height":21,"kind":"levels","label":"7层 × 3米（估算）"}},{"type":"Feature","id":"way/1228071144","geometry":{"type":"MultiPolygon","coordinates":[[[[113.8324642,22.6084111],[113.8326193,22.6080973],[113.8328131,22.608179],[113.832658,22.6084928],[113.8324642,22.6084111]]]]},"properties":{"name":"芒种5A","height":24,"kind":"levels","label":"8层 × 3米（估算）"}},{"type":"Feature","id":"way/1228071145","geometry":{"type":"MultiPolygon","coordinates":[[[[113.8342958,22.6091784],[113.8344509,22.6088646],[113.8346447,22.6089463],[113.8344896,22.6092601],[113.8342958,22.6091784]]]]},"properties":{"name":"春分3A","height":24,"kind":"levels","label":"8层 × 3米（估算）"}},{"type":"Feature","id":"way/1228071146","geometry":{"type":"MultiPolygon","coordinates":[[[[113.8330246,22.6086173],[113.8330982,22.6084625],[113.8331566,22.6084861],[113.8331678,22.6084626],[113.8334813,22.6085895],[113.8333966,22.6087679],[113.8330246,22.6086173]]]]},"properties":{"name":"立夏4B","height":24,"kind":"levels","label":"8层 × 3米（估算）"}},{"type":"Feature","id":"way/1228071147","geometry":{"type":"MultiPolygon","coordinates":[[[[113.8349504,22.6094383],[113.8350735,22.6091844],[113.8353091,22.6092817],[113.835186,22.6095357],[113.8349504,22.6094383]]]]},"properties":{"name":"雨水2A","height":21,"kind":"levels","label":"7层 × 3米（估算）"}},{"type":"Feature","id":"way/1228071148","geometry":{"type":"MultiPolygon","coordinates":[[[[113.8344618,22.6104563],[113.8345806,22.6102005],[113.8348179,22.6102944],[113.8346991,22.6105502],[113.8344618,22.6104563]]]]},"properties":{"name":"枫香14B","height":21,"kind":"levels","label":"7层 × 3米（估算）"}},{"type":"Feature","id":"way/1228071149","geometry":{"type":"MultiPolygon","coordinates":[[[[113.8335771,22.6088484],[113.8336619,22.60867],[113.8339754,22.6087969],[113.8339642,22.6088205],[113.8340226,22.6088441],[113.833949,22.6089989],[113.8335771,22.6088484]]]]},"properties":{"name":"谷雨4A","height":24,"kind":"levels","label":"8层 × 3米（估算）"}},{"type":"Feature","id":"way/1298947415","geometry":{"type":"MultiPolygon","coordinates":[[[[113.8302926,22.6085285],[113.8305477,22.6079966],[113.8307336,22.6080725],[113.8304786,22.6086045],[113.8302926,22.6085285]]]]},"properties":{"name":"way/1298947415","height":0,"kind":"unknown","label":"缺少可用高度；仅展示轮廓"}},{"type":"Feature","id":"way/1298947416","geometry":{"type":"MultiPolygon","coordinates":[[[[113.8305921,22.6086612],[113.8308503,22.608133],[113.8310954,22.6082351],[113.830837,22.6087633],[113.8305921,22.6086612]]]]},"properties":{"name":"way/1298947416","height":0,"kind":"unknown","label":"缺少可用高度；仅展示轮廓"}},{"type":"Feature","id":"way/1298947421","geometry":{"type":"MultiPolygon","coordinates":[[[[113.8301975,22.6088595],[113.8302386,22.6087722],[113.8305031,22.6088785],[113.8305207,22.6088411],[113.8306346,22.6088869],[113.8305759,22.6090115],[113.8301975,22.6088595]]]]},"properties":{"name":"way/1298947421","height":0,"kind":"unknown","label":"缺少可用高度；仅展示轮廓"}},{"type":"Feature","id":"way/1298947444","geometry":{"type":"MultiPolygon","coordinates":[[[[113.8346273,22.6081882],[113.8347626,22.6079027],[113.834936,22.6075367],[113.8352007,22.6076436],[113.8350523,22.6079569],[113.8350857,22.6079704],[113.8350502,22.6080454],[113.83501,22.6080292],[113.83494,22.6081772],[113.8349953,22.6081995],[113.8349669,22.6082596],[113.8349169,22.6082394],[113.8348908,22.6082946],[113.8346273,22.6081882]]]]},"properties":{"name":"way/1298947444","height":0,"kind":"unknown","label":"缺少可用高度；仅展示轮廓"}},{"type":"Feature","id":"way/1298947449","geometry":{"type":"MultiPolygon","coordinates":[[[[113.8351374,22.6084461],[113.8354584,22.6077805],[113.8356489,22.6078588],[113.8355189,22.6081282],[113.8353277,22.6085243],[113.8351374,22.6084461]]]]},"properties":{"name":"way/1298947449","height":0,"kind":"unknown","label":"缺少可用高度；仅展示轮廓"}},{"type":"Feature","id":"way/1298947450","geometry":{"type":"MultiPolygon","coordinates":[[[[113.8355757,22.6084831],[113.8358248,22.6079507],[113.8359583,22.6080039],[113.8357091,22.6085363],[113.8355757,22.6084831]]]]},"properties":{"name":"way/1298947450","height":0,"kind":"unknown","label":"缺少可用高度；仅展示轮廓"}},{"type":"Feature","id":"way/1298947451","geometry":{"type":"MultiPolygon","coordinates":[[[[113.8370778,22.6109196],[113.8371213,22.6108288],[113.8370924,22.610817],[113.837125,22.610749],[113.8373115,22.610825],[113.8373693,22.6107043],[113.8378345,22.610894],[113.8377974,22.6109717],[113.8377531,22.6109536],[113.8377145,22.6110342],[113.837347,22.6108845],[113.8372891,22.6110057],[113.8370778,22.6109196]]]]},"properties":{"name":"way/1298947451","height":0,"kind":"unknown","label":"缺少可用高度；仅展示轮廓"}},{"type":"Feature","id":"way/1298947452","geometry":{"type":"MultiPolygon","coordinates":[[[[113.8369654,22.6106438],[113.8369985,22.6105716],[113.8372736,22.610679],[113.8372405,22.6107513],[113.8369654,22.6106438]]]]},"properties":{"name":"way/1298947452","height":0,"kind":"unknown","label":"缺少可用高度；仅展示轮廓"}},{"type":"Feature","id":"way/1298947453","geometry":{"type":"MultiPolygon","coordinates":[[[[113.8362846,22.6104614],[113.8363659,22.6103015],[113.8369465,22.610553],[113.8368996,22.6106452],[113.8366577,22.6105403],[113.8366232,22.6106081],[113.8362846,22.6104614]]]]},"properties":{"name":"way/1298947453","height":0,"kind":"unknown","label":"缺少可用高度；仅展示轮廓"}},{"type":"Feature","id":"way/1298947454","geometry":{"type":"MultiPolygon","coordinates":[[[[113.8355361,22.6101508],[113.8356005,22.6100133],[113.836064,22.6101985],[113.8359989,22.6103375],[113.8359524,22.610319],[113.8359174,22.6103936],[113.8356186,22.6102742],[113.8356543,22.610198],[113.8355361,22.6101508]]]]},"properties":{"name":"way/1298947454","height":0,"kind":"unknown","label":"缺少可用高度；仅展示轮廓"}},{"type":"Feature","id":"way/1298947455","geometry":{"type":"MultiPolygon","coordinates":[[[[113.8360614,22.610408],[113.8360888,22.6103474],[113.8361449,22.610369],[113.8361795,22.6102924],[113.8361164,22.6102681],[113.8361371,22.6102223],[113.83627,22.6102735],[113.8361959,22.6104375],[113.8361298,22.6104121],[113.8361213,22.610431],[113.8360614,22.610408]]]]},"properties":{"name":"way/1298947455","height":0,"kind":"unknown","label":"缺少可用高度；仅展示轮廓"}},{"type":"Feature","id":"relation/17802294","geometry":{"type":"MultiPolygon","coordinates":[[[[113.8371502,22.6155619],[113.8371788,22.6154831],[113.8376938,22.6156419],[113.8376241,22.6158529],[113.8377654,22.615897],[113.8377328,22.6159861],[113.8372125,22.6158266],[113.8372942,22.615606],[113.8371502,22.6155619]],[[113.8373501,22.6157541],[113.8373709,22.6157602],[113.8373676,22.6157698],[113.8375141,22.6158128],[113.8375183,22.6158006],[113.8375352,22.6158056],[113.8375704,22.6157032],[113.8375498,22.6156972],[113.8375545,22.6156837],[113.8374105,22.6156415],[113.837405,22.6156576],[113.8373853,22.6156518],[113.8373501,22.6157541]]]]},"properties":{"name":"relation/17802294","height":0,"kind":"unknown","label":"缺少可用高度；仅展示轮廓"}},{"type":"Feature","id":"relation/17802295","geometry":{"type":"MultiPolygon","coordinates":[[[[113.8370079,22.6159634],[113.8370366,22.6158846],[113.8375515,22.6160435],[113.8374818,22.6162544],[113.8376231,22.6162985],[113.8375906,22.6163877],[113.8370702,22.6162282],[113.8371519,22.6160075],[113.8370079,22.6159634]],[[113.8372078,22.6161557],[113.8372286,22.6161618],[113.8372253,22.6161714],[113.8373718,22.6162143],[113.837376,22.6162022],[113.8373929,22.6162071],[113.8374281,22.6161047],[113.8374075,22.6160987],[113.8374122,22.6160852],[113.8372682,22.6160431],[113.8372627,22.6160591],[113.837243,22.6160534],[113.8372078,22.6161557]]]]},"properties":{"name":"relation/17802295","height":0,"kind":"unknown","label":"缺少可用高度；仅展示轮廓"}},{"type":"Feature","id":"way/1298947488","geometry":{"type":"MultiPolygon","coordinates":[[[[113.8383301,22.6163261],[113.8383575,22.6162439],[113.8384673,22.6162751],[113.8384497,22.6163277],[113.8384771,22.6163355],[113.8384972,22.6162752],[113.8386817,22.6163276],[113.8386623,22.6163859],[113.8386968,22.6163957],[113.8387115,22.6163515],[113.8387947,22.6163751],[113.8388007,22.616357],[113.8389294,22.6163934],[113.8388689,22.616576],[113.8387791,22.6165507],[113.8387637,22.6165973],[113.8388927,22.6166338],[113.8388617,22.6167277],[113.8386872,22.6166785],[113.8387601,22.6164583],[113.8387292,22.6164496],[113.8387128,22.6164992],[113.8385773,22.6164609],[113.8385726,22.616475],[113.838492,22.6164521],[113.8384971,22.616437],[113.8383689,22.6164006],[113.8383882,22.6163426],[113.8383301,22.6163261]]]]},"properties":{"name":"way/1298947488","height":0,"kind":"unknown","label":"缺少可用高度；仅展示轮廓"}},{"type":"Feature","id":"way/1298947489","geometry":{"type":"MultiPolygon","coordinates":[[[[113.8378156,22.6162218],[113.8379218,22.6159163],[113.8378692,22.6159007],[113.8379114,22.6157794],[113.8380519,22.6158211],[113.8380385,22.6158596],[113.8382628,22.6159261],[113.838279,22.6158793],[113.838468,22.6159352],[113.8383895,22.6161612],[113.838076,22.6160683],[113.8380033,22.6162775],[113.8378156,22.6162218]]]]},"properties":{"name":"way/1298947489","height":0,"kind":"unknown","label":"缺少可用高度；仅展示轮廓"}},{"type":"Feature","id":"way/1298947490","geometry":{"type":"MultiPolygon","coordinates":[[[[113.8380152,22.6148108],[113.838056,22.6146931],[113.838569,22.6148449],[113.8385281,22.6149627],[113.8380152,22.6148108]]]]},"properties":{"name":"way/1298947490","height":0,"kind":"unknown","label":"缺少可用高度；仅展示轮廓"}},{"type":"Feature","id":"way/1298947491","geometry":{"type":"MultiPolygon","coordinates":[[[[113.8380616,22.6146913],[113.8380914,22.6146061],[113.8387496,22.6148016],[113.8387198,22.6148869],[113.8380616,22.6146913]]]]},"properties":{"name":"way/1298947491","height":0,"kind":"unknown","label":"缺少可用高度；仅展示轮廓"}},{"type":"Feature","id":"way/1298947492","geometry":{"type":"MultiPolygon","coordinates":[[[[113.8387179,22.614912],[113.8387482,22.6148272],[113.8391129,22.6149457],[113.8391231,22.6149198],[113.8395453,22.6150449],[113.8395359,22.6150717],[113.8396485,22.6151053],[113.8396184,22.6151911],[113.8394585,22.6151434],[113.8394443,22.615184],[113.839618,22.6152357],[113.8395956,22.6152996],[113.8393324,22.6152212],[113.8393528,22.6151628],[113.8393934,22.6151749],[113.8394128,22.6151195],[113.8393814,22.6151102],[113.8393908,22.6150833],[113.839132,22.6150108],[113.8391235,22.615035],[113.838923,22.6149756],[113.8389043,22.6150239],[113.8387364,22.6149728],[113.8387531,22.6149234],[113.8387179,22.614912]]]]},"properties":{"name":"way/1298947492","height":0,"kind":"unknown","label":"缺少可用高度；仅展示轮廓"}},{"type":"Feature","id":"way/1354338355","geometry":{"type":"MultiPolygon","coordinates":[[[[113.8385665,22.608189],[113.8386209,22.6080785],[113.8386957,22.6081099],[113.8387441,22.6080116],[113.8388887,22.6080724],[113.8388403,22.6081706],[113.8389803,22.6082294],[113.8390287,22.6081311],[113.839175,22.6081926],[113.8391266,22.6082909],[113.8392104,22.608326],[113.8391559,22.6084365],[113.8385665,22.608189]]]]},"properties":{"name":"11栋","height":42,"kind":"levels","label":"14层 × 3米（估算）"}},{"type":"Feature","id":"way/1354338360","geometry":{"type":"MultiPolygon","coordinates":[[[[113.8375655,22.6083746],[113.8375845,22.6082415],[113.8376774,22.6082528],[113.837691,22.6081575],[113.8378072,22.6081716],[113.8377934,22.6082684],[113.8379808,22.608291],[113.838029,22.6081921],[113.8381766,22.6082534],[113.8381288,22.6083514],[113.8382131,22.6083864],[113.8381575,22.6085006],[113.8379728,22.608424],[113.8375655,22.6083746]]]]},"properties":{"name":"7栋","height":42,"kind":"levels","label":"14层 × 3米（估算）"}},{"type":"Feature","id":"way/1354338361","geometry":{"type":"MultiPolygon","coordinates":[[[[113.8373201,22.6087732],[113.8373746,22.6086627],[113.8374493,22.6086941],[113.8374977,22.6085959],[113.8376423,22.6086566],[113.8375939,22.6087548],[113.8377339,22.6088136],[113.8377823,22.6087154],[113.8379286,22.6087768],[113.8378802,22.6088751],[113.837964,22.6089103],[113.8379096,22.6090208],[113.8373201,22.6087732]]]]},"properties":{"name":"9栋","height":42,"kind":"levels","label":"14层 × 3米（估算）"}},{"type":"Feature","id":"way/1354338362","geometry":{"type":"MultiPolygon","coordinates":[[[[113.8367855,22.609156],[113.8368398,22.6090453],[113.8369144,22.6090765],[113.8369627,22.608978],[113.8371016,22.6090361],[113.8370534,22.6091342],[113.8371977,22.6091945],[113.837246,22.6090961],[113.8373909,22.6091567],[113.8373427,22.6092549],[113.8374997,22.6093206],[113.8375481,22.6092221],[113.8376817,22.609278],[113.8376335,22.6093762],[113.8377176,22.6094113],[113.837663,22.6095227],[113.8367855,22.609156]]]]},"properties":{"name":"10栋","height":42,"kind":"levels","label":"14层 × 3米（估算）"}},{"type":"Feature","id":"way/1354338363","geometry":{"type":"MultiPolygon","coordinates":[[[[113.8366837,22.6078628],[113.836738,22.6077522],[113.8368127,22.6077834],[113.836861,22.607685],[113.8369928,22.6077401],[113.8369446,22.6078383],[113.8370855,22.6078972],[113.8371338,22.6077988],[113.83728,22.60786],[113.8372318,22.6079582],[113.8373157,22.6079934],[113.8372612,22.6081044],[113.8366837,22.6078628]]]]},"properties":{"name":"6栋","height":42,"kind":"levels","label":"14层 × 3米（估算）"}},{"type":"Feature","id":"relation/18613376","geometry":{"type":"MultiPolygon","coordinates":[[[[113.8363003,22.6089216],[113.8363798,22.6087693],[113.8363295,22.6087469],[113.836344,22.6087191],[113.8364003,22.6087441],[113.8364613,22.6086273],[113.8367533,22.6087573],[113.8367227,22.6088158],[113.8367519,22.6088287],[113.8367199,22.6088899],[113.8366963,22.6088794],[113.8366818,22.6089071],[113.8365978,22.6088697],[113.836589,22.6088865],[113.8366981,22.608935],[113.8366424,22.6090418],[113.8365336,22.6089935],[113.8365219,22.609016],[113.8364934,22.6090034],[113.8365096,22.6089723],[113.8364142,22.6089299],[113.8363963,22.6089643],[113.8363003,22.6089216]],[[113.8364405,22.6088815],[113.8365311,22.6089205],[113.836562,22.6088592],[113.8364713,22.6088203],[113.8364405,22.6088815]]]]},"properties":{"name":"relation/18613376","height":0,"kind":"unknown","label":"缺少可用高度；仅展示轮廓"}},{"type":"Feature","id":"way/1354338377","geometry":{"type":"MultiPolygon","coordinates":[[[[113.8365041,22.6083097],[113.8365586,22.6081992],[113.8366333,22.6082306],[113.8366817,22.6081323],[113.8368263,22.608193],[113.8367779,22.6082913],[113.8369179,22.6083501],[113.8369663,22.6082518],[113.8371126,22.6083133],[113.8370642,22.6084115],[113.837148,22.6084467],[113.8370936,22.6085572],[113.8365041,22.6083097]]]]},"properties":{"name":"8栋","height":42,"kind":"levels","label":"14层 × 3米（估算）"}},{"type":"Feature","id":"way/1436077882","geometry":{"type":"MultiPolygon","coordinates":[[[[113.8386931,22.6089913],[113.8388803,22.6086032],[113.83909,22.6086894],[113.8389028,22.6090776],[113.8386931,22.6089913]]]]},"properties":{"name":"way/1436077882","height":27,"kind":"levels","label":"9层 × 3米（估算）"}},{"type":"Feature","id":"way/1436085138","geometry":{"type":"MultiPolygon","coordinates":[[[[113.8347421,22.6153613],[113.8347873,22.6152696],[113.8352194,22.6154511],[113.8351742,22.6155427],[113.8347421,22.6153613]]]]},"properties":{"name":"way/1436085138","height":0,"kind":"unknown","label":"缺少可用高度；仅展示轮廓"}},{"type":"Feature","id":"way/1436085139","geometry":{"type":"MultiPolygon","coordinates":[[[[113.8342657,22.6152171],[113.8343403,22.6150658],[113.8346963,22.6152153],[113.8346217,22.6153666],[113.8342657,22.6152171]]]]},"properties":{"name":"way/1436085139","height":0,"kind":"unknown","label":"缺少可用高度；仅展示轮廓"}},{"type":"Feature","id":"way/1436085140","geometry":{"type":"MultiPolygon","coordinates":[[[[113.8333897,22.6146432],[113.8335491,22.6143118],[113.8336673,22.6142788],[113.8344491,22.6146071],[113.8343645,22.6147786],[113.833694,22.614497],[113.8335821,22.614724],[113.8333897,22.6146432]]]]},"properties":{"name":"way/1436085140","height":0,"kind":"unknown","label":"缺少可用高度；仅展示轮廓"}},{"type":"Feature","id":"way/1436085141","geometry":{"type":"MultiPolygon","coordinates":[[[[113.8336977,22.6147884],[113.8337699,22.6146418],[113.8343078,22.6148677],[113.8341969,22.6150929],[113.8339694,22.6149974],[113.8340082,22.6149188],[113.8336977,22.6147884]]]]},"properties":{"name":"way/1436085141","height":0,"kind":"unknown","label":"缺少可用高度；仅展示轮廓"}},{"type":"Feature","id":"way/1436085142","geometry":{"type":"MultiPolygon","coordinates":[[[[113.8356469,22.6155071],[113.8357813,22.6152343],[113.8358447,22.6152609],[113.8358281,22.6152948],[113.8358776,22.6153156],[113.8358498,22.615372],[113.8359136,22.6153988],[113.8358237,22.6155814],[113.8357255,22.6155402],[113.8356469,22.6155071]]]]},"properties":{"name":"way/1436085142","height":0,"kind":"unknown","label":"缺少可用高度；仅展示轮廓"}},{"type":"Feature","id":"way/1436085143","geometry":{"type":"MultiPolygon","coordinates":[[[[113.8352688,22.6157738],[113.8353539,22.6156012],[113.8354367,22.615636],[113.8354071,22.6156961],[113.8356072,22.6157801],[113.8356381,22.6157175],[113.8357363,22.6157587],[113.8356499,22.6159339],[113.8352688,22.6157738]]]]},"properties":{"name":"way/1436085143","height":0,"kind":"unknown","label":"缺少可用高度；仅展示轮廓"}},{"type":"Feature","id":"way/1436085144","geometry":{"type":"MultiPolygon","coordinates":[[[[113.8355315,22.6156332],[113.8355867,22.6155213],[113.8356561,22.6155505],[113.8356481,22.6155669],[113.8357013,22.6155892],[113.8357255,22.6155402],[113.8358237,22.6155814],[113.8357363,22.6157587],[113.8356381,22.6157175],[113.8356623,22.6156684],[113.835609,22.6156461],[113.835601,22.6156624],[113.8355315,22.6156332]]]]},"properties":{"name":"way/1436085144","height":0,"kind":"unknown","label":"缺少可用高度；仅展示轮廓"}},{"type":"Feature","id":"way/1436085145","geometry":{"type":"MultiPolygon","coordinates":[[[[113.8346875,22.6149506],[113.8347191,22.6148865],[113.8347368,22.614894],[113.834761,22.6148448],[113.8347079,22.6148225],[113.8347525,22.6147319],[113.8349446,22.6148125],[113.8349,22.6149031],[113.8348468,22.6148808],[113.8348226,22.61493],[113.8348403,22.6149374],[113.8348087,22.6150015],[113.8346875,22.6149506]]]]},"properties":{"name":"way/1436085145","height":0,"kind":"unknown","label":"缺少可用高度；仅展示轮廓"}},{"type":"Feature","id":"way/1436085146","geometry":{"type":"MultiPolygon","coordinates":[[[[113.8352638,22.6151926],[113.8352954,22.6151285],[113.8353131,22.615136],[113.8353373,22.6150868],[113.8352842,22.6150645],[113.8353288,22.6149739],[113.8355209,22.6150545],[113.8354763,22.6151451],[113.8354231,22.6151228],[113.8353989,22.615172],[113.8354166,22.6151794],[113.835385,22.6152435],[113.8352638,22.6151926]]]]},"properties":{"name":"way/1436085146","height":0,"kind":"unknown","label":"缺少可用高度；仅展示轮廓"}},{"type":"Feature","id":"way/1436085147","geometry":{"type":"MultiPolygon","coordinates":[[[[113.8348796,22.6150313],[113.8349112,22.6149672],[113.8349289,22.6149746],[113.8349531,22.6149254],[113.8349,22.6149031],[113.8349446,22.6148125],[113.8351367,22.6148932],[113.8350921,22.6149838],[113.8350389,22.6149615],[113.8350147,22.6150107],[113.8350324,22.6150181],[113.8350008,22.6150822],[113.8348796,22.6150313]]]]},"properties":{"name":"way/1436085147","height":0,"kind":"unknown","label":"缺少可用高度；仅展示轮廓"}},{"type":"Feature","id":"way/1436085148","geometry":{"type":"MultiPolygon","coordinates":[[[[113.8350717,22.615112],[113.8351033,22.6150479],[113.835121,22.6150553],[113.8351452,22.6150061],[113.8350921,22.6149838],[113.8351367,22.6148932],[113.8353288,22.6149739],[113.8352842,22.6150645],[113.835231,22.6150421],[113.8352068,22.6150913],[113.8352245,22.6150988],[113.8351929,22.6151629],[113.8350717,22.615112]]]]},"properties":{"name":"way/1436085148","height":0,"kind":"unknown","label":"缺少可用高度；仅展示轮廓"}},{"type":"Feature","id":"way/1436085149","geometry":{"type":"MultiPolygon","coordinates":[[[[113.8343979,22.6149752],[113.8345581,22.6146502],[113.8347525,22.6147319],[113.8347079,22.6148225],[113.8346537,22.6147997],[113.834606,22.6148964],[113.8346479,22.6149139],[113.83458,22.6150517],[113.8343979,22.6149752]]]]},"properties":{"name":"way/1436085149","height":0,"kind":"unknown","label":"缺少可用高度；仅展示轮廓"}},{"type":"Feature","id":"relation/19808444","geometry":{"type":"MultiPolygon","coordinates":[[[[113.8398146,22.6097679],[113.8398728,22.6096491],[113.8402167,22.6097927],[113.8403327,22.609556],[113.8399955,22.6094152],[113.8400843,22.609234],[113.8409093,22.6095787],[113.8406462,22.6101154],[113.8398146,22.6097679]],[[113.8403275,22.6098377],[113.840611,22.6099565],[113.8407625,22.609648],[113.8404791,22.6095294],[113.8403275,22.6098377]]]]},"properties":{"name":"relation/19808444","height":0,"kind":"unknown","label":"缺少可用高度；仅展示轮廓"}},{"type":"Feature","id":"way/1463928346","geometry":{"type":"MultiPolygon","coordinates":[[[[113.83989,22.6149286],[113.8400148,22.614596],[113.8405212,22.614758],[113.8403963,22.6150906],[113.83989,22.6149286]]]]},"properties":{"name":"万众百货","height":0,"kind":"unknown","label":"缺少可用高度；仅展示轮廓"}},{"type":"Feature","id":"way/1463928350","geometry":{"type":"MultiPolygon","coordinates":[[[[113.836499,22.6169006],[113.8366014,22.6164999],[113.8367884,22.6165406],[113.8367441,22.6167139],[113.8376273,22.6169061],[113.8375692,22.6171336],[113.836499,22.6169006]]]]},"properties":{"name":"way/1463928350","height":0,"kind":"unknown","label":"缺少可用高度；仅展示轮廓"}}]}