{"type":"FeatureCollection","features":[{"type":"Feature","id":"way/1446177189","geometry":{"type":"MultiPolygon","coordinates":[[[[113.8396191,22.7222824],[113.8402236,22.7221029],[113.8402843,22.7222766],[113.8396796,22.722456],[113.8396191,22.7222824]]]]},"properties":{"name":"way/1446177189","height":0,"kind":"unknown","label":"缺少可用高度；仅展示轮廓"}},{"type":"Feature","id":"way/1446177190","geometry":{"type":"MultiPolygon","coordinates":[[[[113.8397449,22.722651],[113.8402117,22.7225136],[113.840246,22.7226128],[113.8397792,22.7227501],[113.8397449,22.722651]]]]},"properties":{"name":"way/1446177190","height":0,"kind":"unknown","label":"缺少可用高度；仅展示轮廓"}},{"type":"Feature","id":"way/1446177191","geometry":{"type":"MultiPolygon","coordinates":[[[[113.8398266,22.7228846],[113.8402934,22.7227472],[113.8403276,22.7228464],[113.8398609,22.7229837],[113.8398266,22.7228846]]]]},"properties":{"name":"way/1446177191","height":0,"kind":"unknown","label":"缺少可用高度；仅展示轮廓"}},{"type":"Feature","id":"way/1446177193","geometry":{"type":"MultiPolygon","coordinates":[[[[113.8393269,22.7174035],[113.8394352,22.7173865],[113.8394316,22.7173667],[113.8394205,22.7173684],[113.8394032,22.7172744],[113.8395284,22.7172548],[113.8395457,22.7173487],[113.8395284,22.7173514],[113.8395317,22.7173692],[113.8396373,22.7173526],[113.8396556,22.7174513],[113.8395843,22.7174626],[113.8395891,22.7174887],[113.8394135,22.7175163],[113.8394087,22.7174903],[113.8393447,22.7175003],[113.8393269,22.7174035]]]]},"properties":{"name":"way/1446177193","height":0,"kind":"unknown","label":"缺少可用高度；仅展示轮廓"}},{"type":"Feature","id":"way/1446177194","geometry":{"type":"MultiPolygon","coordinates":[[[[113.8398653,22.717333],[113.8400213,22.7173085],[113.8400177,22.7172888],[113.8400066,22.7172905],[113.8399893,22.7171965],[113.8401145,22.7171769],[113.8401317,22.7172706],[113.8401144,22.7172733],[113.8401178,22.7172914],[113.8402557,22.7172699],[113.8402739,22.7173685],[113.8401705,22.7173847],[113.8401753,22.7174108],[113.8399996,22.7174383],[113.8399948,22.7174123],[113.8398831,22.7174298],[113.8398653,22.717333]]]]},"properties":{"name":"way/1446177194","height":0,"kind":"unknown","label":"缺少可用高度；仅展示轮廓"}},{"type":"Feature","id":"way/1446177197","geometry":{"type":"MultiPolygon","coordinates":[[[[113.8394771,22.7168194],[113.839541,22.7168094],[113.8395362,22.7167833],[113.8397118,22.7167558],[113.8397166,22.7167819],[113.839788,22.7167707],[113.8398062,22.7168694],[113.8397006,22.716886],[113.8397039,22.7169038],[113.8397211,22.7169011],[113.8397385,22.716995],[113.8396133,22.7170147],[113.8395959,22.7169207],[113.839607,22.716919],[113.8396033,22.7168991],[113.8394949,22.7169162],[113.8394771,22.7168194]]]]},"properties":{"name":"way/1446177197","height":0,"kind":"unknown","label":"缺少可用高度；仅展示轮廓"}},{"type":"Feature","id":"way/1446424482","geometry":{"type":"MultiPolygon","coordinates":[[[[113.8337073,22.7154154],[113.8338906,22.7153923],[113.8340398,22.7163996],[113.8338565,22.7164227],[113.8337073,22.7154154]]]]},"properties":{"name":"way/1446424482","height":0,"kind":"unknown","label":"缺少可用高度；仅展示轮廓"}},{"type":"Feature","id":"way/1446424483","geometry":{"type":"MultiPolygon","coordinates":[[[[113.8328485,22.7162954],[113.8336805,22.7161905],[113.8337151,22.7164241],[113.8328831,22.7165289],[113.8328485,22.7162954]]]]},"properties":{"name":"way/1446424483","height":0,"kind":"unknown","label":"缺少可用高度；仅展示轮廓"}},{"type":"Feature","id":"way/1446424484","geometry":{"type":"MultiPolygon","coordinates":[[[[113.8327897,22.7159157],[113.8336217,22.7158109],[113.8336563,22.7160445],[113.8328243,22.7161493],[113.8327897,22.7159157]]]]},"properties":{"name":"way/1446424484","height":0,"kind":"unknown","label":"缺少可用高度；仅展示轮廓"}},{"type":"Feature","id":"way/1446424487","geometry":{"type":"MultiPolygon","coordinates":[[[[113.8319941,22.7160356],[113.8321923,22.7156346],[113.8324758,22.7157539],[113.8323411,22.7160265],[113.8326253,22.7165246],[113.8323495,22.7166585],[113.8319941,22.7160356]]]]},"properties":{"name":"way/1446424487","height":0,"kind":"unknown","label":"缺少可用高度；仅展示轮廓"}}]}