{"type":"FeatureCollection","features":[{"type":"Feature","id":"way/373591987","geometry":{"type":"MultiPolygon","coordinates":[[[[113.8123336,22.7056156],[113.8123403,22.7053303],[113.8127002,22.7053375],[113.8127028,22.7052237],[113.8127033,22.7049359],[113.8126976,22.7046482],[113.8126916,22.7045031],[113.8124635,22.7045128],[113.8124648,22.7045388],[113.8124077,22.7045413],[113.8123907,22.7042004],[113.8124201,22.7041992],[113.8124495,22.704198],[113.8124624,22.7044589],[113.8126893,22.7044494],[113.8126673,22.7040711],[113.8129006,22.7040585],[113.8129228,22.7044395],[113.8132073,22.7044275],[113.8131943,22.7041665],[113.8132233,22.7041653],[113.8132524,22.704164],[113.8132693,22.7045048],[113.8132097,22.7045074],[113.8132084,22.7044813],[113.812925,22.7044932],[113.8129312,22.704642],[113.812937,22.7049341],[113.8129365,22.7052262],[113.8129338,22.7053421],[113.8132581,22.7053486],[113.8132497,22.7057059],[113.8132205,22.7057053],[113.8131913,22.7057047],[113.8131984,22.7054013],[113.8129326,22.705396],[113.8129297,22.7055182],[113.8129165,22.7058101],[113.812683,22.7058011],[113.8126961,22.7055114],[113.8126989,22.7053913],[113.8123975,22.7053853],[113.812392,22.7056168],[113.8123628,22.7056162],[113.8123336,22.7056156]]]]},"properties":{"name":"塘尾站","height":0,"kind":"unknown","label":"缺少可用高度；仅展示轮廓"}},{"type":"Feature","id":"way/1427667629","geometry":{"type":"MultiPolygon","coordinates":[[[[113.8141173,22.6994084],[113.8142209,22.6992351],[113.8142058,22.6992274],[113.8142378,22.6991738],[113.8142529,22.6991815],[113.8142738,22.6991466],[113.8143781,22.6991997],[113.8143481,22.6992499],[113.8143722,22.6992621],[113.8144022,22.6992119],[113.8145066,22.699265],[113.8144857,22.6992999],[113.8145008,22.6993076],[113.8144687,22.6993612],[113.8144536,22.6993535],[113.81435,22.6995268],[113.8142574,22.6994797],[113.814295,22.6994169],[113.8142474,22.6993926],[113.8142099,22.6994555],[113.8141173,22.6994084]]]]},"properties":{"name":"15-4栋","height":99,"kind":"levels","label":"33层 × 3米（估算）"}},{"type":"Feature","id":"way/1427667630","geometry":{"type":"MultiPolygon","coordinates":[[[[113.8128459,22.698629],[113.8129495,22.6984556],[113.8129344,22.698448],[113.8129665,22.6983944],[113.8129816,22.6984021],[113.8130024,22.6983671],[113.8131068,22.6984202],[113.8130768,22.6984704],[113.8131009,22.6984827],[113.8131309,22.6984325],[113.8132352,22.6984856],[113.8132143,22.6985205],[113.8132294,22.6985282],[113.8131974,22.6985818],[113.8131823,22.6985741],[113.8130787,22.6987474],[113.8129861,22.6987003],[113.8130237,22.6986374],[113.8129761,22.6986132],[113.8129385,22.6986761],[113.8128459,22.698629]]]]},"properties":{"name":"15-1栋","height":108,"kind":"levels","label":"36层 × 3米（估算）"}},{"type":"Feature","id":"way/1427667631","geometry":{"type":"MultiPolygon","coordinates":[[[[113.8134092,22.6994802],[113.8135128,22.6993068],[113.8134977,22.6992992],[113.8135297,22.6992456],[113.8135448,22.6992533],[113.8135657,22.6992183],[113.81367,22.6992714],[113.81364,22.6993216],[113.8136641,22.6993339],[113.8136941,22.6992837],[113.8137985,22.6993368],[113.8137776,22.6993717],[113.8137927,22.6993794],[113.8137606,22.699433],[113.8137455,22.6994253],[113.8136419,22.6995986],[113.8135493,22.6995515],[113.8135869,22.6994886],[113.8135393,22.6994644],[113.8135018,22.6995273],[113.8134092,22.6994802]]]]},"properties":{"name":"15-3栋","height":99,"kind":"levels","label":"33层 × 3米（估算）"}},{"type":"Feature","id":"way/1427667632","geometry":{"type":"MultiPolygon","coordinates":[[[[113.8129005,22.6992188],[113.8130041,22.6990455],[113.812989,22.6990378],[113.8130211,22.6989843],[113.8130362,22.6989919],[113.813057,22.698957],[113.8131614,22.6990101],[113.8131314,22.6990603],[113.8131555,22.6990726],[113.8131855,22.6990224],[113.8132898,22.6990755],[113.8132689,22.6991104],[113.813284,22.6991181],[113.813252,22.6991716],[113.8132369,22.699164],[113.8131332,22.6993373],[113.8130407,22.6992902],[113.8130783,22.6992273],[113.8130307,22.6992031],[113.8129931,22.699266],[113.8129005,22.6992188]]]]},"properties":{"name":"15-2栋","height":99,"kind":"levels","label":"33层 × 3米（估算）"}},{"type":"Feature","id":"way/1427667633","geometry":{"type":"MultiPolygon","coordinates":[[[[113.813185,22.7004282],[113.8132947,22.7003855],[113.8133189,22.7004383],[113.8133442,22.7004284],[113.8133201,22.7003756],[113.8134299,22.7003329],[113.8134467,22.7003696],[113.8134626,22.7003634],[113.8134883,22.7004198],[113.8134725,22.700426],[113.8135558,22.7006084],[113.8134584,22.7006463],[113.8134281,22.7005801],[113.8133781,22.7005996],[113.8134083,22.7006658],[113.8133109,22.7007037],[113.8132275,22.7005213],[113.8132116,22.7005275],[113.8131859,22.7004711],[113.8132018,22.7004649],[113.813185,22.7004282]]]]},"properties":{"name":"16-3栋","height":96,"kind":"levels","label":"32层 × 3米（估算）"}},{"type":"Feature","id":"way/1427667634","geometry":{"type":"MultiPolygon","coordinates":[[[[113.8135283,22.7011175],[113.813638,22.7010748],[113.8136622,22.7011276],[113.8136875,22.7011178],[113.8136634,22.701065],[113.8137732,22.7010223],[113.81379,22.701059],[113.8138059,22.7010528],[113.8138316,22.7011092],[113.8138157,22.7011154],[113.8138991,22.7012978],[113.8138017,22.7013357],[113.8137714,22.7012695],[113.8137214,22.701289],[113.8137516,22.7013552],[113.8136542,22.701393],[113.8135708,22.7012107],[113.8135549,22.7012168],[113.8135292,22.7011605],[113.813545,22.7011543],[113.8135283,22.7011175]]]]},"properties":{"name":"16-2栋","height":96,"kind":"levels","label":"32层 × 3米（估算）"}},{"type":"Feature","id":"way/1427667635","geometry":{"type":"MultiPolygon","coordinates":[[[[113.8137764,22.7016796],[113.8138862,22.7016369],[113.8139103,22.7016897],[113.8139357,22.7016799],[113.8139116,22.7016271],[113.8140213,22.7015843],[113.8140381,22.7016211],[113.814054,22.7016149],[113.8140798,22.7016713],[113.8140639,22.7016775],[113.8141473,22.7018599],[113.8140498,22.7018978],[113.8140196,22.7018316],[113.8139695,22.7018511],[113.8139998,22.7019172],[113.8139023,22.7019551],[113.813819,22.7017727],[113.8138031,22.7017789],[113.8137773,22.7017225],[113.8137932,22.7017164],[113.8137764,22.7016796]]]]},"properties":{"name":"16-1栋","height":141,"kind":"levels","label":"47层 × 3米（估算）"}},{"type":"Feature","id":"way/1427667636","geometry":{"type":"MultiPolygon","coordinates":[[[[113.8133652,22.7023069],[113.8138044,22.7021438],[113.813848,22.7022438],[113.8137757,22.7022707],[113.8138058,22.7023396],[113.813878,22.7023127],[113.8139217,22.7024127],[113.8134825,22.7025758],[113.8134389,22.7024758],[113.8135112,22.7024489],[113.8134811,22.70238],[113.8134088,22.7024069],[113.8133652,22.7023069]]]]},"properties":{"name":"17栋","height":134,"kind":"tag","label":"OSM高度标注，未测绘核实"}},{"type":"Feature","id":"way/1427667637","geometry":{"type":"MultiPolygon","coordinates":[[[[113.8129104,22.7016895],[113.8131669,22.7015943],[113.8133403,22.7019917],[113.8130838,22.702087],[113.8129104,22.7016895]]]]},"properties":{"name":"16-5栋","height":99,"kind":"tag","label":"OSM高度标注，未测绘核实"}},{"type":"Feature","id":"way/1427667638","geometry":{"type":"MultiPolygon","coordinates":[[[[113.8127497,22.7010455],[113.8130062,22.7009502],[113.8131796,22.7013477],[113.8129231,22.7014429],[113.8127497,22.7010455]]]]},"properties":{"name":"16-4栋","height":100,"kind":"tag","label":"OSM高度标注，未测绘核实"}},{"type":"Feature","id":"way/1427667646","geometry":{"type":"MultiPolygon","coordinates":[[[[113.8153942,22.7014761],[113.8156727,22.7013527],[113.8157114,22.701427],[113.8156236,22.7014659],[113.815665,22.7015454],[113.8155621,22.7015911],[113.8155207,22.7015115],[113.8154329,22.7015504],[113.8153942,22.7014761]]]]},"properties":{"name":"6-2栋","height":132,"kind":"levels","label":"44层 × 3米（估算）"}},{"type":"Feature","id":"way/1427667647","geometry":{"type":"MultiPolygon","coordinates":[[[[113.8151157,22.7015995],[113.8153942,22.7014761],[113.8154329,22.7015504],[113.8153451,22.7015893],[113.8153865,22.7016688],[113.8152836,22.7017144],[113.8152422,22.7016349],[113.8151544,22.7016738],[113.8151157,22.7015995]]]]},"properties":{"name":"6-1栋","height":132,"kind":"levels","label":"44层 × 3米（估算）"}},{"type":"Feature","id":"way/1427667648","geometry":{"type":"MultiPolygon","coordinates":[[[[113.8150459,22.6998751],[113.8151264,22.6997345],[113.8151697,22.6997556],[113.8151606,22.6997714],[113.8151835,22.6997826],[113.8151699,22.6998065],[113.8151893,22.6998159],[113.8152345,22.6998031],[113.8152447,22.6997851],[113.8152189,22.6997726],[113.815231,22.6997514],[113.8152138,22.699743],[113.8152366,22.6997031],[113.8153891,22.6997774],[113.8153662,22.6998173],[113.815349,22.6998089],[113.8153369,22.6998301],[113.815311,22.6998175],[113.8153008,22.6998354],[113.8153147,22.6998771],[113.8153341,22.6998865],[113.8153478,22.6998627],[113.8153707,22.6998739],[113.8153798,22.699858],[113.8154231,22.6998791],[113.8153426,22.7000197],[113.8152993,22.6999986],[113.8153084,22.6999827],[113.8152855,22.6999715],[113.8152991,22.6999477],[113.815271,22.699934],[113.8152391,22.6999431],[113.8152213,22.6999344],[113.8152068,22.6999597],[113.8152527,22.6999821],[113.8152204,22.7000385],[113.8150874,22.6999737],[113.8151198,22.6999173],[113.8151583,22.699936],[113.8151728,22.6999107],[113.815163,22.6998814],[113.8151348,22.6998676],[113.8151212,22.6998915],[113.8150982,22.6998803],[113.8150891,22.6998962],[113.8150459,22.6998751]]]]},"properties":{"name":"9-2栋","height":135,"kind":"levels","label":"45层 × 3米（估算）"}},{"type":"Feature","id":"way/1427667649","geometry":{"type":"MultiPolygon","coordinates":[[[[113.8144632,22.7000484],[113.8145252,22.6999],[113.8145708,22.6999162],[113.8145638,22.699933],[113.8145881,22.6999416],[113.8145776,22.6999666],[113.8145978,22.6999738],[113.8146476,22.6999552],[113.8146567,22.699937],[113.8146303,22.6999258],[113.8146412,22.6999041],[113.8146235,22.6998965],[113.814644,22.6998555],[113.8148005,22.6999222],[113.81478,22.6999632],[113.8147623,22.6999557],[113.8147514,22.6999774],[113.814725,22.6999661],[113.8147159,22.6999843],[113.8147327,22.7000223],[113.8147954,22.6999988],[113.8148053,22.7000213],[113.814854,22.7000031],[113.8148788,22.7000594],[113.814794,22.7000911],[113.8148033,22.7001122],[113.814728,22.7001403],[113.8147188,22.7001192],[113.8146706,22.7001372],[113.8146799,22.7001584],[113.8146046,22.7001865],[113.8145953,22.7001654],[113.8145106,22.7001971],[113.8144858,22.7001408],[113.8145346,22.7001226],[113.8145247,22.7001001],[113.8145874,22.7000766],[113.8145708,22.7000386],[113.8145505,22.7000314],[113.8145401,22.7000565],[113.8145158,22.7000478],[113.8145088,22.7000646],[113.8144632,22.7000484]]]]},"properties":{"name":"10-1栋","height":141,"kind":"levels","label":"47层 × 3米（估算）"}},{"type":"Feature","id":"way/1427667650","geometry":{"type":"MultiPolygon","coordinates":[[[[113.8139229,22.7002303],[113.8139952,22.7000859],[113.8140396,22.7001048],[113.8140314,22.7001211],[113.814055,22.7001311],[113.8140428,22.7001556],[113.8140627,22.7001641],[113.8141071,22.700149],[113.8141163,22.7001306],[113.8140898,22.7001193],[113.8141006,22.7000976],[113.814083,22.7000901],[113.8141035,22.7000491],[113.81426,22.7001157],[113.8142395,22.7001567],[113.8142218,22.7001492],[113.8142109,22.7001709],[113.8141844,22.7001596],[113.8141752,22.700178],[113.8141915,22.700219],[113.8142115,22.7002274],[113.8142237,22.700203],[113.8142473,22.700213],[113.8142554,22.7001967],[113.8142998,22.7002156],[113.8142276,22.70036],[113.8141832,22.7003411],[113.8141913,22.7003248],[113.8141678,22.7003147],[113.81418,22.7002903],[113.8141511,22.700278],[113.8141359,22.7002831],[113.8140861,22.7003827],[113.8140568,22.7003702],[113.8140397,22.7004044],[113.8139899,22.7003832],[113.8140517,22.7002596],[113.8140402,22.7002307],[113.8140113,22.7002184],[113.8139991,22.7002429],[113.8139755,22.7002329],[113.8139674,22.7002492],[113.8139229,22.7002303]]]]},"properties":{"name":"10-2栋","height":93,"kind":"levels","label":"31层 × 3米（估算）"}},{"type":"Feature","id":"way/1427667651","geometry":{"type":"MultiPolygon","coordinates":[[[[113.8155331,22.7007565],[113.8155962,22.7006086],[113.8156417,22.7006251],[113.8156346,22.7006418],[113.8156587,22.7006506],[113.815648,22.7006756],[113.8156668,22.7006824],[113.8157195,22.7006613],[113.8157269,22.700644],[113.8156997,22.7006341],[113.8157092,22.7006118],[113.8156911,22.7006052],[113.815709,22.7005633],[113.8158694,22.7006215],[113.8158515,22.7006635],[113.8158334,22.7006569],[113.8158239,22.7006792],[113.8157967,22.7006693],[113.8157893,22.7006866],[113.8159162,22.7007326],[113.8158941,22.7007844],[113.815767,22.7007383],[113.8156956,22.7007669],[113.8156726,22.7008208],[113.8157063,22.7008331],[113.8156686,22.7009216],[113.8155787,22.700889],[113.8156393,22.7007468],[113.8156206,22.70074],[113.8156099,22.7007651],[113.8155857,22.7007563],[113.8155786,22.7007731],[113.8155331,22.7007565]]]]},"properties":{"name":"8栋","height":144,"kind":"levels","label":"48层 × 3米（估算）"}},{"type":"Feature","id":"way/1427667652","geometry":{"type":"MultiPolygon","coordinates":[[[[113.8141538,22.7007183],[113.8142261,22.7005739],[113.8142705,22.7005928],[113.8142623,22.7006091],[113.8142859,22.7006192],[113.8142736,22.7006436],[113.8142936,22.7006521],[113.8143379,22.7006371],[113.8143472,22.7006187],[113.8143206,22.7006074],[113.8143315,22.7005856],[113.8143138,22.7005781],[113.8143343,22.7005371],[113.8144908,22.7006038],[113.8144703,22.7006447],[113.8144527,22.7006372],[113.8144418,22.700659],[113.8144153,22.7006477],[113.814406,22.7006661],[113.8144224,22.700707],[113.8144423,22.7007155],[113.8144546,22.700691],[113.8144781,22.700701],[113.8144863,22.7006847],[113.8145307,22.7007037],[113.8144585,22.700848],[113.814414,22.7008291],[113.8144222,22.7008128],[113.8143986,22.7008028],[113.8144109,22.7007783],[113.814382,22.700766],[113.8143668,22.7007712],[113.814317,22.7008707],[113.8142877,22.7008582],[113.8142706,22.7008924],[113.8142208,22.7008712],[113.8142826,22.7007476],[113.8142711,22.7007188],[113.8142422,22.7007065],[113.81423,22.7007309],[113.8142064,22.7007209],[113.8141982,22.7007372],[113.8141538,22.7007183]]]]},"properties":{"name":"11栋","height":138,"kind":"levels","label":"46层 × 3米（估算）"}},{"type":"Feature","id":"way/1427667653","geometry":{"type":"MultiPolygon","coordinates":[[[[113.8153007,22.700389],[113.8153636,22.700241],[113.8154092,22.7002575],[113.815402,22.7002742],[113.8154262,22.7002829],[113.8154155,22.700308],[113.815436,22.7003154],[113.8154793,22.700298],[113.8154873,22.7002791],[113.8154601,22.7002693],[113.8154696,22.700247],[113.8154515,22.7002404],[113.8154694,22.7001984],[113.8156298,22.7002565],[113.815612,22.7002985],[113.8155938,22.7002919],[113.8155844,22.7003142],[113.8155572,22.7003044],[113.8155491,22.7003232],[113.815568,22.7003632],[113.8155885,22.7003706],[113.8155992,22.7003455],[113.8156233,22.7003543],[113.8156304,22.7003376],[113.815676,22.700354],[113.815613,22.7005021],[113.8155675,22.7004856],[113.8155746,22.7004689],[113.8155504,22.7004601],[113.8155611,22.700435],[113.8155315,22.7004243],[113.8155009,22.7004366],[113.8154822,22.7004298],[113.8154601,22.7004817],[113.8154933,22.7004937],[113.8154615,22.7005686],[113.8153772,22.7005381],[113.8154311,22.7004113],[113.8154178,22.7003832],[113.8153881,22.7003724],[113.8153775,22.7003975],[113.8153533,22.7003888],[113.8153462,22.7004055],[113.8153007,22.700389]]]]},"properties":{"name":"9-1栋","height":138,"kind":"levels","label":"46层 × 3米（估算）"}},{"type":"Feature","id":"way/1427667654","geometry":{"type":"MultiPolygon","coordinates":[[[[113.8143502,22.7011913],[113.8144133,22.7010433],[113.8144588,22.7010599],[113.8144517,22.7010766],[113.8144758,22.7010853],[113.8144651,22.7011104],[113.8144839,22.7011172],[113.8145366,22.701096],[113.814544,22.7010787],[113.8145168,22.7010689],[113.8145263,22.7010466],[113.8145082,22.70104],[113.8145261,22.700998],[113.8146412,22.7010398],[113.8146064,22.7011214],[113.8147332,22.7011674],[113.8147112,22.7012192],[113.8145841,22.701173],[113.8145126,22.7012017],[113.8144626,22.701319],[113.8144065,22.7012986],[113.8144564,22.7011816],[113.8144377,22.7011748],[113.814427,22.7011999],[113.8144028,22.7011911],[113.8143957,22.7012078],[113.8143502,22.7011913]]]]},"properties":{"name":"12栋","height":144,"kind":"levels","label":"48层 × 3米（估算）"}},{"type":"Feature","id":"way/1427667655","geometry":{"type":"MultiPolygon","coordinates":[[[[113.815761,22.7011765],[113.8158241,22.7010285],[113.8158696,22.701045],[113.8158625,22.7010617],[113.8158867,22.7010705],[113.815876,22.7010956],[113.8158947,22.7011024],[113.8159475,22.7010812],[113.8159548,22.7010639],[113.8159277,22.701054],[113.8159372,22.7010318],[113.815919,22.7010252],[113.815937,22.7009832],[113.8160974,22.7010414],[113.8160795,22.7010834],[113.8160613,22.7010768],[113.8160518,22.7010991],[113.8160246,22.7010892],[113.8160173,22.7011065],[113.8161441,22.7011526],[113.816122,22.7012043],[113.8159949,22.7011582],[113.8159235,22.7011869],[113.8158735,22.7013041],[113.8158174,22.7012838],[113.8158672,22.7011668],[113.8158485,22.70116],[113.8158378,22.701185],[113.8158137,22.7011763],[113.8158065,22.701193],[113.815761,22.7011765]]]]},"properties":{"name":"7栋","height":144,"kind":"levels","label":"48层 × 3米（估算）"}},{"type":"Feature","id":"way/1427667656","geometry":{"type":"MultiPolygon","coordinates":[[[[113.8145426,22.7016649],[113.8146057,22.7015169],[113.8146512,22.7015334],[113.8146441,22.7015501],[113.8146683,22.7015589],[113.8146576,22.701584],[113.8146763,22.7015908],[113.8147291,22.7015696],[113.8147364,22.7015523],[113.8147092,22.7015424],[113.8147188,22.7015201],[113.8147006,22.7015136],[113.8147185,22.7014716],[113.814879,22.7015298],[113.814861,22.7015718],[113.8148429,22.7015652],[113.8148334,22.7015875],[113.8148062,22.7015776],[113.8147989,22.7015949],[113.8149257,22.7016409],[113.8149036,22.7016927],[113.8147765,22.7016466],[113.8147051,22.7016753],[113.8146551,22.7017925],[113.8145989,22.7017722],[113.8146488,22.7016552],[113.8146301,22.7016484],[113.8146194,22.7016734],[113.8145952,22.7016647],[113.8145881,22.7016814],[113.8145426,22.7016649]]]]},"properties":{"name":"13栋","height":144,"kind":"levels","label":"48层 × 3米（估算）"}},{"type":"Feature","id":"way/1427667662","geometry":{"type":"MultiPolygon","coordinates":[[[[113.8180143,22.7017266],[113.8180313,22.7017236],[113.8180232,22.7016844],[113.8181402,22.7016638],[113.8181518,22.7017201],[113.8181789,22.7017154],[113.8181672,22.7016591],[113.8182843,22.7016385],[113.8182924,22.7016776],[113.8183093,22.7016747],[113.8183217,22.7017348],[113.8183048,22.7017377],[113.818345,22.7019322],[113.8182412,22.7019505],[113.8182266,22.7018799],[113.8181732,22.7018893],[113.8181878,22.7019599],[113.8180839,22.7019781],[113.8180437,22.7017837],[113.8180268,22.7017867],[113.8180143,22.7017266]]]]},"properties":{"name":"9-2栋","height":138,"kind":"levels","label":"46层 × 3米（估算）"}},{"type":"Feature","id":"way/1427667663","geometry":{"type":"MultiPolygon","coordinates":[[[[113.8172822,22.7017471],[113.8172991,22.7017441],[113.817291,22.7017049],[113.8174081,22.7016843],[113.8174197,22.7017406],[113.8174467,22.7017359],[113.8174351,22.7016796],[113.8175521,22.701659],[113.8175602,22.7016982],[113.8175772,22.7016952],[113.8175896,22.7017553],[113.8175727,22.7017583],[113.8176129,22.7019527],[113.817509,22.701971],[113.8174944,22.7019004],[113.817441,22.7019098],[113.8174556,22.7019804],[113.8173518,22.7019987],[113.8173116,22.7018042],[113.8172946,22.7018072],[113.8172822,22.7017471]]]]},"properties":{"name":"9-3栋","height":138,"kind":"levels","label":"46层 × 3米（估算）"}},{"type":"Feature","id":"way/1427667664","geometry":{"type":"MultiPolygon","coordinates":[[[[113.8178082,22.7024851],[113.8178252,22.702483],[113.8178194,22.7024435],[113.8179375,22.7024288],[113.8179458,22.7024856],[113.8179731,22.7024821],[113.8179648,22.7024254],[113.8180829,22.7024106],[113.8180886,22.7024501],[113.8181057,22.702448],[113.8181146,22.7025086],[113.8180975,22.7025108],[113.8181263,22.7027069],[113.8180215,22.70272],[113.8180111,22.7026488],[113.8179572,22.7026556],[113.8179677,22.7027267],[113.8178629,22.7027398],[113.8178341,22.7025436],[113.817817,22.7025458],[113.8178082,22.7024851]]]]},"properties":{"name":"9-1栋","height":141,"kind":"levels","label":"47层 × 3米（估算）"}},{"type":"Feature","id":"way/1427667665","geometry":{"type":"MultiPolygon","coordinates":[[[[113.8170806,22.7023533],[113.8170977,22.7023512],[113.8170919,22.7023116],[113.8172099,22.7022969],[113.8172182,22.7023537],[113.8172455,22.7023503],[113.8172372,22.7022935],[113.8173553,22.7022788],[113.8173611,22.7023183],[113.8173781,22.7023161],[113.817387,22.7023768],[113.8173699,22.7023789],[113.8173987,22.7025751],[113.8172939,22.7025881],[113.8172835,22.702517],[113.8172296,22.7025237],[113.8172401,22.7025949],[113.8171353,22.7026079],[113.8171065,22.7024118],[113.8170895,22.7024139],[113.8170806,22.7023533]]]]},"properties":{"name":"9-4栋","height":138,"kind":"levels","label":"46层 × 3米（估算）"}},{"type":"Feature","id":"way/1427667666","geometry":{"type":"MultiPolygon","coordinates":[[[[113.8155767,22.703983],[113.8156638,22.7038457],[113.815706,22.7038685],[113.8156962,22.7038841],[113.8157186,22.7038962],[113.8157038,22.7039194],[113.8157212,22.7039288],[113.8157769,22.7039154],[113.8157871,22.7038994],[113.8157618,22.7038857],[113.815775,22.7038651],[113.8157582,22.703856],[113.8157829,22.7038171],[113.8159316,22.7038974],[113.8159069,22.7039364],[113.8158901,22.7039273],[113.815877,22.703948],[113.8158518,22.7039343],[113.8158416,22.7039504],[113.8159592,22.7040139],[113.8159287,22.7040619],[113.8158108,22.7039982],[113.8157355,22.7040164],[113.8156664,22.7041251],[113.8156144,22.704097],[113.8156833,22.7039885],[113.8156659,22.7039791],[113.8156511,22.7040024],[113.8156287,22.7039903],[113.8156189,22.7040058],[113.8155767,22.703983]]]]},"properties":{"name":"2-3栋","height":0,"kind":"unknown","label":"缺少可用高度；仅展示轮廓"}},{"type":"Feature","id":"way/1427667667","geometry":{"type":"MultiPolygon","coordinates":[[[[113.8157229,22.7053227],[113.815758,22.7053046],[113.8157335,22.7052644],[113.8158777,22.7051895],[113.8158746,22.7051662],[113.8158269,22.7051717],[113.8158224,22.7051384],[113.8157757,22.7051438],[113.8157697,22.7050996],[113.8160349,22.7050692],[113.8160409,22.7051134],[113.8159941,22.7051187],[113.8159986,22.705152],[113.8159509,22.7051575],[113.815954,22.7051808],[113.8161138,22.7052208],[113.8161007,22.7052652],[113.8161395,22.7052749],[113.8161231,22.7053306],[113.8159289,22.705282],[113.8157536,22.705373],[113.8157229,22.7053227]]]]},"properties":{"name":"1-1栋","height":0,"kind":"unknown","label":"缺少可用高度；仅展示轮廓"}},{"type":"Feature","id":"way/1427667668","geometry":{"type":"MultiPolygon","coordinates":[[[[113.8178364,22.704918],[113.818012,22.7048972],[113.8180038,22.7048386],[113.8181907,22.7048165],[113.8181989,22.7048752],[113.8181215,22.7048844],[113.8181292,22.7049395],[113.8181605,22.7049606],[113.8181778,22.7049389],[113.8181987,22.704953],[113.8182102,22.7049385],[113.8182497,22.704965],[113.8181481,22.7050935],[113.8181086,22.7050669],[113.8181201,22.7050524],[113.8180991,22.7050383],[113.8181163,22.7050165],[113.8180557,22.7049757],[113.8178478,22.7050003],[113.8178364,22.704918]]]]},"properties":{"name":"1栋","height":141,"kind":"levels","label":"47层 × 3米（估算）"}},{"type":"Feature","id":"way/1427667669","geometry":{"type":"MultiPolygon","coordinates":[[[[113.8182048,22.7045624],[113.818316,22.7044353],[113.8182661,22.7043982],[113.8183844,22.7042628],[113.8184344,22.7043001],[113.8183854,22.7043561],[113.8184323,22.704391],[113.8184708,22.7043862],[113.8184669,22.7043595],[113.8184926,22.7043563],[113.81849,22.7043385],[113.8185385,22.7043324],[113.8185616,22.70449],[113.8185131,22.7044961],[113.8185105,22.7044783],[113.8184848,22.7044815],[113.8184808,22.7044548],[113.8184064,22.704464],[113.8182748,22.7046145],[113.8182048,22.7045624]]]]},"properties":{"name":"2栋","height":141,"kind":"levels","label":"47层 × 3米（估算）"}},{"type":"Feature","id":"way/1427667670","geometry":{"type":"MultiPolygon","coordinates":[[[[113.8182721,22.7034738],[113.8184046,22.7034446],[113.8183999,22.7034265],[113.8183715,22.7034328],[113.8183655,22.7034095],[113.8183465,22.7034137],[113.8183351,22.7033698],[113.8185028,22.7033328],[113.8185142,22.7033766],[113.8184952,22.7033808],[113.8185013,22.7034041],[113.8184729,22.7034104],[113.8184775,22.7034284],[113.8185266,22.7034562],[113.8185462,22.7034519],[113.8185394,22.7034257],[113.8185646,22.7034201],[113.8185601,22.7034026],[113.8186076,22.7033921],[113.8186478,22.7035468],[113.8186002,22.7035573],[113.8185957,22.7035398],[113.8185704,22.7035454],[113.8185636,22.7035192],[113.8185441,22.7035235],[113.8185758,22.7036458],[113.8185171,22.7036587],[113.8184853,22.7035362],[113.818419,22.7034986],[113.8182861,22.7035279],[113.8182721,22.7034738]]]]},"properties":{"name":"5栋","height":141,"kind":"levels","label":"47层 × 3米（估算）"}},{"type":"Feature","id":"way/1427667671","geometry":{"type":"MultiPolygon","coordinates":[[[[113.817736,22.7033541],[113.8178401,22.703273],[113.8178271,22.7032588],[113.8178048,22.7032762],[113.8177881,22.7032579],[113.8177732,22.7032695],[113.8177417,22.703235],[113.8178734,22.7031324],[113.817905,22.7031669],[113.8178901,22.7031785],[113.8179068,22.7031968],[113.8178845,22.7032142],[113.8178975,22.7032284],[113.8179548,22.7032329],[113.8179702,22.7032209],[113.8179514,22.7032003],[113.8179712,22.7031849],[113.8179586,22.7031711],[113.817996,22.703142],[113.8181072,22.7032636],[113.8180698,22.7032927],[113.8180572,22.703279],[113.8180374,22.7032944],[113.8180186,22.7032738],[113.8180032,22.7032858],[113.818091,22.7033819],[113.8180449,22.7034177],[113.8179569,22.7033214],[113.8178793,22.7033153],[113.8177748,22.7033966],[113.817736,22.7033541]]]]},"properties":{"name":"6-1栋","height":141,"kind":"levels","label":"47层 × 3米（估算）"}},{"type":"Feature","id":"way/1427667672","geometry":{"type":"MultiPolygon","coordinates":[[[[113.8183456,22.7040501],[113.8184498,22.703969],[113.8184368,22.7039548],[113.8184145,22.7039722],[113.8183977,22.7039539],[113.8183828,22.7039655],[113.8183513,22.703931],[113.8184831,22.7038285],[113.8185146,22.703863],[113.8184997,22.7038745],[113.8185164,22.7038928],[113.8184941,22.7039102],[113.8185071,22.7039244],[113.8185644,22.7039289],[113.8185798,22.7039169],[113.818561,22.7038963],[113.8185808,22.7038809],[113.8185683,22.7038672],[113.8186057,22.7038381],[113.8187168,22.7039596],[113.8186794,22.7039887],[113.8186669,22.703975],[113.818647,22.7039904],[113.8186282,22.7039698],[113.8186128,22.7039818],[113.8187007,22.7040779],[113.8186546,22.7041138],[113.8185665,22.7040174],[113.8184889,22.7040114],[113.8183845,22.7040926],[113.8183456,22.7040501]]]]},"properties":{"name":"3栋","height":141,"kind":"levels","label":"47层 × 3米（估算）"}},{"type":"Feature","id":"way/1427667673","geometry":{"type":"MultiPolygon","coordinates":[[[[113.8172271,22.7044509],[113.8173309,22.7043239],[113.81737,22.7043511],[113.8173582,22.7043655],[113.817379,22.7043799],[113.8173614,22.7044014],[113.8173774,22.7044126],[113.8174344,22.7044052],[113.8174465,22.7043904],[113.8174232,22.7043742],[113.8174389,22.7043551],[113.8174233,22.7043442],[113.8174528,22.7043082],[113.8175904,22.704404],[113.8175609,22.70444],[113.8175454,22.7044292],[113.8175297,22.7044483],[113.8175064,22.7044321],[113.8174943,22.7044469],[113.8176031,22.7045227],[113.8175667,22.7045671],[113.8174577,22.7044911],[113.8173806,22.7045011],[113.8172983,22.7046017],[113.8172501,22.7045682],[113.8173322,22.7044678],[113.8173162,22.7044566],[113.8172986,22.7044781],[113.8172779,22.7044637],[113.8172661,22.7044781],[113.8172271,22.7044509]]]]},"properties":{"name":"7-2栋","height":141,"kind":"levels","label":"47层 × 3米（估算）"}},{"type":"Feature","id":"way/1427667674","geometry":{"type":"MultiPolygon","coordinates":[[[[113.8172615,22.704981],[113.8173654,22.7048541],[113.8174044,22.7048813],[113.8173927,22.7048956],[113.8174134,22.70491],[113.8173958,22.7049315],[113.8174119,22.7049427],[113.8174689,22.7049354],[113.817481,22.7049206],[113.8174577,22.7049043],[113.8174733,22.7048852],[113.8174578,22.7048744],[113.8174872,22.7048384],[113.8176248,22.7049342],[113.8175954,22.7049702],[113.8175798,22.7049594],[113.8175642,22.7049785],[113.8175409,22.7049622],[113.8175287,22.7049771],[113.8176375,22.7050528],[113.8176012,22.7050972],[113.8174921,22.7050213],[113.817415,22.7050312],[113.8173327,22.7051318],[113.8172846,22.7050983],[113.8173667,22.704998],[113.8173506,22.7049868],[113.817333,22.7050083],[113.8173123,22.7049939],[113.8173006,22.7050082],[113.8172615,22.704981]]]]},"properties":{"name":"8栋","height":141,"kind":"levels","label":"47层 × 3米（估算）"}},{"type":"Feature","id":"way/1427667675","geometry":{"type":"MultiPolygon","coordinates":[[[[113.8163782,22.7051499],[113.816489,22.7050281],[113.8165265,22.705057],[113.816514,22.7050708],[113.8165339,22.7050862],[113.8165151,22.7051068],[113.8165305,22.7051188],[113.8165879,22.7051141],[113.8166008,22.7050999],[113.8165784,22.7050826],[113.8165951,22.7050642],[113.8165802,22.7050527],[113.8166116,22.7050181],[113.8167437,22.7051203],[113.8167123,22.7051549],[113.8166973,22.7051433],[113.8166806,22.7051617],[113.8166583,22.7051444],[113.8166453,22.7051586],[113.8167497,22.7052394],[113.816711,22.705282],[113.8166063,22.705201],[113.8165287,22.7052073],[113.816441,22.7053039],[113.8163948,22.7052681],[113.8164823,22.7051718],[113.8164669,22.7051599],[113.8164481,22.7051805],[113.8164282,22.7051651],[113.8164157,22.7051789],[113.8163782,22.7051499]]]]},"properties":{"name":"1-2栋","height":0,"kind":"unknown","label":"缺少可用高度；仅展示轮廓"}},{"type":"Feature","id":"way/1427667676","geometry":{"type":"MultiPolygon","coordinates":[[[[113.815025,22.7053282],[113.8151169,22.7051936],[113.8151583,22.7052177],[113.8151479,22.7052329],[113.8151699,22.7052457],[113.8151543,22.7052685],[113.8151713,22.7052784],[113.8152275,22.7052667],[113.8152382,22.705251],[113.8152135,22.7052366],[113.8152273,22.7052163],[113.8152109,22.7052067],[113.815237,22.7051686],[113.8153828,22.7052534],[113.8153567,22.7052916],[113.8153402,22.705282],[113.8153263,22.7053022],[113.8153016,22.7052879],[113.8152909,22.7053036],[113.8154062,22.7053706],[113.815374,22.7054177],[113.8152585,22.7053505],[113.8151825,22.7053663],[113.8151096,22.7054729],[113.8150586,22.7054433],[113.8151313,22.7053369],[113.8151143,22.705327],[113.8150987,22.7053498],[113.8150767,22.705337],[113.8150664,22.7053522],[113.815025,22.7053282]]]]},"properties":{"name":"4栋","height":0,"kind":"unknown","label":"缺少可用高度；仅展示轮廓"}},{"type":"Feature","id":"way/1427667677","geometry":{"type":"MultiPolygon","coordinates":[[[[113.8150197,22.7048372],[113.8150982,22.7046956],[113.8151417,22.7047161],[113.8151329,22.7047321],[113.815156,22.704743],[113.8151427,22.704767],[113.8151606,22.7047755],[113.8152154,22.7047592],[113.8152245,22.7047426],[113.8151985,22.7047304],[113.8152103,22.704709],[113.815193,22.7047009],[113.8152153,22.7046607],[113.8153688,22.7047331],[113.8153465,22.7047732],[113.8153291,22.7047651],[113.8153173,22.7047864],[113.8152913,22.7047741],[113.8152822,22.7047907],[113.8154035,22.7048479],[113.815376,22.7048974],[113.8152544,22.7048401],[113.8151803,22.7048622],[113.8151181,22.7049744],[113.8150644,22.704949],[113.8151265,22.7048371],[113.8151085,22.7048286],[113.8150952,22.7048526],[113.8150721,22.7048417],[113.8150633,22.7048577],[113.8150197,22.7048372]]]]},"properties":{"name":"3-2栋","height":0,"kind":"unknown","label":"缺少可用高度；仅展示轮廓"}},{"type":"Feature","id":"way/1427667678","geometry":{"type":"MultiPolygon","coordinates":[[[[113.8149725,22.7043205],[113.8150113,22.7042217],[113.8150435,22.7042325],[113.8150501,22.7042156],[113.8151071,22.7042346],[113.8150938,22.7042684],[113.8151114,22.7042743],[113.8151384,22.7042626],[113.8151501,22.7042329],[113.8151226,22.7042237],[113.8151315,22.7042012],[113.8151132,22.704195],[113.8151298,22.7041526],[113.8152919,22.7042068],[113.8152752,22.7042492],[113.8152569,22.7042431],[113.8152481,22.7042656],[113.8152206,22.7042564],[113.8152131,22.7042755],[113.8152332,22.704315],[113.8152538,22.7043219],[113.8152638,22.7042965],[113.8152882,22.7043047],[113.8152948,22.7042878],[113.8153408,22.7043032],[113.8152821,22.7044527],[113.8152361,22.7044373],[113.8152427,22.7044204],[113.8152183,22.7044123],[113.8152283,22.7043869],[113.8151983,22.7043769],[113.8151681,22.70439],[113.8151608,22.7044086],[113.8151883,22.7044178],[113.8151612,22.7044867],[113.8151337,22.7044775],[113.8151266,22.7044957],[113.8150744,22.7044782],[113.8150815,22.7044601],[113.8150541,22.7044509],[113.8150811,22.704382],[113.8151013,22.7043887],[113.8150742,22.7043354],[113.8150683,22.7043335],[113.815055,22.7043672],[113.814998,22.7043482],[113.8150046,22.7043313],[113.8149725,22.7043205]]]]},"properties":{"name":"3-1栋","height":0,"kind":"unknown","label":"缺少可用高度；仅展示轮廓"}},{"type":"Feature","id":"way/1427667679","geometry":{"type":"MultiPolygon","coordinates":[[[[113.8163469,22.7047375],[113.8163846,22.7047087],[113.816397,22.7047226],[113.816417,22.7047073],[113.8164356,22.704728],[113.8164525,22.7047151],[113.8164569,22.7046717],[113.8164429,22.7046561],[113.8164204,22.7046733],[113.8164039,22.7046548],[113.8163889,22.7046663],[113.8163577,22.7046316],[113.8164904,22.7045301],[113.8165216,22.7045648],[113.8165066,22.7045763],[113.8165232,22.7045947],[113.8165007,22.7046119],[113.8165225,22.7046363],[113.8165523,22.7046389],[113.8165666,22.7046279],[113.8165418,22.7046002],[113.8165885,22.7045645],[113.8166009,22.7045784],[113.8166272,22.7045583],[113.8166999,22.7046392],[113.8166736,22.7046593],[113.816686,22.7046732],[113.8166393,22.7047088],[113.8166145,22.7046812],[113.8166096,22.7046849],[113.8166037,22.7047435],[113.8166201,22.7047309],[113.8166708,22.7047873],[113.8166483,22.7048045],[113.8166617,22.7048193],[113.8166189,22.704852],[113.8166056,22.7048372],[113.8165831,22.7048544],[113.8165324,22.7047979],[113.8165549,22.7047807],[113.8165411,22.7047655],[113.816508,22.7047626],[113.8164835,22.7047813],[113.8165021,22.7048021],[113.8164821,22.7048174],[113.8164945,22.7048312],[113.8164569,22.70486],[113.8163469,22.7047375]]]]},"properties":{"name":"1-3栋","height":0,"kind":"unknown","label":"缺少可用高度；仅展示轮廓"}},{"type":"Feature","id":"way/1427667680","geometry":{"type":"MultiPolygon","coordinates":[[[[113.816311,22.7041871],[113.8163487,22.7041583],[113.8163611,22.7041721],[113.8163811,22.7041569],[113.8163997,22.7041776],[113.8164166,22.7041647],[113.816421,22.7041213],[113.816407,22.7041057],[113.8163845,22.7041229],[113.816368,22.7041044],[113.816353,22.7041159],[113.8163218,22.7040811],[113.8164545,22.7039797],[113.8164857,22.7040144],[113.8164707,22.7040259],[113.8164873,22.7040443],[113.8164648,22.7040615],[113.8164867,22.7040859],[113.8165164,22.7040884],[113.8165308,22.7040775],[113.8165059,22.7040498],[113.8165526,22.7040141],[113.816565,22.704028],[113.8165913,22.7040078],[113.816664,22.7040888],[113.8166377,22.7041089],[113.8166501,22.7041227],[113.8166035,22.7041584],[113.8165786,22.7041307],[113.8165737,22.7041345],[113.8165678,22.704193],[113.8165843,22.7041804],[113.8166349,22.7042369],[113.8166124,22.7042541],[113.8166258,22.7042689],[113.816583,22.7043016],[113.8165697,22.7042868],[113.8165472,22.704304],[113.8164965,22.7042475],[113.816519,22.7042303],[113.8165053,22.704215],[113.8164721,22.7042122],[113.8164476,22.7042309],[113.8164662,22.7042517],[113.8164462,22.7042669],[113.8164587,22.7042808],[113.816421,22.7043096],[113.816311,22.7041871]]]]},"properties":{"name":"2-1栋","height":0,"kind":"unknown","label":"缺少可用高度；仅展示轮廓"}},{"type":"Feature","id":"way/1427667681","geometry":{"type":"MultiPolygon","coordinates":[[[[113.8162954,22.7036664],[113.8163508,22.7035158],[113.8163971,22.7035303],[113.8163909,22.7035473],[113.8164155,22.703555],[113.8164061,22.7035806],[113.8164269,22.7035871],[113.8164693,22.7035678],[113.8164763,22.7035486],[113.8164487,22.7035399],[113.816457,22.7035173],[113.8164386,22.7035115],[113.8164543,22.7034688],[113.8166175,22.7035199],[113.8166018,22.7035626],[113.8165834,22.7035568],[113.816575,22.7035795],[113.8165474,22.7035708],[113.8165363,22.7036008],[113.8165496,22.7036255],[113.8165672,22.703631],[113.8165797,22.703597],[113.8166371,22.7036149],[113.8166309,22.703632],[113.8166632,22.7036421],[113.8166266,22.7037416],[113.8165943,22.7037315],[113.816588,22.7037485],[113.8165306,22.7037306],[113.8165431,22.7036965],[113.8165371,22.7036947],[113.8164799,22.7037207],[113.8165002,22.703727],[113.8164747,22.7037964],[113.816447,22.7037878],[113.8164403,22.703806],[113.8163877,22.7037895],[113.8163944,22.7037713],[113.8163667,22.7037626],[113.8163923,22.7036932],[113.8164199,22.7037019],[113.8164269,22.7036831],[113.8164121,22.7036555],[113.816382,22.7036461],[113.8163726,22.7036716],[113.816348,22.7036639],[113.8163417,22.7036809],[113.8162954,22.7036664]]]]},"properties":{"name":"2-2栋","height":0,"kind":"unknown","label":"缺少可用高度；仅展示轮廓"}},{"type":"Feature","id":"way/1427667682","geometry":{"type":"MultiPolygon","coordinates":[[[[113.817182,22.7039],[113.8172256,22.7038029],[113.8172572,22.703815],[113.8172646,22.7037984],[113.8173206,22.7038198],[113.8173057,22.703853],[113.8173229,22.7038596],[113.817376,22.7038393],[113.8173794,22.7038317],[113.8173344,22.7038145],[113.8173576,22.7037629],[113.8173756,22.7037698],[113.8173887,22.7037406],[113.817494,22.7037809],[113.8174809,22.70381],[113.8174989,22.7038169],[113.8174757,22.7038685],[113.8174307,22.7038514],[113.8174245,22.703865],[113.8174426,22.7039053],[113.8174629,22.7039131],[113.8174741,22.7038882],[113.8174981,22.7038974],[113.8175055,22.7038808],[113.8175507,22.703898],[113.8174847,22.704045],[113.8174396,22.7040277],[113.817447,22.7040111],[113.817423,22.7040019],[113.8174342,22.703977],[113.8174048,22.7039658],[113.817374,22.7039775],[113.8173658,22.7039959],[113.8173928,22.7040062],[113.8173624,22.7040739],[113.8173354,22.7040636],[113.8173274,22.7040814],[113.8172761,22.7040618],[113.8172841,22.704044],[113.8172571,22.7040337],[113.8172875,22.703966],[113.8173072,22.7039735],[113.8172829,22.7039192],[113.817277,22.7039169],[113.8172621,22.7039501],[113.8172061,22.7039287],[113.8172136,22.7039121],[113.817182,22.7039]]]]},"properties":{"name":"7-1栋","height":141,"kind":"levels","label":"47层 × 3米（估算）"}},{"type":"Feature","id":"way/1427667683","geometry":{"type":"MultiPolygon","coordinates":[[[[113.817117,22.7033238],[113.8171606,22.7032267],[113.8171922,22.7032387],[113.8171996,22.7032221],[113.8172556,22.7032436],[113.8172407,22.7032768],[113.817258,22.7032833],[113.817311,22.7032631],[113.8173144,22.7032555],[113.8172694,22.7032383],[113.8172926,22.7031866],[113.8173106,22.7031935],[113.8173237,22.7031644],[113.817429,22.7032046],[113.8174159,22.7032338],[113.8174339,22.7032406],[113.8174107,22.7032923],[113.8173657,22.7032751],[113.8173596,22.7032888],[113.8173776,22.7033291],[113.8173979,22.7033368],[113.8174091,22.7033119],[113.8174331,22.7033211],[113.8174405,22.7033045],[113.8174857,22.7033218],[113.8174197,22.7034687],[113.8173746,22.7034514],[113.817382,22.7034348],[113.817358,22.7034257],[113.8173692,22.7034008],[113.8173398,22.7033895],[113.817309,22.7034013],[113.8173008,22.7034196],[113.8173278,22.7034299],[113.8172974,22.7034977],[113.8172704,22.7034873],[113.8172624,22.7035051],[113.8172111,22.7034855],[113.8172191,22.7034677],[113.8171921,22.7034574],[113.8172225,22.7033897],[113.8172423,22.7033973],[113.8172179,22.7033429],[113.817212,22.7033407],[113.8171971,22.7033739],[113.8171411,22.7033525],[113.8171486,22.7033359],[113.817117,22.7033238]]]]},"properties":{"name":"6-2栋","height":141,"kind":"levels","label":"47层 × 3米（估算）"}},{"type":"Feature","id":"way/1427670236","geometry":{"type":"MultiPolygon","coordinates":[[[[113.8107842,22.7033792],[113.8112984,22.7032843],[113.8113546,22.7035434],[113.8108403,22.7036383],[113.8107842,22.7033792]]]]},"properties":{"name":"1-3栋","height":0,"kind":"unknown","label":"缺少可用高度；仅展示轮廓"}},{"type":"Feature","id":"way/1427670237","geometry":{"type":"MultiPolygon","coordinates":[[[[113.811173,22.7021684],[113.8114441,22.7021184],[113.8115486,22.7026002],[113.8112774,22.7026502],[113.811173,22.7021684]]]]},"properties":{"name":"1-1栋","height":72,"kind":"levels","label":"24层 × 3米（估算）"}},{"type":"Feature","id":"way/1427670243","geometry":{"type":"MultiPolygon","coordinates":[[[[113.8108228,22.7004552],[113.810862,22.7003873],[113.8109894,22.7004498],[113.8110291,22.7004344],[113.811002,22.7003752],[113.8110872,22.700342],[113.8111253,22.7004252],[113.8111633,22.7005084],[113.8110781,22.7005416],[113.811051,22.7004824],[113.8110095,22.7004986],[113.8109924,22.7006349],[113.8109094,22.700626],[113.8109223,22.7005238],[113.8109781,22.7005298],[113.8109463,22.7004602],[113.8109213,22.7005036],[113.8108228,22.7004552]]]]},"properties":{"name":"way/1427670243","height":0,"kind":"unknown","label":"缺少可用高度；仅展示轮廓"}},{"type":"Feature","id":"way/1427670249","geometry":{"type":"MultiPolygon","coordinates":[[[[113.8108834,22.7010067],[113.8110081,22.7009862],[113.8110035,22.7009623],[113.8109776,22.7009666],[113.8109613,22.7008826],[113.8110758,22.7008637],[113.8110921,22.7009477],[113.8110661,22.700952],[113.8110707,22.7009758],[113.8112212,22.700951],[113.8112388,22.7010415],[113.8110843,22.701067],[113.8110774,22.7010318],[113.8110229,22.7010408],[113.8110297,22.701076],[113.8109009,22.7010972],[113.8108834,22.7010067]]]]},"properties":{"name":"way/1427670249","height":0,"kind":"unknown","label":"缺少可用高度；仅展示轮廓"}},{"type":"Feature","id":"way/1437033595","geometry":{"type":"MultiPolygon","coordinates":[[[[113.8140789,22.6977471],[113.8141828,22.6977173],[113.8141566,22.6976397],[113.8143383,22.6975876],[113.8144032,22.6977801],[113.8143366,22.6977992],[113.8143605,22.6978702],[113.8142472,22.6979027],[113.8142114,22.6977965],[113.8141058,22.6978268],[113.8140789,22.6977471]]]]},"properties":{"name":"1栋","height":84,"kind":"levels","label":"28层 × 3米（估算）"}},{"type":"Feature","id":"way/1437036197","geometry":{"type":"MultiPolygon","coordinates":[[[[113.820569,22.6995975],[113.8206119,22.6995288],[113.8206534,22.6995509],[113.8207078,22.699464],[113.8206892,22.6994541],[113.8207311,22.699387],[113.8208703,22.6994612],[113.8208284,22.6995283],[113.8207924,22.6995091],[113.8206951,22.6996647],[113.820569,22.6995975]]]]},"properties":{"name":"way/1437036197","height":0,"kind":"unknown","label":"缺少可用高度；仅展示轮廓"}},{"type":"Feature","id":"way/1437036200","geometry":{"type":"MultiPolygon","coordinates":[[[[113.8193157,22.6989642],[113.8193694,22.6988784],[113.8193863,22.6988874],[113.8195134,22.6986842],[113.8196402,22.6987517],[113.8195131,22.6989549],[113.8195299,22.6989639],[113.8194763,22.6990497],[113.8193157,22.6989642]]]]},"properties":{"name":"way/1437036200","height":0,"kind":"unknown","label":"缺少可用高度；仅展示轮廓"}},{"type":"Feature","id":"way/1437036201","geometry":{"type":"MultiPolygon","coordinates":[[[[113.8196368,22.6991352],[113.8196905,22.6990493],[113.8197073,22.6990583],[113.8198344,22.6988551],[113.8199612,22.6989226],[113.8198341,22.6991258],[113.819851,22.6991348],[113.8197973,22.6992206],[113.8196368,22.6991352]]]]},"properties":{"name":"way/1437036201","height":0,"kind":"unknown","label":"缺少可用高度；仅展示轮廓"}},{"type":"Feature","id":"way/1437036202","geometry":{"type":"MultiPolygon","coordinates":[[[[113.8197973,22.6992206],[113.819851,22.6991348],[113.8198678,22.6991437],[113.8199949,22.6989406],[113.8201217,22.6990081],[113.8199946,22.6992112],[113.8200115,22.6992202],[113.8199578,22.6993061],[113.8197973,22.6992206]]]]},"properties":{"name":"way/1437036202","height":0,"kind":"unknown","label":"缺少可用高度；仅展示轮廓"}},{"type":"Feature","id":"way/1437036203","geometry":{"type":"MultiPolygon","coordinates":[[[[113.8199578,22.6993061],[113.8200115,22.6992202],[113.8200284,22.6992292],[113.8201554,22.699026],[113.8202822,22.6990935],[113.8201551,22.6992967],[113.820172,22.6993057],[113.8201183,22.6993915],[113.8199578,22.6993061]]]]},"properties":{"name":"way/1437036203","height":0,"kind":"unknown","label":"缺少可用高度；仅展示轮廓"}},{"type":"Feature","id":"way/1437036204","geometry":{"type":"MultiPolygon","coordinates":[[[[113.8201183,22.6993915],[113.820172,22.6993057],[113.8201889,22.6993147],[113.820316,22.6991115],[113.8204427,22.699179],[113.8203156,22.6993821],[113.8203325,22.6993911],[113.8202788,22.699477],[113.8201183,22.6993915]]]]},"properties":{"name":"way/1437036204","height":0,"kind":"unknown","label":"缺少可用高度；仅展示轮廓"}},{"type":"Feature","id":"way/1437036205","geometry":{"type":"MultiPolygon","coordinates":[[[[113.8202788,22.699477],[113.8203325,22.6993911],[113.8203494,22.6994001],[113.8204765,22.6991969],[113.8206032,22.6992644],[113.8204762,22.6994676],[113.820493,22.6994766],[113.8204393,22.6995624],[113.8202788,22.699477]]]]},"properties":{"name":"way/1437036205","height":0,"kind":"unknown","label":"缺少可用高度；仅展示轮廓"}},{"type":"Feature","id":"way/1437036206","geometry":{"type":"MultiPolygon","coordinates":[[[[113.8194763,22.6990497],[113.8195299,22.6989639],[113.8195468,22.6989728],[113.8196739,22.6987697],[113.8198007,22.6988372],[113.8196736,22.6990403],[113.8196905,22.6990493],[113.8196368,22.6991352],[113.8194763,22.6990497]]]]},"properties":{"name":"way/1437036206","height":0,"kind":"unknown","label":"缺少可用高度；仅展示轮廓"}},{"type":"Feature","id":"way/1437036207","geometry":{"type":"MultiPolygon","coordinates":[[[[113.8186024,22.6985913],[113.8187909,22.6982801],[113.8189839,22.6983795],[113.8187954,22.6986908],[113.8186024,22.6985913]]]]},"properties":{"name":"way/1437036207","height":0,"kind":"unknown","label":"缺少可用高度；仅展示轮廓"}},{"type":"Feature","id":"way/1437036208","geometry":{"type":"MultiPolygon","coordinates":[[[[113.8188566,22.6987244],[113.8190451,22.6984132],[113.8192149,22.6985007],[113.8191131,22.6986688],[113.8191468,22.6986861],[113.819106,22.6987535],[113.8190723,22.6987362],[113.8190264,22.698812],[113.8188566,22.6987244]]]]},"properties":{"name":"way/1437036208","height":0,"kind":"unknown","label":"缺少可用高度；仅展示轮廓"}},{"type":"Feature","id":"way/1437036209","geometry":{"type":"MultiPolygon","coordinates":[[[[113.8190937,22.6988466],[113.8191396,22.6987709],[113.819106,22.6987535],[113.8191468,22.6986861],[113.8191804,22.6987035],[113.8192822,22.6985354],[113.819452,22.6986229],[113.8192635,22.6989342],[113.8190937,22.6988466]]]]},"properties":{"name":"way/1437036209","height":0,"kind":"unknown","label":"缺少可用高度；仅展示轮廓"}},{"type":"Feature","id":"way/1437036210","geometry":{"type":"MultiPolygon","coordinates":[[[[113.8181192,22.6983423],[113.8183077,22.698031],[113.8184775,22.6981185],[113.8183757,22.6982866],[113.8184093,22.698304],[113.8183685,22.6983714],[113.8183349,22.698354],[113.818289,22.6984298],[113.8181192,22.6983423]]]]},"properties":{"name":"way/1437036210","height":0,"kind":"unknown","label":"缺少可用高度；仅展示轮廓"}},{"type":"Feature","id":"way/1437036211","geometry":{"type":"MultiPolygon","coordinates":[[[[113.8183563,22.6984645],[113.8184022,22.6983887],[113.8183685,22.6983714],[113.8184093,22.698304],[113.818443,22.6983213],[113.8185448,22.6981532],[113.8187146,22.6982407],[113.8185261,22.698552],[113.8183563,22.6984645]]]]},"properties":{"name":"way/1437036211","height":0,"kind":"unknown","label":"缺少可用高度；仅展示轮廓"}},{"type":"Feature","id":"way/1437036212","geometry":{"type":"MultiPolygon","coordinates":[[[[113.81712,22.6978304],[113.817314,22.6975102],[113.8181525,22.6979424],[113.8179585,22.6982626],[113.81712,22.6978304]]]]},"properties":{"name":"way/1437036212","height":0,"kind":"unknown","label":"缺少可用高度；仅展示轮廓"}},{"type":"Feature","id":"way/1446439226","geometry":{"type":"MultiPolygon","coordinates":[[[[113.8135875,22.7052749],[113.8138799,22.7052585],[113.8139078,22.7056816],[113.8136154,22.7056981],[113.8136135,22.7056685],[113.8135875,22.7052749]]]]},"properties":{"name":"way/1446439226","height":0,"kind":"unknown","label":"缺少可用高度；仅展示轮廓"}},{"type":"Feature","id":"way/1446439227","geometry":{"type":"MultiPolygon","coordinates":[[[[113.8144441,22.7049741],[113.8146362,22.7049637],[113.8146678,22.7054607],[113.8144756,22.7054711],[113.8144441,22.7049741]]]]},"properties":{"name":"way/1446439227","height":0,"kind":"unknown","label":"缺少可用高度；仅展示轮廓"}},{"type":"Feature","id":"way/1446439229","geometry":{"type":"MultiPolygon","coordinates":[[[[113.8144199,22.7045213],[113.8144565,22.7044984],[113.814458,22.7044431],[113.8146409,22.704428],[113.8146674,22.7048265],[113.8146557,22.7048351],[113.8145538,22.7048351],[113.8145538,22.7048567],[113.8144471,22.7048552],[113.8144199,22.7045213]]]]},"properties":{"name":"way/1446439229","height":0,"kind":"unknown","label":"缺少可用高度；仅展示轮廓"}},{"type":"Feature","id":"way/1446439230","geometry":{"type":"MultiPolygon","coordinates":[[[[113.8153414,22.7035065],[113.8156808,22.7033351],[113.8157529,22.7034567],[113.8154136,22.7036281],[113.8153414,22.7035065]]]]},"properties":{"name":"way/1446439230","height":0,"kind":"unknown","label":"缺少可用高度；仅展示轮廓"}},{"type":"Feature","id":"way/1446439231","geometry":{"type":"MultiPolygon","coordinates":[[[[113.8160728,22.7031372],[113.8163957,22.7029699],[113.8164689,22.7030902],[113.816146,22.7032575],[113.8160728,22.7031372]]]]},"properties":{"name":"way/1446439231","height":0,"kind":"unknown","label":"缺少可用高度；仅展示轮廓"}},{"type":"Feature","id":"way/1446439232","geometry":{"type":"MultiPolygon","coordinates":[[[[113.816486,22.7023128],[113.8166538,22.7023041],[113.8166672,22.7025251],[113.8166751,22.7025247],[113.8166812,22.7026248],[113.8166699,22.7026254],[113.8166817,22.70282],[113.8165172,22.7028284],[113.816486,22.7023128]]]]},"properties":{"name":"way/1446439232","height":0,"kind":"unknown","label":"缺少可用高度；仅展示轮廓"}},{"type":"Feature","id":"way/1446439233","geometry":{"type":"MultiPolygon","coordinates":[[[[113.8151864,22.7027338],[113.8155257,22.7025624],[113.8155979,22.7026841],[113.8152585,22.7028554],[113.8151864,22.7027338]]]]},"properties":{"name":"way/1446439233","height":0,"kind":"unknown","label":"缺少可用高度；仅展示轮廓"}},{"type":"Feature","id":"way/1446439234","geometry":{"type":"MultiPolygon","coordinates":[[[[113.8157718,22.702434],[113.8161111,22.7022626],[113.8161833,22.7023842],[113.8158439,22.7025556],[113.8157718,22.702434]]]]},"properties":{"name":"way/1446439234","height":0,"kind":"unknown","label":"缺少可用高度；仅展示轮廓"}},{"type":"Feature","id":"way/1446439235","geometry":{"type":"MultiPolygon","coordinates":[[[[113.8138968,22.703278],[113.8143918,22.7030231],[113.8144027,22.7030231],[113.8144292,22.7031365],[113.8144222,22.7031645],[113.8140112,22.7033727],[113.8139155,22.7033174],[113.8138968,22.703278]]]]},"properties":{"name":"way/1446439235","height":0,"kind":"unknown","label":"缺少可用高度；仅展示轮廓"}},{"type":"Feature","id":"way/1446439237","geometry":{"type":"MultiPolygon","coordinates":[[[[113.8143519,22.7060711],[113.8144491,22.7060655],[113.8144548,22.7061487],[113.814529,22.7061444],[113.8145247,22.7060806],[113.8145659,22.7060782],[113.8145628,22.7060313],[113.8146185,22.7060281],[113.8146505,22.7065022],[113.8145846,22.706506],[113.8145826,22.7064766],[113.8145541,22.7064783],[113.8145524,22.7064531],[113.8144662,22.7064581],[113.8144692,22.7065013],[113.8143815,22.7065064],[113.8143519,22.7060711]]]]},"properties":{"name":"way/1446439237","height":0,"kind":"unknown","label":"缺少可用高度；仅展示轮廓"}},{"type":"Feature","id":"relation/19776631","geometry":{"type":"MultiPolygon","coordinates":[[[[113.8133589,22.7071116],[113.8134321,22.7067188],[113.8134557,22.7067275],[113.8135359,22.7062421],[113.8136657,22.7062377],[113.8136491,22.706068],[113.8136999,22.7057524],[113.8136008,22.7057513],[113.8134866,22.7044297],[113.8134648,22.7044275],[113.8134641,22.7043458],[113.8135677,22.7043114],[113.813668,22.704312],[113.813739,22.7042344],[113.8138133,22.7042757],[113.8139083,22.7043193],[113.8139159,22.7043029],[113.8139661,22.7043155],[113.814028,22.7043214],[113.8140191,22.7041419],[113.8139619,22.7041353],[113.8139129,22.7041255],[113.8138528,22.7040945],[113.8138168,22.7040602],[113.8137879,22.7040162],[113.8137725,22.7039688],[113.8136705,22.7039683],[113.8136847,22.7038741],[113.8135985,22.7038611],[113.8135785,22.7038997],[113.8135649,22.7039666],[113.8136268,22.7039743],[113.8136239,22.7040216],[113.813559,22.7040341],[113.813559,22.7040532],[113.8135047,22.7040847],[113.8134269,22.7040896],[113.8134075,22.7039155],[113.8136319,22.7034355],[113.8138358,22.7033588],[113.813927,22.703405],[113.8139118,22.7034767],[113.8140387,22.703499],[113.8141934,22.7034512],[113.8141889,22.7034042],[113.814535,22.7032788],[113.8145537,22.7034388],[113.8144259,22.7034817],[113.8144277,22.7035031],[113.8143999,22.7035114],[113.8144625,22.7036285],[113.8143999,22.7036788],[113.8144563,22.7037555],[113.8145805,22.7037044],[113.8147665,22.7037357],[113.8149659,22.7036508],[113.8149641,22.7035427],[113.8150464,22.7035295],[113.8151483,22.7034569],[113.8151635,22.7033629],[113.8151492,22.7032656],[113.8150866,22.7031971],[113.8149534,22.7031633],[113.8149489,22.7030577],[113.8151018,22.7030775],[113.8151966,22.7031427],[113.8152717,22.7032549],[113.8152949,22.7033497],[113.8152851,22.7034297],[113.8155225,22.7033536],[113.8154706,22.7032588],[113.8153785,22.7032406],[113.8153106,22.7031977],[113.8152855,22.7031326],[113.8152936,22.7030765],[113.8153186,22.7030212],[113.8152569,22.702895],[113.8151783,22.7030023],[113.8150593,22.70298],[113.8149896,22.7028291],[113.8150245,22.702754],[113.8150835,22.7027251],[113.8151175,22.7027334],[113.8161221,22.7022197],[113.8161307,22.7021702],[113.8162755,22.7021106],[113.8163837,22.7021357],[113.8164841,22.7018844],[113.8166405,22.7018492],[113.816695,22.7029972],[113.8150485,22.7038048],[113.8150106,22.7037373],[113.8146441,22.7039051],[113.8146728,22.7039903],[113.8145859,22.7040618],[113.8147535,22.7071404],[113.8135607,22.7071976],[113.8135335,22.7071715],[113.8135017,22.7072161],[113.8133589,22.7071116]],[[113.8137665,22.7060397],[113.813829,22.7060407],[113.8138609,22.7060919],[113.8138939,22.7061169],[113.8139399,22.7061354],[113.8139859,22.7061191],[113.8140036,22.7060712],[113.814019,22.705982],[113.8140072,22.7059003],[113.813993,22.7058383],[113.8139305,22.7057861],[113.8138597,22.7057708],[113.8137889,22.7057632],[113.8137665,22.7060397]],[[113.8138436,22.704781],[113.8138457,22.7048805],[113.8138621,22.7049875],[113.8138759,22.7050406],[113.813908,22.7051347],[113.8139207,22.7051685],[113.8139504,22.7051903],[113.8139771,22.7051657],[113.814011,22.7050775],[113.814046,22.7049364],[113.8140573,22.7048198],[113.8140511,22.7047194],[113.8140141,22.7046777],[113.8139792,22.704673],[113.8139474,22.7046844],[113.8139073,22.7046739],[113.813859,22.7047242],[113.8138436,22.704781]],[[113.8161921,22.7025296],[113.8163197,22.7025849],[113.8163268,22.7027838],[113.8162832,22.702801],[113.8163587,22.7029331],[113.8164349,22.7029008],[113.8163984,22.7024722],[113.8164178,22.7023968],[113.8164077,22.7023429],[113.816396,22.7023207],[113.8162637,22.7022905],[113.816252,22.7023228],[113.8161921,22.7025296]]]]},"properties":{"name":"relation/19776631","height":0,"kind":"unknown","label":"缺少可用高度；仅展示轮廓"}},{"type":"Feature","id":"way/1448136980","geometry":{"type":"MultiPolygon","coordinates":[[[[113.8117094,22.7067643],[113.8118144,22.7060355],[113.8121076,22.7060715],[113.8120027,22.7068003],[113.8117094,22.7067643]]]]},"properties":{"name":"way/1448136980","height":0,"kind":"unknown","label":"缺少可用高度；仅展示轮廓"}},{"type":"Feature","id":"way/1448136981","geometry":{"type":"MultiPolygon","coordinates":[[[[113.8111242,22.7066887],[113.8112051,22.7061272],[113.8116853,22.7061861],[113.8116044,22.7067475],[113.8111242,22.7066887]]]]},"properties":{"name":"way/1448136981","height":0,"kind":"unknown","label":"缺少可用高度；仅展示轮廓"}},{"type":"Feature","id":"way/1448136984","geometry":{"type":"MultiPolygon","coordinates":[[[[113.8106207,22.7050147],[113.8106714,22.7046626],[113.81166,22.7047838],[113.8116093,22.7051359],[113.8106207,22.7050147]]]]},"properties":{"name":"way/1448136984","height":0,"kind":"unknown","label":"缺少可用高度；仅展示轮廓"}}]}