{"type":"FeatureCollection","features":[{"type":"Feature","id":"way/544993736","geometry":{"type":"MultiPolygon","coordinates":[[[[113.8122315,22.6542958],[113.8123951,22.6540955],[113.8124841,22.6541368],[113.8127419,22.6536631],[113.8134163,22.6539756],[113.8133204,22.6541519],[113.8132733,22.65413],[113.8129915,22.6546479],[113.8122315,22.6542958]]]]},"properties":{"name":"way/544993736","height":0,"kind":"unknown","label":"缺少可用高度；仅展示轮廓"}},{"type":"Feature","id":"way/544993738","geometry":{"type":"MultiPolygon","coordinates":[[[[113.8119393,22.6545696],[113.8120579,22.6543589],[113.8129513,22.6547871],[113.8128327,22.6549978],[113.8119393,22.6545696]]]]},"properties":{"name":"way/544993738","height":0,"kind":"unknown","label":"缺少可用高度；仅展示轮廓"}},{"type":"Feature","id":"way/544993739","geometry":{"type":"MultiPolygon","coordinates":[[[[113.8111221,22.6541804],[113.811243,22.6539686],[113.8119113,22.6542938],[113.8117903,22.6545055],[113.8111221,22.6541804]]]]},"properties":{"name":"way/544993739","height":0,"kind":"unknown","label":"缺少可用高度；仅展示轮廓"}},{"type":"Feature","id":"way/1346638722","geometry":{"type":"MultiPolygon","coordinates":[[[[113.8151643,22.6593895],[113.8152973,22.6591855],[113.8154205,22.6592518],[113.8154051,22.6592761],[113.8155752,22.6593695],[113.8155788,22.6593636],[113.8155059,22.6592724],[113.8152368,22.6591303],[113.8152756,22.6590691],[113.8153767,22.6591224],[113.8153908,22.6590983],[113.8155441,22.6591792],[113.8156792,22.6593495],[113.8157032,22.6593625],[113.8156771,22.6594037],[113.8156548,22.6593923],[113.8156458,22.6594076],[113.8163446,22.6597844],[113.8163922,22.6597106],[113.8165189,22.6597777],[113.8165132,22.659785],[113.8167781,22.6599277],[113.8167932,22.6599049],[113.8168595,22.6599433],[113.8169245,22.6598431],[113.8171015,22.6599379],[113.8171108,22.6599241],[113.8173242,22.6600397],[113.8172132,22.6602148],[113.8170441,22.6604299],[113.8169272,22.6603534],[113.8169427,22.6603357],[113.816425,22.6600438],[113.8163693,22.660131],[113.8162431,22.6600624],[113.8159476,22.6604508],[113.8158854,22.6604124],[113.8162037,22.6599826],[113.816181,22.6599711],[113.8162048,22.6599314],[113.816228,22.6599432],[113.8162333,22.6599349],[113.8155812,22.6595807],[113.8154922,22.6597232],[113.8151863,22.6595566],[113.8151832,22.6594938],[113.8151718,22.6594894],[113.8151643,22.6593895]]]]},"properties":{"name":"福围站","height":0,"kind":"unknown","label":"缺少可用高度；仅展示轮廓"}},{"type":"Feature","id":"way/1375539703","geometry":{"type":"MultiPolygon","coordinates":[[[[113.8186766,22.6567519],[113.8189916,22.6565408],[113.8190494,22.6566142],[113.8187344,22.6568254],[113.8186766,22.6567519]]]]},"properties":{"name":"way/1375539703","height":0,"kind":"unknown","label":"缺少可用高度；仅展示轮廓"}},{"type":"Feature","id":"way/1375539704","geometry":{"type":"MultiPolygon","coordinates":[[[[113.8188022,22.6569136],[113.8191172,22.6567024],[113.819175,22.6567759],[113.81886,22.6569871],[113.8188022,22.6569136]]]]},"properties":{"name":"way/1375539704","height":0,"kind":"unknown","label":"缺少可用高度；仅展示轮廓"}},{"type":"Feature","id":"way/1375539705","geometry":{"type":"MultiPolygon","coordinates":[[[[113.8189339,22.6570568],[113.8192566,22.6568374],[113.8193581,22.6569646],[113.8190353,22.6571839],[113.8189339,22.6570568]]]]},"properties":{"name":"way/1375539705","height":0,"kind":"unknown","label":"缺少可用高度；仅展示轮廓"}},{"type":"Feature","id":"way/1375539706","geometry":{"type":"MultiPolygon","coordinates":[[[[113.8191067,22.657255],[113.8194294,22.6570357],[113.8195309,22.6571629],[113.8192081,22.6573822],[113.8191067,22.657255]]]]},"properties":{"name":"way/1375539706","height":0,"kind":"unknown","label":"缺少可用高度；仅展示轮廓"}},{"type":"Feature","id":"way/1375539707","geometry":{"type":"MultiPolygon","coordinates":[[[[113.8192714,22.6574701],[113.8195941,22.6572507],[113.8196956,22.6573779],[113.8193729,22.6575973],[113.8192714,22.6574701]]]]},"properties":{"name":"way/1375539707","height":0,"kind":"unknown","label":"缺少可用高度；仅展示轮廓"}},{"type":"Feature","id":"way/1375539708","geometry":{"type":"MultiPolygon","coordinates":[[[[113.8194263,22.6576903],[113.819749,22.6574709],[113.8198505,22.6575981],[113.8195277,22.6578174],[113.8194263,22.6576903]]]]},"properties":{"name":"way/1375539708","height":0,"kind":"unknown","label":"缺少可用高度；仅展示轮廓"}},{"type":"Feature","id":"way/1375539709","geometry":{"type":"MultiPolygon","coordinates":[[[[113.8196857,22.6572065],[113.8200085,22.6569872],[113.82011,22.6571143],[113.8197872,22.6573337],[113.8196857,22.6572065]]]]},"properties":{"name":"way/1375539709","height":0,"kind":"unknown","label":"缺少可用高度；仅展示轮廓"}},{"type":"Feature","id":"way/1375539710","geometry":{"type":"MultiPolygon","coordinates":[[[[113.819519,22.657002],[113.8198418,22.6567827],[113.8199433,22.6569099],[113.8196205,22.6571292],[113.819519,22.657002]]]]},"properties":{"name":"way/1375539710","height":0,"kind":"unknown","label":"缺少可用高度；仅展示轮廓"}},{"type":"Feature","id":"way/1375539711","geometry":{"type":"MultiPolygon","coordinates":[[[[113.8193584,22.6567844],[113.8196812,22.6565651],[113.8197827,22.6566923],[113.8194599,22.6569116],[113.8193584,22.6567844]]]]},"properties":{"name":"way/1375539711","height":0,"kind":"unknown","label":"缺少可用高度；仅展示轮廓"}},{"type":"Feature","id":"way/1375539712","geometry":{"type":"MultiPolygon","coordinates":[[[[113.8192121,22.6566457],[113.8195271,22.6564345],[113.8195849,22.6565079],[113.8192699,22.6567191],[113.8192121,22.6566457]]]]},"properties":{"name":"way/1375539712","height":0,"kind":"unknown","label":"缺少可用高度；仅展示轮廓"}},{"type":"Feature","id":"way/1375539713","geometry":{"type":"MultiPolygon","coordinates":[[[[113.8190864,22.656484],[113.8194015,22.6562728],[113.8194593,22.6563463],[113.8191443,22.6565575],[113.8190864,22.656484]]]]},"properties":{"name":"way/1375539713","height":0,"kind":"unknown","label":"缺少可用高度；仅展示轮廓"}},{"type":"Feature","id":"way/1375539714","geometry":{"type":"MultiPolygon","coordinates":[[[[113.8198336,22.657451],[113.8201563,22.6572316],[113.8202579,22.6573588],[113.8199351,22.6575781],[113.8198336,22.657451]]]]},"properties":{"name":"way/1375539714","height":0,"kind":"unknown","label":"缺少可用高度；仅展示轮廓"}},{"type":"Feature","id":"way/1375539715","geometry":{"type":"MultiPolygon","coordinates":[[[[113.8200154,22.6576626],[113.8203338,22.6574499],[113.8204128,22.6575507],[113.8200943,22.6577633],[113.8200154,22.6576626]]]]},"properties":{"name":"way/1375539715","height":0,"kind":"unknown","label":"缺少可用高度；仅展示轮廓"}},{"type":"Feature","id":"way/1375539716","geometry":{"type":"MultiPolygon","coordinates":[[[[113.8201602,22.6578443],[113.8204787,22.6576316],[113.8205577,22.6577324],[113.8202392,22.657945],[113.8201602,22.6578443]]]]},"properties":{"name":"way/1375539716","height":0,"kind":"unknown","label":"缺少可用高度；仅展示轮廓"}},{"type":"Feature","id":"way/1375539717","geometry":{"type":"MultiPolygon","coordinates":[[[[113.8204556,22.6571477],[113.8207047,22.6569333],[113.8210086,22.6572341],[113.8207595,22.6574484],[113.8204556,22.6571477]]]]},"properties":{"name":"way/1375539717","height":0,"kind":"unknown","label":"缺少可用高度；仅展示轮廓"}},{"type":"Feature","id":"way/1375539718","geometry":{"type":"MultiPolygon","coordinates":[[[[113.8195186,22.6561922],[113.819669,22.656075],[113.8198978,22.6563249],[113.8197474,22.6564422],[113.8195186,22.6561922]]]]},"properties":{"name":"way/1375539718","height":0,"kind":"unknown","label":"缺少可用高度；仅展示轮廓"}},{"type":"Feature","id":"way/1375539719","geometry":{"type":"MultiPolygon","coordinates":[[[[113.8197305,22.6560559],[113.8197998,22.6559966],[113.8200607,22.6562563],[113.8199915,22.6563155],[113.8197305,22.6560559]]]]},"properties":{"name":"way/1375539719","height":0,"kind":"unknown","label":"缺少可用高度；仅展示轮廓"}},{"type":"Feature","id":"way/1375539720","geometry":{"type":"MultiPolygon","coordinates":[[[[113.8201529,22.6568694],[113.820244,22.6567957],[113.8203125,22.6568678],[113.8205099,22.6567082],[113.8206063,22.6568098],[113.8203179,22.6570431],[113.8201529,22.6568694]]]]},"properties":{"name":"way/1375539720","height":0,"kind":"unknown","label":"缺少可用高度；仅展示轮廓"}},{"type":"Feature","id":"way/1375539721","geometry":{"type":"MultiPolygon","coordinates":[[[[113.8200479,22.6567572],[113.8203308,22.6565267],[113.8204148,22.6566145],[113.8201318,22.656845],[113.8200479,22.6567572]]]]},"properties":{"name":"way/1375539721","height":0,"kind":"unknown","label":"缺少可用高度；仅展示轮廓"}},{"type":"Feature","id":"way/1375539722","geometry":{"type":"MultiPolygon","coordinates":[[[[113.8197855,22.6564683],[113.819879,22.6563929],[113.8199866,22.6565064],[113.8201798,22.6563505],[113.8202813,22.6564576],[113.8199946,22.656689],[113.8197855,22.6564683]]]]},"properties":{"name":"way/1375539722","height":0,"kind":"unknown","label":"缺少可用高度；仅展示轮廓"}},{"type":"Feature","id":"way/1375539742","geometry":{"type":"MultiPolygon","coordinates":[[[[113.8197171,22.6606822],[113.8197559,22.6606271],[113.8200521,22.6608049],[113.8198334,22.6611152],[113.8197433,22.6610612],[113.8199232,22.6608058],[113.8197171,22.6606822]]]]},"properties":{"name":"way/1375539742","height":0,"kind":"unknown","label":"缺少可用高度；仅展示轮廓"}},{"type":"Feature","id":"way/1375539743","geometry":{"type":"MultiPolygon","coordinates":[[[[113.81933,22.6604922],[113.8194031,22.6603937],[113.8196846,22.6605717],[113.8196114,22.6606702],[113.81933,22.6604922]]]]},"properties":{"name":"way/1375539743","height":0,"kind":"unknown","label":"缺少可用高度；仅展示轮廓"}},{"type":"Feature","id":"way/1375539744","geometry":{"type":"MultiPolygon","coordinates":[[[[113.8191667,22.6607338],[113.8192398,22.6606354],[113.8195213,22.6608134],[113.8194481,22.6609119],[113.8191667,22.6607338]]]]},"properties":{"name":"way/1375539744","height":0,"kind":"unknown","label":"缺少可用高度；仅展示轮廓"}},{"type":"Feature","id":"way/1375539745","geometry":{"type":"MultiPolygon","coordinates":[[[[113.8176595,22.6594956],[113.8177491,22.6593669],[113.8178469,22.6594249],[113.8177915,22.6595044],[113.8178442,22.6595356],[113.8178975,22.659459],[113.8179964,22.6595177],[113.8179447,22.6595919],[113.8179688,22.6596062],[113.818018,22.6595355],[113.8183487,22.6597316],[113.8182635,22.6598538],[113.8176595,22.6594956]]]]},"properties":{"name":"way/1375539745","height":0,"kind":"unknown","label":"缺少可用高度；仅展示轮廓"}},{"type":"Feature","id":"way/1375539746","geometry":{"type":"MultiPolygon","coordinates":[[[[113.8180963,22.6602273],[113.8184206,22.6597845],[113.8188535,22.6600545],[113.8185291,22.6604973],[113.8180963,22.6602273]]]]},"properties":{"name":"way/1375539746","height":0,"kind":"unknown","label":"缺少可用高度；仅展示轮廓"}},{"type":"Feature","id":"way/1375539747","geometry":{"type":"MultiPolygon","coordinates":[[[[113.8186931,22.6605609],[113.8190181,22.6601039],[113.8193109,22.6602812],[113.8189859,22.6607382],[113.8186931,22.6605609]]]]},"properties":{"name":"way/1375539747","height":0,"kind":"unknown","label":"缺少可用高度；仅展示轮廓"}},{"type":"Feature","id":"way/1375539753","geometry":{"type":"MultiPolygon","coordinates":[[[[113.8181774,22.6618248],[113.8185416,22.6613437],[113.8187512,22.6614788],[113.8183868,22.6619599],[113.8181774,22.6618248]]]]},"properties":{"name":"way/1375539753","height":0,"kind":"unknown","label":"缺少可用高度；仅展示轮廓"}},{"type":"Feature","id":"way/1375539766","geometry":{"type":"MultiPolygon","coordinates":[[[[113.8165744,22.6615514],[113.8166852,22.661399],[113.8170678,22.661636],[113.8169569,22.6617885],[113.8165744,22.6615514]]]]},"properties":{"name":"way/1375539766","height":0,"kind":"unknown","label":"缺少可用高度；仅展示轮廓"}},{"type":"Feature","id":"way/1375539767","geometry":{"type":"MultiPolygon","coordinates":[[[[113.8167601,22.6613154],[113.816871,22.661163],[113.8172536,22.6614],[113.8171427,22.6615525],[113.8167601,22.6613154]]]]},"properties":{"name":"way/1375539767","height":0,"kind":"unknown","label":"缺少可用高度；仅展示轮廓"}},{"type":"Feature","id":"way/1375539769","geometry":{"type":"MultiPolygon","coordinates":[[[[113.8172734,22.661634],[113.8173843,22.6614816],[113.8177669,22.6617187],[113.817656,22.6618711],[113.8172734,22.661634]]]]},"properties":{"name":"way/1375539769","height":0,"kind":"unknown","label":"缺少可用高度；仅展示轮廓"}},{"type":"Feature","id":"way/1375539772","geometry":{"type":"MultiPolygon","coordinates":[[[[113.8174481,22.6613931],[113.817559,22.6612407],[113.8179416,22.6614777],[113.8178307,22.6616301],[113.8174481,22.6613931]]]]},"properties":{"name":"way/1375539772","height":0,"kind":"unknown","label":"缺少可用高度；仅展示轮廓"}},{"type":"Feature","id":"way/1375539773","geometry":{"type":"MultiPolygon","coordinates":[[[[113.8171138,22.6608381],[113.8173225,22.6605356],[113.8177046,22.6607601],[113.8175011,22.6610551],[113.81729,22.6609311],[113.8174141,22.6607513],[113.8173457,22.6607112],[113.8172165,22.6608984],[113.8171138,22.6608381]]]]},"properties":{"name":"way/1375539773","height":0,"kind":"unknown","label":"缺少可用高度；仅展示轮廓"}},{"type":"Feature","id":"way/1375539774","geometry":{"type":"MultiPolygon","coordinates":[[[[113.8169456,22.661042],[113.8170565,22.6608896],[113.8174391,22.6611266],[113.8173281,22.6612791],[113.8169456,22.661042]]]]},"properties":{"name":"way/1375539774","height":0,"kind":"unknown","label":"缺少可用高度；仅展示轮廓"}},{"type":"Feature","id":"way/1375539775","geometry":{"type":"MultiPolygon","coordinates":[[[[113.8178286,22.6609063],[113.8178805,22.6608264],[113.8182619,22.6610377],[113.8180504,22.6613626],[113.8179176,22.661289],[113.818077,22.6610439],[113.8178286,22.6609063]]]]},"properties":{"name":"way/1375539775","height":0,"kind":"unknown","label":"缺少可用高度；仅展示轮廓"}},{"type":"Feature","id":"way/1375539776","geometry":{"type":"MultiPolygon","coordinates":[[[[113.8179405,22.661729],[113.8181625,22.6614285],[113.8182615,22.6614903],[113.8180396,22.6617914],[113.8179405,22.661729]]]]},"properties":{"name":"way/1375539776","height":0,"kind":"unknown","label":"缺少可用高度；仅展示轮廓"}},{"type":"Feature","id":"way/1375539777","geometry":{"type":"MultiPolygon","coordinates":[[[[113.8181625,22.6614285],[113.8183698,22.6611459],[113.8184687,22.6612077],[113.8182615,22.6614903],[113.8181625,22.6614285]]]]},"properties":{"name":"way/1375539777","height":0,"kind":"unknown","label":"缺少可用高度；仅展示轮廓"}},{"type":"Feature","id":"way/1464369570","geometry":{"type":"MultiPolygon","coordinates":[[[[113.8114918,22.6607209],[113.8115288,22.6606582],[113.8119519,22.6608897],[113.8119304,22.6609239],[113.811972,22.6609462],[113.8120303,22.6610814],[113.8119811,22.6610995],[113.8119953,22.6611323],[113.8119349,22.6611545],[113.8118569,22.6609739],[113.811666,22.6608725],[113.8116343,22.6609231],[113.8115936,22.6609013],[113.8116253,22.6608509],[113.8115686,22.6608208],[113.8115964,22.6607751],[113.8114918,22.6607209]]]]},"properties":{"name":"way/1464369570","height":0,"kind":"unknown","label":"缺少可用高度；仅展示轮廓"}},{"type":"Feature","id":"way/1464369585","geometry":{"type":"MultiPolygon","coordinates":[[[[113.8164248,22.6537599],[113.8166234,22.653629],[113.8166746,22.6536951],[113.8167868,22.6537146],[113.8171117,22.6535002],[113.8172666,22.6537001],[113.8172538,22.6537086],[113.8166789,22.6540879],[113.8164504,22.653793],[113.8164248,22.6537599]]]]},"properties":{"name":"深圳双溪威大酒店","height":0,"kind":"unknown","label":"缺少可用高度；仅展示轮廓"}},{"type":"Feature","id":"way/1464369586","geometry":{"type":"MultiPolygon","coordinates":[[[[113.8164504,22.653793],[113.8166036,22.6536905],[113.8167007,22.6538141],[113.8167566,22.6538159],[113.8170869,22.653596],[113.8171207,22.6536393],[113.8171729,22.6536047],[113.8172538,22.6537086],[113.8166789,22.6540879],[113.8164504,22.653793]]]]},"properties":{"name":"way/1464369586","height":0,"kind":"unknown","label":"缺少可用高度；仅展示轮廓"}},{"type":"Feature","id":"relation/20059760","geometry":{"type":"MultiPolygon","coordinates":[[[[113.8172159,22.6548783],[113.8187872,22.653818],[113.8191376,22.6542603],[113.8175663,22.6553206],[113.8172159,22.6548783]],[[113.8174454,22.6549177],[113.8175924,22.6551046],[113.8189087,22.6542226],[113.8187614,22.6540355],[113.8174454,22.6549177]]]]},"properties":{"name":"福海农贸市场","height":0,"kind":"unknown","label":"缺少可用高度；仅展示轮廓"}},{"type":"Feature","id":"way/1465314972","geometry":{"type":"MultiPolygon","coordinates":[[[[113.817655,22.6554048],[113.8192151,22.6543421],[113.8192834,22.6544275],[113.8177231,22.65549],[113.817655,22.6554048]]]]},"properties":{"name":"way/1465314972","height":0,"kind":"unknown","label":"缺少可用高度；仅展示轮廓"}},{"type":"Feature","id":"way/1465314978","geometry":{"type":"MultiPolygon","coordinates":[[[[113.8201188,22.6560417],[113.8203447,22.6558491],[113.8206398,22.6561439],[113.8204139,22.6563364],[113.8201188,22.6560417]]]]},"properties":{"name":"way/1465314978","height":0,"kind":"unknown","label":"缺少可用高度；仅展示轮廓"}},{"type":"Feature","id":"way/1465314979","geometry":{"type":"MultiPolygon","coordinates":[[[[113.8197771,22.6556984],[113.8200029,22.6555058],[113.820298,22.6558006],[113.8200722,22.6559931],[113.8197771,22.6556984]]]]},"properties":{"name":"way/1465314979","height":0,"kind":"unknown","label":"缺少可用高度；仅展示轮廓"}},{"type":"Feature","id":"way/1465314985","geometry":{"type":"MultiPolygon","coordinates":[[[[113.8145098,22.6585322],[113.8145667,22.6584415],[113.8146541,22.6583929],[113.8146965,22.6584121],[113.8152209,22.658108],[113.8153247,22.6581523],[113.8152785,22.6587546],[113.8153418,22.6587885],[113.8152531,22.6589297],[113.8145098,22.6585322]]]]},"properties":{"name":"中润悦尚","height":0,"kind":"unknown","label":"缺少可用高度；仅展示轮廓"}},{"type":"Feature","id":"way/1465314990","geometry":{"type":"MultiPolygon","coordinates":[[[[113.8139175,22.6547576],[113.8139787,22.6546427],[113.8139449,22.6546274],[113.8139486,22.6546205],[113.8140058,22.6546284],[113.814152,22.6546625],[113.8142447,22.6546997],[113.8143264,22.6547482],[113.8143721,22.654783],[113.8143566,22.6548122],[113.8143338,22.6548018],[113.814285,22.6548934],[113.8142395,22.6548728],[113.8142263,22.6548977],[113.8139175,22.6547576]]]]},"properties":{"name":"way/1465314990","height":0,"kind":"unknown","label":"缺少可用高度；仅展示轮廓"}}]}