{"type":"FeatureCollection","features":[{"type":"Feature","id":"way/101316394","geometry":{"type":"MultiPolygon","coordinates":[[[[113.8132699,22.645772],[113.8132789,22.645575],[113.8133271,22.6454102],[113.8133969,22.645274],[113.8134976,22.6451296],[113.8136927,22.6449717],[113.8140395,22.6452106],[113.8139399,22.6453935],[113.8150376,22.6458933],[113.815941,22.6456091],[113.8161985,22.6451469],[113.8169357,22.6454968],[113.8157397,22.6476435],[113.8154679,22.6475143],[113.8154292,22.6474964],[113.8150103,22.6472975],[113.8150917,22.6471515],[113.8151289,22.6470847],[113.815157,22.6470342],[113.8148758,22.6462075],[113.813776,22.6457044],[113.8136772,22.6458914],[113.8132699,22.645772]]]]},"properties":{"name":"way/101316394","height":0,"kind":"unknown","label":"缺少可用高度；仅展示轮廓"}},{"type":"Feature","id":"way/101317367","geometry":{"type":"MultiPolygon","coordinates":[[[[113.814085,22.648044],[113.8145433,22.6471993],[113.8146217,22.6472355],[113.8151289,22.6470847],[113.8150917,22.6471515],[113.8146955,22.6472696],[113.814932,22.6473789],[113.8144737,22.6482236],[113.814232,22.6481119],[113.8141719,22.6482228],[113.814135,22.6482057],[113.8141951,22.6480949],[113.814085,22.648044]]]]},"properties":{"name":"way/101317367","height":0,"kind":"unknown","label":"缺少可用高度；仅展示轮廓"}},{"type":"Feature","id":"way/101317612","geometry":{"type":"MultiPolygon","coordinates":[[[[113.8104283,22.6478646],[113.8104502,22.6476965],[113.8105051,22.6475338],[113.8106183,22.6473587],[113.810768,22.647233],[113.8110042,22.6473523],[113.8108961,22.6475329],[113.8133795,22.6486968],[113.8135816,22.6483289],[113.8138122,22.6484368],[113.8139772,22.6481328],[113.814135,22.6482057],[113.8141719,22.6482228],[113.8148719,22.6485447],[113.8149028,22.648559],[113.8151663,22.6486812],[113.8143255,22.6502255],[113.8131396,22.6496755],[113.8133181,22.6493476],[113.8130919,22.6492417],[113.8132514,22.6489513],[113.8107717,22.6477893],[113.8106753,22.6479534],[113.8104283,22.6478646]]]]},"properties":{"name":"way/101317612","height":0,"kind":"unknown","label":"缺少可用高度；仅展示轮廓"}},{"type":"Feature","id":"way/325923955","geometry":{"type":"MultiPolygon","coordinates":[[[[113.817175,22.6504678],[113.8177172,22.6494803],[113.8177775,22.6493704],[113.8178034,22.6493232],[113.818087,22.6494558],[113.8174587,22.6506005],[113.817175,22.6504678]]]]},"properties":{"name":"机场东站","height":9,"kind":"levels","label":"3层 × 3米（估算）"}},{"type":"Feature","id":"way/325925438","geometry":{"type":"MultiPolygon","coordinates":[[[[113.8156386,22.6440072],[113.8158674,22.6435931],[113.8163343,22.6438129],[113.8161055,22.644227],[113.8156386,22.6440072]]]]},"properties":{"name":"way/325925438","height":0,"kind":"unknown","label":"缺少可用高度；仅展示轮廓"}},{"type":"Feature","id":"way/478460869","geometry":{"type":"MultiPolygon","coordinates":[[[[113.8124377,22.651011],[113.8130297,22.649926],[113.8137949,22.6502815],[113.8137639,22.6503382],[113.8138753,22.65039],[113.8133143,22.6514183],[113.8124377,22.651011]]]]},"properties":{"name":"way/478460869","height":0,"kind":"unknown","label":"缺少可用高度；仅展示轮廓"}},{"type":"Feature","id":"way/545006864","geometry":{"type":"MultiPolygon","coordinates":[[[[113.8148719,22.6485447],[113.8149953,22.6483165],[113.8149409,22.6482915],[113.8150228,22.6481401],[113.814896,22.6480817],[113.8152368,22.6474515],[113.8154102,22.6475314],[113.8154292,22.6474964],[113.8154679,22.6475143],[113.8151656,22.6480737],[113.8151162,22.6481639],[113.8149028,22.648559],[113.8148719,22.6485447]]]]},"properties":{"name":"way/545006864","height":0,"kind":"unknown","label":"缺少可用高度；仅展示轮廓"}},{"type":"Feature","id":"way/591154819","geometry":{"type":"MultiPolygon","coordinates":[[[[113.8196471,22.6444293],[113.8198575,22.6440602],[113.820556,22.6443994],[113.8203456,22.6447685],[113.8196471,22.6444293]]]]},"properties":{"name":"way/591154819","height":0,"kind":"unknown","label":"缺少可用高度；仅展示轮廓"}},{"type":"Feature","id":"way/591154821","geometry":{"type":"MultiPolygon","coordinates":[[[[113.8199488,22.6438717],[113.8201591,22.6435026],[113.8208577,22.6438418],[113.8206473,22.6442109],[113.8199488,22.6438717]]]]},"properties":{"name":"way/591154821","height":0,"kind":"unknown","label":"缺少可用高度；仅展示轮廓"}},{"type":"Feature","id":"way/1038271912","geometry":{"type":"MultiPolygon","coordinates":[[[[113.810927,22.6503314],[113.8111788,22.6498736],[113.8122217,22.6503622],[113.8119699,22.65082],[113.810927,22.6503314]]]]},"properties":{"name":"way/1038271912","height":0,"kind":"unknown","label":"缺少可用高度；仅展示轮廓"}},{"type":"Feature","id":"way/1137537138","geometry":{"type":"MultiPolygon","coordinates":[[[[113.8157478,22.652458],[113.8159076,22.6522289],[113.8160591,22.6520035],[113.8162294,22.6517081],[113.8180792,22.6482749],[113.8183019,22.6483771],[113.8177688,22.6493664],[113.8177775,22.6493704],[113.8177172,22.6494803],[113.8176917,22.6494686],[113.8164347,22.6518023],[113.8162632,22.6521071],[113.816097,22.6523485],[113.8159264,22.6525781],[113.8157478,22.652458]]]]},"properties":{"name":"机场东站","height":0,"kind":"unknown","label":"缺少可用高度；仅展示轮廓"}},{"type":"Feature","id":"way/1282408603","geometry":{"type":"MultiPolygon","coordinates":[[[[113.8108718,22.6522688],[113.8111979,22.6516754],[113.811363,22.6517527],[113.811037,22.6523461],[113.8108718,22.6522688]]]]},"properties":{"name":"way/1282408603","height":0,"kind":"unknown","label":"缺少可用高度；仅展示轮廓"}},{"type":"Feature","id":"way/1282408604","geometry":{"type":"MultiPolygon","coordinates":[[[[113.8108777,22.6514149],[113.8111286,22.6509672],[113.8112721,22.6510357],[113.8110212,22.6514834],[113.8108777,22.6514149]]]]},"properties":{"name":"way/1282408604","height":0,"kind":"unknown","label":"缺少可用高度；仅展示轮廓"}},{"type":"Feature","id":"way/1464317024","geometry":{"type":"MultiPolygon","coordinates":[[[[113.820301,22.6485027],[113.8203688,22.648281],[113.821017,22.6484498],[113.8209492,22.6486716],[113.820301,22.6485027]]]]},"properties":{"name":"way/1464317024","height":0,"kind":"unknown","label":"缺少可用高度；仅展示轮廓"}},{"type":"Feature","id":"way/1464317040","geometry":{"type":"MultiPolygon","coordinates":[[[[113.8199814,22.649967],[113.8200073,22.6499586],[113.8199861,22.6499025],[113.8200464,22.6498831],[113.8200195,22.6498121],[113.8201138,22.6497817],[113.8201552,22.6498909],[113.8202066,22.6499134],[113.8203248,22.6498749],[113.820358,22.6499619],[113.8202812,22.6499869],[113.8203024,22.6500425],[113.8202418,22.6500622],[113.8202509,22.6500861],[113.8202004,22.6501025],[113.8201703,22.6500236],[113.8200846,22.649986],[113.8199991,22.6500136],[113.8199814,22.649967]]]]},"properties":{"name":"way/1464317040","height":0,"kind":"unknown","label":"缺少可用高度；仅展示轮廓"}},{"type":"Feature","id":"way/1464317041","geometry":{"type":"MultiPolygon","coordinates":[[[[113.8199754,22.649624],[113.8200433,22.6495036],[113.8204213,22.6496852],[113.8203536,22.6498052],[113.8202714,22.6497657],[113.8202987,22.6497173],[113.8200921,22.6496179],[113.8200645,22.6496668],[113.8199754,22.649624]]]]},"properties":{"name":"way/1464317041","height":0,"kind":"unknown","label":"缺少可用高度；仅展示轮廓"}},{"type":"Feature","id":"way/1464369583","geometry":{"type":"MultiPolygon","coordinates":[[[[113.8189146,22.650768],[113.819133,22.6503802],[113.8192062,22.6503572],[113.8197368,22.6506134],[113.8196529,22.6507613],[113.8192719,22.6505774],[113.819217,22.6505967],[113.8190768,22.6508458],[113.8189146,22.650768]]]]},"properties":{"name":"深圳机场大酒店","height":0,"kind":"unknown","label":"缺少可用高度；仅展示轮廓"}},{"type":"Feature","id":"way/1469953885","geometry":{"type":"MultiPolygon","coordinates":[[[[113.8198591,22.6464835],[113.8199126,22.6463854],[113.8202727,22.6465526],[113.8202651,22.6465666],[113.8203024,22.6465839],[113.8203137,22.6465646],[113.8203455,22.6465378],[113.8203852,22.6465222],[113.8204281,22.6465196],[113.8204685,22.6465296],[113.8205032,22.646551],[113.8205287,22.6465816],[113.8205422,22.6466181],[113.8205424,22.6466567],[113.8205291,22.6466932],[113.8205039,22.646724],[113.8204694,22.6467457],[113.8204291,22.646756],[113.8203874,22.6467539],[113.8203873,22.6467735],[113.8203528,22.6467605],[113.8203346,22.6467503],[113.8203178,22.6467368],[113.8202948,22.6467796],[113.8200738,22.6466784],[113.8200479,22.646727],[113.8199852,22.6467042],[113.8199338,22.646664],[113.8198991,22.6466106],[113.819885,22.6465498],[113.8198915,22.6464986],[113.8198591,22.6464835]]]]},"properties":{"name":"航油大厦","height":0,"kind":"unknown","label":"缺少可用高度；仅展示轮廓"}}]}