{"type":"FeatureCollection","features":[{"type":"Feature","id":"way/347989687","geometry":{"type":"MultiPolygon","coordinates":[[[[113.7977056,22.7659216],[113.7985446,22.765616],[113.7986833,22.7659398],[113.7978442,22.7662453],[113.7977056,22.7659216]]]]},"properties":{"name":"Carlo PrecisionTech Co., Ltd","height":0,"kind":"unknown","label":"缺少可用高度；仅展示轮廓"}},{"type":"Feature","id":"way/957244099","geometry":{"type":"MultiPolygon","coordinates":[[[[113.7949096,22.7680796],[113.795543,22.7678662],[113.7955825,22.7679659],[113.794949,22.7681792],[113.7949096,22.7680796]]]]},"properties":{"name":"way/957244099","height":0,"kind":"unknown","label":"缺少可用高度；仅展示轮廓"}},{"type":"Feature","id":"way/957244100","geometry":{"type":"MultiPolygon","coordinates":[[[[113.795133,22.7684818],[113.7952335,22.7684347],[113.7953606,22.7686656],[113.7952601,22.7687126],[113.795133,22.7684818]]]]},"properties":{"name":"way/957244100","height":0,"kind":"unknown","label":"缺少可用高度；仅展示轮廓"}},{"type":"Feature","id":"way/957244101","geometry":{"type":"MultiPolygon","coordinates":[[[[113.7945545,22.7691936],[113.7956072,22.7687406],[113.7957293,22.768982],[113.7946767,22.7694349],[113.7945545,22.7691936]]]]},"properties":{"name":"way/957244101","height":0,"kind":"unknown","label":"缺少可用高度；仅展示轮廓"}},{"type":"Feature","id":"way/957244102","geometry":{"type":"MultiPolygon","coordinates":[[[[113.7953321,22.7681005],[113.795795,22.7679048],[113.7958442,22.7679589],[113.795721,22.7680323],[113.7958253,22.7682422],[113.7960054,22.7681359],[113.7960775,22.7682151],[113.7959201,22.7683279],[113.7960453,22.7685885],[113.796087,22.7686112],[113.7961154,22.7685255],[113.7961401,22.7684748],[113.7961705,22.7684363],[113.7962418,22.7683955],[113.796271,22.7684276],[113.7963165,22.768473],[113.7962501,22.768578],[113.7962008,22.7686549],[113.7962084,22.7687161],[113.7962615,22.7688928],[113.7958215,22.7690467],[113.7956299,22.7686462],[113.7953321,22.7681005]]]]},"properties":{"name":"way/957244102","height":0,"kind":"unknown","label":"缺少可用高度；仅展示轮廓"}},{"type":"Feature","id":"way/957244103","geometry":{"type":"MultiPolygon","coordinates":[[[[113.7956356,22.7677298],[113.7957425,22.767647],[113.7963779,22.7683448],[113.796271,22.7684276],[113.7962418,22.7683955],[113.7960775,22.7682151],[113.7960054,22.7681359],[113.7958442,22.7679589],[113.795795,22.7679048],[113.7956356,22.7677298]]]]},"properties":{"name":"way/957244103","height":0,"kind":"unknown","label":"缺少可用高度；仅展示轮廓"}},{"type":"Feature","id":"way/957244104","geometry":{"type":"MultiPolygon","coordinates":[[[[113.7949604,22.7668082],[113.7950686,22.7667376],[113.7956926,22.7675508],[113.7955844,22.7676214],[113.7949604,22.7668082]]]]},"properties":{"name":"way/957244104","height":0,"kind":"unknown","label":"缺少可用高度；仅展示轮廓"}},{"type":"Feature","id":"way/957244105","geometry":{"type":"MultiPolygon","coordinates":[[[[113.7944237,22.7670845],[113.7947315,22.7669649],[113.7947072,22.7669337],[113.7948125,22.7668641],[113.7954137,22.7676371],[113.7953863,22.7676552],[113.7954004,22.7676721],[113.7952619,22.7677704],[113.7947992,22.7679501],[113.7947519,22.7678466],[113.795185,22.7676783],[113.7951817,22.7676743],[113.7952471,22.7676279],[113.795148,22.7675005],[113.7951025,22.7675328],[113.7946854,22.7676948],[113.794642,22.7675998],[113.7950319,22.7674483],[113.7950256,22.7674407],[113.7950745,22.7674059],[113.794969,22.7672703],[113.7949462,22.7672865],[113.7945659,22.7674342],[113.7945176,22.7673284],[113.7948978,22.7671807],[113.7948985,22.7671821],[113.7948997,22.7671812],[113.7947979,22.7670504],[113.7944669,22.767179],[113.7944237,22.7670845]]]]},"properties":{"name":"way/957244105","height":0,"kind":"unknown","label":"缺少可用高度；仅展示轮廓"}},{"type":"Feature","id":"way/957244106","geometry":{"type":"MultiPolygon","coordinates":[[[[113.794198,22.7662818],[113.7944626,22.7661894],[113.7947167,22.7668085],[113.7944521,22.7669008],[113.794198,22.7662818]]]]},"properties":{"name":"way/957244106","height":0,"kind":"unknown","label":"缺少可用高度；仅展示轮廓"}},{"type":"Feature","id":"way/957244107","geometry":{"type":"MultiPolygon","coordinates":[[[[113.793663,22.7661378],[113.7942813,22.765837],[113.7943876,22.7660229],[113.7937693,22.7663237],[113.793663,22.7661378]]]]},"properties":{"name":"way/957244107","height":0,"kind":"unknown","label":"缺少可用高度；仅展示轮廓"}},{"type":"Feature","id":"way/957244108","geometry":{"type":"MultiPolygon","coordinates":[[[[113.7938032,22.7664859],[113.7940842,22.7663657],[113.7941319,22.7664606],[113.7938509,22.7665808],[113.7938032,22.7664859]]]]},"properties":{"name":"way/957244108","height":0,"kind":"unknown","label":"缺少可用高度；仅展示轮廓"}},{"type":"Feature","id":"way/957244109","geometry":{"type":"MultiPolygon","coordinates":[[[[113.7939263,22.766783],[113.7941904,22.76667],[113.7942383,22.7667651],[113.7939742,22.7668781],[113.7939263,22.766783]]]]},"properties":{"name":"way/957244109","height":0,"kind":"unknown","label":"缺少可用高度；仅展示轮廓"}},{"type":"Feature","id":"way/957244110","geometry":{"type":"MultiPolygon","coordinates":[[[[113.7940168,22.7669458],[113.7942814,22.7668326],[113.7943336,22.7669363],[113.794069,22.7670495],[113.7940168,22.7669458]]]]},"properties":{"name":"way/957244110","height":0,"kind":"unknown","label":"缺少可用高度；仅展示轮廓"}},{"type":"Feature","id":"way/957244111","geometry":{"type":"MultiPolygon","coordinates":[[[[113.7934029,22.7662538],[113.7935133,22.7662066],[113.7937034,22.7665843],[113.793593,22.7666315],[113.7934029,22.7662538]]]]},"properties":{"name":"way/957244111","height":0,"kind":"unknown","label":"缺少可用高度；仅展示轮廓"}},{"type":"Feature","id":"way/957244112","geometry":{"type":"MultiPolygon","coordinates":[[[[113.7936578,22.7667492],[113.7937693,22.7667015],[113.7939662,22.7670927],[113.7938547,22.7671404],[113.7936578,22.7667492]]]]},"properties":{"name":"way/957244112","height":0,"kind":"unknown","label":"缺少可用高度；仅展示轮廓"}},{"type":"Feature","id":"way/957244113","geometry":{"type":"MultiPolygon","coordinates":[[[[113.7931472,22.7670886],[113.7936213,22.7668858],[113.7937315,22.7671048],[113.7932574,22.7673077],[113.7931472,22.7670886]]]]},"properties":{"name":"way/957244113","height":0,"kind":"unknown","label":"缺少可用高度；仅展示轮廓"}},{"type":"Feature","id":"way/957244114","geometry":{"type":"MultiPolygon","coordinates":[[[[113.7929632,22.7667564],[113.7934373,22.7665535],[113.7935475,22.7667725],[113.7930734,22.7669754],[113.7929632,22.7667564]]]]},"properties":{"name":"way/957244114","height":0,"kind":"unknown","label":"缺少可用高度；仅展示轮廓"}},{"type":"Feature","id":"way/957244115","geometry":{"type":"MultiPolygon","coordinates":[[[[113.7927925,22.7663996],[113.7932666,22.7661967],[113.7933769,22.7664157],[113.7929027,22.7666186],[113.7927925,22.7663996]]]]},"properties":{"name":"way/957244115","height":0,"kind":"unknown","label":"缺少可用高度；仅展示轮廓"}},{"type":"Feature","id":"way/957244116","geometry":{"type":"MultiPolygon","coordinates":[[[[113.7921875,22.7666357],[113.7926616,22.7664328],[113.7927718,22.7666518],[113.7922977,22.7668547],[113.7921875,22.7666357]]]]},"properties":{"name":"way/957244116","height":0,"kind":"unknown","label":"缺少可用高度；仅展示轮廓"}},{"type":"Feature","id":"way/957244117","geometry":{"type":"MultiPolygon","coordinates":[[[[113.7923885,22.7670117],[113.7928627,22.7668088],[113.7929729,22.7670278],[113.7924987,22.7672307],[113.7923885,22.7670117]]]]},"properties":{"name":"way/957244117","height":0,"kind":"unknown","label":"缺少可用高度；仅展示轮廓"}},{"type":"Feature","id":"way/957244118","geometry":{"type":"MultiPolygon","coordinates":[[[[113.7925724,22.7673411],[113.7930465,22.7671383],[113.7931567,22.7673573],[113.7926826,22.7675602],[113.7925724,22.7673411]]]]},"properties":{"name":"way/957244118","height":0,"kind":"unknown","label":"缺少可用高度；仅展示轮廓"}},{"type":"Feature","id":"way/957244120","geometry":{"type":"MultiPolygon","coordinates":[[[[113.7936059,22.7674247],[113.7942324,22.7671658],[113.7943335,22.7673739],[113.7941893,22.7674335],[113.793707,22.7676327],[113.7936059,22.7674247]]]]},"properties":{"name":"way/957244120","height":0,"kind":"unknown","label":"缺少可用高度；仅展示轮廓"}},{"type":"Feature","id":"way/957244121","geometry":{"type":"MultiPolygon","coordinates":[[[[113.7941893,22.7674335],[113.7943335,22.7673739],[113.7943538,22.7674157],[113.7942096,22.7674753],[113.7941893,22.7674335]]]]},"properties":{"name":"way/957244121","height":0,"kind":"unknown","label":"缺少可用高度；仅展示轮廓"}},{"type":"Feature","id":"way/957244122","geometry":{"type":"MultiPolygon","coordinates":[[[[113.793824,22.7677849],[113.7944505,22.7675261],[113.7945516,22.7677341],[113.7944074,22.7677937],[113.7939251,22.767993],[113.793824,22.7677849]]]]},"properties":{"name":"way/957244122","height":0,"kind":"unknown","label":"缺少可用高度；仅展示轮廓"}},{"type":"Feature","id":"way/957244123","geometry":{"type":"MultiPolygon","coordinates":[[[[113.7944074,22.7677937],[113.7945516,22.7677341],[113.794572,22.767776],[113.7944277,22.7678356],[113.7944074,22.7677937]]]]},"properties":{"name":"way/957244123","height":0,"kind":"unknown","label":"缺少可用高度；仅展示轮廓"}},{"type":"Feature","id":"way/957244124","geometry":{"type":"MultiPolygon","coordinates":[[[[113.7939738,22.7681539],[113.7946003,22.7678951],[113.7947014,22.7681031],[113.7945572,22.7681627],[113.794075,22.768362],[113.7939738,22.7681539]]]]},"properties":{"name":"way/957244124","height":0,"kind":"unknown","label":"缺少可用高度；仅展示轮廓"}},{"type":"Feature","id":"way/957244125","geometry":{"type":"MultiPolygon","coordinates":[[[[113.7945572,22.7681627],[113.7947014,22.7681031],[113.7947218,22.768145],[113.7945776,22.7682046],[113.7945572,22.7681627]]]]},"properties":{"name":"way/957244125","height":0,"kind":"unknown","label":"缺少可用高度；仅展示轮廓"}},{"type":"Feature","id":"way/957244126","geometry":{"type":"MultiPolygon","coordinates":[[[[113.7941407,22.7685509],[113.7947672,22.768292],[113.7948683,22.7685001],[113.7947241,22.7685597],[113.7942419,22.768759],[113.7941407,22.7685509]]]]},"properties":{"name":"way/957244126","height":0,"kind":"unknown","label":"缺少可用高度；仅展示轮廓"}},{"type":"Feature","id":"way/957244127","geometry":{"type":"MultiPolygon","coordinates":[[[[113.7947241,22.7685597],[113.7948683,22.7685001],[113.7948887,22.768542],[113.7947445,22.7686016],[113.7947241,22.7685597]]]]},"properties":{"name":"way/957244127","height":0,"kind":"unknown","label":"缺少可用高度；仅展示轮廓"}},{"type":"Feature","id":"way/957244128","geometry":{"type":"MultiPolygon","coordinates":[[[[113.794923,22.7689453],[113.7950672,22.7688857],[113.7950876,22.7689276],[113.7949433,22.7689872],[113.794923,22.7689453]]]]},"properties":{"name":"way/957244128","height":0,"kind":"unknown","label":"缺少可用高度；仅展示轮廓"}},{"type":"Feature","id":"way/957244129","geometry":{"type":"MultiPolygon","coordinates":[[[[113.7943396,22.7689365],[113.7949661,22.7686777],[113.7950672,22.7688857],[113.794923,22.7689453],[113.7944407,22.7691446],[113.7943396,22.7689365]]]]},"properties":{"name":"way/957244129","height":0,"kind":"unknown","label":"缺少可用高度；仅展示轮廓"}},{"type":"Feature","id":"way/957244130","geometry":{"type":"MultiPolygon","coordinates":[[[[113.7935569,22.7695223],[113.7936986,22.7694638],[113.7937143,22.7694961],[113.7935726,22.7695546],[113.7935569,22.7695223]]]]},"properties":{"name":"way/957244130","height":0,"kind":"unknown","label":"缺少可用高度；仅展示轮廓"}},{"type":"Feature","id":"way/957244131","geometry":{"type":"MultiPolygon","coordinates":[[[[113.7933862,22.7691288],[113.7935147,22.7690758],[113.793538,22.7691236],[113.7934095,22.7691767],[113.7933862,22.7691288]]]]},"properties":{"name":"way/957244131","height":0,"kind":"unknown","label":"缺少可用高度；仅展示轮廓"}},{"type":"Feature","id":"way/957244132","geometry":{"type":"MultiPolygon","coordinates":[[[[113.7932842,22.7689188],[113.7939059,22.7686619],[113.794008,22.7688719],[113.7935147,22.7690758],[113.7933862,22.7691288],[113.7932842,22.7689188]]]]},"properties":{"name":"way/957244132","height":0,"kind":"unknown","label":"缺少可用高度；仅展示轮廓"}},{"type":"Feature","id":"way/957244133","geometry":{"type":"MultiPolygon","coordinates":[[[[113.7932174,22.7687529],[113.7933389,22.7687026],[113.793354,22.7687336],[113.7932325,22.7687838],[113.7932174,22.7687529]]]]},"properties":{"name":"way/957244133","height":0,"kind":"unknown","label":"缺少可用高度；仅展示轮廓"}},{"type":"Feature","id":"way/957244134","geometry":{"type":"MultiPolygon","coordinates":[[[[113.793041,22.7683506],[113.7931724,22.7682964],[113.7931928,22.7683384],[113.7930615,22.7683926],[113.793041,22.7683506]]]]},"properties":{"name":"way/957244134","height":0,"kind":"unknown","label":"缺少可用高度；仅展示轮廓"}},{"type":"Feature","id":"way/957244135","geometry":{"type":"MultiPolygon","coordinates":[[[[113.7928666,22.7679676],[113.793002,22.7679117],[113.7930164,22.7679414],[113.792881,22.7679973],[113.7928666,22.7679676]]]]},"properties":{"name":"way/957244135","height":0,"kind":"unknown","label":"缺少可用高度；仅展示轮廓"}},{"type":"Feature","id":"way/957244136","geometry":{"type":"MultiPolygon","coordinates":[[[[113.7927535,22.7677349],[113.7933711,22.7674797],[113.7934842,22.7677124],[113.793002,22.7679117],[113.7928666,22.7679676],[113.7927535,22.7677349]]]]},"properties":{"name":"way/957244136","height":0,"kind":"unknown","label":"缺少可用高度；仅展示轮廓"}},{"type":"Feature","id":"way/957244137","geometry":{"type":"MultiPolygon","coordinates":[[[[113.7929379,22.7681383],[113.7935455,22.7678872],[113.7936487,22.7680995],[113.7931724,22.7682964],[113.793041,22.7683506],[113.7929379,22.7681383]]]]},"properties":{"name":"way/957244137","height":0,"kind":"unknown","label":"缺少可用高度；仅展示轮廓"}},{"type":"Feature","id":"way/957244138","geometry":{"type":"MultiPolygon","coordinates":[[[[113.7931095,22.7685308],[113.7937276,22.7682754],[113.7938355,22.7684975],[113.7933389,22.7687026],[113.7932174,22.7687529],[113.7931095,22.7685308]]]]},"properties":{"name":"way/957244138","height":0,"kind":"unknown","label":"缺少可用高度；仅展示轮廓"}},{"type":"Feature","id":"way/957244139","geometry":{"type":"MultiPolygon","coordinates":[[[[113.793451,22.7693044],[113.7940918,22.7690397],[113.7941977,22.7692576],[113.7936986,22.7694638],[113.7935569,22.7695223],[113.793451,22.7693044]]]]},"properties":{"name":"way/957244139","height":0,"kind":"unknown","label":"缺少可用高度；仅展示轮廓"}},{"type":"Feature","id":"way/957244143","geometry":{"type":"MultiPolygon","coordinates":[[[[113.7929105,22.7692685],[113.7932781,22.7691166],[113.7933726,22.769311],[113.793005,22.7694629],[113.7929105,22.7692685]]]]},"properties":{"name":"way/957244143","height":0,"kind":"unknown","label":"缺少可用高度；仅展示轮廓"}},{"type":"Feature","id":"way/957244144","geometry":{"type":"MultiPolygon","coordinates":[[[[113.7927202,22.7689521],[113.7931093,22.7687913],[113.7931969,22.7689716],[113.7928078,22.7691323],[113.7927202,22.7689521]]]]},"properties":{"name":"way/957244144","height":0,"kind":"unknown","label":"缺少可用高度；仅展示轮廓"}},{"type":"Feature","id":"way/957244145","geometry":{"type":"MultiPolygon","coordinates":[[[[113.7925949,22.7687321],[113.7929974,22.7685657],[113.7930415,22.7686565],[113.792639,22.7688228],[113.7925949,22.7687321]]]]},"properties":{"name":"way/957244145","height":0,"kind":"unknown","label":"缺少可用高度；仅展示轮廓"}},{"type":"Feature","id":"way/957244146","geometry":{"type":"MultiPolygon","coordinates":[[[[113.7925132,22.7685452],[113.7929121,22.7683804],[113.792962,22.7684831],[113.7925631,22.7686479],[113.7925132,22.7685452]]]]},"properties":{"name":"way/957244146","height":0,"kind":"unknown","label":"缺少可用高度；仅展示轮廓"}},{"type":"Feature","id":"way/957244147","geometry":{"type":"MultiPolygon","coordinates":[[[[113.7923484,22.7682051],[113.7927622,22.7680341],[113.7928177,22.7681481],[113.7924038,22.7683191],[113.7923484,22.7682051]]]]},"properties":{"name":"way/957244147","height":0,"kind":"unknown","label":"缺少可用高度；仅展示轮廓"}},{"type":"Feature","id":"way/957244148","geometry":{"type":"MultiPolygon","coordinates":[[[[113.7922012,22.7678981],[113.7926086,22.7677298],[113.7927163,22.7679514],[113.792309,22.7681198],[113.7922012,22.7678981]]]]},"properties":{"name":"way/957244148","height":0,"kind":"unknown","label":"缺少可用高度；仅展示轮廓"}},{"type":"Feature","id":"way/957244149","geometry":{"type":"MultiPolygon","coordinates":[[[[113.7920577,22.7675158],[113.7924455,22.7673555],[113.792547,22.7675643],[113.7921591,22.7677245],[113.7920577,22.7675158]]]]},"properties":{"name":"way/957244149","height":0,"kind":"unknown","label":"缺少可用高度；仅展示轮廓"}},{"type":"Feature","id":"way/957244150","geometry":{"type":"MultiPolygon","coordinates":[[[[113.7917302,22.766851],[113.7921345,22.766684],[113.7922428,22.766907],[113.7918386,22.767074],[113.7917302,22.766851]]]]},"properties":{"name":"way/957244150","height":0,"kind":"unknown","label":"缺少可用高度；仅展示轮廓"}},{"type":"Feature","id":"way/957244151","geometry":{"type":"MultiPolygon","coordinates":[[[[113.7918765,22.7671941],[113.7922776,22.7670284],[113.7923809,22.7672411],[113.7919798,22.7674068],[113.7918765,22.7671941]]]]},"properties":{"name":"way/957244151","height":0,"kind":"unknown","label":"缺少可用高度；仅展示轮廓"}},{"type":"Feature","id":"way/957244156","geometry":{"type":"MultiPolygon","coordinates":[[[[113.7923214,22.7694902],[113.7927067,22.769331],[113.7928024,22.7695279],[113.792417,22.7696871],[113.7923214,22.7694902]]]]},"properties":{"name":"way/957244156","height":0,"kind":"unknown","label":"缺少可用高度；仅展示轮廓"}},{"type":"Feature","id":"way/957244157","geometry":{"type":"MultiPolygon","coordinates":[[[[113.7921861,22.7691762],[113.7925538,22.7690243],[113.7926507,22.7692235],[113.7922829,22.7693755],[113.7921861,22.7691762]]]]},"properties":{"name":"way/957244157","height":0,"kind":"unknown","label":"缺少可用高度；仅展示轮廓"}},{"type":"Feature","id":"way/957244158","geometry":{"type":"MultiPolygon","coordinates":[[[[113.792086,22.7689103],[113.7924626,22.7687547],[113.792512,22.7688563],[113.7921354,22.7690119],[113.792086,22.7689103]]]]},"properties":{"name":"way/957244158","height":0,"kind":"unknown","label":"缺少可用高度；仅展示轮廓"}},{"type":"Feature","id":"way/957244159","geometry":{"type":"MultiPolygon","coordinates":[[[[113.7919895,22.7687298],[113.7923661,22.7685742],[113.7924155,22.7686758],[113.7920389,22.7688314],[113.7919895,22.7687298]]]]},"properties":{"name":"way/957244159","height":0,"kind":"unknown","label":"缺少可用高度；仅展示轮廓"}},{"type":"Feature","id":"way/957244160","geometry":{"type":"MultiPolygon","coordinates":[[[[113.7919036,22.7685517],[113.7922803,22.7683961],[113.7923296,22.7684977],[113.791953,22.7686533],[113.7919036,22.7685517]]]]},"properties":{"name":"way/957244160","height":0,"kind":"unknown","label":"缺少可用高度；仅展示轮廓"}},{"type":"Feature","id":"way/957244161","geometry":{"type":"MultiPolygon","coordinates":[[[[113.7918125,22.7684157],[113.7921891,22.7682601],[113.7922384,22.7683617],[113.7918618,22.7685173],[113.7918125,22.7684157]]]]},"properties":{"name":"way/957244161","height":0,"kind":"unknown","label":"缺少可用高度；仅展示轮廓"}},{"type":"Feature","id":"way/957244162","geometry":{"type":"MultiPolygon","coordinates":[[[[113.7916854,22.7680942],[113.7920442,22.767946],[113.7921428,22.7681489],[113.791784,22.7682972],[113.7916854,22.7680942]]]]},"properties":{"name":"way/957244162","height":0,"kind":"unknown","label":"缺少可用高度；仅展示轮廓"}},{"type":"Feature","id":"way/957244163","geometry":{"type":"MultiPolygon","coordinates":[[[[113.7914926,22.7677686],[113.7918833,22.7676071],[113.7919923,22.7678315],[113.7916017,22.767993],[113.7914926,22.7677686]]]]},"properties":{"name":"way/957244163","height":0,"kind":"unknown","label":"缺少可用高度；仅展示轮廓"}},{"type":"Feature","id":"way/957244173","geometry":{"type":"MultiPolygon","coordinates":[[[[113.7916353,22.7683666],[113.7917019,22.7683391],[113.7917239,22.7683844],[113.791721,22.7683856],[113.7916573,22.7684119],[113.7916353,22.7683666]]]]},"properties":{"name":"way/957244173","height":0,"kind":"unknown","label":"缺少可用高度；仅展示轮廓"}},{"type":"Feature","id":"way/957244175","geometry":{"type":"MultiPolygon","coordinates":[[[[113.791606,22.7692163],[113.7918007,22.7691358],[113.7920446,22.7696378],[113.79185,22.7697182],[113.791606,22.7692163]]]]},"properties":{"name":"way/957244175","height":0,"kind":"unknown","label":"缺少可用高度；仅展示轮廓"}},{"type":"Feature","id":"way/957244178","geometry":{"type":"MultiPolygon","coordinates":[[[[113.7920212,22.7693805],[113.7921477,22.7693282],[113.7922515,22.7695417],[113.792125,22.769594],[113.7920212,22.7693805]]]]},"properties":{"name":"way/957244178","height":0,"kind":"unknown","label":"缺少可用高度；仅展示轮廓"}},{"type":"Feature","id":"way/957244179","geometry":{"type":"MultiPolygon","coordinates":[[[[113.7918997,22.769148],[113.7920264,22.7690956],[113.7920961,22.7692392],[113.7919695,22.7692915],[113.7918997,22.769148]]]]},"properties":{"name":"way/957244179","height":0,"kind":"unknown","label":"缺少可用高度；仅展示轮廓"}},{"type":"Feature","id":"way/957244180","geometry":{"type":"MultiPolygon","coordinates":[[[[113.7917741,22.7687179],[113.7918468,22.7686878],[113.7918784,22.7687529],[113.7918057,22.7687829],[113.7917741,22.7687179]]]]},"properties":{"name":"way/957244180","height":0,"kind":"unknown","label":"缺少可用高度；仅展示轮廓"}},{"type":"Feature","id":"way/957244181","geometry":{"type":"MultiPolygon","coordinates":[[[[113.7914731,22.7689203],[113.7918057,22.7687829],[113.7918784,22.7687529],[113.7919917,22.7689859],[113.7915863,22.7691533],[113.7914731,22.7689203]]]]},"properties":{"name":"way/957244181","height":0,"kind":"unknown","label":"缺少可用高度；仅展示轮廓"}},{"type":"Feature","id":"way/957244182","geometry":{"type":"MultiPolygon","coordinates":[[[[113.791327,22.7685484],[113.7916573,22.7684119],[113.791721,22.7683856],[113.7918476,22.768646],[113.7914536,22.7688088],[113.791327,22.7685484]]]]},"properties":{"name":"way/957244182","height":0,"kind":"unknown","label":"缺少可用高度；仅展示轮廓"}},{"type":"Feature","id":"way/1289066488","geometry":{"type":"MultiPolygon","coordinates":[[[[113.791406,22.7643353],[113.7918725,22.764148],[113.7919394,22.7642897],[113.7914729,22.764477],[113.791406,22.7643353]]]]},"properties":{"name":"M栋","height":0,"kind":"unknown","label":"缺少可用高度；仅展示轮廓"}},{"type":"Feature","id":"way/1289066489","geometry":{"type":"MultiPolygon","coordinates":[[[[113.7915506,22.7646415],[113.7920851,22.7644269],[113.7921877,22.7646441],[113.7916531,22.7648587],[113.7915506,22.7646415]]]]},"properties":{"name":"C栋","height":0,"kind":"unknown","label":"缺少可用高度；仅展示轮廓"}},{"type":"Feature","id":"way/1289066491","geometry":{"type":"MultiPolygon","coordinates":[[[[113.7917196,22.7649995],[113.7922587,22.7647831],[113.7923616,22.7650011],[113.7918225,22.7652175],[113.7917196,22.7649995]]]]},"properties":{"name":"B栋","height":0,"kind":"unknown","label":"缺少可用高度；仅展示轮廓"}},{"type":"Feature","id":"way/1289066492","geometry":{"type":"MultiPolygon","coordinates":[[[[113.7918944,22.7653587],[113.7924252,22.7651433],[113.7925284,22.7653596],[113.7919976,22.765575],[113.7918944,22.7653587]]]]},"properties":{"name":"A栋","height":0,"kind":"unknown","label":"缺少可用高度；仅展示轮廓"}},{"type":"Feature","id":"way/1289066494","geometry":{"type":"MultiPolygon","coordinates":[[[[113.792344,22.7647046],[113.7924183,22.7646573],[113.7925825,22.7648768],[113.7925082,22.7649241],[113.792344,22.7647046]]]]},"properties":{"name":"way/1289066494","height":0,"kind":"unknown","label":"缺少可用高度；仅展示轮廓"}},{"type":"Feature","id":"way/1289066495","geometry":{"type":"MultiPolygon","coordinates":[[[[113.7926548,22.76483],[113.7929534,22.7646049],[113.7930115,22.7646704],[113.7931409,22.7645728],[113.7932098,22.7646505],[113.7927819,22.7649732],[113.7926548,22.76483]]]]},"properties":{"name":"way/1289066495","height":0,"kind":"unknown","label":"缺少可用高度；仅展示轮廓"}},{"type":"Feature","id":"way/1289066496","geometry":{"type":"MultiPolygon","coordinates":[[[[113.7925329,22.7651729],[113.7925579,22.7651557],[113.7925399,22.7651334],[113.7926506,22.7650575],[113.7928453,22.7652988],[113.7927097,22.7653918],[113.7925329,22.7651729]]]]},"properties":{"name":"way/1289066496","height":0,"kind":"unknown","label":"缺少可用高度；仅展示轮廓"}},{"type":"Feature","id":"way/1289066497","geometry":{"type":"MultiPolygon","coordinates":[[[[113.7928718,22.7650593],[113.7932804,22.7648894],[113.7933454,22.7650223],[113.7929368,22.7651923],[113.7928718,22.7650593]]]]},"properties":{"name":"way/1289066497","height":0,"kind":"unknown","label":"缺少可用高度；仅展示轮廓"}},{"type":"Feature","id":"way/1289066498","geometry":{"type":"MultiPolygon","coordinates":[[[[113.7932543,22.7647453],[113.7933305,22.7646931],[113.7935308,22.7649417],[113.7934546,22.7649939],[113.7932543,22.7647453]]]]},"properties":{"name":"way/1289066498","height":0,"kind":"unknown","label":"缺少可用高度；仅展示轮廓"}},{"type":"Feature","id":"way/1289066522","geometry":{"type":"MultiPolygon","coordinates":[[[[113.7930308,22.7618978],[113.7935578,22.7618926],[113.7935639,22.7624111],[113.7933404,22.7624133],[113.7933368,22.7621001],[113.7930332,22.7621031],[113.7930308,22.7618978]]]]},"properties":{"name":"1栋","height":0,"kind":"unknown","label":"缺少可用高度；仅展示轮廓"}},{"type":"Feature","id":"way/1289066523","geometry":{"type":"MultiPolygon","coordinates":[[[[113.7938071,22.7618761],[113.7942954,22.7618675],[113.7943011,22.7621439],[113.7938128,22.7621524],[113.7938071,22.7618761]]]]},"properties":{"name":"2栋","height":0,"kind":"unknown","label":"缺少可用高度；仅展示轮廓"}},{"type":"Feature","id":"way/1289066524","geometry":{"type":"MultiPolygon","coordinates":[[[[113.793814,22.76233],[113.7943023,22.7623214],[113.794308,22.7625978],[113.7938197,22.7626063],[113.793814,22.76233]]]]},"properties":{"name":"3栋","height":0,"kind":"unknown","label":"缺少可用高度；仅展示轮廓"}},{"type":"Feature","id":"way/1289066525","geometry":{"type":"MultiPolygon","coordinates":[[[[113.7938273,22.7627769],[113.7943156,22.7627683],[113.7943213,22.7630447],[113.7938329,22.7630532],[113.7938273,22.7627769]]]]},"properties":{"name":"4栋","height":0,"kind":"unknown","label":"缺少可用高度；仅展示轮廓"}},{"type":"Feature","id":"way/1289066526","geometry":{"type":"MultiPolygon","coordinates":[[[[113.7939493,22.7631585],[113.7943419,22.7631583],[113.7943422,22.7635633],[113.7942357,22.7635634],[113.7942354,22.7632546],[113.7939494,22.7632548],[113.7939493,22.7631585]]]]},"properties":{"name":"5栋","height":0,"kind":"unknown","label":"缺少可用高度；仅展示轮廓"}},{"type":"Feature","id":"way/1289066527","geometry":{"type":"MultiPolygon","coordinates":[[[[113.7944606,22.7618409],[113.7949547,22.761831],[113.7949596,22.762038],[113.7944655,22.762048],[113.7944606,22.7618409]]]]},"properties":{"name":"way/1289066527","height":0,"kind":"unknown","label":"缺少可用高度；仅展示轮廓"}},{"type":"Feature","id":"way/1289066528","geometry":{"type":"MultiPolygon","coordinates":[[[[113.7951606,22.7618157],[113.7957483,22.7618084],[113.7957523,22.7620855],[113.7951646,22.7620927],[113.7951606,22.7618157]]]]},"properties":{"name":"way/1289066528","height":0,"kind":"unknown","label":"缺少可用高度；仅展示轮廓"}},{"type":"Feature","id":"way/1289066529","geometry":{"type":"MultiPolygon","coordinates":[[[[113.7951682,22.762492],[113.7957558,22.7624847],[113.7957598,22.7627618],[113.7951722,22.762769],[113.7951682,22.762492]]]]},"properties":{"name":"way/1289066529","height":0,"kind":"unknown","label":"缺少可用高度；仅展示轮廓"}},{"type":"Feature","id":"way/1289066530","geometry":{"type":"MultiPolygon","coordinates":[[[[113.7951762,22.7630071],[113.7957639,22.7629998],[113.7957679,22.7632769],[113.7951803,22.7632841],[113.7951762,22.7630071]]]]},"properties":{"name":"way/1289066530","height":0,"kind":"unknown","label":"缺少可用高度；仅展示轮廓"}},{"type":"Feature","id":"way/1289066531","geometry":{"type":"MultiPolygon","coordinates":[[[[113.7944608,22.7622048],[113.7949549,22.7621949],[113.7949598,22.7624019],[113.7944656,22.7624118],[113.7944608,22.7622048]]]]},"properties":{"name":"way/1289066531","height":0,"kind":"unknown","label":"缺少可用高度；仅展示轮廓"}},{"type":"Feature","id":"way/1289066532","geometry":{"type":"MultiPolygon","coordinates":[[[[113.7944685,22.7625672],[113.7949626,22.7625572],[113.7949675,22.7627642],[113.7944734,22.7627742],[113.7944685,22.7625672]]]]},"properties":{"name":"way/1289066532","height":0,"kind":"unknown","label":"缺少可用高度；仅展示轮廓"}},{"type":"Feature","id":"way/1289066533","geometry":{"type":"MultiPolygon","coordinates":[[[[113.794478,22.7630033],[113.795019,22.7629971],[113.7950218,22.7632022],[113.7944808,22.7632085],[113.794478,22.7630033]]]]},"properties":{"name":"way/1289066533","height":0,"kind":"unknown","label":"缺少可用高度；仅展示轮廓"}},{"type":"Feature","id":"way/1289066534","geometry":{"type":"MultiPolygon","coordinates":[[[[113.7944837,22.7633827],[113.7950247,22.7633765],[113.7950275,22.7635816],[113.7944865,22.7635879],[113.7944837,22.7633827]]]]},"properties":{"name":"way/1289066534","height":0,"kind":"unknown","label":"缺少可用高度；仅展示轮廓"}},{"type":"Feature","id":"way/1289066535","geometry":{"type":"MultiPolygon","coordinates":[[[[113.7959066,22.7630178],[113.7960025,22.7630166],[113.7960028,22.7630376],[113.7960298,22.7630373],[113.7960378,22.7635906],[113.7960115,22.7635909],[113.7960121,22.763629],[113.7959156,22.7636302],[113.7959066,22.7630178]]]]},"properties":{"name":"way/1289066535","height":0,"kind":"unknown","label":"缺少可用高度；仅展示轮廓"}},{"type":"Feature","id":"way/1289066536","geometry":{"type":"MultiPolygon","coordinates":[[[[113.7958995,22.762339],[113.7959963,22.7623378],[113.7959966,22.7623535],[113.7960244,22.7623532],[113.7960302,22.7627524],[113.7960051,22.7627527],[113.7960057,22.7627926],[113.7959062,22.7627939],[113.7958995,22.762339]]]]},"properties":{"name":"way/1289066536","height":0,"kind":"unknown","label":"缺少可用高度；仅展示轮廓"}},{"type":"Feature","id":"way/1289066537","geometry":{"type":"MultiPolygon","coordinates":[[[[113.795892,22.7617668],[113.7959889,22.7617656],[113.7959891,22.7617813],[113.7960169,22.7617809],[113.7960228,22.7621802],[113.7959977,22.7621805],[113.7959982,22.7622204],[113.7958987,22.7622216],[113.795892,22.7617668]]]]},"properties":{"name":"way/1289066537","height":0,"kind":"unknown","label":"缺少可用高度；仅展示轮廓"}},{"type":"Feature","id":"way/1289066538","geometry":{"type":"MultiPolygon","coordinates":[[[[113.7962671,22.7629945],[113.7965811,22.7629945],[113.7965811,22.7633572],[113.7962671,22.7633572],[113.7962671,22.7629945]]]]},"properties":{"name":"5栋","height":0,"kind":"unknown","label":"缺少可用高度；仅展示轮廓"}},{"type":"Feature","id":"way/1289066539","geometry":{"type":"MultiPolygon","coordinates":[[[[113.7968405,22.7629882],[113.7971546,22.7629882],[113.7971545,22.7633509],[113.7968405,22.7633509],[113.7968405,22.7629882]]]]},"properties":{"name":"6栋","height":0,"kind":"unknown","label":"缺少可用高度；仅展示轮廓"}},{"type":"Feature","id":"way/1289066540","geometry":{"type":"MultiPolygon","coordinates":[[[[113.7962569,22.7618333],[113.7967421,22.7618312],[113.7967431,22.7620376],[113.796258,22.7620397],[113.7962569,22.7618333]]]]},"properties":{"name":"1栋","height":0,"kind":"unknown","label":"缺少可用高度；仅展示轮廓"}},{"type":"Feature","id":"way/1289066541","geometry":{"type":"MultiPolygon","coordinates":[[[[113.7968751,22.7618458],[113.797268,22.7618399],[113.7972716,22.7620434],[113.7968787,22.7620493],[113.7968751,22.7618458]]]]},"properties":{"name":"2栋","height":0,"kind":"unknown","label":"缺少可用高度；仅展示轮廓"}},{"type":"Feature","id":"way/1289066542","geometry":{"type":"MultiPolygon","coordinates":[[[[113.7962543,22.762197],[113.7967395,22.7621949],[113.7967405,22.7624012],[113.7962553,22.7624034],[113.7962543,22.762197]]]]},"properties":{"name":"3栋","height":0,"kind":"unknown","label":"缺少可用高度；仅展示轮廓"}},{"type":"Feature","id":"way/1289066543","geometry":{"type":"MultiPolygon","coordinates":[[[[113.7962596,22.7625608],[113.7967448,22.7625587],[113.7967458,22.762765],[113.7962607,22.7627672],[113.7962596,22.7625608]]]]},"properties":{"name":"4栋","height":0,"kind":"unknown","label":"缺少可用高度；仅展示轮廓"}},{"type":"Feature","id":"way/1289066544","geometry":{"type":"MultiPolygon","coordinates":[[[[113.796883,22.7625643],[113.7969361,22.7625634],[113.7969359,22.7625542],[113.79706,22.7625522],[113.7970602,22.762561],[113.7971052,22.7625602],[113.797105,22.7625503],[113.7972344,22.762548],[113.7972371,22.762557],[113.7972767,22.7625564],[113.7972805,22.7627586],[113.7968868,22.762765],[113.796883,22.7625643]]]]},"properties":{"name":"way/1289066544","height":0,"kind":"unknown","label":"缺少可用高度；仅展示轮廓"}},{"type":"Feature","id":"way/1289066545","geometry":{"type":"MultiPolygon","coordinates":[[[[113.79738,22.762435],[113.7975656,22.7624339],[113.7975678,22.7627542],[113.7973822,22.7627553],[113.79738,22.762435]]]]},"properties":{"name":"way/1289066545","height":0,"kind":"unknown","label":"缺少可用高度；仅展示轮廓"}},{"type":"Feature","id":"way/1289066546","geometry":{"type":"MultiPolygon","coordinates":[[[[113.7971924,22.7622321],[113.7972077,22.7622175],[113.7972791,22.7622162],[113.7972832,22.7624168],[113.7971962,22.7624183],[113.7971924,22.7622321]]]]},"properties":{"name":"way/1289066546","height":0,"kind":"unknown","label":"缺少可用高度；仅展示轮廓"}},{"type":"Feature","id":"way/1289066547","geometry":{"type":"MultiPolygon","coordinates":[[[[113.7946187,22.7641003],[113.7946254,22.763769],[113.7958337,22.7637755],[113.7958355,22.7640492],[113.7951124,22.7643522],[113.7947555,22.7642651],[113.7946187,22.7641003]]]]},"properties":{"name":"way/1289066547","height":0,"kind":"unknown","label":"缺少可用高度；仅展示轮廓"}},{"type":"Feature","id":"way/1289066548","geometry":{"type":"MultiPolygon","coordinates":[[[[113.7944035,22.7637006],[113.7945101,22.7636993],[113.7945127,22.763882],[113.7945244,22.7638961],[113.7946237,22.7638257],[113.7948653,22.7641157],[113.7951035,22.7641824],[113.795816,22.763887],[113.7958828,22.7640241],[113.7951135,22.7643429],[113.7947633,22.7642621],[113.7944691,22.7639004],[113.7944064,22.7639012],[113.7944035,22.7637006]]]]},"properties":{"name":"way/1289066548","height":0,"kind":"unknown","label":"缺少可用高度；仅展示轮廓"}},{"type":"Feature","id":"way/1289066549","geometry":{"type":"MultiPolygon","coordinates":[[[[113.7962753,22.7637975],[113.7962761,22.7635497],[113.7963959,22.76355],[113.7963954,22.7637166],[113.7964114,22.7637264],[113.7971185,22.7634422],[113.7971719,22.7635552],[113.7964101,22.7638615],[113.7963685,22.7638664],[113.7963154,22.7638409],[113.7962753,22.7637975]]]]},"properties":{"name":"way/1289066549","height":0,"kind":"unknown","label":"缺少可用高度；仅展示轮廓"}},{"type":"Feature","id":"way/1289066550","geometry":{"type":"MultiPolygon","coordinates":[[[[113.7972069,22.7630097],[113.7976625,22.7630075],[113.7976631,22.7631224],[113.7973139,22.7631242],[113.7973167,22.7635912],[113.7972105,22.7636332],[113.7972069,22.7630097]]]]},"properties":{"name":"way/1289066550","height":0,"kind":"unknown","label":"缺少可用高度；仅展示轮廓"}},{"type":"Feature","id":"way/1289066551","geometry":{"type":"MultiPolygon","coordinates":[[[[113.7973625,22.7618266],[113.7973629,22.7617918],[113.7973832,22.761792],[113.7973841,22.7617188],[113.7975265,22.7617202],[113.7975263,22.7617452],[113.7975428,22.7617454],[113.7975423,22.7617848],[113.7975253,22.7617846],[113.7975251,22.7617939],[113.7975368,22.761794],[113.7975364,22.7618287],[113.7975362,22.7618544],[113.7975355,22.7619143],[113.7975471,22.7619144],[113.7975466,22.7619563],[113.7975325,22.7619562],[113.7975311,22.7620784],[113.7975471,22.7620785],[113.7975465,22.7621321],[113.7975355,22.762132],[113.7975342,22.7622488],[113.7975506,22.762249],[113.7975499,22.7623051],[113.7975407,22.762305],[113.7975406,22.7623166],[113.7975476,22.7623167],[113.7975473,22.7623408],[113.797547,22.7623705],[113.7973876,22.7623689],[113.7973879,22.7623424],[113.7973741,22.7623422],[113.7973752,22.7622506],[113.7973897,22.7622508],[113.7973905,22.7621719],[113.7973738,22.7621717],[113.7973748,22.7620826],[113.7973876,22.7620827],[113.7973886,22.7619965],[113.7973665,22.7619963],[113.7973674,22.7619096],[113.7973821,22.7619098],[113.7973825,22.7618756],[113.797383,22.7618267],[113.7973625,22.7618266]]]]},"properties":{"name":"way/1289066551","height":0,"kind":"unknown","label":"缺少可用高度；仅展示轮廓"}},{"type":"Feature","id":"way/1289066579","geometry":{"type":"MultiPolygon","coordinates":[[[[113.7979591,22.7605448],[113.7984499,22.7605354],[113.7984709,22.7614712],[113.7979803,22.7614806],[113.7979591,22.7605448]]]]},"properties":{"name":"way/1289066579","height":0,"kind":"unknown","label":"缺少可用高度；仅展示轮廓"}},{"type":"Feature","id":"way/1289066580","geometry":{"type":"MultiPolygon","coordinates":[[[[113.7985942,22.7605413],[113.7990811,22.7605385],[113.7990817,22.7606262],[113.7985948,22.760629],[113.7985942,22.7605413]]]]},"properties":{"name":"way/1289066580","height":0,"kind":"unknown","label":"缺少可用高度；仅展示轮廓"}},{"type":"Feature","id":"way/1289066581","geometry":{"type":"MultiPolygon","coordinates":[[[[113.7985866,22.7607983],[113.7990818,22.7607804],[113.7990936,22.7610585],[113.7985985,22.7610764],[113.7985866,22.7607983]]]]},"properties":{"name":"way/1289066581","height":0,"kind":"unknown","label":"缺少可用高度；仅展示轮廓"}},{"type":"Feature","id":"way/1289066582","geometry":{"type":"MultiPolygon","coordinates":[[[[113.7985982,22.7612199],[113.7990903,22.7612041],[113.7991006,22.7614794],[113.7986085,22.7614951],[113.7985982,22.7612199]]]]},"properties":{"name":"way/1289066582","height":0,"kind":"unknown","label":"缺少可用高度；仅展示轮廓"}},{"type":"Feature","id":"way/1289066583","geometry":{"type":"MultiPolygon","coordinates":[[[[113.7993982,22.7618979],[113.7998792,22.7618913],[113.7998826,22.7621001],[113.7994016,22.7621067],[113.7993982,22.7618979]]]]},"properties":{"name":"way/1289066583","height":0,"kind":"unknown","label":"缺少可用高度；仅展示轮廓"}},{"type":"Feature","id":"way/1289066584","geometry":{"type":"MultiPolygon","coordinates":[[[[113.7994015,22.7622778],[113.7998898,22.7622749],[113.7998912,22.7624787],[113.7994029,22.7624814],[113.7994015,22.7622778]]]]},"properties":{"name":"way/1289066584","height":0,"kind":"unknown","label":"缺少可用高度；仅展示轮廓"}},{"type":"Feature","id":"way/1289066585","geometry":{"type":"MultiPolygon","coordinates":[[[[113.7993802,22.7615394],[113.7994438,22.7615387],[113.7998631,22.7615337],[113.7998669,22.7618137],[113.799384,22.7618193],[113.7993802,22.7615394]]]]},"properties":{"name":"way/1289066585","height":0,"kind":"unknown","label":"缺少可用高度；仅展示轮廓"}},{"type":"Feature","id":"way/1289066586","geometry":{"type":"MultiPolygon","coordinates":[[[[113.7993782,22.7611223],[113.7995038,22.7611212],[113.7998603,22.7611179],[113.7998632,22.7613879],[113.7994412,22.7613917],[113.7993811,22.7613923],[113.7993782,22.7611223]]]]},"properties":{"name":"way/1289066586","height":0,"kind":"unknown","label":"缺少可用高度；仅展示轮廓"}},{"type":"Feature","id":"way/1289066587","geometry":{"type":"MultiPolygon","coordinates":[[[[113.799371,22.7608181],[113.7998565,22.7608129],[113.7998584,22.7609572],[113.7995054,22.7609611],[113.7993728,22.7609625],[113.799371,22.7608181]]]]},"properties":{"name":"way/1289066587","height":0,"kind":"unknown","label":"缺少可用高度；仅展示轮廓"}},{"type":"Feature","id":"way/1289066590","geometry":{"type":"MultiPolygon","coordinates":[[[[113.8000932,22.7608521],[113.8005698,22.7608455],[113.8005743,22.7611225],[113.8000977,22.761129],[113.8000932,22.7608521]]]]},"properties":{"name":"way/1289066590","height":0,"kind":"unknown","label":"缺少可用高度；仅展示轮廓"}},{"type":"Feature","id":"way/1289066591","geometry":{"type":"MultiPolygon","coordinates":[[[[113.8001061,22.7618656],[113.8004167,22.7618599],[113.8004261,22.7622964],[113.8001154,22.762302],[113.8001061,22.7618656]]]]},"properties":{"name":"way/1289066591","height":0,"kind":"unknown","label":"缺少可用高度；仅展示轮廓"}},{"type":"Feature","id":"way/1289066592","geometry":{"type":"MultiPolygon","coordinates":[[[[113.8000968,22.7612835],[113.8004074,22.7612778],[113.8004168,22.7617143],[113.8001061,22.7617199],[113.8000968,22.7612835]]]]},"properties":{"name":"way/1289066592","height":0,"kind":"unknown","label":"缺少可用高度；仅展示轮廓"}},{"type":"Feature","id":"way/1289066593","geometry":{"type":"MultiPolygon","coordinates":[[[[113.8006037,22.7612924],[113.8009056,22.7612907],[113.8009102,22.7619961],[113.8006084,22.7619978],[113.8006037,22.7612924]]]]},"properties":{"name":"way/1289066593","height":0,"kind":"unknown","label":"缺少可用高度；仅展示轮廓"}},{"type":"Feature","id":"way/1289066594","geometry":{"type":"MultiPolygon","coordinates":[[[[113.7993761,22.7605884],[113.7998631,22.7605857],[113.7998637,22.7606733],[113.7993767,22.7606761],[113.7993761,22.7605884]]]]},"properties":{"name":"way/1289066594","height":0,"kind":"unknown","label":"缺少可用高度；仅展示轮廓"}},{"type":"Feature","id":"way/1289066595","geometry":{"type":"MultiPolygon","coordinates":[[[[113.8000799,22.7606815],[113.8000896,22.7605943],[113.800574,22.7606401],[113.8005643,22.7607273],[113.8000799,22.7606815]]]]},"properties":{"name":"way/1289066595","height":0,"kind":"unknown","label":"缺少可用高度；仅展示轮廓"}},{"type":"Feature","id":"way/1289066596","geometry":{"type":"MultiPolygon","coordinates":[[[[113.8008135,22.7606148],[113.8009138,22.7606137],[113.80092,22.7611047],[113.8008196,22.7611058],[113.8008135,22.7606148]]]]},"properties":{"name":"way/1289066596","height":0,"kind":"unknown","label":"缺少可用高度；仅展示轮廓"}},{"type":"Feature","id":"way/1289066597","geometry":{"type":"MultiPolygon","coordinates":[[[[113.7979731,22.7622823],[113.7984678,22.7622637],[113.7984765,22.7624608],[113.7981261,22.7624739],[113.7979818,22.7624793],[113.7979731,22.7622823]]]]},"properties":{"name":"way/1289066597","height":0,"kind":"unknown","label":"缺少可用高度；仅展示轮廓"}},{"type":"Feature","id":"way/1289066598","geometry":{"type":"MultiPolygon","coordinates":[[[[113.7979942,22.762565],[113.7981292,22.7625626],[113.7984835,22.7625563],[113.7984842,22.7625895],[113.7984896,22.7628446],[113.7980002,22.7628533],[113.7979942,22.762565]]]]},"properties":{"name":"way/1289066598","height":0,"kind":"unknown","label":"缺少可用高度；仅展示轮廓"}},{"type":"Feature","id":"way/1289066599","geometry":{"type":"MultiPolygon","coordinates":[[[[113.7986339,22.7625464],[113.7991232,22.7625377],[113.7991293,22.762826],[113.7986399,22.7628348],[113.7986346,22.7625822],[113.7986339,22.7625464]]]]},"properties":{"name":"way/1289066599","height":0,"kind":"unknown","label":"缺少可用高度；仅展示轮廓"}},{"type":"Feature","id":"way/1289066600","geometry":{"type":"MultiPolygon","coordinates":[[[[113.7986344,22.7622145],[113.7991278,22.7622044],[113.799133,22.7624163],[113.7986395,22.7624266],[113.7986344,22.7622145]]]]},"properties":{"name":"way/1289066600","height":0,"kind":"unknown","label":"缺少可用高度；仅展示轮廓"}},{"type":"Feature","id":"way/1289066603","geometry":{"type":"MultiPolygon","coordinates":[[[[113.7981168,22.7629218],[113.7984686,22.7629212],[113.7984691,22.7631862],[113.7981174,22.7631868],[113.7981168,22.7629218]]]]},"properties":{"name":"way/1289066603","height":0,"kind":"unknown","label":"缺少可用高度；仅展示轮廓"}},{"type":"Feature","id":"way/1293364854","geometry":{"type":"MultiPolygon","coordinates":[[[[113.7991474,22.7683584],[113.7997285,22.7681284],[113.799825,22.7683358],[113.7992439,22.7685657],[113.7991474,22.7683584]]]]},"properties":{"name":"way/1293364854","height":0,"kind":"unknown","label":"缺少可用高度；仅展示轮廓"}},{"type":"Feature","id":"way/1293364855","geometry":{"type":"MultiPolygon","coordinates":[[[[113.7992947,22.7686819],[113.7998757,22.7684519],[113.7999723,22.7686593],[113.7993912,22.7688892],[113.7992947,22.7686819]]]]},"properties":{"name":"way/1293364855","height":0,"kind":"unknown","label":"缺少可用高度；仅展示轮廓"}},{"type":"Feature","id":"way/1293364856","geometry":{"type":"MultiPolygon","coordinates":[[[[113.7994414,22.7690057],[113.8000224,22.7687757],[113.8001189,22.7689831],[113.7995379,22.769213],[113.7994414,22.7690057]]]]},"properties":{"name":"way/1293364856","height":0,"kind":"unknown","label":"缺少可用高度；仅展示轮廓"}},{"type":"Feature","id":"way/1293364857","geometry":{"type":"MultiPolygon","coordinates":[[[[113.798816,22.7692734],[113.7992841,22.7690841],[113.7993706,22.7692658],[113.7989026,22.7694553],[113.798816,22.7692734]]]]},"properties":{"name":"way/1293364857","height":0,"kind":"unknown","label":"缺少可用高度；仅展示轮廓"}},{"type":"Feature","id":"way/1293364858","geometry":{"type":"MultiPolygon","coordinates":[[[[113.7985982,22.7689859],[113.7991363,22.7687667],[113.7992304,22.7689632],[113.7986923,22.7691823],[113.7985982,22.7689859]]]]},"properties":{"name":"way/1293364858","height":0,"kind":"unknown","label":"缺少可用高度；仅展示轮廓"}},{"type":"Feature","id":"way/1293364859","geometry":{"type":"MultiPolygon","coordinates":[[[[113.7984932,22.768726],[113.7985207,22.7687152],[113.7985437,22.7686043],[113.7989812,22.7684319],[113.799076,22.7686365],[113.798548,22.7688443],[113.7984932,22.768726]]]]},"properties":{"name":"way/1293364859","height":0,"kind":"unknown","label":"缺少可用高度；仅展示轮廓"}},{"type":"Feature","id":"relation/17731328","geometry":{"type":"MultiPolygon","coordinates":[[[[113.7997959,22.7692328],[113.80018,22.7690761],[113.800299,22.7693242],[113.7999149,22.7694809],[113.7997959,22.7692328]],[[113.7998913,22.7693023],[113.7999168,22.7693193],[113.7999268,22.7693328],[113.799921,22.7693605],[113.800194,22.7692597],[113.8001663,22.7692391],[113.8001578,22.7692164],[113.8001632,22.7691915],[113.7998913,22.7693023]]]]},"properties":{"name":"relation/17731328","height":0,"kind":"unknown","label":"缺少可用高度；仅展示轮廓"}},{"type":"Feature","id":"way/1293364867","geometry":{"type":"MultiPolygon","coordinates":[[[[113.8004013,22.7690626],[113.800668,22.7689561],[113.800777,22.7689126],[113.8009912,22.7693684],[113.8006154,22.7695185],[113.8004013,22.7690626]]]]},"properties":{"name":"way/1293364867","height":0,"kind":"unknown","label":"缺少可用高度；仅展示轮廓"}},{"type":"Feature","id":"way/1293364868","geometry":{"type":"MultiPolygon","coordinates":[[[[113.8000337,22.7682225],[113.8012389,22.7677419],[113.8015135,22.7683275],[113.8012269,22.7684418],[113.8010972,22.7684935],[113.8010621,22.7684186],[113.8009861,22.7684488],[113.8009522,22.7683765],[113.80074,22.7684611],[113.8007753,22.7685366],[113.8007119,22.7685619],[113.8007479,22.7686388],[113.8005638,22.7687122],[113.8003107,22.7688132],[113.8000337,22.7682225]]]]},"properties":{"name":"way/1293364868","height":0,"kind":"unknown","label":"缺少可用高度；仅展示轮廓"}},{"type":"Feature","id":"way/1293364869","geometry":{"type":"MultiPolygon","coordinates":[[[[113.8009892,22.7688049],[113.8012902,22.768681],[113.8013323,22.7687679],[113.8011374,22.7688481],[113.8012564,22.7690936],[113.8014448,22.769016],[113.8014859,22.769101],[113.8011913,22.7692223],[113.8009892,22.7688049]]]]},"properties":{"name":"way/1293364869","height":0,"kind":"unknown","label":"缺少可用高度；仅展示轮廓"}},{"type":"Feature","id":"way/1293364894","geometry":{"type":"MultiPolygon","coordinates":[[[[113.7980737,22.766375],[113.79856,22.7661732],[113.7986613,22.7663808],[113.7981751,22.7665827],[113.7980737,22.766375]]]]},"properties":{"name":"way/1293364894","height":0,"kind":"unknown","label":"缺少可用高度；仅展示轮廓"}},{"type":"Feature","id":"way/1293364896","geometry":{"type":"MultiPolygon","coordinates":[[[[113.7988382,22.7661927],[113.7992527,22.7660288],[113.7992777,22.7660825],[113.7994135,22.7663745],[113.7996487,22.7668798],[113.7996662,22.7669175],[113.7992515,22.7670815],[113.7988382,22.7661927]]]]},"properties":{"name":"way/1293364896","height":0,"kind":"unknown","label":"缺少可用高度；仅展示轮廓"}},{"type":"Feature","id":"way/1293364897","geometry":{"type":"MultiPolygon","coordinates":[[[[113.7993618,22.7658489],[113.8000703,22.7655738],[113.8005273,22.7665746],[113.8002587,22.7666789],[113.8002876,22.7667423],[113.7999404,22.766877],[113.7999219,22.7668363],[113.7998292,22.7668723],[113.7998042,22.7668177],[113.7995699,22.7663047],[113.799435,22.7660094],[113.7993618,22.7658489]]]]},"properties":{"name":"way/1293364897","height":0,"kind":"unknown","label":"缺少可用高度；仅展示轮廓"}},{"type":"Feature","id":"way/1293364901","geometry":{"type":"MultiPolygon","coordinates":[[[[113.7993173,22.7671839],[113.7997371,22.7670195],[113.7998123,22.7671828],[113.7993925,22.7673471],[113.7993173,22.7671839]]]]},"properties":{"name":"way/1293364901","height":0,"kind":"unknown","label":"缺少可用高度；仅展示轮廓"}},{"type":"Feature","id":"way/1293364934","geometry":{"type":"MultiPolygon","coordinates":[[[[113.8007319,22.7653273],[113.8011792,22.7651434],[113.8012692,22.7653295],[113.8008219,22.7655134],[113.8007319,22.7653273]]]]},"properties":{"name":"way/1293364934","height":0,"kind":"unknown","label":"缺少可用高度；仅展示轮廓"}},{"type":"Feature","id":"way/1293364935","geometry":{"type":"MultiPolygon","coordinates":[[[[113.8008806,22.7656506],[113.8013279,22.7654666],[113.8014179,22.7656528],[113.8009706,22.7658366],[113.8008806,22.7656506]]]]},"properties":{"name":"way/1293364935","height":0,"kind":"unknown","label":"缺少可用高度；仅展示轮廓"}},{"type":"Feature","id":"way/1293364936","geometry":{"type":"MultiPolygon","coordinates":[[[[113.8010325,22.7659739],[113.8014798,22.7657899],[113.8015698,22.7659761],[113.8011225,22.7661599],[113.8010325,22.7659739]]]]},"properties":{"name":"way/1293364936","height":0,"kind":"unknown","label":"缺少可用高度；仅展示轮廓"}},{"type":"Feature","id":"way/1295626909","geometry":{"type":"MultiPolygon","coordinates":[[[[113.7966221,22.7663869],[113.7975212,22.7660344],[113.7976592,22.7663335],[113.7967601,22.7666862],[113.7966221,22.7663869]]]]},"properties":{"name":"way/1295626909","height":0,"kind":"unknown","label":"缺少可用高度；仅展示轮廓"}},{"type":"Feature","id":"way/1295626910","geometry":{"type":"MultiPolygon","coordinates":[[[[113.7963685,22.7658968],[113.7972676,22.7655443],[113.7974056,22.7658434],[113.7965065,22.7661961],[113.7963685,22.7658968]]]]},"properties":{"name":"way/1295626910","height":0,"kind":"unknown","label":"缺少可用高度；仅展示轮廓"}},{"type":"Feature","id":"way/1295626911","geometry":{"type":"MultiPolygon","coordinates":[[[[113.7974995,22.7654334],[113.7983987,22.765081],[113.7985366,22.7653801],[113.7976376,22.7657327],[113.7974995,22.7654334]]]]},"properties":{"name":"way/1295626911","height":0,"kind":"unknown","label":"缺少可用高度；仅展示轮廓"}},{"type":"Feature","id":"way/1295626912","geometry":{"type":"MultiPolygon","coordinates":[[[[113.7988379,22.7654483],[113.7997371,22.7650958],[113.799875,22.7653949],[113.7989759,22.7657476],[113.7988379,22.7654483]]]]},"properties":{"name":"way/1295626912","height":0,"kind":"unknown","label":"缺少可用高度；仅展示轮廓"}},{"type":"Feature","id":"way/1295626913","geometry":{"type":"MultiPolygon","coordinates":[[[[113.7985948,22.7649921],[113.799494,22.7646396],[113.7996319,22.7649388],[113.7987328,22.7652914],[113.7985948,22.7649921]]]]},"properties":{"name":"way/1295626913","height":0,"kind":"unknown","label":"缺少可用高度；仅展示轮廓"}},{"type":"Feature","id":"way/1295626914","geometry":{"type":"MultiPolygon","coordinates":[[[[113.79606,22.7652599],[113.796951,22.7648986],[113.797038,22.7650809],[113.7961471,22.7654424],[113.79606,22.7652599]]]]},"properties":{"name":"way/1295626914","height":0,"kind":"unknown","label":"缺少可用高度；仅展示轮廓"}},{"type":"Feature","id":"way/1295626915","geometry":{"type":"MultiPolygon","coordinates":[[[[113.7971793,22.7647967],[113.7980703,22.7644354],[113.7981573,22.7646178],[113.7972663,22.7649792],[113.7971793,22.7647967]]]]},"properties":{"name":"way/1295626915","height":0,"kind":"unknown","label":"缺少可用高度；仅展示轮廓"}},{"type":"Feature","id":"way/1295626916","geometry":{"type":"MultiPolygon","coordinates":[[[[113.7983014,22.764355],[113.7991924,22.7639937],[113.7992794,22.7641761],[113.7983884,22.7645375],[113.7983014,22.764355]]]]},"properties":{"name":"way/1295626916","height":0,"kind":"unknown","label":"缺少可用高度；仅展示轮廓"}},{"type":"Feature","id":"way/1295626917","geometry":{"type":"MultiPolygon","coordinates":[[[[113.7962453,22.7655925],[113.7971347,22.7652252],[113.7971715,22.765301],[113.7962821,22.7656681],[113.7962453,22.7655925]]]]},"properties":{"name":"way/1295626917","height":0,"kind":"unknown","label":"缺少可用高度；仅展示轮廓"}},{"type":"Feature","id":"way/1295626918","geometry":{"type":"MultiPolygon","coordinates":[[[[113.7973619,22.7651425],[113.7982513,22.7647752],[113.7982881,22.764851],[113.7973986,22.7652181],[113.7973619,22.7651425]]]]},"properties":{"name":"way/1295626918","height":0,"kind":"unknown","label":"缺少可用高度；仅展示轮廓"}},{"type":"Feature","id":"way/1295626919","geometry":{"type":"MultiPolygon","coordinates":[[[[113.7984776,22.7646888],[113.7993664,22.7643214],[113.7994028,22.7643961],[113.798514,22.7647637],[113.7984776,22.7646888]]]]},"properties":{"name":"way/1295626919","height":0,"kind":"unknown","label":"缺少可用高度；仅展示轮廓"}},{"type":"Feature","id":"way/1295626920","geometry":{"type":"MultiPolygon","coordinates":[[[[113.8003719,22.7642734],[113.8014462,22.7638365],[113.801556,22.7640661],[113.8004819,22.7645032],[113.8003719,22.7642734]]]]},"properties":{"name":"way/1295626920","height":0,"kind":"unknown","label":"缺少可用高度；仅展示轮廓"}},{"type":"Feature","id":"way/1295626921","geometry":{"type":"MultiPolygon","coordinates":[[[[113.8001196,22.7643401],[113.8002254,22.7642944],[113.8003632,22.7645657],[113.8002574,22.7646114],[113.8001196,22.7643401]]]]},"properties":{"name":"way/1295626921","height":0,"kind":"unknown","label":"缺少可用高度；仅展示轮廓"}},{"type":"Feature","id":"way/1295626922","geometry":{"type":"MultiPolygon","coordinates":[[[[113.800563,22.7646756],[113.8016372,22.7642387],[113.8017471,22.7644683],[113.8006729,22.7649054],[113.800563,22.7646756]]]]},"properties":{"name":"way/1295626922","height":0,"kind":"unknown","label":"缺少可用高度；仅展示轮廓"}},{"type":"Feature","id":"way/1295626923","geometry":{"type":"MultiPolygon","coordinates":[[[[113.8003106,22.7647423],[113.8004165,22.7646966],[113.8005542,22.7649679],[113.8004485,22.7650136],[113.8003106,22.7647423]]]]},"properties":{"name":"way/1295626923","height":0,"kind":"unknown","label":"缺少可用高度；仅展示轮廓"}}]}