{"type":"FeatureCollection","features":[{"type":"Feature","id":"way/957350977","geometry":{"type":"MultiPolygon","coordinates":[[[[113.7972069,22.7465822],[113.7973014,22.7465758],[113.7973153,22.7467499],[113.7972209,22.7467563],[113.7972069,22.7465822]]]]},"properties":{"name":"way/957350977","height":0,"kind":"unknown","label":"缺少可用高度；仅展示轮廓"}},{"type":"Feature","id":"way/957350978","geometry":{"type":"MultiPolygon","coordinates":[[[[113.7975878,22.7463411],[113.7976836,22.7463346],[113.7976962,22.7464913],[113.7976004,22.7464978],[113.7975878,22.7463411]]]]},"properties":{"name":"way/957350978","height":0,"kind":"unknown","label":"缺少可用高度；仅展示轮廓"}},{"type":"Feature","id":"way/957350979","geometry":{"type":"MultiPolygon","coordinates":[[[[113.7974587,22.7463437],[113.7975736,22.7463358],[113.7975866,22.7464974],[113.7974717,22.7465053],[113.7974587,22.7463437]]]]},"properties":{"name":"way/957350979","height":0,"kind":"unknown","label":"缺少可用高度；仅展示轮廓"}},{"type":"Feature","id":"way/957350980","geometry":{"type":"MultiPolygon","coordinates":[[[[113.797309,22.7463567],[113.7974153,22.7463494],[113.7974292,22.7465215],[113.7973228,22.7465288],[113.797309,22.7463567]]]]},"properties":{"name":"way/957350980","height":0,"kind":"unknown","label":"缺少可用高度；仅展示轮廓"}},{"type":"Feature","id":"way/957350981","geometry":{"type":"MultiPolygon","coordinates":[[[[113.7971833,22.7463544],[113.7972953,22.7463467],[113.7973087,22.7465137],[113.7971967,22.7465213],[113.7971833,22.7463544]]]]},"properties":{"name":"way/957350981","height":0,"kind":"unknown","label":"缺少可用高度；仅展示轮廓"}},{"type":"Feature","id":"way/957350982","geometry":{"type":"MultiPolygon","coordinates":[[[[113.7975057,22.7468074],[113.79765,22.7468008],[113.7976563,22.746918],[113.7975119,22.7469245],[113.7975057,22.7468074]]]]},"properties":{"name":"way/957350982","height":0,"kind":"unknown","label":"缺少可用高度；仅展示轮廓"}},{"type":"Feature","id":"way/957350983","geometry":{"type":"MultiPolygon","coordinates":[[[[113.7977615,22.7466223],[113.7978619,22.7466178],[113.7978671,22.7467159],[113.7977667,22.7467205],[113.7977615,22.7466223]]]]},"properties":{"name":"way/957350983","height":0,"kind":"unknown","label":"缺少可用高度；仅展示轮廓"}},{"type":"Feature","id":"way/957350984","geometry":{"type":"MultiPolygon","coordinates":[[[[113.7977028,22.7463427],[113.7978271,22.746337],[113.797836,22.7465046],[113.7977117,22.7465102],[113.7977028,22.7463427]]]]},"properties":{"name":"way/957350984","height":0,"kind":"unknown","label":"缺少可用高度；仅展示轮廓"}},{"type":"Feature","id":"way/957350985","geometry":{"type":"MultiPolygon","coordinates":[[[[113.7994812,22.7469454],[113.7995839,22.746927],[113.7996115,22.7470583],[113.7995088,22.7470767],[113.7994812,22.7469454]]]]},"properties":{"name":"way/957350985","height":0,"kind":"unknown","label":"缺少可用高度；仅展示轮廓"}},{"type":"Feature","id":"way/957350986","geometry":{"type":"MultiPolygon","coordinates":[[[[113.7996238,22.7469221],[113.7997274,22.7469035],[113.7997519,22.7470198],[113.7996483,22.7470383],[113.7996238,22.7469221]]]]},"properties":{"name":"way/957350986","height":0,"kind":"unknown","label":"缺少可用高度；仅展示轮廓"}},{"type":"Feature","id":"way/957350987","geometry":{"type":"MultiPolygon","coordinates":[[[[113.7997748,22.746873],[113.7999085,22.7468491],[113.7999375,22.7469872],[113.7998039,22.7470111],[113.7997748,22.746873]]]]},"properties":{"name":"way/957350987","height":0,"kind":"unknown","label":"缺少可用高度；仅展示轮廓"}},{"type":"Feature","id":"way/957350988","geometry":{"type":"MultiPolygon","coordinates":[[[[113.7998159,22.7470507],[113.7999167,22.7470326],[113.7999435,22.74716],[113.7998427,22.7471781],[113.7998159,22.7470507]]]]},"properties":{"name":"way/957350988","height":0,"kind":"unknown","label":"缺少可用高度；仅展示轮廓"}},{"type":"Feature","id":"way/957350989","geometry":{"type":"MultiPolygon","coordinates":[[[[113.7996432,22.7471498],[113.7997609,22.7471397],[113.7997741,22.7472707],[113.7996563,22.7472807],[113.7996432,22.7471498]]]]},"properties":{"name":"way/957350989","height":0,"kind":"unknown","label":"缺少可用高度；仅展示轮廓"}},{"type":"Feature","id":"way/957350990","geometry":{"type":"MultiPolygon","coordinates":[[[[113.7995021,22.7471657],[113.7996277,22.747155],[113.7996425,22.7473022],[113.7995169,22.7473129],[113.7995021,22.7471657]]]]},"properties":{"name":"way/957350990","height":0,"kind":"unknown","label":"缺少可用高度；仅展示轮廓"}},{"type":"Feature","id":"way/957350991","geometry":{"type":"MultiPolygon","coordinates":[[[[113.7991061,22.7469543],[113.7992714,22.7469431],[113.7992812,22.7470654],[113.7991159,22.7470767],[113.7991061,22.7469543]]]]},"properties":{"name":"way/957350991","height":0,"kind":"unknown","label":"缺少可用高度；仅展示轮廓"}},{"type":"Feature","id":"way/957350992","geometry":{"type":"MultiPolygon","coordinates":[[[[113.7991101,22.7471115],[113.7992768,22.7471002],[113.7992839,22.747189],[113.7991172,22.7472003],[113.7991101,22.7471115]]]]},"properties":{"name":"way/957350992","height":0,"kind":"unknown","label":"缺少可用高度；仅展示轮廓"}},{"type":"Feature","id":"way/957350993","geometry":{"type":"MultiPolygon","coordinates":[[[[113.7991207,22.7472271],[113.7992969,22.7472152],[113.7993068,22.7473393],[113.7991306,22.7473512],[113.7991207,22.7472271]]]]},"properties":{"name":"way/957350993","height":0,"kind":"unknown","label":"缺少可用高度；仅展示轮廓"}},{"type":"Feature","id":"way/957350994","geometry":{"type":"MultiPolygon","coordinates":[[[[113.7989299,22.7472322],[113.7990904,22.7472214],[113.7990993,22.7473329],[113.7989388,22.7473438],[113.7989299,22.7472322]]]]},"properties":{"name":"way/957350994","height":0,"kind":"unknown","label":"缺少可用高度；仅展示轮廓"}},{"type":"Feature","id":"way/957350995","geometry":{"type":"MultiPolygon","coordinates":[[[[113.798916,22.7471001],[113.7990059,22.747094],[113.7990126,22.7471782],[113.7989227,22.7471843],[113.798916,22.7471001]]]]},"properties":{"name":"way/957350995","height":0,"kind":"unknown","label":"缺少可用高度；仅展示轮廓"}},{"type":"Feature","id":"way/957350996","geometry":{"type":"MultiPolygon","coordinates":[[[[113.7987393,22.7472392],[113.7988745,22.74723],[113.7988836,22.7473445],[113.7987484,22.7473537],[113.7987393,22.7472392]]]]},"properties":{"name":"way/957350996","height":0,"kind":"unknown","label":"缺少可用高度；仅展示轮廓"}},{"type":"Feature","id":"way/957350997","geometry":{"type":"MultiPolygon","coordinates":[[[[113.7985497,22.7472491],[113.7986854,22.7472399],[113.798695,22.7473606],[113.7985593,22.7473698],[113.7985497,22.7472491]]]]},"properties":{"name":"way/957350997","height":0,"kind":"unknown","label":"缺少可用高度；仅展示轮廓"}},{"type":"Feature","id":"way/957350998","geometry":{"type":"MultiPolygon","coordinates":[[[[113.7985295,22.7471083],[113.7986867,22.7470977],[113.798695,22.747202],[113.7985378,22.7472127],[113.7985295,22.7471083]]]]},"properties":{"name":"way/957350998","height":0,"kind":"unknown","label":"缺少可用高度；仅展示轮廓"}},{"type":"Feature","id":"way/957350999","geometry":{"type":"MultiPolygon","coordinates":[[[[113.798526,22.7469693],[113.798676,22.7469592],[113.7986851,22.7470739],[113.7985352,22.7470841],[113.798526,22.7469693]]]]},"properties":{"name":"way/957350999","height":0,"kind":"unknown","label":"缺少可用高度；仅展示轮廓"}},{"type":"Feature","id":"way/957351000","geometry":{"type":"MultiPolygon","coordinates":[[[[113.7983493,22.7469831],[113.7984842,22.746974],[113.7984904,22.7470514],[113.7983555,22.7470606],[113.7983493,22.7469831]]]]},"properties":{"name":"way/957351000","height":0,"kind":"unknown","label":"缺少可用高度；仅展示轮廓"}},{"type":"Feature","id":"way/957351001","geometry":{"type":"MultiPolygon","coordinates":[[[[113.7983394,22.7471298],[113.7984565,22.7471219],[113.7984641,22.7472176],[113.798347,22.7472256],[113.7983394,22.7471298]]]]},"properties":{"name":"way/957351001","height":0,"kind":"unknown","label":"缺少可用高度；仅展示轮廓"}},{"type":"Feature","id":"way/957351002","geometry":{"type":"MultiPolygon","coordinates":[[[[113.7983607,22.7472575],[113.7984923,22.7472486],[113.7985018,22.7473683],[113.7983702,22.7473772],[113.7983607,22.7472575]]]]},"properties":{"name":"way/957351002","height":0,"kind":"unknown","label":"缺少可用高度；仅展示轮廓"}},{"type":"Feature","id":"way/957351003","geometry":{"type":"MultiPolygon","coordinates":[[[[113.7981396,22.7469981],[113.7982938,22.7469876],[113.7983045,22.7471219],[113.7981503,22.7471323],[113.7981396,22.7469981]]]]},"properties":{"name":"way/957351003","height":0,"kind":"unknown","label":"缺少可用高度；仅展示轮廓"}},{"type":"Feature","id":"way/957351004","geometry":{"type":"MultiPolygon","coordinates":[[[[113.7981449,22.7471793],[113.7982841,22.7471699],[113.7982924,22.7472745],[113.7981533,22.747284],[113.7981449,22.7471793]]]]},"properties":{"name":"way/957351004","height":0,"kind":"unknown","label":"缺少可用高度；仅展示轮廓"}},{"type":"Feature","id":"way/957351005","geometry":{"type":"MultiPolygon","coordinates":[[[[113.7981604,22.7472992],[113.7983045,22.7472894],[113.7983132,22.7473983],[113.798169,22.7474081],[113.7981604,22.7472992]]]]},"properties":{"name":"way/957351005","height":0,"kind":"unknown","label":"缺少可用高度；仅展示轮廓"}},{"type":"Feature","id":"way/957351006","geometry":{"type":"MultiPolygon","coordinates":[[[[113.797908,22.7469853],[113.7980564,22.7469752],[113.7980654,22.7470876],[113.7979169,22.7470977],[113.797908,22.7469853]]]]},"properties":{"name":"way/957351006","height":0,"kind":"unknown","label":"缺少可用高度；仅展示轮廓"}},{"type":"Feature","id":"way/957351007","geometry":{"type":"MultiPolygon","coordinates":[[[[113.7979579,22.7471942],[113.7980859,22.7471855],[113.7980932,22.747277],[113.7979652,22.7472857],[113.7979579,22.7471942]]]]},"properties":{"name":"way/957351007","height":0,"kind":"unknown","label":"缺少可用高度；仅展示轮廓"}},{"type":"Feature","id":"way/957351008","geometry":{"type":"MultiPolygon","coordinates":[[[[113.7979677,22.7473087],[113.798106,22.7472993],[113.7981156,22.7474198],[113.7979773,22.7474291],[113.7979677,22.7473087]]]]},"properties":{"name":"way/957351008","height":0,"kind":"unknown","label":"缺少可用高度；仅展示轮廓"}},{"type":"Feature","id":"way/957351009","geometry":{"type":"MultiPolygon","coordinates":[[[[113.7972525,22.7470719],[113.7973282,22.7470668],[113.7973351,22.747153],[113.7972594,22.7471582],[113.7972525,22.7470719]]]]},"properties":{"name":"way/957351009","height":0,"kind":"unknown","label":"缺少可用高度；仅展示轮廓"}},{"type":"Feature","id":"way/957351010","geometry":{"type":"MultiPolygon","coordinates":[[[[113.7972506,22.7471588],[113.7972594,22.7471582],[113.7973351,22.747153],[113.7973671,22.7471509],[113.7973749,22.7472493],[113.7972584,22.7472572],[113.7972506,22.7471588]]]]},"properties":{"name":"way/957351010","height":0,"kind":"unknown","label":"缺少可用高度；仅展示轮廓"}},{"type":"Feature","id":"way/957351011","geometry":{"type":"MultiPolygon","coordinates":[[[[113.7974209,22.7470816],[113.7975119,22.7470754],[113.7975184,22.7471571],[113.7974274,22.7471632],[113.7974209,22.7470816]]]]},"properties":{"name":"way/957351011","height":0,"kind":"unknown","label":"缺少可用高度；仅展示轮廓"}},{"type":"Feature","id":"way/957351012","geometry":{"type":"MultiPolygon","coordinates":[[[[113.7973791,22.747208],[113.7975106,22.7471991],[113.7975173,22.7472842],[113.7973858,22.7472931],[113.7973791,22.747208]]]]},"properties":{"name":"way/957351012","height":0,"kind":"unknown","label":"缺少可用高度；仅展示轮廓"}},{"type":"Feature","id":"way/957351013","geometry":{"type":"MultiPolygon","coordinates":[[[[113.7975564,22.7471941],[113.7976836,22.7471855],[113.797694,22.7473166],[113.7975669,22.7473252],[113.7975564,22.7471941]]]]},"properties":{"name":"way/957351013","height":0,"kind":"unknown","label":"缺少可用高度；仅展示轮廓"}},{"type":"Feature","id":"way/957351014","geometry":{"type":"MultiPolygon","coordinates":[[[[113.7994226,22.7466387],[113.7995185,22.7466334],[113.799515,22.7465802],[113.799451,22.7465838],[113.7994445,22.7464845],[113.7996388,22.7464737],[113.7996453,22.746573],[113.7996109,22.7465749],[113.7996134,22.7466133],[113.7997219,22.7466073],[113.7997291,22.7467172],[113.7995932,22.7467248],[113.7995906,22.7466851],[113.7995375,22.7466881],[113.7995395,22.7467186],[113.7994282,22.7467248],[113.7994226,22.7466387]]]]},"properties":{"name":"way/957351014","height":69,"kind":"levels","label":"23层 × 3米（估算）"}},{"type":"Feature","id":"way/957351015","geometry":{"type":"MultiPolygon","coordinates":[[[[113.7987722,22.7467055],[113.798868,22.7467002],[113.7988646,22.746647],[113.7988006,22.7466506],[113.7987941,22.7465513],[113.7989884,22.7465405],[113.7989948,22.7466398],[113.7989604,22.7466417],[113.7989629,22.7466801],[113.7990715,22.7466741],[113.7990787,22.746784],[113.7989428,22.7467916],[113.7989402,22.7467519],[113.7988871,22.7467548],[113.7988891,22.7467854],[113.7987778,22.7467916],[113.7987722,22.7467055]]]]},"properties":{"name":"way/957351015","height":69,"kind":"levels","label":"23层 × 3米（估算）"}},{"type":"Feature","id":"way/957351016","geometry":{"type":"MultiPolygon","coordinates":[[[[113.7981822,22.746768],[113.7982781,22.7467626],[113.7982746,22.7467095],[113.7982106,22.746713],[113.7982041,22.7466138],[113.7983984,22.746603],[113.7984049,22.7467022],[113.7983704,22.7467042],[113.7983729,22.7467426],[113.7984815,22.7467365],[113.7984887,22.7468465],[113.7983528,22.746854],[113.7983502,22.7468144],[113.7982971,22.7468173],[113.7982991,22.7468478],[113.7981878,22.746854],[113.7981822,22.746768]]]]},"properties":{"name":"way/957351016","height":69,"kind":"levels","label":"23层 × 3米（估算）"}},{"type":"Feature","id":"way/957351017","geometry":{"type":"MultiPolygon","coordinates":[[[[113.798857,22.7455331],[113.7989905,22.7455243],[113.7990072,22.7457384],[113.7988738,22.7457473],[113.798857,22.7455331]]]]},"properties":{"name":"way/957351017","height":0,"kind":"unknown","label":"缺少可用高度；仅展示轮廓"}},{"type":"Feature","id":"way/957351018","geometry":{"type":"MultiPolygon","coordinates":[[[[113.7988678,22.7457706],[113.7990024,22.7457616],[113.799018,22.7459611],[113.7988833,22.74597],[113.7988678,22.7457706]]]]},"properties":{"name":"way/957351018","height":0,"kind":"unknown","label":"缺少可用高度；仅展示轮廓"}},{"type":"Feature","id":"way/957351019","geometry":{"type":"MultiPolygon","coordinates":[[[[113.798887,22.7460071],[113.799022,22.7459982],[113.7990322,22.746129],[113.7988973,22.7461379],[113.798887,22.7460071]]]]},"properties":{"name":"way/957351019","height":0,"kind":"unknown","label":"缺少可用高度；仅展示轮廓"}},{"type":"Feature","id":"way/957351020","geometry":{"type":"MultiPolygon","coordinates":[[[[113.7987667,22.7460218],[113.7988624,22.7460155],[113.7988722,22.7461415],[113.7987766,22.7461478],[113.7987667,22.7460218]]]]},"properties":{"name":"way/957351020","height":0,"kind":"unknown","label":"缺少可用高度；仅展示轮廓"}},{"type":"Feature","id":"way/957351021","geometry":{"type":"MultiPolygon","coordinates":[[[[113.7986418,22.7460448],[113.7987484,22.7460377],[113.7987571,22.7461494],[113.7986505,22.7461565],[113.7986418,22.7460448]]]]},"properties":{"name":"way/957351021","height":0,"kind":"unknown","label":"缺少可用高度；仅展示轮廓"}},{"type":"Feature","id":"way/957351022","geometry":{"type":"MultiPolygon","coordinates":[[[[113.7984977,22.7460507],[113.7985995,22.7460439],[113.7986089,22.7461633],[113.798507,22.7461701],[113.7984977,22.7460507]]]]},"properties":{"name":"way/957351022","height":0,"kind":"unknown","label":"缺少可用高度；仅展示轮廓"}},{"type":"Feature","id":"way/957351023","geometry":{"type":"MultiPolygon","coordinates":[[[[113.7983642,22.7460462],[113.7984721,22.746039],[113.7984822,22.7461679],[113.7983742,22.746175],[113.7983642,22.7460462]]]]},"properties":{"name":"way/957351023","height":0,"kind":"unknown","label":"缺少可用高度；仅展示轮廓"}},{"type":"Feature","id":"way/957351024","geometry":{"type":"MultiPolygon","coordinates":[[[[113.7982307,22.7460513],[113.7983313,22.7460447],[113.798342,22.7461819],[113.7982415,22.7461886],[113.7982307,22.7460513]]]]},"properties":{"name":"way/957351024","height":0,"kind":"unknown","label":"缺少可用高度；仅展示轮廓"}},{"type":"Feature","id":"way/957351025","geometry":{"type":"MultiPolygon","coordinates":[[[[113.798095,22.7460503],[113.7982093,22.7460452],[113.7982176,22.746202],[113.7981033,22.7462072],[113.798095,22.7460503]]]]},"properties":{"name":"way/957351025","height":0,"kind":"unknown","label":"缺少可用高度；仅展示轮廓"}},{"type":"Feature","id":"way/957351026","geometry":{"type":"MultiPolygon","coordinates":[[[[113.7979563,22.7460824],[113.7980685,22.7460773],[113.7980761,22.7462207],[113.7979639,22.7462257],[113.7979563,22.7460824]]]]},"properties":{"name":"way/957351026","height":0,"kind":"unknown","label":"缺少可用高度；仅展示轮廓"}},{"type":"Feature","id":"way/957351027","geometry":{"type":"MultiPolygon","coordinates":[[[[113.7978257,22.7460711],[113.7979357,22.7460662],[113.7979451,22.746243],[113.7978351,22.746248],[113.7978257,22.7460711]]]]},"properties":{"name":"way/957351027","height":0,"kind":"unknown","label":"缺少可用高度；仅展示轮廓"}},{"type":"Feature","id":"way/957351028","geometry":{"type":"MultiPolygon","coordinates":[[[[113.7978619,22.74641],[113.7979706,22.7464051],[113.7979773,22.7465325],[113.7978686,22.7465374],[113.7978619,22.74641]]]]},"properties":{"name":"way/957351028","height":0,"kind":"unknown","label":"缺少可用高度；仅展示轮廓"}},{"type":"Feature","id":"way/957351029","geometry":{"type":"MultiPolygon","coordinates":[[[[113.7978804,22.7465602],[113.7980014,22.7465547],[113.7980098,22.7467125],[113.7978888,22.746718],[113.7978804,22.7465602]]]]},"properties":{"name":"way/957351029","height":0,"kind":"unknown","label":"缺少可用高度；仅展示轮廓"}},{"type":"Feature","id":"way/957351030","geometry":{"type":"MultiPolygon","coordinates":[[[[113.797904,22.7467544],[113.7979974,22.7467501],[113.7980063,22.7469178],[113.7979129,22.7469221],[113.797904,22.7467544]]]]},"properties":{"name":"way/957351030","height":0,"kind":"unknown","label":"缺少可用高度；仅展示轮廓"}},{"type":"Feature","id":"way/957351031","geometry":{"type":"MultiPolygon","coordinates":[[[[113.7973342,22.7467557],[113.7974576,22.7467501],[113.797467,22.7469277],[113.7973436,22.7469332],[113.7973342,22.7467557]]]]},"properties":{"name":"way/957351031","height":0,"kind":"unknown","label":"缺少可用高度；仅展示轮廓"}},{"type":"Feature","id":"way/957351032","geometry":{"type":"MultiPolygon","coordinates":[[[[113.7973248,22.7465565],[113.7974482,22.746551],[113.7974576,22.7467285],[113.7973342,22.7467341],[113.7973248,22.7465565]]]]},"properties":{"name":"way/957351032","height":0,"kind":"unknown","label":"缺少可用高度；仅展示轮廓"}},{"type":"Feature","id":"way/957351033","geometry":{"type":"MultiPolygon","coordinates":[[[[113.7974669,22.7465466],[113.7975904,22.7465411],[113.7975998,22.7467187],[113.7974764,22.7467242],[113.7974669,22.7465466]]]]},"properties":{"name":"way/957351033","height":0,"kind":"unknown","label":"缺少可用高度；仅展示轮廓"}},{"type":"Feature","id":"way/957351034","geometry":{"type":"MultiPolygon","coordinates":[[[[113.7976051,22.7465466],[113.7977285,22.7465411],[113.7977379,22.7467187],[113.7976145,22.7467242],[113.7976051,22.7465466]]]]},"properties":{"name":"way/957351034","height":0,"kind":"unknown","label":"缺少可用高度；仅展示轮廓"}},{"type":"Feature","id":"way/957351035","geometry":{"type":"MultiPolygon","coordinates":[[[[113.7977637,22.7467573],[113.7978872,22.7467517],[113.7978966,22.7469293],[113.7977732,22.7469349],[113.7977637,22.7467573]]]]},"properties":{"name":"way/957351035","height":0,"kind":"unknown","label":"缺少可用高度；仅展示轮廓"}},{"type":"Feature","id":"way/957351036","geometry":{"type":"MultiPolygon","coordinates":[[[[113.7977386,22.7470668],[113.7978787,22.7470573],[113.7978888,22.747183],[113.7977486,22.7471925],[113.7977386,22.7470668]]]]},"properties":{"name":"way/957351036","height":0,"kind":"unknown","label":"缺少可用高度；仅展示轮廓"}},{"type":"Feature","id":"way/957351037","geometry":{"type":"MultiPolygon","coordinates":[[[[113.7977573,22.7472078],[113.797895,22.7471984],[113.7979048,22.7473215],[113.7977671,22.7473309],[113.7977573,22.7472078]]]]},"properties":{"name":"way/957351037","height":0,"kind":"unknown","label":"缺少可用高度；仅展示轮廓"}},{"type":"Feature","id":"way/957351038","geometry":{"type":"MultiPolygon","coordinates":[[[[113.7977657,22.747331],[113.7977671,22.7473309],[113.7979048,22.7473215],[113.797914,22.7474358],[113.7977748,22.7474452],[113.7977657,22.747331]]]]},"properties":{"name":"way/957351038","height":0,"kind":"unknown","label":"缺少可用高度；仅展示轮廓"}},{"type":"Feature","id":"way/957351039","geometry":{"type":"MultiPolygon","coordinates":[[[[113.7975645,22.747346],[113.7977064,22.7473364],[113.7977155,22.7474504],[113.7975736,22.7474601],[113.7975645,22.747346]]]]},"properties":{"name":"way/957351039","height":0,"kind":"unknown","label":"缺少可用高度；仅展示轮廓"}},{"type":"Feature","id":"way/957351040","geometry":{"type":"MultiPolygon","coordinates":[[[[113.797384,22.7473549],[113.7975293,22.747345],[113.7975392,22.7474688],[113.7973939,22.7474786],[113.797384,22.7473549]]]]},"properties":{"name":"way/957351040","height":0,"kind":"unknown","label":"缺少可用高度；仅展示轮廓"}},{"type":"Feature","id":"way/957351041","geometry":{"type":"MultiPolygon","coordinates":[[[[113.7972504,22.7472931],[113.7973623,22.7472855],[113.7973757,22.7474537],[113.7972638,22.7474613],[113.7972504,22.7472931]]]]},"properties":{"name":"way/957351041","height":0,"kind":"unknown","label":"缺少可用高度；仅展示轮廓"}},{"type":"Feature","id":"way/1284812561","geometry":{"type":"MultiPolygon","coordinates":[[[[113.791624,22.7510627],[113.7918495,22.7510353],[113.7919111,22.7514665],[113.7916858,22.751494],[113.791624,22.7510627]]]]},"properties":{"name":"way/1284812561","height":0,"kind":"unknown","label":"缺少可用高度；仅展示轮廓"}},{"type":"Feature","id":"way/1284812562","geometry":{"type":"MultiPolygon","coordinates":[[[[113.7920184,22.751014],[113.7922438,22.7509865],[113.7923055,22.7514178],[113.7920801,22.7514452],[113.7920184,22.751014]]]]},"properties":{"name":"way/1284812562","height":0,"kind":"unknown","label":"缺少可用高度；仅展示轮廓"}},{"type":"Feature","id":"way/1284812563","geometry":{"type":"MultiPolygon","coordinates":[[[[113.7924237,22.7509664],[113.7926492,22.7509389],[113.7927108,22.7513702],[113.7924855,22.7513976],[113.7924237,22.7509664]]]]},"properties":{"name":"way/1284812563","height":0,"kind":"unknown","label":"缺少可用高度；仅展示轮廓"}},{"type":"Feature","id":"way/1284812564","geometry":{"type":"MultiPolygon","coordinates":[[[[113.792814,22.750912],[113.7930394,22.7508846],[113.7931011,22.7513158],[113.7928757,22.7513433],[113.792814,22.750912]]]]},"properties":{"name":"way/1284812564","height":0,"kind":"unknown","label":"缺少可用高度；仅展示轮廓"}},{"type":"Feature","id":"way/1284812565","geometry":{"type":"MultiPolygon","coordinates":[[[[113.7932226,22.7508633],[113.793448,22.7508358],[113.7935097,22.7512671],[113.7932843,22.7512945],[113.7932226,22.7508633]]]]},"properties":{"name":"way/1284812565","height":0,"kind":"unknown","label":"缺少可用高度；仅展示轮廓"}},{"type":"Feature","id":"way/1284812566","geometry":{"type":"MultiPolygon","coordinates":[[[[113.7936067,22.7508258],[113.7938322,22.7507983],[113.7938939,22.7512296],[113.7936685,22.751257],[113.7936067,22.7508258]]]]},"properties":{"name":"way/1284812566","height":0,"kind":"unknown","label":"缺少可用高度；仅展示轮廓"}},{"type":"Feature","id":"way/1284812567","geometry":{"type":"MultiPolygon","coordinates":[[[[113.7940052,22.750777],[113.7942306,22.7507496],[113.7942923,22.7511809],[113.7940669,22.7512083],[113.7940052,22.750777]]]]},"properties":{"name":"way/1284812567","height":0,"kind":"unknown","label":"缺少可用高度；仅展示轮廓"}},{"type":"Feature","id":"way/1284812568","geometry":{"type":"MultiPolygon","coordinates":[[[[113.7961863,22.7505169],[113.7964117,22.7504895],[113.7964734,22.7509208],[113.796248,22.7509482],[113.7961863,22.7505169]]]]},"properties":{"name":"way/1284812568","height":0,"kind":"unknown","label":"缺少可用高度；仅展示轮廓"}},{"type":"Feature","id":"way/1284812569","geometry":{"type":"MultiPolygon","coordinates":[[[[113.7958021,22.7505544],[113.7960275,22.750527],[113.7960892,22.7509583],[113.7958638,22.7509857],[113.7958021,22.7505544]]]]},"properties":{"name":"way/1284812569","height":0,"kind":"unknown","label":"缺少可用高度；仅展示轮廓"}},{"type":"Feature","id":"way/1284812570","geometry":{"type":"MultiPolygon","coordinates":[[[[113.7953935,22.7506032],[113.795619,22.7505757],[113.7956806,22.751007],[113.7954553,22.7510344],[113.7953935,22.7506032]]]]},"properties":{"name":"way/1284812570","height":0,"kind":"unknown","label":"缺少可用高度；仅展示轮廓"}},{"type":"Feature","id":"way/1284812571","geometry":{"type":"MultiPolygon","coordinates":[[[[113.7950032,22.7506575],[113.7952287,22.7506301],[113.7952903,22.7510614],[113.795065,22.7510888],[113.7950032,22.7506575]]]]},"properties":{"name":"way/1284812571","height":0,"kind":"unknown","label":"缺少可用高度；仅展示轮廓"}},{"type":"Feature","id":"way/1284812572","geometry":{"type":"MultiPolygon","coordinates":[[[[113.7945979,22.7507051],[113.7948233,22.7506777],[113.794885,22.751109],[113.7946596,22.7511364],[113.7945979,22.7507051]]]]},"properties":{"name":"way/1284812572","height":0,"kind":"unknown","label":"缺少可用高度；仅展示轮廓"}},{"type":"Feature","id":"way/1284812573","geometry":{"type":"MultiPolygon","coordinates":[[[[113.7953182,22.7499643],[113.7955446,22.7499339],[113.7956055,22.7503184],[113.7953791,22.7503489],[113.7953182,22.7499643]]]]},"properties":{"name":"way/1284812573","height":0,"kind":"unknown","label":"缺少可用高度；仅展示轮廓"}},{"type":"Feature","id":"way/1284812574","geometry":{"type":"MultiPolygon","coordinates":[[[[113.7961065,22.7497915],[113.796332,22.7497641],[113.7963937,22.7501954],[113.7961683,22.7502228],[113.7961065,22.7497915]]]]},"properties":{"name":"way/1284812574","height":0,"kind":"unknown","label":"缺少可用高度；仅展示轮廓"}},{"type":"Feature","id":"way/1284812575","geometry":{"type":"MultiPolygon","coordinates":[[[[113.7957137,22.7498631],[113.7959392,22.7498356],[113.7959784,22.7501099],[113.7960008,22.7502669],[113.7957754,22.7502944],[113.7957137,22.7498631]]]]},"properties":{"name":"way/1284812575","height":0,"kind":"unknown","label":"缺少可用高度；仅展示轮廓"}},{"type":"Feature","id":"way/1284812576","geometry":{"type":"MultiPolygon","coordinates":[[[[113.7949226,22.7500126],[113.795149,22.7499821],[113.7952099,22.7503667],[113.7949834,22.7503971],[113.7949226,22.7500126]]]]},"properties":{"name":"way/1284812576","height":0,"kind":"unknown","label":"缺少可用高度；仅展示轮廓"}},{"type":"Feature","id":"way/1284812577","geometry":{"type":"MultiPolygon","coordinates":[[[[113.7945342,22.7501043],[113.7947655,22.7500758],[113.7948139,22.7504093],[113.7945826,22.7504379],[113.7945342,22.7501043]]]]},"properties":{"name":"way/1284812577","height":0,"kind":"unknown","label":"缺少可用高度；仅展示轮廓"}},{"type":"Feature","id":"way/1284812578","geometry":{"type":"MultiPolygon","coordinates":[[[[113.7938762,22.7501891],[113.7943991,22.7501214],[113.7944219,22.7502709],[113.793899,22.7503385],[113.7938762,22.7501891]]]]},"properties":{"name":"way/1284812578","height":0,"kind":"unknown","label":"缺少可用高度；仅展示轮廓"}},{"type":"Feature","id":"way/1284812579","geometry":{"type":"MultiPolygon","coordinates":[[[[113.7934424,22.7502918],[113.7937926,22.7502535],[113.7938039,22.7503417],[113.7934538,22.7503801],[113.7934424,22.7502918]]]]},"properties":{"name":"way/1284812579","height":0,"kind":"unknown","label":"缺少可用高度；仅展示轮廓"}},{"type":"Feature","id":"way/1284812580","geometry":{"type":"MultiPolygon","coordinates":[[[[113.7933347,22.7504964],[113.7938207,22.7504452],[113.7938309,22.7505276],[113.7933449,22.7505788],[113.7933347,22.7504964]]]]},"properties":{"name":"way/1284812580","height":0,"kind":"unknown","label":"缺少可用高度；仅展示轮廓"}},{"type":"Feature","id":"way/1284812584","geometry":{"type":"MultiPolygon","coordinates":[[[[113.7931101,22.7482531],[113.793598,22.7482132],[113.7936188,22.7484306],[113.7931309,22.7484704],[113.7931101,22.7482531]]]]},"properties":{"name":"way/1284812584","height":0,"kind":"unknown","label":"缺少可用高度；仅展示轮廓"}},{"type":"Feature","id":"way/1284812585","geometry":{"type":"MultiPolygon","coordinates":[[[[113.7931406,22.7486449],[113.7936285,22.748605],[113.7936493,22.7488224],[113.7931614,22.7488622],[113.7931406,22.7486449]]]]},"properties":{"name":"way/1284812585","height":0,"kind":"unknown","label":"缺少可用高度；仅展示轮廓"}},{"type":"Feature","id":"way/1284812586","geometry":{"type":"MultiPolygon","coordinates":[[[[113.7931779,22.7490336],[113.7936657,22.7489937],[113.7936866,22.7492111],[113.7931987,22.7492509],[113.7931779,22.7490336]]]]},"properties":{"name":"way/1284812586","height":0,"kind":"unknown","label":"缺少可用高度；仅展示轮廓"}},{"type":"Feature","id":"way/1284812587","geometry":{"type":"MultiPolygon","coordinates":[[[[113.7938389,22.748187],[113.7943268,22.7481472],[113.7943477,22.7483645],[113.7938598,22.7484043],[113.7938389,22.748187]]]]},"properties":{"name":"way/1284812587","height":0,"kind":"unknown","label":"缺少可用高度；仅展示轮廓"}},{"type":"Feature","id":"way/1284812588","geometry":{"type":"MultiPolygon","coordinates":[[[[113.7938683,22.7485774],[113.7943562,22.7485376],[113.7943771,22.7487549],[113.7938892,22.7487947],[113.7938683,22.7485774]]]]},"properties":{"name":"way/1284812588","height":0,"kind":"unknown","label":"缺少可用高度；仅展示轮廓"}},{"type":"Feature","id":"way/1284812589","geometry":{"type":"MultiPolygon","coordinates":[[[[113.7939029,22.748973],[113.7943908,22.7489331],[113.7944116,22.7491505],[113.7939237,22.7491902],[113.7939029,22.748973]]]]},"properties":{"name":"way/1284812589","height":0,"kind":"unknown","label":"缺少可用高度；仅展示轮廓"}},{"type":"Feature","id":"way/1284812590","geometry":{"type":"MultiPolygon","coordinates":[[[[113.7939312,22.7493676],[113.7944125,22.7493275],[113.7944222,22.7494266],[113.7939409,22.7494666],[113.7939312,22.7493676]]]]},"properties":{"name":"way/1284812590","height":0,"kind":"unknown","label":"缺少可用高度；仅展示轮廓"}},{"type":"Feature","id":"way/1284812591","geometry":{"type":"MultiPolygon","coordinates":[[[[113.7932359,22.7496927],[113.7937173,22.7496526],[113.793727,22.7497517],[113.7932456,22.7497918],[113.7932359,22.7496927]]]]},"properties":{"name":"way/1284812591","height":0,"kind":"unknown","label":"缺少可用高度；仅展示轮廓"}},{"type":"Feature","id":"way/1284812592","geometry":{"type":"MultiPolygon","coordinates":[[[[113.7939545,22.7496288],[113.7944359,22.7495887],[113.7944456,22.7496879],[113.7939642,22.7497279],[113.7939545,22.7496288]]]]},"properties":{"name":"way/1284812592","height":0,"kind":"unknown","label":"缺少可用高度；仅展示轮廓"}},{"type":"Feature","id":"way/1284812593","geometry":{"type":"MultiPolygon","coordinates":[[[[113.7945241,22.7481443],[113.7950119,22.7481063],[113.7950267,22.7482673],[113.7945389,22.7483054],[113.7945241,22.7481443]]]]},"properties":{"name":"way/1284812593","height":0,"kind":"unknown","label":"缺少可用高度；仅展示轮廓"}},{"type":"Feature","id":"way/1284812594","geometry":{"type":"MultiPolygon","coordinates":[[[[113.7952537,22.7480829],[113.7957415,22.7480448],[113.7957562,22.7482058],[113.7952684,22.748244],[113.7952537,22.7480829]]]]},"properties":{"name":"way/1284812594","height":0,"kind":"unknown","label":"缺少可用高度；仅展示轮廓"}},{"type":"Feature","id":"way/1284812595","geometry":{"type":"MultiPolygon","coordinates":[[[[113.7959795,22.748028],[113.7964673,22.7479899],[113.7964821,22.748151],[113.7959943,22.7481891],[113.7959795,22.748028]]]]},"properties":{"name":"way/1284812595","height":0,"kind":"unknown","label":"缺少可用高度；仅展示轮廓"}},{"type":"Feature","id":"way/1284812596","geometry":{"type":"MultiPolygon","coordinates":[[[[113.7960007,22.7484026],[113.7964885,22.7483645],[113.7965033,22.7485255],[113.7960155,22.7485636],[113.7960007,22.7484026]]]]},"properties":{"name":"way/1284812596","height":0,"kind":"unknown","label":"缺少可用高度；仅展示轮廓"}},{"type":"Feature","id":"way/1284812597","geometry":{"type":"MultiPolygon","coordinates":[[[[113.7960393,22.7487512],[113.7965271,22.7487132],[113.7965419,22.7488742],[113.7960541,22.7489123],[113.7960393,22.7487512]]]]},"properties":{"name":"way/1284812597","height":0,"kind":"unknown","label":"缺少可用高度；仅展示轮廓"}},{"type":"Feature","id":"way/1284812598","geometry":{"type":"MultiPolygon","coordinates":[[[[113.7960722,22.7491159],[113.79656,22.7490779],[113.7965748,22.7492389],[113.796087,22.749277],[113.7960722,22.7491159]]]]},"properties":{"name":"way/1284812598","height":0,"kind":"unknown","label":"缺少可用高度；仅展示轮廓"}},{"type":"Feature","id":"way/1284812599","geometry":{"type":"MultiPolygon","coordinates":[[[[113.7945511,22.7485019],[113.7950389,22.7484639],[113.7950537,22.7486249],[113.7945659,22.748663],[113.7945511,22.7485019]]]]},"properties":{"name":"way/1284812599","height":0,"kind":"unknown","label":"缺少可用高度；仅展示轮廓"}},{"type":"Feature","id":"way/1284812600","geometry":{"type":"MultiPolygon","coordinates":[[[[113.7945749,22.7488584],[113.7950628,22.7488203],[113.7950775,22.7489813],[113.7945897,22.7490194],[113.7945749,22.7488584]]]]},"properties":{"name":"way/1284812600","height":0,"kind":"unknown","label":"缺少可用高度；仅展示轮廓"}},{"type":"Feature","id":"way/1284812601","geometry":{"type":"MultiPolygon","coordinates":[[[[113.7946178,22.7492151],[113.7950992,22.749175],[113.7951089,22.7492742],[113.7946275,22.7493142],[113.7946178,22.7492151]]]]},"properties":{"name":"way/1284812601","height":0,"kind":"unknown","label":"缺少可用高度；仅展示轮廓"}},{"type":"Feature","id":"way/1284812602","geometry":{"type":"MultiPolygon","coordinates":[[[[113.7946412,22.7494764],[113.7951225,22.7494363],[113.7951322,22.7495354],[113.7946509,22.7495755],[113.7946412,22.7494764]]]]},"properties":{"name":"way/1284812602","height":0,"kind":"unknown","label":"缺少可用高度；仅展示轮廓"}},{"type":"Feature","id":"way/1284812603","geometry":{"type":"MultiPolygon","coordinates":[[[[113.7953382,22.7491214],[113.7958195,22.7490813],[113.7958292,22.7491805],[113.7953479,22.7492205],[113.7953382,22.7491214]]]]},"properties":{"name":"way/1284812603","height":0,"kind":"unknown","label":"缺少可用高度；仅展示轮廓"}},{"type":"Feature","id":"way/1284812604","geometry":{"type":"MultiPolygon","coordinates":[[[[113.7953615,22.7493827],[113.7958429,22.7493426],[113.7958526,22.7494417],[113.7953712,22.7494818],[113.7953615,22.7493827]]]]},"properties":{"name":"way/1284812604","height":0,"kind":"unknown","label":"缺少可用高度；仅展示轮廓"}},{"type":"Feature","id":"way/1284812605","geometry":{"type":"MultiPolygon","coordinates":[[[[113.7953032,22.7484445],[113.7957807,22.7484086],[113.7958276,22.7489378],[113.79535,22.7489738],[113.7953032,22.7484445]]]]},"properties":{"name":"way/1284812605","height":0,"kind":"unknown","label":"缺少可用高度；仅展示轮廓"}},{"type":"Feature","id":"way/1284812618","geometry":{"type":"MultiPolygon","coordinates":[[[[113.7923684,22.748479],[113.7925571,22.7484653],[113.7926169,22.7491643],[113.7924283,22.749178],[113.7923684,22.748479]]]]},"properties":{"name":"way/1284812618","height":0,"kind":"unknown","label":"缺少可用高度；仅展示轮廓"}},{"type":"Feature","id":"way/1284812619","geometry":{"type":"MultiPolygon","coordinates":[[[[113.7920192,22.7485125],[113.7922079,22.7484988],[113.7922676,22.7491978],[113.7920791,22.7492115],[113.7920192,22.7485125]]]]},"properties":{"name":"way/1284812619","height":0,"kind":"unknown","label":"缺少可用高度；仅展示轮廓"}},{"type":"Feature","id":"way/1284812620","geometry":{"type":"MultiPolygon","coordinates":[[[[113.7920889,22.7493592],[113.7922724,22.7493436],[113.7923162,22.7497839],[113.7921328,22.7497994],[113.7920889,22.7493592]]]]},"properties":{"name":"way/1284812620","height":0,"kind":"unknown","label":"缺少可用高度；仅展示轮廓"}},{"type":"Feature","id":"way/1284812621","geometry":{"type":"MultiPolygon","coordinates":[[[[113.7924345,22.7493269],[113.7926179,22.7493113],[113.7926617,22.7497516],[113.7924784,22.7497671],[113.7924345,22.7493269]]]]},"properties":{"name":"way/1284812621","height":0,"kind":"unknown","label":"缺少可用高度；仅展示轮廓"}},{"type":"Feature","id":"way/1284812622","geometry":{"type":"MultiPolygon","coordinates":[[[[113.7921106,22.7499742],[113.7925858,22.7499396],[113.7925917,22.7500083],[113.7921165,22.750043],[113.7921106,22.7499742]]]]},"properties":{"name":"way/1284812622","height":0,"kind":"unknown","label":"缺少可用高度；仅展示轮廓"}},{"type":"Feature","id":"way/1284812624","geometry":{"type":"MultiPolygon","coordinates":[[[[113.7915246,22.7483153],[113.7918568,22.7482888],[113.7918727,22.7484585],[113.7915405,22.748485],[113.7915246,22.7483153]]]]},"properties":{"name":"way/1284812624","height":0,"kind":"unknown","label":"缺少可用高度；仅展示轮廓"}},{"type":"Feature","id":"way/1284812625","geometry":{"type":"MultiPolygon","coordinates":[[[[113.7919778,22.7482783],[113.7921785,22.7482597],[113.7921931,22.7483929],[113.7921259,22.7483992],[113.7921281,22.7484193],[113.7920566,22.7484259],[113.7920536,22.748398],[113.7919916,22.7484038],[113.7919778,22.7482783]]]]},"properties":{"name":"way/1284812625","height":0,"kind":"unknown","label":"缺少可用高度；仅展示轮廓"}},{"type":"Feature","id":"way/1284812635","geometry":{"type":"MultiPolygon","coordinates":[[[[113.7980106,22.7504741],[113.7982967,22.7504149],[113.7983988,22.7508342],[113.7981127,22.7508934],[113.7980106,22.7504741]]]]},"properties":{"name":"way/1284812635","height":0,"kind":"unknown","label":"缺少可用高度；仅展示轮廓"}},{"type":"Feature","id":"way/1284812636","geometry":{"type":"MultiPolygon","coordinates":[[[[113.7984298,22.7503837],[113.7989042,22.7502853],[113.7989815,22.7506022],[113.7985071,22.7507006],[113.7984298,22.7503837]]]]},"properties":{"name":"way/1284812636","height":0,"kind":"unknown","label":"缺少可用高度；仅展示轮廓"}},{"type":"Feature","id":"way/1284812637","geometry":{"type":"MultiPolygon","coordinates":[[[[113.7989656,22.7502252],[113.7993914,22.750137],[113.7994131,22.750226],[113.7989873,22.7503143],[113.7989656,22.7502252]]]]},"properties":{"name":"way/1284812637","height":0,"kind":"unknown","label":"缺少可用高度；仅展示轮廓"}},{"type":"Feature","id":"way/1284812638","geometry":{"type":"MultiPolygon","coordinates":[[[[113.7990141,22.7503926],[113.799439,22.7503045],[113.7994884,22.7505074],[113.7990635,22.7505954],[113.7990141,22.7503926]]]]},"properties":{"name":"way/1284812638","height":0,"kind":"unknown","label":"缺少可用高度；仅展示轮廓"}},{"type":"Feature","id":"way/1284812639","geometry":{"type":"MultiPolygon","coordinates":[[[[113.7995918,22.7502619],[113.8000167,22.7501738],[113.8000661,22.7503767],[113.7996412,22.7504647],[113.7995918,22.7502619]]]]},"properties":{"name":"way/1284812639","height":0,"kind":"unknown","label":"缺少可用高度；仅展示轮廓"}},{"type":"Feature","id":"way/1284812640","geometry":{"type":"MultiPolygon","coordinates":[[[[113.7995504,22.7501023],[113.80001,22.750003],[113.8000318,22.7500889],[113.7995722,22.7501883],[113.7995504,22.7501023]]]]},"properties":{"name":"way/1284812640","height":0,"kind":"unknown","label":"缺少可用高度；仅展示轮廓"}},{"type":"Feature","id":"way/1284812641","geometry":{"type":"MultiPolygon","coordinates":[[[[113.7990855,22.750691],[113.7995209,22.7506011],[113.7995571,22.7507505],[113.7991217,22.7508402],[113.7990855,22.750691]]]]},"properties":{"name":"way/1284812641","height":0,"kind":"unknown","label":"缺少可用高度；仅展示轮廓"}},{"type":"Feature","id":"way/1284812642","geometry":{"type":"MultiPolygon","coordinates":[[[[113.7996556,22.7505733],[113.8001319,22.7504701],[113.8001705,22.7506216],[113.7996942,22.7507247],[113.7996556,22.7505733]]]]},"properties":{"name":"way/1284812642","height":0,"kind":"unknown","label":"缺少可用高度；仅展示轮廓"}},{"type":"Feature","id":"way/1285064405","geometry":{"type":"MultiPolygon","coordinates":[[[[113.7913347,22.7476936],[113.7921838,22.7476366],[113.7921898,22.7477128],[113.7913407,22.7477697],[113.7913347,22.7476936]]]]},"properties":{"name":"way/1285064405","height":0,"kind":"unknown","label":"缺少可用高度；仅展示轮廓"}},{"type":"Feature","id":"way/1285064414","geometry":{"type":"MultiPolygon","coordinates":[[[[113.7917808,22.7462915],[113.7920227,22.7462771],[113.792054,22.7467237],[113.7918121,22.7467381],[113.7917808,22.7462915]]]]},"properties":{"name":"way/1285064414","height":0,"kind":"unknown","label":"缺少可用高度；仅展示轮廓"}},{"type":"Feature","id":"way/1285064415","geometry":{"type":"MultiPolygon","coordinates":[[[[113.7918394,22.7469284],[113.7920813,22.746914],[113.7921125,22.7473606],[113.7918707,22.747375],[113.7918394,22.7469284]]]]},"properties":{"name":"way/1285064415","height":0,"kind":"unknown","label":"缺少可用高度；仅展示轮廓"}},{"type":"Feature","id":"way/1285064418","geometry":{"type":"MultiPolygon","coordinates":[[[[113.7911943,22.7457176],[113.7919623,22.7456533],[113.7919817,22.7458507],[113.7912137,22.7459151],[113.7911943,22.7457176]]]]},"properties":{"name":"way/1285064418","height":0,"kind":"unknown","label":"缺少可用高度；仅展示轮廓"}},{"type":"Feature","id":"way/1285064458","geometry":{"type":"MultiPolygon","coordinates":[[[[113.7926069,22.7437319],[113.7928039,22.7437139],[113.7928367,22.744019],[113.7928736,22.7440156],[113.7928809,22.7440832],[113.7928413,22.7440868],[113.7928834,22.7444777],[113.792689,22.7444955],[113.7926069,22.7437319]]]]},"properties":{"name":"way/1285064458","height":0,"kind":"unknown","label":"缺少可用高度；仅展示轮廓"}},{"type":"Feature","id":"way/1285064459","geometry":{"type":"MultiPolygon","coordinates":[[[[113.7925237,22.7432494],[113.7926266,22.7432423],[113.7926257,22.7432312],[113.7928773,22.743214],[113.792878,22.7432227],[113.792919,22.7432199],[113.792936,22.7434307],[113.7925404,22.7434577],[113.7925237,22.7432494]]]]},"properties":{"name":"way/1285064459","height":0,"kind":"unknown","label":"缺少可用高度；仅展示轮廓"}},{"type":"Feature","id":"way/1285064460","geometry":{"type":"MultiPolygon","coordinates":[[[[113.792502,22.743579],[113.7927841,22.7435593],[113.792791,22.7436426],[113.7925089,22.7436623],[113.792502,22.743579]]]]},"properties":{"name":"way/1285064460","height":0,"kind":"unknown","label":"缺少可用高度；仅展示轮廓"}},{"type":"Feature","id":"way/1285064461","geometry":{"type":"MultiPolygon","coordinates":[[[[113.79234,22.7440103],[113.7924513,22.7440041],[113.7924844,22.7445158],[113.792373,22.7445219],[113.79234,22.7440103]]]]},"properties":{"name":"way/1285064461","height":0,"kind":"unknown","label":"缺少可用高度；仅展示轮廓"}},{"type":"Feature","id":"way/1285064462","geometry":{"type":"MultiPolygon","coordinates":[[[[113.7922769,22.7434066],[113.7923883,22.7434005],[113.7924214,22.7439121],[113.79231,22.7439183],[113.7922769,22.7434066]]]]},"properties":{"name":"way/1285064462","height":0,"kind":"unknown","label":"缺少可用高度；仅展示轮廓"}},{"type":"Feature","id":"way/1285871783","geometry":{"type":"MultiPolygon","coordinates":[[[[113.795018,22.7466058],[113.7955024,22.746571],[113.7955088,22.7466474],[113.7950245,22.7466823],[113.795018,22.7466058]]]]},"properties":{"name":"way/1285871783","height":0,"kind":"unknown","label":"缺少可用高度；仅展示轮廓"}},{"type":"Feature","id":"way/1285871784","geometry":{"type":"MultiPolygon","coordinates":[[[[113.7950365,22.7468438],[113.795534,22.7468047],[113.7955396,22.746866],[113.7955246,22.7468783],[113.7955343,22.7469833],[113.7950529,22.7470212],[113.7950365,22.7468438]]]]},"properties":{"name":"way/1285871784","height":0,"kind":"unknown","label":"缺少可用高度；仅展示轮廓"}},{"type":"Feature","id":"way/1285871785","geometry":{"type":"MultiPolygon","coordinates":[[[[113.795677,22.7465499],[113.7961613,22.7465151],[113.7961678,22.7465916],[113.7956834,22.7466265],[113.795677,22.7465499]]]]},"properties":{"name":"way/1285871785","height":0,"kind":"unknown","label":"缺少可用高度；仅展示轮廓"}},{"type":"Feature","id":"way/1285871786","geometry":{"type":"MultiPolygon","coordinates":[[[[113.7956955,22.746788],[113.7961929,22.7467489],[113.7961986,22.7468102],[113.7961835,22.7468225],[113.7961933,22.7469275],[113.7957119,22.7469653],[113.7956955,22.746788]]]]},"properties":{"name":"way/1285871786","height":0,"kind":"unknown","label":"缺少可用高度；仅展示轮廓"}},{"type":"Feature","id":"way/1285871787","geometry":{"type":"MultiPolygon","coordinates":[[[[113.7943852,22.7468694],[113.7948826,22.7468304],[113.7948882,22.7468917],[113.7948732,22.7469039],[113.7948829,22.7470089],[113.7944016,22.7470468],[113.7943852,22.7468694]]]]},"properties":{"name":"way/1285871787","height":0,"kind":"unknown","label":"缺少可用高度；仅展示轮廓"}},{"type":"Feature","id":"way/1285871789","geometry":{"type":"MultiPolygon","coordinates":[[[[113.7993493,22.7456501],[113.7993763,22.7456465],[113.7993683,22.7455964],[113.7994252,22.7455887],[113.7994323,22.7456335],[113.799468,22.7456287],[113.7994604,22.7455808],[113.7995244,22.7455722],[113.7995338,22.7456313],[113.7995562,22.7456283],[113.7995769,22.7457589],[113.7995575,22.7457615],[113.7995705,22.7458433],[113.7994999,22.7458528],[113.7994913,22.745799],[113.7994652,22.7458025],[113.799474,22.7458577],[113.7994075,22.7458667],[113.7993955,22.7457907],[113.7993721,22.7457939],[113.7993493,22.7456501]]]]},"properties":{"name":"way/1285871789","height":69,"kind":"levels","label":"23层 × 3米（估算）"}},{"type":"Feature","id":"way/1285871793","geometry":{"type":"MultiPolygon","coordinates":[[[[113.7929607,22.7467627],[113.7939191,22.7466881],[113.793939,22.7469056],[113.793906,22.7469082],[113.7939238,22.7471034],[113.7939604,22.7471006],[113.7939895,22.747418],[113.793018,22.7474938],[113.7929887,22.7471748],[113.7938806,22.7471052],[113.7938632,22.7469157],[113.792981,22.7469845],[113.7929607,22.7467627]]]]},"properties":{"name":"way/1285871793","height":0,"kind":"unknown","label":"缺少可用高度；仅展示轮廓"}},{"type":"Feature","id":"way/1285871794","geometry":{"type":"MultiPolygon","coordinates":[[[[113.7927765,22.7460669],[113.7932571,22.7460307],[113.7932816,22.7463068],[113.7928009,22.746343],[113.7927765,22.7460669]]]]},"properties":{"name":"way/1285871794","height":0,"kind":"unknown","label":"缺少可用高度；仅展示轮廓"}},{"type":"Feature","id":"way/1285871795","geometry":{"type":"MultiPolygon","coordinates":[[[[113.7927505,22.7456206],[113.7932347,22.7455875],[113.7932518,22.7457996],[113.7927676,22.7458327],[113.7927505,22.7456206]]]]},"properties":{"name":"way/1285871795","height":0,"kind":"unknown","label":"缺少可用高度；仅展示轮廓"}},{"type":"Feature","id":"way/1285871796","geometry":{"type":"MultiPolygon","coordinates":[[[[113.792932,22.7465408],[113.7929399,22.7465402],[113.7929352,22.7464902],[113.7934204,22.7464513],[113.7934259,22.7465103],[113.7934427,22.7465089],[113.7934445,22.7465283],[113.7929347,22.746569],[113.792932,22.7465408]]]]},"properties":{"name":"way/1285871796","height":0,"kind":"unknown","label":"缺少可用高度；仅展示轮廓"}},{"type":"Feature","id":"way/1285871797","geometry":{"type":"MultiPolygon","coordinates":[[[[113.7935284,22.7464291],[113.7939103,22.7464026],[113.793921,22.7465326],[113.7937301,22.7465459],[113.793731,22.7465571],[113.7935399,22.7465703],[113.7935284,22.7464291]]]]},"properties":{"name":"way/1285871797","height":0,"kind":"unknown","label":"缺少可用高度；仅展示轮廓"}},{"type":"Feature","id":"way/1285871798","geometry":{"type":"MultiPolygon","coordinates":[[[[113.7933831,22.7460042],[113.7941131,22.7459556],[113.7941355,22.7462409],[113.7934055,22.7462897],[113.7933831,22.7460042]]]]},"properties":{"name":"way/1285871798","height":0,"kind":"unknown","label":"缺少可用高度；仅展示轮廓"}},{"type":"Feature","id":"way/1285871799","geometry":{"type":"MultiPolygon","coordinates":[[[[113.7942358,22.746108],[113.7947198,22.7460844],[113.7947248,22.7461707],[113.7947415,22.7461699],[113.7947465,22.7462567],[113.7942457,22.746281],[113.7942358,22.746108]]]]},"properties":{"name":"way/1285871799","height":0,"kind":"unknown","label":"缺少可用高度；仅展示轮廓"}},{"type":"Feature","id":"way/1285871800","geometry":{"type":"MultiPolygon","coordinates":[[[[113.794225,22.7457741],[113.794709,22.7457505],[113.794714,22.7458368],[113.7947308,22.745836],[113.7947357,22.7459228],[113.7942349,22.7459471],[113.794225,22.7457741]]]]},"properties":{"name":"way/1285871800","height":0,"kind":"unknown","label":"缺少可用高度；仅展示轮廓"}},{"type":"Feature","id":"way/1285871801","geometry":{"type":"MultiPolygon","coordinates":[[[[113.7942167,22.7455754],[113.7946889,22.7455426],[113.7946953,22.7456207],[113.7942231,22.7456534],[113.7942167,22.7455754]]]]},"properties":{"name":"way/1285871801","height":0,"kind":"unknown","label":"缺少可用高度；仅展示轮廓"}},{"type":"Feature","id":"way/1285871802","geometry":{"type":"MultiPolygon","coordinates":[[[[113.7933494,22.7455882],[113.7938216,22.7455554],[113.793828,22.7456335],[113.7933558,22.7456662],[113.7933494,22.7455882]]]]},"properties":{"name":"way/1285871802","height":0,"kind":"unknown","label":"缺少可用高度；仅展示轮廓"}},{"type":"Feature","id":"way/1285871803","geometry":{"type":"MultiPolygon","coordinates":[[[[113.7955597,22.7456686],[113.7960358,22.7456315],[113.7960567,22.7458603],[113.7955807,22.7458974],[113.7955597,22.7456686]]]]},"properties":{"name":"way/1285871803","height":0,"kind":"unknown","label":"缺少可用高度；仅展示轮廓"}},{"type":"Feature","id":"way/1285871804","geometry":{"type":"MultiPolygon","coordinates":[[[[113.7955845,22.7460391],[113.7960605,22.7460019],[113.7960815,22.7462308],[113.7956055,22.7462678],[113.7955845,22.7460391]]]]},"properties":{"name":"way/1285871804","height":0,"kind":"unknown","label":"缺少可用高度；仅展示轮廓"}},{"type":"Feature","id":"way/1345353107","geometry":{"type":"MultiPolygon","coordinates":[[[[113.7953321,22.7426225],[113.7955226,22.7425963],[113.7955261,22.7426153],[113.7955979,22.7426058],[113.7955934,22.7425532],[113.795646,22.7425476],[113.7956399,22.7425114],[113.7961277,22.7424418],[113.7961265,22.7424336],[113.796225,22.7424207],[113.7961929,22.7420992],[113.7962671,22.742093],[113.7963088,22.7424945],[113.7960782,22.7425254],[113.7960805,22.7425345],[113.7967461,22.7424371],[113.7967201,22.7423665],[113.7967103,22.7423676],[113.7967032,22.7423134],[113.796715,22.742312],[113.7966756,22.7419876],[113.796756,22.7419803],[113.7967698,22.7421232],[113.7967986,22.7421203],[113.7968179,22.7423098],[113.7967994,22.7423098],[113.7968033,22.7423567],[113.7968222,22.7424272],[113.7977063,22.7422996],[113.7977028,22.7422825],[113.797849,22.7422632],[113.79789,22.7425091],[113.797952,22.7424989],[113.7979654,22.7425571],[113.7977682,22.7426007],[113.7975722,22.7425872],[113.7975671,22.7425614],[113.7974273,22.7425814],[113.7973565,22.7425776],[113.7973494,22.7425392],[113.7968518,22.7426131],[113.7968534,22.7426209],[113.796882,22.7426156],[113.7968901,22.7426611],[113.7968617,22.7426643],[113.7968664,22.7426985],[113.7968542,22.7427691],[113.796881,22.7430542],[113.796869,22.7430556],[113.7968735,22.7431136],[113.7968581,22.7431147],[113.7968597,22.7431418],[113.7967846,22.7431489],[113.7968037,22.7433482],[113.7968163,22.7433466],[113.7968148,22.7433358],[113.7968897,22.7433293],[113.7968991,22.7434226],[113.796825,22.7434284],[113.7968185,22.7433669],[113.7967838,22.7433697],[113.7967381,22.7429465],[113.7967647,22.7429438],[113.7967485,22.7427804],[113.7967814,22.7426565],[113.7967755,22.7426256],[113.7961117,22.7427203],[113.7961146,22.7427398],[113.7963098,22.7428111],[113.7963514,22.7432033],[113.7962749,22.7432109],[113.7962394,22.7428662],[113.7961026,22.7428091],[113.7960518,22.7428193],[113.796038,22.7427316],[113.7955113,22.7428047],[113.7955137,22.742824],[113.7953696,22.742844],[113.7953321,22.7426225]]]]},"properties":{"name":"沙蚝站","height":0,"kind":"unknown","label":"缺少可用高度；仅展示轮廓"}}]}