{"type":"FeatureCollection","features":[{"type":"Feature","id":"way/1280112438","geometry":{"type":"MultiPolygon","coordinates":[[[[113.770388,22.6868315],[113.7705386,22.6865094],[113.7705853,22.6864911],[113.7709212,22.6865847],[113.770838,22.6867709],[113.7707124,22.6867235],[113.7706262,22.6868982],[113.7705935,22.686909],[113.770388,22.6868315]]]]},"properties":{"name":"way/1280112438","height":0,"kind":"unknown","label":"缺少可用高度；仅展示轮廓"}},{"type":"Feature","id":"way/1280112439","geometry":{"type":"MultiPolygon","coordinates":[[[[113.7708751,22.6870715],[113.7710643,22.6866482],[113.7712032,22.686715],[113.7711892,22.6870543],[113.771146,22.6871092],[113.7710736,22.687148],[113.7708751,22.6870715]]]]},"properties":{"name":"way/1280112439","height":0,"kind":"unknown","label":"缺少可用高度；仅展示轮廓"}},{"type":"Feature","id":"way/1280112440","geometry":{"type":"MultiPolygon","coordinates":[[[[113.7716464,22.6883133],[113.7717173,22.6878727],[113.7717943,22.6878585],[113.7719314,22.6882949],[113.7719037,22.6883489],[113.7716464,22.6883133]]]]},"properties":{"name":"way/1280112440","height":9,"kind":"levels","label":"3层 × 3米（估算）"}},{"type":"Feature","id":"way/1280112441","geometry":{"type":"MultiPolygon","coordinates":[[[[113.7719613,22.6877339],[113.7719751,22.6876018],[113.7721893,22.6875847],[113.7721888,22.6876312],[113.7721886,22.6876473],[113.7721878,22.6877302],[113.7721876,22.6877451],[113.7721862,22.6878903],[113.7719998,22.6879073],[113.7719613,22.6877339]]]]},"properties":{"name":"会展湾南岸10栋-A座","height":9,"kind":"levels","label":"3层 × 3米（估算）"}},{"type":"Feature","id":"way/1280112452","geometry":{"type":"MultiPolygon","coordinates":[[[[113.7700539,22.6873556],[113.7702013,22.6870105],[113.7704372,22.6870963],[113.7702898,22.6874414],[113.7700539,22.6873556]]]]},"properties":{"name":"way/1280112452","height":0,"kind":"unknown","label":"缺少可用高度；仅展示轮廓"}},{"type":"Feature","id":"way/1280112453","geometry":{"type":"MultiPolygon","coordinates":[[[[113.769792,22.68789],[113.7699394,22.6875449],[113.7701753,22.6876307],[113.7700279,22.6879758],[113.769792,22.68789]]]]},"properties":{"name":"way/1280112453","height":0,"kind":"unknown","label":"缺少可用高度；仅展示轮廓"}},{"type":"Feature","id":"way/1280112454","geometry":{"type":"MultiPolygon","coordinates":[[[[113.7695563,22.6884273],[113.7697037,22.6880822],[113.7699396,22.6881679],[113.7697922,22.688513],[113.7695563,22.6884273]]]]},"properties":{"name":"way/1280112454","height":0,"kind":"unknown","label":"缺少可用高度；仅展示轮廓"}},{"type":"Feature","id":"way/1280112455","geometry":{"type":"MultiPolygon","coordinates":[[[[113.7705321,22.6872933],[113.770598,22.6871458],[113.7708938,22.6872595],[113.7708842,22.6872862],[113.7708842,22.6873357],[113.7709006,22.6873508],[113.7708714,22.6874208],[113.7708072,22.6873917],[113.7707967,22.687409],[113.770588,22.6873305],[113.7705921,22.6873145],[113.7705321,22.6872933]]]]},"properties":{"name":"way/1280112455","height":9,"kind":"levels","label":"3层 × 3米（估算）"}},{"type":"Feature","id":"way/1280112456","geometry":{"type":"MultiPolygon","coordinates":[[[[113.7704429,22.6874852],[113.7704881,22.6873808],[113.7708355,22.6875132],[113.7707649,22.6876639],[113.7705774,22.6875913],[113.7704429,22.6874852]]]]},"properties":{"name":"way/1280112456","height":9,"kind":"levels","label":"3层 × 3米（估算）"}},{"type":"Feature","id":"way/1280112457","geometry":{"type":"MultiPolygon","coordinates":[[[[113.770183,22.6880292],[113.7702979,22.6877737],[113.7702989,22.6877526],[113.7703076,22.6877272],[113.7703279,22.6877146],[113.7703556,22.6877192],[113.7704349,22.6877601],[113.7706623,22.6878006],[113.7706705,22.6878146],[113.7706197,22.6879142],[113.7705958,22.6879272],[113.7704481,22.6879035],[113.7704078,22.6879266],[113.7703483,22.6880483],[113.7703156,22.6880624],[113.7702531,22.6880667],[113.770185,22.6880405],[113.770183,22.6880292]]]]},"properties":{"name":"way/1280112457","height":9,"kind":"levels","label":"3层 × 3米（估算）"}},{"type":"Feature","id":"way/1280112458","geometry":{"type":"MultiPolygon","coordinates":[[[[113.7700602,22.6882993],[113.7701293,22.6881408],[113.7703417,22.6882187],[113.7703763,22.6882609],[113.7704139,22.6882946],[113.7703407,22.6884165],[113.7702614,22.6883706],[113.7700602,22.6882993]]]]},"properties":{"name":"way/1280112458","height":9,"kind":"levels","label":"3层 × 3米（估算）"}},{"type":"Feature","id":"way/1280112459","geometry":{"type":"MultiPolygon","coordinates":[[[[113.7706508,22.6883324],[113.7707629,22.6881588],[113.7710302,22.6882647],[113.7710221,22.6883313],[113.7710109,22.6884044],[113.7709845,22.6884616],[113.7706508,22.6883324]]]]},"properties":{"name":"way/1280112459","height":9,"kind":"levels","label":"3层 × 3米（估算）"}},{"type":"Feature","id":"way/1280112460","geometry":{"type":"MultiPolygon","coordinates":[[[[113.7708144,22.6880708],[113.7709393,22.6878041],[113.7710084,22.6876888],[113.771106,22.6877347],[113.7710542,22.6881351],[113.7709668,22.6881229],[113.7708144,22.6880708]]]]},"properties":{"name":"way/1280112460","height":9,"kind":"levels","label":"3层 × 3米（估算）"}},{"type":"Feature","id":"way/1280112461","geometry":{"type":"MultiPolygon","coordinates":[[[[113.7699351,22.6885879],[113.7700133,22.6884059],[113.7701044,22.6884446],[113.7702305,22.6884942],[113.7702784,22.6885233],[113.7701826,22.6886741],[113.7699351,22.6885879]]]]},"properties":{"name":"way/1280112461","height":9,"kind":"levels","label":"3层 × 3米（估算）"}},{"type":"Feature","id":"way/1280112467","geometry":{"type":"MultiPolygon","coordinates":[[[[113.7716084,22.6886036],[113.7716257,22.6884949],[113.7716603,22.6885005],[113.7716716,22.6884243],[113.7719452,22.6884626],[113.7719828,22.6886123],[113.7719764,22.6886562],[113.7716084,22.6886036]]]]},"properties":{"name":"way/1280112467","height":9,"kind":"levels","label":"3层 × 3米（估算）"}}]}