{"type":"FeatureCollection","features":[{"type":"Feature","id":"way/785606090","geometry":{"type":"MultiPolygon","coordinates":[[[[113.768378,22.708845],[113.7704951,22.7091202],[113.7703002,22.7091644],[113.7702134,22.7091625],[113.7701384,22.7091658],[113.7700648,22.7091682],[113.7700012,22.7091672],[113.7699319,22.709163],[113.7698683,22.7091567],[113.7697979,22.7091435],[113.7697183,22.7091224],[113.7696517,22.7091021],[113.7695778,22.7090804],[113.7695001,22.7090621],[113.7694235,22.7090485],[113.7693555,22.7090416],[113.7692773,22.7090407],[113.7691961,22.7090435],[113.7691172,22.7090479],[113.7690508,22.7090485],[113.7689783,22.7090439],[113.7689012,22.709036],[113.7688259,22.7090215],[113.7687486,22.7090035],[113.7686735,22.7089813],[113.7685952,22.7089576],[113.7685334,22.7089379],[113.7684576,22.7089185],[113.768378,22.708845]]]]},"properties":{"name":"way/785606090","height":6,"kind":"levels","label":"2层 × 3米（估算）"}},{"type":"Feature","id":"way/785606091","geometry":{"type":"MultiPolygon","coordinates":[[[[113.768378,22.708845],[113.7685129,22.7079433],[113.7706312,22.7082124],[113.7706225,22.7082845],[113.7706177,22.7083493],[113.7706159,22.7084042],[113.7706169,22.7084496],[113.7706186,22.7085647],[113.7706163,22.7086163],[113.770611,22.7086554],[113.7706034,22.7086972],[113.7705922,22.7087464],[113.7705786,22.7087898],[113.7705495,22.7088734],[113.7705336,22.7089194],[113.7705161,22.7089843],[113.7705033,22.709043],[113.7704951,22.7091202],[113.768378,22.708845]]]]},"properties":{"name":"20号厅","height":6,"kind":"levels","label":"2层 × 3米（估算）"}},{"type":"Feature","id":"way/785606092","geometry":{"type":"MultiPolygon","coordinates":[[[[113.7685129,22.7079433],[113.7685659,22.7075987],[113.7706852,22.7078819],[113.7706312,22.7082124],[113.7685129,22.7079433]]]]},"properties":{"name":"way/785606092","height":6,"kind":"levels","label":"2层 × 3米（估算）"}},{"type":"Feature","id":"way/785606093","geometry":{"type":"MultiPolygon","coordinates":[[[[113.7685659,22.7075987],[113.7687125,22.706645],[113.7708309,22.7069163],[113.7708337,22.7069166],[113.770813,22.7070512],[113.7708075,22.7071109],[113.7708048,22.7071777],[113.7708062,22.707226],[113.7708089,22.7073138],[113.7708089,22.707359],[113.7708048,22.7074091],[113.7707995,22.7074512],[113.7707928,22.7074901],[113.7707794,22.7075402],[113.7707431,22.7076504],[113.7707284,22.7076937],[113.7707136,22.7077469],[113.7706986,22.7078104],[113.7706852,22.7078819],[113.7685659,22.7075987]]]]},"properties":{"name":"18号厅","height":6,"kind":"levels","label":"2层 × 3米（估算）"}},{"type":"Feature","id":"way/785606094","geometry":{"type":"MultiPolygon","coordinates":[[[[113.7658532,22.7084977],[113.7658614,22.7084206],[113.7658828,22.7082911],[113.7659001,22.7081649],[113.7659204,22.7079379],[113.7659327,22.7077402],[113.7659485,22.7075827],[113.7659749,22.7074063],[113.7660029,22.7072318],[113.7660355,22.7070562],[113.766093,22.706782],[113.7661385,22.7065492],[113.7661804,22.7063055],[113.7682858,22.706596],[113.7679555,22.7087687],[113.7658532,22.7084977]]]]},"properties":{"name":"17号厅","height":6,"kind":"levels","label":"2层 × 3米（估算）"}},{"type":"Feature","id":"way/785606095","geometry":{"type":"MultiPolygon","coordinates":[[[[113.7658532,22.7084977],[113.7679555,22.7087687],[113.7678599,22.7088229],[113.7677813,22.7088221],[113.767716,22.7088253],[113.7676337,22.7088281],[113.7675548,22.7088302],[113.7674752,22.7088278],[113.7673985,22.7088226],[113.7673237,22.7088096],[113.7672509,22.7087964],[113.7671873,22.7087789],[113.7671128,22.7087545],[113.7670356,22.7087311],[113.7669602,22.708712],[113.7668928,22.7087013],[113.7668151,22.7086947],[113.766735,22.7086925],[113.7666574,22.7086946],[113.7665873,22.7086971],[113.7665072,22.7086977],[113.766437,22.7086928],[113.7663699,22.7086816],[113.7663021,22.7086679],[113.7662406,22.7086527],[113.7661706,22.7086316],[113.7660995,22.7086093],[113.7660156,22.7085889],[113.7658532,22.7084977]]]]},"properties":{"name":"way/785606095","height":6,"kind":"levels","label":"2层 × 3米（估算）"}},{"type":"Feature","id":"way/1017154621","geometry":{"type":"MultiPolygon","coordinates":[[[[113.7633816,22.7149732],[113.7633931,22.7148988],[113.7634109,22.7147836],[113.7639741,22.7148521],[113.7639788,22.7148202],[113.7635994,22.7147736],[113.7636155,22.7146753],[113.7641042,22.7147366],[113.7640817,22.7148672],[113.7650296,22.7149898],[113.76505,22.7148593],[113.7655569,22.7149317],[113.765543,22.7150184],[113.7651425,22.714963],[113.7651363,22.7149999],[113.7669449,22.7152373],[113.7669865,22.714892],[113.7670774,22.7149005],[113.7670358,22.7152458],[113.7673993,22.7152927],[113.7673685,22.7155016],[113.7664904,22.7153751],[113.7664781,22.7154575],[113.766894,22.7155129],[113.7668802,22.7155954],[113.7663841,22.7155357],[113.7663857,22.7155026],[113.7658466,22.715421],[113.7658707,22.7152973],[113.7651143,22.7151983],[113.7651027,22.715275],[113.7654765,22.7153221],[113.7654657,22.7154136],[113.7649829,22.7153517],[113.765007,22.715181],[113.7640549,22.7150548],[113.7640307,22.7152206],[113.7635076,22.7151628],[113.7635211,22.7150771],[113.7639369,22.7151266],[113.7639502,22.7150424],[113.7633816,22.7149732]]]]},"properties":{"name":"会展城站","height":0,"kind":"unknown","label":"缺少可用高度；仅展示轮廓"}},{"type":"Feature","id":"way/1017154680","geometry":{"type":"MultiPolygon","coordinates":[[[[113.7714401,22.7087307],[113.7718048,22.7061857],[113.772406,22.7062591],[113.7720407,22.708804],[113.7714401,22.7087307]]]]},"properties":{"name":"国展北站","height":0,"kind":"unknown","label":"缺少可用高度；仅展示轮廓"}},{"type":"Feature","id":"way/1282373570","geometry":{"type":"MultiPolygon","coordinates":[[[[113.7655559,22.7117101],[113.7656329,22.7112216],[113.7657513,22.7112375],[113.7657407,22.7113048],[113.7658558,22.7113202],[113.7658665,22.7112523],[113.7659882,22.7112686],[113.7659112,22.7117577],[113.7655559,22.7117101]]]]},"properties":{"name":"B6栋","height":30,"kind":"levels","label":"10层 × 3米（估算）"}},{"type":"Feature","id":"way/1282373571","geometry":{"type":"MultiPolygon","coordinates":[[[[113.7654378,22.7124225],[113.7654818,22.7120928],[113.7660246,22.7121545],[113.7660111,22.7122552],[113.7659112,22.7122438],[113.7658952,22.7123634],[113.7659921,22.7123744],[113.7659774,22.7124839],[113.7654378,22.7124225]]]]},"properties":{"name":"B5栋","height":30,"kind":"levels","label":"10层 × 3米（估算）"}},{"type":"Feature","id":"way/1282373572","geometry":{"type":"MultiPolygon","coordinates":[[[[113.7662686,22.7125253],[113.7662879,22.7124064],[113.7663862,22.71242],[113.7664046,22.7123062],[113.7663147,22.7122938],[113.7663301,22.7121987],[113.7668614,22.7122719],[113.7668083,22.7125997],[113.7662686,22.7125253]]]]},"properties":{"name":"B4栋","height":30,"kind":"levels","label":"10层 × 3米（估算）"}},{"type":"Feature","id":"way/1282373573","geometry":{"type":"MultiPolygon","coordinates":[[[[113.7656886,22.7108876],[113.7657385,22.7105741],[113.7662637,22.7106452],[113.7662482,22.7107429],[113.7661844,22.7107343],[113.7661664,22.7108473],[113.766236,22.7108567],[113.7662197,22.7109595],[113.7656886,22.7108876]]]]},"properties":{"name":"B1栋","height":30,"kind":"levels","label":"10层 × 3米（估算）"}},{"type":"Feature","id":"way/1282373574","geometry":{"type":"MultiPolygon","coordinates":[[[[113.7665178,22.7109924],[113.7665333,22.7108958],[113.7666019,22.7109052],[113.7666192,22.7107971],[113.766551,22.7107878],[113.7665685,22.7106786],[113.767094,22.7107504],[113.7670437,22.7110642],[113.7665178,22.7109924]]]]},"properties":{"name":"B2栋","height":30,"kind":"levels","label":"10层 × 3米（估算）"}},{"type":"Feature","id":"relation/17587765","geometry":{"type":"MultiPolygon","coordinates":[[[[113.7645485,22.7106635],[113.7645925,22.7103862],[113.7651801,22.7104654],[113.7651668,22.7105494],[113.7650995,22.7105403],[113.765085,22.7106315],[113.7651565,22.7106412],[113.7651403,22.7107433],[113.7645485,22.7106635]],[[113.7648088,22.7106104],[113.7649752,22.7106312],[113.7649898,22.7105321],[113.7648234,22.7105113],[113.7648088,22.7106104]]]]},"properties":{"name":"relation/17587765","height":9,"kind":"levels","label":"3层 × 3米（估算）"}},{"type":"Feature","id":"relation/17587766","geometry":{"type":"MultiPolygon","coordinates":[[[[113.76465,22.7100568],[113.764694,22.7097795],[113.7652815,22.7098588],[113.7652682,22.7099427],[113.7652009,22.7099336],[113.7651865,22.7100249],[113.765258,22.7100345],[113.7652418,22.7101366],[113.76465,22.7100568]],[[113.764908,22.7099939],[113.7650744,22.7100147],[113.765089,22.7099156],[113.7649225,22.7098948],[113.764908,22.7099939]]]]},"properties":{"name":"A2栋","height":9,"kind":"levels","label":"3层 × 3米（估算）"}},{"type":"Feature","id":"relation/17587767","geometry":{"type":"MultiPolygon","coordinates":[[[[113.7656482,22.7101961],[113.7656627,22.7101014],[113.7657313,22.7101103],[113.7657455,22.7100176],[113.7656697,22.7100077],[113.7656837,22.7099157],[113.7662809,22.7099932],[113.7662383,22.7102727],[113.7656482,22.7101961]],[[113.7658355,22.7101219],[113.7660021,22.7101414],[113.7660158,22.7100421],[113.7658491,22.7100227],[113.7658355,22.7101219]]]]},"properties":{"name":"A3栋","height":0,"kind":"unknown","label":"缺少可用高度；仅展示轮廓"}},{"type":"Feature","id":"relation/17587768","geometry":{"type":"MultiPolygon","coordinates":[[[[113.7665382,22.7103153],[113.7665527,22.7102205],[113.7666213,22.7102294],[113.7666355,22.7101367],[113.7665597,22.7101268],[113.7665737,22.7100348],[113.7671709,22.7101123],[113.7671283,22.7103919],[113.7665382,22.7103153]],[[113.7667291,22.7102484],[113.7668957,22.7102679],[113.7669094,22.7101686],[113.7667427,22.7101491],[113.7667291,22.7102484]]]]},"properties":{"name":"A4栋","height":0,"kind":"unknown","label":"缺少可用高度；仅展示轮廓"}},{"type":"Feature","id":"way/1282373583","geometry":{"type":"MultiPolygon","coordinates":[[[[113.7666192,22.7096393],[113.7666452,22.7094591],[113.7672663,22.7095354],[113.7672403,22.7097155],[113.7666192,22.7096393]]]]},"properties":{"name":"C1栋","height":30,"kind":"levels","label":"10层 × 3米（估算）"}},{"type":"Feature","id":"way/1282373584","geometry":{"type":"MultiPolygon","coordinates":[[[[113.7647451,22.7096023],[113.7648005,22.7092],[113.7651508,22.7092411],[113.7650955,22.7096434],[113.7647451,22.7096023]]]]},"properties":{"name":"C5栋","height":0,"kind":"unknown","label":"缺少可用高度；仅展示轮廓"}},{"type":"Feature","id":"way/1282373585","geometry":{"type":"MultiPolygon","coordinates":[[[[113.7652199,22.7094129],[113.7652452,22.7092554],[113.7657699,22.709327],[113.7657447,22.7094846],[113.7652199,22.7094129]]]]},"properties":{"name":"C4栋","height":9,"kind":"levels","label":"3层 × 3米（估算）"}},{"type":"Feature","id":"way/1282373586","geometry":{"type":"MultiPolygon","coordinates":[[[[113.7658347,22.7095201],[113.7658606,22.7093484],[113.7664756,22.7094273],[113.7664497,22.709599],[113.7658347,22.7095201]]]]},"properties":{"name":"C2栋","height":9,"kind":"levels","label":"3层 × 3米（估算）"}},{"type":"Feature","id":"way/1430784261","geometry":{"type":"MultiPolygon","coordinates":[[[[113.7713539,22.7154833],[113.7715044,22.7153827],[113.7715412,22.7154296],[113.7715246,22.7154407],[113.7715429,22.715464],[113.7715693,22.7154464],[113.7715551,22.7154283],[113.7715991,22.7153988],[113.7717025,22.7155302],[113.7716609,22.7155582],[113.7716385,22.7155297],[113.7715947,22.715559],[113.7716449,22.7156228],[113.7715997,22.7156531],[113.7715466,22.7155856],[113.7715565,22.715579],[113.7715472,22.7155672],[113.7714979,22.7155656],[113.7714891,22.7155715],[113.771496,22.7155803],[113.7714215,22.7156299],[113.7713894,22.7155889],[113.7714626,22.7155401],[113.7714568,22.7155326],[113.7714258,22.7155533],[113.7714059,22.7155279],[113.7713948,22.7155354],[113.7713539,22.7154833]]]]},"properties":{"name":"2栋一单元","height":99,"kind":"levels","label":"33层 × 3米（估算）"}},{"type":"Feature","id":"way/1430784262","geometry":{"type":"MultiPolygon","coordinates":[[[[113.7714056,22.7151712],[113.771523,22.7151225],[113.7715341,22.7151451],[113.7715723,22.7151407],[113.7715753,22.7151197],[113.7715506,22.7151167],[113.7715542,22.7150917],[113.7715128,22.7150867],[113.7715162,22.7150624],[113.7714823,22.7150584],[113.7714898,22.7150054],[113.7717189,22.7150328],[113.7717111,22.7150879],[113.7716805,22.7150842],[113.7716774,22.7151057],[113.7716364,22.7151008],[113.7716329,22.7151258],[113.771616,22.7151238],[113.7716124,22.7151497],[113.7716311,22.7151639],[113.7716523,22.7151399],[113.7717483,22.7152123],[113.771704,22.7152622],[113.7716084,22.7151901],[113.7716155,22.7151822],[113.7715438,22.7151703],[113.7715492,22.7151813],[113.7714339,22.7152291],[113.7714056,22.7151712]]]]},"properties":{"name":"2栋二单元","height":99,"kind":"levels","label":"33层 × 3米（估算）"}},{"type":"Feature","id":"way/1431919779","geometry":{"type":"MultiPolygon","coordinates":[[[[113.7718894,22.7119413],[113.7719826,22.7112679],[113.7722356,22.7112977],[113.7721423,22.7119711],[113.7718894,22.7119413]]]]},"properties":{"name":"way/1431919779","height":0,"kind":"unknown","label":"缺少可用高度；仅展示轮廓"}},{"type":"Feature","id":"way/1431919780","geometry":{"type":"MultiPolygon","coordinates":[[[[113.7717937,22.7124235],[113.7718514,22.7120473],[113.7720568,22.7120741],[113.7719992,22.7124503],[113.7717937,22.7124235]]]]},"properties":{"name":"way/1431919780","height":0,"kind":"unknown","label":"缺少可用高度；仅展示轮廓"}},{"type":"Feature","id":"relation/19631519","geometry":{"type":"MultiPolygon","coordinates":[[[[113.7714878,22.7143225],[113.7714993,22.7142412],[113.7715488,22.7142481],[113.7715542,22.7142043],[113.7715908,22.7142081],[113.771605,22.714125],[113.7715786,22.7141199],[113.7715989,22.7140168],[113.7719424,22.7140593],[113.7719804,22.7138281],[113.7716253,22.7137812],[113.771645,22.7136699],[113.7716985,22.7136743],[113.771729,22.713473],[113.7717717,22.7134293],[113.7718191,22.7134262],[113.7718713,22.7134305],[113.7717981,22.7133518],[113.7718754,22.7132787],[113.7721566,22.7135612],[113.772347,22.7134993],[113.7722047,22.713143],[113.7723144,22.7131055],[113.7724615,22.7134468],[113.7725563,22.713423],[113.7725319,22.7133543],[113.7725841,22.7133393],[113.7724649,22.7130499],[113.7725638,22.7130136],[113.7725983,22.7131162],[113.7726769,22.7130837],[113.7728016,22.7133774],[113.7727596,22.713388],[113.7727684,22.7134062],[113.7727142,22.7134237],[113.7726966,22.7134693],[113.7726214,22.713498],[113.7725977,22.713483],[113.7725001,22.7135287],[113.7725543,22.7136856],[113.7726634,22.7136618],[113.7726885,22.7136606],[113.7727095,22.7136656],[113.7727142,22.7136843],[113.7726708,22.7139168],[113.7724513,22.7140081],[113.7724167,22.7140393],[113.7723978,22.7142443],[113.7723503,22.7142375],[113.7723483,22.7143025],[113.7723707,22.7143206],[113.7724079,22.7143137],[113.7724818,22.7142856],[113.7725211,22.7142781],[113.7725455,22.7142893],[113.772557,22.7143143],[113.7725333,22.7144418],[113.7725989,22.7144501],[113.7726123,22.7143714],[113.7730244,22.7144314],[113.7731477,22.7144976],[113.7731295,22.7146042],[113.772586,22.714525],[113.772593,22.7144844],[113.7725272,22.7144756],[113.7725204,22.7144931],[113.7724411,22.7144875],[113.7724378,22.7145087],[113.7721952,22.7144756],[113.7722324,22.7142743],[113.77204,22.7142493],[113.7720156,22.7143812],[113.7719675,22.714375],[113.7719567,22.7144275],[113.7715183,22.7143537],[113.7714878,22.7143225]],[[113.771614,22.7142578],[113.7719281,22.7143041],[113.7719432,22.714217],[113.7718914,22.7142094],[113.7718959,22.7141835],[113.7716336,22.7141449],[113.771614,22.7142578]],[[113.7717285,22.7136758],[113.7719775,22.7137146],[113.771994,22.7136049],[113.771961,22.7135521],[113.7719256,22.7135125],[113.7718716,22.7134721],[113.7718242,22.7134643],[113.7717781,22.7134804],[113.7717504,22.7135121],[113.7717285,22.7136758]],[[113.7720357,22.7142036],[113.7722303,22.714236],[113.7722809,22.7139603],[113.7723128,22.7138131],[113.7723564,22.7137542],[113.7725035,22.7136925],[113.7724755,22.7135991],[113.7722661,22.7136479],[113.7722023,22.7136781],[113.7721494,22.7137485],[113.7720863,22.7141211],[113.7720357,22.7142036]]]]},"properties":{"name":"relation/19631519","height":0,"kind":"unknown","label":"缺少可用高度；仅展示轮廓"}},{"type":"Feature","id":"way/1444644796","geometry":{"type":"MultiPolygon","coordinates":[[[[113.7638476,22.7138367],[113.7639046,22.7133754],[113.7647274,22.7134582],[113.7646743,22.7139224],[113.7638476,22.7138367]]]]},"properties":{"name":"way/1444644796","height":86,"kind":"tag","label":"OSM高度标注，未测绘核实"}},{"type":"Feature","id":"way/1444644797","geometry":{"type":"MultiPolygon","coordinates":[[[[113.7637809,22.7143429],[113.7638476,22.7138367],[113.7646743,22.7139224],[113.7646155,22.7144338],[113.7637809,22.7143429]]]]},"properties":{"name":"way/1444644797","height":73,"kind":"tag","label":"OSM高度标注，未测绘核实"}},{"type":"Feature","id":"way/1444644798","geometry":{"type":"MultiPolygon","coordinates":[[[[113.7637103,22.7147777],[113.7637809,22.7143429],[113.7646155,22.7144338],[113.7647175,22.7148955],[113.7637103,22.7147777]]]]},"properties":{"name":"way/1444644798","height":55,"kind":"tag","label":"OSM高度标注，未测绘核实"}},{"type":"Feature","id":"way/1444644799","geometry":{"type":"MultiPolygon","coordinates":[[[[113.7636486,22.7151975],[113.7637103,22.7147777],[113.7647175,22.7148955],[113.7647459,22.7150088],[113.7647696,22.7153142],[113.7643446,22.71527],[113.7636486,22.7151975]]]]},"properties":{"name":"way/1444644799","height":45,"kind":"tag","label":"OSM高度标注，未测绘核实"}},{"type":"Feature","id":"way/1444644801","geometry":{"type":"MultiPolygon","coordinates":[[[[113.7639046,22.7133754],[113.7639488,22.7130016],[113.7639805,22.7127339],[113.7648032,22.7128166],[113.7647274,22.7134582],[113.7639046,22.7133754]]]]},"properties":{"name":"way/1444644801","height":106,"kind":"tag","label":"OSM高度标注，未测绘核实"}},{"type":"Feature","id":"way/1448358920","geometry":{"type":"MultiPolygon","coordinates":[[[[113.765948,22.7097088],[113.7659681,22.7095769],[113.7664992,22.7096459],[113.7664791,22.7097778],[113.765948,22.7097088]]]]},"properties":{"name":"C3栋","height":0,"kind":"unknown","label":"缺少可用高度；仅展示轮廓"}},{"type":"Feature","id":"way/1448358921","geometry":{"type":"MultiPolygon","coordinates":[[[[113.7649293,22.7112721],[113.7649663,22.7110173],[113.7653996,22.711071],[113.7653626,22.7113257],[113.7649293,22.7112721]]]]},"properties":{"name":"way/1448358921","height":0,"kind":"unknown","label":"缺少可用高度；仅展示轮廓"}},{"type":"Feature","id":"way/1448358922","geometry":{"type":"MultiPolygon","coordinates":[[[[113.7665563,22.7118448],[113.7666333,22.7113562],[113.7667517,22.7113721],[113.7667411,22.7114395],[113.7668562,22.7114549],[113.7668669,22.7113869],[113.7669886,22.7114032],[113.7669115,22.7118924],[113.7665563,22.7118448]]]]},"properties":{"name":"B3栋","height":30,"kind":"levels","label":"10层 × 3米（估算）"}}]}