{"type":"FeatureCollection","features":[{"type":"Feature","id":"way/1424526503","geometry":{"type":"MultiPolygon","coordinates":[[[[113.9420217,22.7004871],[113.9420655,22.7003586],[113.9425208,22.7004907],[113.9425,22.7005518],[113.942626,22.7005884],[113.9426031,22.7006558],[113.9420217,22.7004871]]]]},"properties":{"name":"5栋","height":0,"kind":"unknown","label":"缺少可用高度；仅展示轮廓"}},{"type":"Feature","id":"way/1424526504","geometry":{"type":"MultiPolygon","coordinates":[[[[113.9416811,22.7012431],[113.9418933,22.7006207],[113.942443,22.7007802],[113.9423991,22.7009088],[113.9419239,22.7007709],[113.9418836,22.7008893],[113.9423414,22.7010221],[113.9422976,22.7011506],[113.9418398,22.7010178],[113.9417994,22.7011361],[113.9421979,22.7012518],[113.9421541,22.7013803],[113.9416811,22.7012431]]]]},"properties":{"name":"4栋","height":0,"kind":"unknown","label":"缺少可用高度；仅展示轮廓"}},{"type":"Feature","id":"way/1424526505","geometry":{"type":"MultiPolygon","coordinates":[[[[113.9407497,22.7015334],[113.9408774,22.701158],[113.9416955,22.7013949],[113.9416517,22.7015235],[113.9409082,22.7013081],[113.9408679,22.7014264],[113.9412672,22.7015421],[113.9412436,22.7016114],[113.941118,22.701575],[113.9410978,22.7016343],[113.9407497,22.7015334]]]]},"properties":{"name":"1栋","height":0,"kind":"unknown","label":"缺少可用高度；仅展示轮廓"}},{"type":"Feature","id":"way/1424526506","geometry":{"type":"MultiPolygon","coordinates":[[[[113.9410945,22.7005018],[113.9411383,22.7003733],[113.9417301,22.7005447],[113.9417703,22.7004264],[113.9413263,22.7002978],[113.9413701,22.7001692],[113.9418886,22.7003194],[113.9417608,22.7006948],[113.9410945,22.7005018]]]]},"properties":{"name":"3栋","height":0,"kind":"unknown","label":"缺少可用高度；仅展示轮廓"}},{"type":"Feature","id":"way/1424526507","geometry":{"type":"MultiPolygon","coordinates":[[[[113.9409011,22.7010381],[113.9409448,22.7009096],[113.9415366,22.701081],[113.9415769,22.7009627],[113.9409851,22.7007913],[113.9410289,22.7006627],[113.9416951,22.7008557],[113.9415674,22.7012311],[113.9409011,22.7010381]]]]},"properties":{"name":"2栋","height":0,"kind":"unknown","label":"缺少可用高度；仅展示轮廓"}}]}