{"type":"FeatureCollection","features":[{"type":"Feature","id":"way/1246790826","geometry":{"type":"MultiPolygon","coordinates":[[[[113.9467261,22.661961],[113.9467787,22.661936],[113.9468309,22.6619639],[113.9468297,22.6620187],[113.9467789,22.6620363],[113.9467325,22.6620149],[113.9467261,22.661961]]]]},"properties":{"name":"聚贤亭","height":0,"kind":"unknown","label":"缺少可用高度；仅展示轮廓"}},{"type":"Feature","id":"way/1259280280","geometry":{"type":"MultiPolygon","coordinates":[[[[113.9410283,22.6692511],[113.9411195,22.6691712],[113.9411727,22.6692229],[113.9410814,22.6693028],[113.9410283,22.6692511]]]]},"properties":{"name":"谢氏祠堂","height":3,"kind":"levels","label":"1层 × 3米（估算）"}},{"type":"Feature","id":"way/1424538072","geometry":{"type":"MultiPolygon","coordinates":[[[[113.9397605,22.6705994],[113.9398218,22.6705165],[113.9398827,22.6705548],[113.9400489,22.6705281],[113.9401218,22.6704291],[113.940224,22.6704932],[113.94011,22.670648],[113.9400802,22.6706293],[113.939912,22.6706563],[113.9398927,22.6706825],[113.9397605,22.6705994]]]]},"properties":{"name":"B座","height":0,"kind":"unknown","label":"缺少可用高度；仅展示轮廓"}},{"type":"Feature","id":"way/1424538073","geometry":{"type":"MultiPolygon","coordinates":[[[[113.9402803,22.6702143],[113.9403389,22.6701348],[113.9403127,22.6701183],[113.9403645,22.670048],[113.9403909,22.6700646],[113.94045,22.6699844],[113.9405518,22.6700483],[113.9403823,22.6702783],[113.9402803,22.6702143]]]]},"properties":{"name":"D座","height":0,"kind":"unknown","label":"缺少可用高度；仅展示轮廓"}},{"type":"Feature","id":"way/1424538074","geometry":{"type":"MultiPolygon","coordinates":[[[[113.9400231,22.6703344],[113.9401485,22.6701641],[113.9402363,22.6702192],[113.9401952,22.6702749],[113.9402229,22.6702923],[113.9402803,22.6702143],[113.9403823,22.6702783],[113.940224,22.6704932],[113.9401218,22.6704291],[113.9401793,22.670351],[113.9401517,22.6703337],[113.9401107,22.6703894],[113.9400231,22.6703344]]]]},"properties":{"name":"C座","height":0,"kind":"unknown","label":"缺少可用高度；仅展示轮廓"}},{"type":"Feature","id":"way/1424538075","geometry":{"type":"MultiPolygon","coordinates":[[[[113.9394151,22.6703479],[113.9394687,22.6702753],[113.9395271,22.670312],[113.9395702,22.6702536],[113.9397152,22.6703448],[113.9396721,22.6704031],[113.9397305,22.6704398],[113.9396769,22.6705125],[113.9394151,22.6703479]]]]},"properties":{"name":"A座","height":0,"kind":"unknown","label":"缺少可用高度；仅展示轮廓"}}]}