{"type": "FeatureCollection", "features": [{"type": "Feature", "id": "way/346315004", "properties": {"tags": {"building": "residential"}, "heightStatus": "unknown", "source": "OpenStreetMap", "license": "ODbL-1.0"}, "geometry": {"type": "MultiPolygon", "coordinates": [[[[114.020911, 22.5266392], [114.0210068, 22.5265839], [114.0210807, 22.5266931], [114.0209849, 22.5267484], [114.020911, 22.5266392]]]]}}, {"type": "Feature", "id": "way/346315010", "properties": {"tags": {"building": "residential"}, "heightStatus": "unknown", "source": "OpenStreetMap", "license": "ODbL-1.0"}, "geometry": {"type": "MultiPolygon", "coordinates": [[[[114.0206745, 22.5267757], [114.0207704, 22.5267204], [114.0208442, 22.5268296], [114.0207484, 22.5268849], [114.0206745, 22.5267757]]]]}}, {"type": "Feature", "id": "way/346315020", "properties": {"tags": {"building": "residential"}, "heightStatus": "unknown", "source": "OpenStreetMap", "license": "ODbL-1.0"}, "geometry": {"type": "MultiPolygon", "coordinates": [[[[114.0213319, 22.526604], [114.0214352, 22.5265444], [114.0215013, 22.5266421], [114.021398, 22.5267017], [114.0213319, 22.526604]]]]}}, {"type": "Feature", "id": "way/346315030", "properties": {"tags": {"building": "residential"}, "heightStatus": "unknown", "source": "OpenStreetMap", "license": "ODbL-1.0"}, "geometry": {"type": "MultiPolygon", "coordinates": [[[[114.0207756, 22.5269251], [114.0208715, 22.5268698], [114.0209376, 22.5269675], [114.0208417, 22.5270228], [114.0207756, 22.5269251]]]]}}, {"type": "Feature", "id": "way/346315031", "properties": {"tags": {"building": "residential"}, "heightStatus": "unknown", "source": "OpenStreetMap", "license": "ODbL-1.0"}, "geometry": {"type": "MultiPolygon", "coordinates": [[[[114.0207928, 22.5267074], [114.0208886, 22.5266521], [114.0209625, 22.5267613], [114.0208666, 22.5268166], [114.0207928, 22.5267074]]]]}}, {"type": "Feature", "id": "way/346315034", "properties": {"tags": {"building": "residential"}, "heightStatus": "unknown", "source": "OpenStreetMap", "license": "ODbL-1.0"}, "geometry": {"type": "MultiPolygon", "coordinates": [[[[114.0204381, 22.5269122], [114.0205339, 22.5268568], [114.0206078, 22.5269661], [114.0205119, 22.5270214], [114.0204381, 22.5269122]]]]}}, {"type": "Feature", "id": "way/346315038", "properties": {"tags": {"building": "residential"}, "heightStatus": "unknown", "source": "OpenStreetMap", "license": "ODbL-1.0"}, "geometry": {"type": "MultiPolygon", "coordinates": [[[[114.0205563, 22.5268439], [114.0206521, 22.5267886], [114.020726, 22.5268978], [114.0206302, 22.5269531], [114.0205563, 22.5268439]]]]}}, {"type": "Feature", "id": "way/346315039", "properties": {"tags": {"building": "residential"}, "heightStatus": "unknown", "source": "OpenStreetMap", "license": "ODbL-1.0"}, "geometry": {"type": "MultiPolygon", "coordinates": [[[[114.0211353, 22.5269217], [114.0212187, 22.5268736], [114.0212988, 22.526992], [114.0212154, 22.5270401], [114.0211353, 22.5269217]]]]}}, {"type": "Feature", "id": "way/346315045", "properties": {"tags": {"building": "residential"}, "heightStatus": "unknown", "source": "OpenStreetMap", "license": "ODbL-1.0"}, "geometry": {"type": "MultiPolygon", "coordinates": [[[[114.0214673, 22.5263181], [114.0215706, 22.5262584], [114.0216445, 22.5263677], [114.0215929, 22.5263975], [114.0215412, 22.5264273], [114.0214673, 22.5263181]]]]}}, {"type": "Feature", "id": "way/346315046", "properties": {"tags": {"building": "residential"}, "heightStatus": "unknown", "source": "OpenStreetMap", "license": "ODbL-1.0"}, "geometry": {"type": "MultiPolygon", "coordinates": [[[[114.0212137, 22.5266723], [114.021317, 22.5266126], [114.0213831, 22.5267103], [114.0212798, 22.52677], [114.0212137, 22.5266723]]]]}}, {"type": "Feature", "id": "way/346315058", "properties": {"tags": {"building": "residential"}, "heightStatus": "unknown", "source": "OpenStreetMap", "license": "ODbL-1.0"}, "geometry": {"type": "MultiPolygon", "coordinates": [[[[114.0214657, 22.5265588], [114.021569, 22.5264991], [114.0216196, 22.5265739], [114.0215163, 22.5266335], [114.0214657, 22.5265588]]]]}}, {"type": "Feature", "id": "way/346315062", "properties": {"tags": {"building": "residential"}, "heightStatus": "unknown", "source": "OpenStreetMap", "license": "ODbL-1.0"}, "geometry": {"type": "MultiPolygon", "coordinates": [[[[114.0216866, 22.5263993], [114.0218235, 22.5263203], [114.0218897, 22.526418], [114.0217528, 22.526497], [114.0216866, 22.5263993]]]]}}, {"type": "Feature", "id": "way/346315090", "properties": {"tags": {"building": "residential"}, "heightStatus": "unknown", "source": "OpenStreetMap", "license": "ODbL-1.0"}, "geometry": {"type": "MultiPolygon", "coordinates": [[[[114.0211126, 22.5265228], [114.0212159, 22.5264632], [114.0212898, 22.5265724], [114.0211865, 22.526632], [114.0211126, 22.5265228]]]]}}, {"type": "Feature", "id": "way/346315095", "properties": {"tags": {"building": "residential"}, "heightStatus": "unknown", "source": "OpenStreetMap", "license": "ODbL-1.0"}, "geometry": {"type": "MultiPolygon", "coordinates": [[[[114.0206574, 22.5269934], [114.0207532, 22.526938], [114.0208193, 22.5270358], [114.0207235, 22.5270911], [114.0206574, 22.5269934]]]]}}, {"type": "Feature", "id": "way/346315101", "properties": {"tags": {"building": "residential"}, "heightStatus": "unknown", "source": "OpenStreetMap", "license": "ODbL-1.0"}, "geometry": {"type": "MultiPolygon", "coordinates": [[[[114.0212308, 22.5264546], [114.0213341, 22.5263949], [114.021408, 22.5265041], [114.0213047, 22.5265638], [114.0212308, 22.5264546]]]]}}, {"type": "Feature", "id": "way/346315104", "properties": {"tags": {"building": "residential"}, "heightStatus": "unknown", "source": "OpenStreetMap", "license": "ODbL-1.0"}, "geometry": {"type": "MultiPolygon", "coordinates": [[[[114.0213491, 22.5263863], [114.0214524, 22.5263267], [114.0215263, 22.5264359], [114.021423, 22.5264955], [114.0213491, 22.5263863]]]]}}, {"type": "Feature", "id": "way/346315113", "properties": {"tags": {"building": "residential"}, "heightStatus": "unknown", "source": "OpenStreetMap", "license": "ODbL-1.0"}, "geometry": {"type": "MultiPolygon", "coordinates": [[[[114.0210121, 22.5267886], [114.0211079, 22.5267333], [114.021174, 22.526831], [114.0210782, 22.5268863], [114.0210121, 22.5267886]]]]}}, {"type": "Feature", "id": "way/346315124", "properties": {"tags": {"building": "residential"}, "heightStatus": "unknown", "source": "OpenStreetMap", "license": "ODbL-1.0"}, "geometry": {"type": "MultiPolygon", "coordinates": [[[[114.0203198, 22.5269804], [114.0204156, 22.5269251], [114.0204895, 22.5270343], [114.0203937, 22.5270896], [114.0203198, 22.5269804]]]]}}, {"type": "Feature", "id": "way/346315139", "properties": {"tags": {"building": "residential"}, "heightStatus": "unknown", "source": "OpenStreetMap", "license": "ODbL-1.0"}, "geometry": {"type": "MultiPolygon", "coordinates": [[[[114.0208939, 22.5268569], [114.0209897, 22.5268016], [114.0210558, 22.5268993], [114.02096, 22.5269546], [114.0208939, 22.5268569]]]]}}, {"type": "Feature", "id": "way/346315141", "properties": {"tags": {"building": "residential"}, "heightStatus": "unknown", "source": "OpenStreetMap", "license": "ODbL-1.0"}, "geometry": {"type": "MultiPolygon", "coordinates": [[[[114.0215855, 22.5262498], [114.0217224, 22.5261708], [114.0217963, 22.52628], [114.0216594, 22.526359], [114.0215855, 22.5262498]]]]}}, {"type": "Feature", "id": "way/346315168", "properties": {"tags": {"building": "residential"}, "heightStatus": "unknown", "source": "OpenStreetMap", "license": "ODbL-1.0"}, "geometry": {"type": "MultiPolygon", "coordinates": [[[[114.0216001, 22.5264812], [114.0216437, 22.526456], [114.0216484, 22.5264629], [114.021682, 22.5264435], [114.0217076, 22.5264815], [114.0216989, 22.5264865], [114.0217191, 22.5265164], [114.0216507, 22.5265559], [114.0216001, 22.5264812]]]]}}, {"type": "Feature", "id": "way/349913418", "properties": {"tags": {"building": "residential"}, "heightStatus": "unknown", "source": "OpenStreetMap", "license": "ODbL-1.0"}, "geometry": {"type": "MultiPolygon", "coordinates": [[[[114.0216765, 22.5266079], [114.0217901, 22.5265473], [114.0218745, 22.5266824], [114.0218236, 22.5267095], [114.0218075, 22.5266836], [114.0217299, 22.526725], [114.0217131, 22.526698], [114.0217194, 22.5266946], [114.0216864, 22.5266418], [114.0216948, 22.5266373], [114.0216765, 22.5266079]]]]}}, {"type": "Feature", "id": "way/349913427", "properties": {"tags": {"building": "apartments"}, "heightStatus": "unknown", "source": "OpenStreetMap", "license": "ODbL-1.0"}, "geometry": {"type": "MultiPolygon", "coordinates": [[[[114.0235229, 22.526873], [114.0235572, 22.5268659], [114.023562, 22.5268857], [114.0236136, 22.5268751], [114.0236088, 22.5268552], [114.0236432, 22.5268481], [114.0236614, 22.5269235], [114.0236292, 22.5269302], [114.0236408, 22.5269778], [114.0237281, 22.5269597], [114.0237166, 22.5269121], [114.0236843, 22.5269188], [114.0236661, 22.5268434], [114.0237004, 22.5268363], [114.0237052, 22.5268561], [114.0237568, 22.5268454], [114.023752, 22.5268256], [114.0237864, 22.5268185], [114.0238046, 22.5268939], [114.0237724, 22.5269006], [114.023784, 22.5269482], [114.0238799, 22.5269283], [114.0238684, 22.5268807], [114.0238361, 22.5268874], [114.0238179, 22.526812], [114.0238522, 22.5268049], [114.0238571, 22.5268247], [114.0239086, 22.526814], [114.0239038, 22.5267942], [114.0239382, 22.5267871], [114.0239564, 22.5268625], [114.0239242, 22.5268692], [114.0239358, 22.5269168], [114.0240231, 22.5268987], [114.0240116, 22.5268511], [114.0239794, 22.5268578], [114.0239611, 22.5267824], [114.0239955, 22.5267752], [114.0240003, 22.5267951], [114.0240518, 22.5267844], [114.024047, 22.5267646], [114.0240814, 22.5267575], [114.0240997, 22.5268329], [114.0240674, 22.5268395], [114.024079, 22.5268872], [114.024127, 22.5268772], [114.0241395, 22.5269288], [114.0241316, 22.5269305], [114.024139, 22.5269609], [114.0241032, 22.5269683], [114.0241, 22.5269551], [114.0240828, 22.5269586], [114.0240703, 22.526907], [114.0240445, 22.5269124], [114.024057, 22.5269639], [114.0240398, 22.5269675], [114.024043, 22.5269807], [114.0240072, 22.5269881], [114.0239982, 22.5269511], [114.0239825, 22.5269544], [114.0239915, 22.5269914], [114.0239557, 22.5269988], [114.0239524, 22.5269856], [114.0239353, 22.5269891], [114.0239228, 22.5269375], [114.023897, 22.5269429], [114.0239095, 22.5269945], [114.0238923, 22.526998], [114.0238955, 22.5270112], [114.0238597, 22.5270186], [114.0238507, 22.5269816], [114.023835, 22.5269849], [114.0238439, 22.5270219], [114.0238081, 22.5270293], [114.0238049, 22.5270161], [114.0237878, 22.5270196], [114.0237752, 22.526968], [114.0237495, 22.5269734], [114.023762, 22.527025], [114.0237448, 22.5270285], [114.023748, 22.5270418], [114.0237122, 22.5270492], [114.0237032, 22.5270121], [114.0236875, 22.5270154], [114.0236964, 22.5270524], [114.0236606, 22.5270598], [114.0236574, 22.5270466], [114.0236402, 22.5270501], [114.0236277, 22.5269986], [114.023602, 22.5270039], [114.0236145, 22.5270555], [114.0235973, 22.527059], [114.0236005, 22.5270723], [114.0235647, 22.5270797], [114.0235573, 22.5270492], [114.0235494, 22.5270509], [114.0235369, 22.5269993], [114.0235849, 22.5269894], [114.0235734, 22.5269417], [114.0235411, 22.5269484], [114.0235229, 22.526873]]]]}}, {"type": "Feature", "id": "way/349913442", "properties": {"tags": {"building": "apartments"}, "heightStatus": "unknown", "source": "OpenStreetMap", "license": "ODbL-1.0"}, "geometry": {"type": "MultiPolygon", "coordinates": [[[[114.0234794, 22.5263462], [114.0237873, 22.5262826], [114.0238083, 22.5263692], [114.0237969, 22.5263716], [114.0238042, 22.5264015], [114.0237305, 22.5264167], [114.0237233, 22.5263868], [114.0236912, 22.5263934], [114.0236984, 22.5264234], [114.0236248, 22.5264386], [114.0236175, 22.5264087], [114.0235854, 22.5264153], [114.0235927, 22.5264453], [114.0235191, 22.5264605], [114.0235118, 22.5264305], [114.0235004, 22.5264329], [114.0234794, 22.5263462]]]]}}, {"type": "Feature", "id": "way/349913448", "properties": {"tags": {"building": "residential"}, "heightStatus": "unknown", "source": "OpenStreetMap", "license": "ODbL-1.0"}, "geometry": {"type": "MultiPolygon", "coordinates": [[[[114.0232645, 22.526126], [114.0233293, 22.5261165], [114.0233557, 22.5262706], [114.0232909, 22.5262801], [114.0232645, 22.526126]]]]}}, {"type": "Feature", "id": "way/349913450", "properties": {"tags": {"building": "residential"}, "heightStatus": "unknown", "source": "OpenStreetMap", "license": "ODbL-1.0"}, "geometry": {"type": "MultiPolygon", "coordinates": [[[[114.0229655, 22.5257831], [114.0230446, 22.5257338], [114.0230922, 22.525799], [114.0230131, 22.5258483], [114.0229655, 22.5257831]]]]}}, {"type": "Feature", "id": "way/349913455", "properties": {"tags": {"building": "residential"}, "heightStatus": "unknown", "source": "OpenStreetMap", "license": "ODbL-1.0"}, "geometry": {"type": "MultiPolygon", "coordinates": [[[[114.0236534, 22.5257963], [114.0237325, 22.525747], [114.0237858, 22.52582], [114.0237067, 22.5258693], [114.0236534, 22.5257963]]]]}}, {"type": "Feature", "id": "way/349913458", "properties": {"tags": {"building": "residential"}, "heightStatus": "unknown", "source": "OpenStreetMap", "license": "ODbL-1.0"}, "geometry": {"type": "MultiPolygon", "coordinates": [[[[114.0229099, 22.5257102], [114.022989, 22.5256609], [114.0230366, 22.5257261], [114.0229575, 22.5257754], [114.0229099, 22.5257102]]]]}}, {"type": "Feature", "id": "way/349913460", "properties": {"tags": {"building": "residential"}, "heightStatus": "unknown", "source": "OpenStreetMap", "license": "ODbL-1.0"}, "geometry": {"type": "MultiPolygon", "coordinates": [[[[114.0231814, 22.5263642], [114.0232813, 22.5263584], [114.0232893, 22.5264768], [114.0231894, 22.5264826], [114.0231814, 22.5263642]]]]}}, {"type": "Feature", "id": "way/349913463", "properties": {"tags": {"building": "residential"}, "heightStatus": "unknown", "source": "OpenStreetMap", "license": "ODbL-1.0"}, "geometry": {"type": "MultiPolygon", "coordinates": [[[[114.0232876, 22.5254795], [114.0233667, 22.5254302], [114.023412, 22.5254923], [114.0233329, 22.5255415], [114.0232876, 22.5254795]]]]}}, {"type": "Feature", "id": "way/349913466", "properties": {"tags": {"building": "residential"}, "heightStatus": "unknown", "source": "OpenStreetMap", "license": "ODbL-1.0"}, "geometry": {"type": "MultiPolygon", "coordinates": [[[[114.0233404, 22.5261277], [114.0234006, 22.5261139], [114.023408, 22.5261413], [114.0233478, 22.5261551], [114.0233404, 22.5261277]]]]}}, {"type": "Feature", "id": "way/349913468", "properties": {"tags": {"building": "residential"}, "heightStatus": "unknown", "source": "OpenStreetMap", "license": "ODbL-1.0"}, "geometry": {"type": "MultiPolygon", "coordinates": [[[[114.0227372, 22.5269196], [114.0228371, 22.5268663], [114.0228897, 22.5269504], [114.0227898, 22.5270038], [114.0227372, 22.5269196]]]]}}, {"type": "Feature", "id": "way/349913474", "properties": {"tags": {"building": "residential"}, "heightStatus": "unknown", "source": "OpenStreetMap", "license": "ODbL-1.0"}, "geometry": {"type": "MultiPolygon", "coordinates": [[[[114.0222343, 22.5267486], [114.0223178, 22.526704], [114.0223912, 22.5268214], [114.0223076, 22.5268659], [114.0222343, 22.5267486]]]]}}, {"type": "Feature", "id": "way/349913478", "properties": {"tags": {"building": "residential"}, "heightStatus": "unknown", "source": "OpenStreetMap", "license": "ODbL-1.0"}, "geometry": {"type": "MultiPolygon", "coordinates": [[[[114.0225563, 22.5263573], [114.0226411, 22.5263112], [114.0227156, 22.526428], [114.0226309, 22.5264741], [114.0225563, 22.5263573]]]]}}, {"type": "Feature", "id": "way/349913479", "properties": {"tags": {"building": "residential"}, "heightStatus": "unknown", "source": "OpenStreetMap", "license": "ODbL-1.0"}, "geometry": {"type": "MultiPolygon", "coordinates": [[[[114.0232325, 22.5254071], [114.0233116, 22.5253578], [114.0233535, 22.5254152], [114.0232744, 22.5254644], [114.0232325, 22.5254071]]]]}}, {"type": "Feature", "id": "way/349913481", "properties": {"tags": {"building": "residential"}, "heightStatus": "unknown", "source": "OpenStreetMap", "license": "ODbL-1.0"}, "geometry": {"type": "MultiPolygon", "coordinates": [[[[114.021913, 22.5262542], [114.022031, 22.5261882], [114.0221032, 22.5262984], [114.0219852, 22.5263644], [114.021913, 22.5262542]]]]}}, {"type": "Feature", "id": "way/349913483", "properties": {"tags": {"building": "residential"}, "heightStatus": "unknown", "source": "OpenStreetMap", "license": "ODbL-1.0"}, "geometry": {"type": "MultiPolygon", "coordinates": [[[[114.0230559, 22.5268381], [114.0231313, 22.5268356], [114.0231341, 22.5269086], [114.0230587, 22.526911], [114.0230559, 22.5268381]]]]}}, {"type": "Feature", "id": "way/349913484", "properties": {"tags": {"building": "residential"}, "heightStatus": "unknown", "source": "OpenStreetMap", "license": "ODbL-1.0"}, "geometry": {"type": "MultiPolygon", "coordinates": [[[[114.022054, 22.525959], [114.0221545, 22.5259028], [114.022232, 22.5260211], [114.0221316, 22.5260773], [114.022054, 22.525959]]]]}}, {"type": "Feature", "id": "way/349913485", "properties": {"tags": {"building": "residential"}, "heightStatus": "unknown", "source": "OpenStreetMap", "license": "ODbL-1.0"}, "geometry": {"type": "MultiPolygon", "coordinates": [[[[114.0223341, 22.5266953], [114.0224177, 22.5266507], [114.0224911, 22.5267681], [114.0224075, 22.5268127], [114.0223341, 22.5266953]]]]}}, {"type": "Feature", "id": "way/349913486", "properties": {"tags": {"building": "residential"}, "heightStatus": "unknown", "source": "OpenStreetMap", "license": "ODbL-1.0"}, "geometry": {"type": "MultiPolygon", "coordinates": [[[[114.0225456, 22.5268013], [114.0226291, 22.5267567], [114.0226822, 22.5268416], [114.0225986, 22.5268862], [114.0225456, 22.5268013]]]]}}, {"type": "Feature", "id": "way/349913489", "properties": {"tags": {"building": "residential"}, "heightStatus": "unknown", "source": "OpenStreetMap", "license": "ODbL-1.0"}, "geometry": {"type": "MultiPolygon", "coordinates": [[[[114.0233238, 22.5253502], [114.0234029, 22.525301], [114.0234447, 22.5253583], [114.0233657, 22.5254076], [114.0233238, 22.5253502]]]]}}, {"type": "Feature", "id": "way/349913493", "properties": {"tags": {"building": "residential"}, "heightStatus": "unknown", "source": "OpenStreetMap", "license": "ODbL-1.0"}, "geometry": {"type": "MultiPolygon", "coordinates": [[[[114.0234142, 22.5258324], [114.0234933, 22.5257831], [114.0235377, 22.5258438], [114.0234586, 22.5258931], [114.0234142, 22.5258324]]]]}}, {"type": "Feature", "id": "way/349913497", "properties": {"tags": {"building": "residential"}, "heightStatus": "unknown", "source": "OpenStreetMap", "license": "ODbL-1.0"}, "geometry": {"type": "MultiPolygon", "coordinates": [[[[114.0229653, 22.525445], [114.0230444, 22.5253957], [114.023101, 22.5254732], [114.023022, 22.5255225], [114.0229653, 22.525445]]]]}}, {"type": "Feature", "id": "way/349913500", "properties": {"tags": {"building": "residential"}, "heightStatus": "unknown", "source": "OpenStreetMap", "license": "ODbL-1.0"}, "geometry": {"type": "MultiPolygon", "coordinates": [[[[114.023341, 22.5259256], [114.0233992, 22.525906], [114.0234461, 22.5260251], [114.0233879, 22.5260447], [114.023341, 22.5259256]]]]}}, {"type": "Feature", "id": "way/349913501", "properties": {"tags": {"building": "residential"}, "heightStatus": "unknown", "source": "OpenStreetMap", "license": "ODbL-1.0"}, "geometry": {"type": "MultiPolygon", "coordinates": [[[[114.0227683, 22.5266798], [114.0228562, 22.5266329], [114.022902, 22.5267062], [114.0228141, 22.5267531], [114.0227683, 22.5266798]]]]}}, {"type": "Feature", "id": "way/349913503", "properties": {"tags": {"building": "residential"}, "heightStatus": "unknown", "source": "OpenStreetMap", "license": "ODbL-1.0"}, "geometry": {"type": "MultiPolygon", "coordinates": [[[[114.0235055, 22.5257755], [114.0235846, 22.5257262], [114.0236289, 22.525787], [114.0235498, 22.5258362], [114.0235055, 22.5257755]]]]}}, {"type": "Feature", "id": "way/349913506", "properties": {"tags": {"building": "residential"}, "heightStatus": "unknown", "source": "OpenStreetMap", "license": "ODbL-1.0"}, "geometry": {"type": "MultiPolygon", "coordinates": [[[[114.0231955, 22.5255382], [114.0232746, 22.5254889], [114.0233199, 22.5255509], [114.0232408, 22.5256002], [114.0231955, 22.5255382]]]]}}, {"type": "Feature", "id": "way/349913509", "properties": {"tags": {"building": "residential"}, "heightStatus": "unknown", "source": "OpenStreetMap", "license": "ODbL-1.0"}, "geometry": {"type": "MultiPolygon", "coordinates": [[[[114.0235413, 22.5262307], [114.0236345, 22.5262092], [114.0236465, 22.5262535], [114.0235532, 22.526275], [114.0235413, 22.5262307]]]]}}, {"type": "Feature", "id": "way/349913510", "properties": {"tags": {"building": "residential"}, "heightStatus": "unknown", "source": "OpenStreetMap", "license": "ODbL-1.0"}, "geometry": {"type": "MultiPolygon", "coordinates": [[[[114.0224436, 22.5261806], [114.0225283, 22.5261345], [114.0226103, 22.526263], [114.0225256, 22.5263091], [114.0224436, 22.5261806]]]]}}, {"type": "Feature", "id": "way/349913513", "properties": {"tags": {"building": "residential"}, "heightStatus": "unknown", "source": "OpenStreetMap", "license": "ODbL-1.0"}, "geometry": {"type": "MultiPolygon", "coordinates": [[[[114.0231669, 22.5253172], [114.023246, 22.5252679], [114.0232993, 22.525341], [114.0232202, 22.5253902], [114.0231669, 22.5253172]]]]}}, {"type": "Feature", "id": "way/349913517", "properties": {"tags": {"building": "residential"}, "heightStatus": "unknown", "source": "OpenStreetMap", "license": "ODbL-1.0"}, "geometry": {"type": "MultiPolygon", "coordinates": [[[[114.0225043, 22.5259235], [114.0226047, 22.5258673], [114.0226769, 22.5259775], [114.0225765, 22.5260337], [114.0225043, 22.5259235]]]]}}, {"type": "Feature", "id": "way/349913519", "properties": {"tags": {"building": "residential"}, "heightStatus": "unknown", "source": "OpenStreetMap", "license": "ODbL-1.0"}, "geometry": {"type": "MultiPolygon", "coordinates": [[[[114.0229679, 22.5268409], [114.0230434, 22.5268385], [114.0230461, 22.5269114], [114.0229707, 22.5269139], [114.0229679, 22.5268409]]]]}}, {"type": "Feature", "id": "way/349913521", "properties": {"tags": {"building": "residential"}, "heightStatus": "unknown", "source": "OpenStreetMap", "license": "ODbL-1.0"}, "geometry": {"type": "MultiPolygon", "coordinates": [[[[114.0225249, 22.5257194], [114.0226128, 22.5256703], [114.0226789, 22.5257711], [114.022591, 22.5258203], [114.0225249, 22.5257194]]]]}}, {"type": "Feature", "id": "way/349913524", "properties": {"tags": {"building": "residential"}, "heightStatus": "unknown", "source": "OpenStreetMap", "license": "ODbL-1.0"}, "geometry": {"type": "MultiPolygon", "coordinates": [[[[114.0232463, 22.5258295], [114.0233254, 22.5257802], [114.0233828, 22.5258589], [114.0233037, 22.5259082], [114.0232463, 22.5258295]]]]}}, {"type": "Feature", "id": "way/349913526", "properties": {"tags": {"building": "residential"}, "heightStatus": "unknown", "source": "OpenStreetMap", "license": "ODbL-1.0"}, "geometry": {"type": "MultiPolygon", "coordinates": [[[[114.0221658, 22.5258965], [114.0222662, 22.5258403], [114.0223437, 22.5259586], [114.0222433, 22.5260148], [114.0221658, 22.5258965]]]]}}, {"type": "Feature", "id": "way/349913528", "properties": {"tags": {"building": "residential"}, "heightStatus": "unknown", "source": "OpenStreetMap", "license": "ODbL-1.0"}, "geometry": {"type": "MultiPolygon", "coordinates": [[[[114.0233939, 22.5260599], [114.0234555, 22.5260392], [114.0235017, 22.5261563], [114.02344, 22.526177], [114.0233939, 22.5260599]]]]}}, {"type": "Feature", "id": "way/349913529", "properties": {"tags": {"building": "residential"}, "heightStatus": "unknown", "source": "OpenStreetMap", "license": "ODbL-1.0"}, "geometry": {"type": "MultiPolygon", "coordinates": [[[[114.0233514, 22.526167], [114.0234161, 22.5261576], [114.0234336, 22.5262592], [114.0233688, 22.5262687], [114.0233514, 22.526167]]]]}}, {"type": "Feature", "id": "way/349913530", "properties": {"tags": {"building": "residential"}, "heightStatus": "unknown", "source": "OpenStreetMap", "license": "ODbL-1.0"}, "geometry": {"type": "MultiPolygon", "coordinates": [[[[114.0228099, 22.5257725], [114.0229038, 22.525714], [114.0229514, 22.5257792], [114.0228575, 22.5258377], [114.0228099, 22.5257725]]]]}}, {"type": "Feature", "id": "way/349913531", "properties": {"tags": {"building": "residential"}, "heightStatus": "unknown", "source": "OpenStreetMap", "license": "ODbL-1.0"}, "geometry": {"type": "MultiPolygon", "coordinates": [[[[114.0230167, 22.5258545], [114.0230958, 22.5258052], [114.023145, 22.5258726], [114.0230659, 22.5259219], [114.0230167, 22.5258545]]]]}}, {"type": "Feature", "id": "way/349913534", "properties": {"tags": {"building": "residential"}, "heightStatus": "unknown", "source": "OpenStreetMap", "license": "ODbL-1.0"}, "geometry": {"type": "MultiPolygon", "coordinates": [[[[114.0232531, 22.525617], [114.0233322, 22.5255678], [114.023374, 22.5256251], [114.023295, 22.5256744], [114.0232531, 22.525617]]]]}}, {"type": "Feature", "id": "way/349913537", "properties": {"tags": {"building": "residential"}, "heightStatus": "unknown", "source": "OpenStreetMap", "license": "ODbL-1.0"}, "geometry": {"type": "MultiPolygon", "coordinates": [[[[114.0227508, 22.5260133], [114.0228229, 22.5259741], [114.0229049, 22.5261026], [114.0228328, 22.5261418], [114.0227508, 22.5260133]]]]}}, {"type": "Feature", "id": "way/349913539", "properties": {"tags": {"building": "residential"}, "heightStatus": "unknown", "source": "OpenStreetMap", "license": "ODbL-1.0"}, "geometry": {"type": "MultiPolygon", "coordinates": [[[[114.0228636, 22.52619], [114.0229356, 22.5261508], [114.0230102, 22.5262676], [114.0229381, 22.5263068], [114.0228636, 22.52619]]]]}}, {"type": "Feature", "id": "way/349913541", "properties": {"tags": {"building": "residential"}, "heightStatus": "unknown", "source": "OpenStreetMap", "license": "ODbL-1.0"}, "geometry": {"type": "MultiPolygon", "coordinates": [[[[114.0228719, 22.5266229], [114.0228916, 22.5264931], [114.0229503, 22.5265007], [114.0229306, 22.5266306], [114.0228719, 22.5266229]]]]}}, {"type": "Feature", "id": "way/349913544", "properties": {"tags": {"building": "residential"}, "heightStatus": "unknown", "source": "OpenStreetMap", "license": "ODbL-1.0"}, "geometry": {"type": "MultiPolygon", "coordinates": [[[[114.0222952, 22.5258479], [114.0223893, 22.5257952], [114.0224554, 22.5258961], [114.0223613, 22.5259488], [114.0222952, 22.5258479]]]]}}, {"type": "Feature", "id": "way/349913550", "properties": {"tags": {"building": "residential"}, "heightStatus": "unknown", "source": "OpenStreetMap", "license": "ODbL-1.0"}, "geometry": {"type": "MultiPolygon", "coordinates": [[[[114.0230303, 22.525534], [114.0231094, 22.5254847], [114.0231554, 22.5255476], [114.0230763, 22.5255969], [114.0230303, 22.525534]]]]}}, {"type": "Feature", "id": "way/349913552", "properties": {"tags": {"building": "residential"}, "heightStatus": "unknown", "source": "OpenStreetMap", "license": "ODbL-1.0"}, "geometry": {"type": "MultiPolygon", "coordinates": [[[[114.0232581, 22.5252603], [114.0233372, 22.5252111], [114.0233906, 22.5252841], [114.0233115, 22.5253334], [114.0232581, 22.5252603]]]]}}, {"type": "Feature", "id": "way/349913553", "properties": {"tags": {"building": "residential"}, "heightStatus": "unknown", "source": "OpenStreetMap", "license": "ODbL-1.0"}, "geometry": {"type": "MultiPolygon", "coordinates": [[[[114.0224005, 22.5257652], [114.0224947, 22.5257125], [114.0225722, 22.5258308], [114.022478, 22.5258835], [114.0224005, 22.5257652]]]]}}, {"type": "Feature", "id": "way/349913554", "properties": {"tags": {"building": "residential"}, "heightStatus": "unknown", "source": "OpenStreetMap", "license": "ODbL-1.0"}, "geometry": {"type": "MultiPolygon", "coordinates": [[[[114.0231514, 22.5267979], [114.0232431, 22.5267926], [114.0232504, 22.5269002], [114.0231587, 22.5269055], [114.0231514, 22.5267979]]]]}}, {"type": "Feature", "id": "way/349913557", "properties": {"tags": {"building": "residential"}, "heightStatus": "unknown", "source": "OpenStreetMap", "license": "ODbL-1.0"}, "geometry": {"type": "MultiPolygon", "coordinates": [[[[114.0224421, 22.5264195], [114.0225268, 22.5263734], [114.0225435, 22.5263995], [114.0224588, 22.5264456], [114.0224421, 22.5264195]]]]}}, {"type": "Feature", "id": "way/349913560", "properties": {"tags": {"building": "residential"}, "heightStatus": "unknown", "source": "OpenStreetMap", "license": "ODbL-1.0"}, "geometry": {"type": "MultiPolygon", "coordinates": [[[[114.0231977, 22.5260526], [114.0232785, 22.5260145], [114.0233222, 22.5260936], [114.0232413, 22.5261317], [114.0231977, 22.5260526]]]]}}, {"type": "Feature", "id": "way/349913561", "properties": {"tags": {"building": "residential"}, "heightStatus": "unknown", "source": "OpenStreetMap", "license": "ODbL-1.0"}, "geometry": {"type": "MultiPolygon", "coordinates": [[[[114.0223286, 22.5268995], [114.0224122, 22.5268549], [114.0224734, 22.526953], [114.0223899, 22.5269975], [114.0223286, 22.5268995]]]]}}, {"type": "Feature", "id": "way/349913565", "properties": {"tags": {"building": "residential"}, "heightStatus": "unknown", "source": "OpenStreetMap", "license": "ODbL-1.0"}, "geometry": {"type": "MultiPolygon", "coordinates": [[[[114.0228809, 22.5268564], [114.0229539, 22.5268174], [114.0229575, 22.5269132], [114.0229209, 22.5269203], [114.0228809, 22.5268564]]]]}}, {"type": "Feature", "id": "way/349913570", "properties": {"tags": {"building": "residential"}, "heightStatus": "unknown", "source": "OpenStreetMap", "license": "ODbL-1.0"}, "geometry": {"type": "MultiPolygon", "coordinates": [[[[114.0230777, 22.5269611], [114.023144, 22.5269492], [114.0231632, 22.5270404], [114.0230969, 22.5270523], [114.0230777, 22.5269611]]]]}}, {"type": "Feature", "id": "way/349913573", "properties": {"tags": {"building": "residential"}, "heightStatus": "unknown", "source": "OpenStreetMap", "license": "ODbL-1.0"}, "geometry": {"type": "MultiPolygon", "coordinates": [[[[114.023187, 22.5257483], [114.0232661, 22.5256991], [114.0233154, 22.5257665], [114.0232363, 22.5258158], [114.023187, 22.5257483]]]]}}, {"type": "Feature", "id": "way/349913575", "properties": {"tags": {"building": "residential"}, "heightStatus": "unknown", "source": "OpenStreetMap", "license": "ODbL-1.0"}, "geometry": {"type": "MultiPolygon", "coordinates": [[[[114.0234596, 22.5260205], [114.0235364, 22.5259947], [114.0235834, 22.5261138], [114.0235065, 22.5261397], [114.0234596, 22.5260205]]]]}}, {"type": "Feature", "id": "way/349913578", "properties": {"tags": {"building": "residential"}, "heightStatus": "unknown", "source": "OpenStreetMap", "license": "ODbL-1.0"}, "geometry": {"type": "MultiPolygon", "coordinates": [[[[114.0223294, 22.5262428], [114.0224141, 22.5261967], [114.0224961, 22.5263251], [114.0224114, 22.5263713], [114.0223294, 22.5262428]]]]}}, {"type": "Feature", "id": "way/349913579", "properties": {"tags": {"building": "residential"}, "heightStatus": "unknown", "source": "OpenStreetMap", "license": "ODbL-1.0"}, "geometry": {"type": "MultiPolygon", "coordinates": [[[[114.0234356, 22.5255033], [114.0235147, 22.5254541], [114.0235565, 22.5255114], [114.0234775, 22.5255607], [114.0234356, 22.5255033]]]]}}, {"type": "Feature", "id": "way/349913581", "properties": {"tags": {"building": "residential"}, "heightStatus": "unknown", "source": "OpenStreetMap", "license": "ODbL-1.0"}, "geometry": {"type": "MultiPolygon", "coordinates": [[[[114.022765, 22.5262437], [114.0228509, 22.5261969], [114.0229255, 22.5263137], [114.0228395, 22.5263605], [114.022765, 22.5262437]]]]}}, {"type": "Feature", "id": "way/349913584", "properties": {"tags": {"building": "residential"}, "heightStatus": "unknown", "source": "OpenStreetMap", "license": "ODbL-1.0"}, "geometry": {"type": "MultiPolygon", "coordinates": [[[[114.0224679, 22.5264599], [114.0225526, 22.5264138], [114.0226014, 22.5264901], [114.0225167, 22.5265363], [114.0224679, 22.5264599]]]]}}, {"type": "Feature", "id": "way/349913585", "properties": {"tags": {"building": "residential"}, "heightStatus": "unknown", "source": "OpenStreetMap", "license": "ODbL-1.0"}, "geometry": {"type": "MultiPolygon", "coordinates": [[[[114.0214998, 22.5267807], [114.0215188, 22.5267735], [114.0215421, 22.5268257], [114.0215231, 22.526833], [114.0214998, 22.5267807]]]]}}, {"type": "Feature", "id": "way/349913588", "properties": {"tags": {"building": "residential"}, "heightStatus": "unknown", "source": "OpenStreetMap", "license": "ODbL-1.0"}, "geometry": {"type": "MultiPolygon", "coordinates": [[[[114.0234503, 22.5257062], [114.0235294, 22.5256569], [114.0235723, 22.5257156], [114.0234932, 22.5257649], [114.0234503, 22.5257062]]]]}}, {"type": "Feature", "id": "way/349913600", "properties": {"tags": {"building": "residential"}, "heightStatus": "unknown", "source": "OpenStreetMap", "license": "ODbL-1.0"}, "geometry": {"type": "MultiPolygon", "coordinates": [[[[114.0230668, 22.5263708], [114.0231637, 22.5263652], [114.0231717, 22.5264836], [114.0230748, 22.5264892], [114.0230668, 22.5263708]]]]}}, {"type": "Feature", "id": "way/349913604", "properties": {"tags": {"building": "residential"}, "heightStatus": "unknown", "source": "OpenStreetMap", "license": "ODbL-1.0"}, "geometry": {"type": "MultiPolygon", "coordinates": [[[[114.0231611, 22.5258825], [114.0232402, 22.5258333], [114.0232977, 22.5259119], [114.0232186, 22.5259612], [114.0231611, 22.5258825]]]]}}, {"type": "Feature", "id": "way/349913607", "properties": {"tags": {"building": "residential"}, "heightStatus": "unknown", "source": "OpenStreetMap", "license": "ODbL-1.0"}, "geometry": {"type": "MultiPolygon", "coordinates": [[[[114.0228656, 22.5258454], [114.0229595, 22.5257869], [114.0230071, 22.5258521], [114.0229132, 22.5259106], [114.0228656, 22.5258454]]]]}}, {"type": "Feature", "id": "way/349913610", "properties": {"tags": {"building": "residential"}, "heightStatus": "unknown", "source": "OpenStreetMap", "license": "ODbL-1.0"}, "geometry": {"type": "MultiPolygon", "coordinates": [[[[114.0235416, 22.5256493], [114.0236207, 22.5256001], [114.0236635, 22.5256587], [114.0235844, 22.525708], [114.0235416, 22.5256493]]]]}}, {"type": "Feature", "id": "way/349913612", "properties": {"tags": {"building": "residential"}, "heightStatus": "unknown", "source": "OpenStreetMap", "license": "ODbL-1.0"}, "geometry": {"type": "MultiPolygon", "coordinates": [[[[114.0226173, 22.5258603], [114.0227051, 22.5258112], [114.0227774, 22.5259213], [114.0226895, 22.5259705], [114.0226173, 22.5258603]]]]}}, {"type": "Feature", "id": "way/349913614", "properties": {"tags": {"building": "residential"}, "heightStatus": "unknown", "source": "OpenStreetMap", "license": "ODbL-1.0"}, "geometry": {"type": "MultiPolygon", "coordinates": [[[[114.0234898, 22.5255749], [114.0235689, 22.5255256], [114.0236142, 22.5255876], [114.0235351, 22.5256369], [114.0234898, 22.5255749]]]]}}, {"type": "Feature", "id": "way/349913616", "properties": {"tags": {"building": "residential"}, "heightStatus": "unknown", "source": "OpenStreetMap", "license": "ODbL-1.0"}, "geometry": {"type": "MultiPolygon", "coordinates": [[[[114.0229951, 22.5256571], [114.0230742, 22.5256079], [114.0231218, 22.5256731], [114.0230427, 22.5257223], [114.0229951, 22.5256571]]]]}}, {"type": "Feature", "id": "way/349913619", "properties": {"tags": {"building": "residential"}, "heightStatus": "unknown", "source": "OpenStreetMap", "license": "ODbL-1.0"}, "geometry": {"type": "MultiPolygon", "coordinates": [[[[114.02286, 22.5256401], [114.0229391, 22.5255908], [114.022985, 22.5256538], [114.022906, 22.525703], [114.02286, 22.5256401]]]]}}, {"type": "Feature", "id": "way/349913623", "properties": {"tags": {"building": "residential"}, "heightStatus": "unknown", "source": "OpenStreetMap", "license": "ODbL-1.0"}, "geometry": {"type": "MultiPolygon", "coordinates": [[[[114.0226638, 22.5262988], [114.0227485, 22.5262527], [114.022823, 22.5263695], [114.0227383, 22.5264156], [114.0226638, 22.5262988]]]]}}, {"type": "Feature", "id": "way/349913624", "properties": {"tags": {"building": "residential"}, "heightStatus": "unknown", "source": "OpenStreetMap", "license": "ODbL-1.0"}, "geometry": {"type": "MultiPolygon", "coordinates": [[[[114.0228957, 22.5267278], [114.0229615, 22.5266927], [114.0230096, 22.5267696], [114.0229438, 22.5268047], [114.0228957, 22.5267278]]]]}}, {"type": "Feature", "id": "way/349913625", "properties": {"tags": {"building": "residential"}, "heightStatus": "unknown", "source": "OpenStreetMap", "license": "ODbL-1.0"}, "geometry": {"type": "MultiPolygon", "coordinates": [[[[114.0221242, 22.5265926], [114.0222165, 22.5265423], [114.022291, 22.5266591], [114.0221988, 22.5267094], [114.0221242, 22.5265926]]]]}}, {"type": "Feature", "id": "way/349913630", "properties": {"tags": {"building": "residential"}, "heightStatus": "unknown", "source": "OpenStreetMap", "license": "ODbL-1.0"}, "geometry": {"type": "MultiPolygon", "coordinates": [[[[114.022795, 22.5255511], [114.0228741, 22.5255018], [114.0229307, 22.5255794], [114.0228516, 22.5256286], [114.022795, 22.5255511]]]]}}, {"type": "Feature", "id": "way/349913632", "properties": {"tags": {"building": "residential"}, "heightStatus": "unknown", "source": "OpenStreetMap", "license": "ODbL-1.0"}, "geometry": {"type": "MultiPolygon", "coordinates": [[[[114.0233591, 22.5257631], [114.0234382, 22.5257138], [114.023481, 22.5257724], [114.0234019, 22.5258217], [114.0233591, 22.5257631]]]]}}, {"type": "Feature", "id": "way/349913634", "properties": {"tags": {"building": "residential"}, "heightStatus": "unknown", "source": "OpenStreetMap", "license": "ODbL-1.0"}, "geometry": {"type": "MultiPolygon", "coordinates": [[[[114.022546, 22.5265823], [114.0226296, 22.5265377], [114.022703, 22.5266551], [114.0226194, 22.5266997], [114.022546, 22.5265823]]]]}}, {"type": "Feature", "id": "way/349913635", "properties": {"tags": {"building": "residential"}, "heightStatus": "unknown", "source": "OpenStreetMap", "license": "ODbL-1.0"}, "geometry": {"type": "MultiPolygon", "coordinates": [[[[114.0223938, 22.5259853], [114.022488, 22.5259326], [114.0225602, 22.5260428], [114.022466, 22.5260955], [114.0223938, 22.5259853]]]]}}, {"type": "Feature", "id": "way/349913648", "properties": {"tags": {"building": "residential"}, "heightStatus": "unknown", "source": "OpenStreetMap", "license": "ODbL-1.0"}, "geometry": {"type": "MultiPolygon", "coordinates": [[[[114.0233074, 22.5269129], [114.023435, 22.5269129], [114.023435, 22.5270071], [114.0233074, 22.5270174], [114.0233074, 22.5269129]]]]}}, {"type": "Feature", "id": "way/349913649", "properties": {"tags": {"building": "residential"}, "heightStatus": "unknown", "source": "OpenStreetMap", "license": "ODbL-1.0"}, "geometry": {"type": "MultiPolygon", "coordinates": [[[[114.0230507, 22.5257301], [114.0231298, 22.5256808], [114.0231774, 22.525746], [114.0230983, 22.5257952], [114.0230507, 22.5257301]]]]}}, {"type": "Feature", "id": "way/349913651", "properties": {"tags": {"building": "residential"}, "heightStatus": "unknown", "source": "OpenStreetMap", "license": "ODbL-1.0"}, "geometry": {"type": "MultiPolygon", "coordinates": [[[[114.0230213, 22.5266424], [114.0230411, 22.5265125], [114.0231434, 22.5265257], [114.0231236, 22.5266556], [114.0230213, 22.5266424]]]]}}, {"type": "Feature", "id": "way/349913666", "properties": {"tags": {"building": "residential"}, "heightStatus": "unknown", "source": "OpenStreetMap", "license": "ODbL-1.0"}, "geometry": {"type": "MultiPolygon", "coordinates": [[[[114.0235191, 22.5261486], [114.0236044, 22.5261289], [114.0236482, 22.5261962], [114.0235388, 22.5262214], [114.0235191, 22.5261486]]]]}}, {"type": "Feature", "id": "way/349913677", "properties": {"tags": {"building": "residential"}, "heightStatus": "unknown", "source": "OpenStreetMap", "license": "ODbL-1.0"}, "geometry": {"type": "MultiPolygon", "coordinates": [[[[114.0229475, 22.5266328], [114.0229672, 22.5265029], [114.0230242, 22.5265103], [114.0230044, 22.5266402], [114.0229475, 22.5266328]]]]}}, {"type": "Feature", "id": "way/349913679", "properties": {"tags": {"building": "residential"}, "heightStatus": "unknown", "source": "OpenStreetMap", "license": "ODbL-1.0"}, "geometry": {"type": "MultiPolygon", "coordinates": [[[[114.0233443, 22.5255602], [114.0234234, 22.5255109], [114.0234653, 22.5255683], [114.0233862, 22.5256175], [114.0233443, 22.5255602]]]]}}, {"type": "Feature", "id": "way/349913703", "properties": {"tags": {"building": "residential"}, "heightStatus": "unknown", "source": "OpenStreetMap", "license": "ODbL-1.0"}, "geometry": {"type": "MultiPolygon", "coordinates": [[[[114.0219327, 22.5269268], [114.0220163, 22.5268822], [114.0220794, 22.5269832], [114.0219958, 22.5270277], [114.0219327, 22.5269268]]]]}}, {"type": "Feature", "id": "way/349913707", "properties": {"tags": {"building": "residential"}, "heightStatus": "unknown", "source": "OpenStreetMap", "license": "ODbL-1.0"}, "geometry": {"type": "MultiPolygon", "coordinates": [[[[114.0229452, 22.525587], [114.0230242, 22.5255378], [114.0230702, 22.5256007], [114.0229911, 22.52565], [114.0229452, 22.525587]]]]}}, {"type": "Feature", "id": "way/349913711", "properties": {"tags": {"building": "residential"}, "heightStatus": "unknown", "source": "OpenStreetMap", "license": "ODbL-1.0"}, "geometry": {"type": "MultiPolygon", "coordinates": [[[[114.022976, 22.5259979], [114.0230699, 22.5259394], [114.0231273, 22.5260181], [114.0230334, 22.5260766], [114.022976, 22.5259979]]]]}}, {"type": "Feature", "id": "way/349913722", "properties": {"tags": {"building": "residential"}, "heightStatus": "unknown", "source": "OpenStreetMap", "license": "ODbL-1.0"}, "geometry": {"type": "MultiPolygon", "coordinates": [[[[114.0221186, 22.5263576], [114.0222033, 22.5263114], [114.0222853, 22.5264399], [114.0222006, 22.526486], [114.0221186, 22.5263576]]]]}}, {"type": "Feature", "id": "way/349913742", "properties": {"tags": {"building": "residential"}, "heightStatus": "unknown", "source": "OpenStreetMap", "license": "ODbL-1.0"}, "geometry": {"type": "MultiPolygon", "coordinates": [[[[114.0226522, 22.526067], [114.0227382, 22.5260202], [114.0228202, 22.5261487], [114.0227342, 22.5261955], [114.0226522, 22.526067]]]]}}, {"type": "Feature", "id": "way/349913756", "properties": {"tags": {"building": "residential"}, "heightStatus": "unknown", "source": "OpenStreetMap", "license": "ODbL-1.0"}, "geometry": {"type": "MultiPolygon", "coordinates": [[[[114.02276, 22.5257024], [114.0228539, 22.5256439], [114.0228999, 22.5257068], [114.022806, 22.5257653], [114.02276, 22.5257024]]]]}}, {"type": "Feature", "id": "way/349913766", "properties": {"tags": {"building": "residential"}, "heightStatus": "unknown", "source": "OpenStreetMap", "license": "ODbL-1.0"}, "geometry": {"type": "MultiPolygon", "coordinates": [[[[114.0228226, 22.5267668], [114.0228895, 22.5267311], [114.0229376, 22.526808], [114.0228707, 22.5268437], [114.0228226, 22.5267668]]]]}}, {"type": "Feature", "id": "way/349913772", "properties": {"tags": {"building": "residential"}, "heightStatus": "unknown", "source": "OpenStreetMap", "license": "ODbL-1.0"}, "geometry": {"type": "MultiPolygon", "coordinates": [[[[114.0231359, 22.525677], [114.023215, 22.5256277], [114.0232626, 22.5256929], [114.0231835, 22.5257422], [114.0231359, 22.525677]]]]}}, {"type": "Feature", "id": "way/349913786", "properties": {"tags": {"building": "residential"}, "heightStatus": "unknown", "source": "OpenStreetMap", "license": "ODbL-1.0"}, "geometry": {"type": "MultiPolygon", "coordinates": [[[[114.023378, 22.5254244], [114.0234571, 22.5253752], [114.0235024, 22.5254372], [114.0234233, 22.5254865], [114.023378, 22.5254244]]]]}}, {"type": "Feature", "id": "way/349913793", "properties": {"tags": {"building": "residential"}, "heightStatus": "unknown", "source": "OpenStreetMap", "license": "ODbL-1.0"}, "geometry": {"type": "MultiPolygon", "coordinates": [[[[114.0224285, 22.5268462], [114.022512, 22.5268016], [114.0225733, 22.5268997], [114.0224897, 22.5269443], [114.0224285, 22.5268462]]]]}}, {"type": "Feature", "id": "way/349913797", "properties": {"tags": {"building": "residential"}, "heightStatus": "unknown", "source": "OpenStreetMap", "license": "ODbL-1.0"}, "geometry": {"type": "MultiPolygon", "coordinates": [[[[114.0219423, 22.5260215], [114.0220427, 22.5259653], [114.0221203, 22.5260836], [114.0220198, 22.5261397], [114.0219423, 22.5260215]]]]}}, {"type": "Feature", "id": "way/349913798", "properties": {"tags": {"building": "residential"}, "heightStatus": "unknown", "source": "OpenStreetMap", "license": "ODbL-1.0"}, "geometry": {"type": "MultiPolygon", "coordinates": [[[[114.0233112, 22.5265088], [114.0234063, 22.5265034], [114.0234133, 22.5266077], [114.0233183, 22.5266132], [114.0233112, 22.5265088]]]]}}, {"type": "Feature", "id": "way/349913802", "properties": {"tags": {"building": "residential"}, "heightStatus": "unknown", "source": "OpenStreetMap", "license": "ODbL-1.0"}, "geometry": {"type": "MultiPolygon", "coordinates": [[[[114.0230802, 22.5256041], [114.0231593, 22.5255548], [114.0232069, 22.52562], [114.0231278, 22.5256693], [114.0230802, 22.5256041]]]]}}, {"type": "Feature", "id": "way/349913803", "properties": {"tags": {"building": "residential"}, "heightStatus": "unknown", "source": "OpenStreetMap", "license": "ODbL-1.0"}, "geometry": {"type": "MultiPolygon", "coordinates": [[[[114.0226609, 22.5265211], [114.0227444, 22.5264765], [114.0228178, 22.5265938], [114.0227342, 22.5266384], [114.0226609, 22.5265211]]]]}}, {"type": "Feature", "id": "way/349913806", "properties": {"tags": {"building": "residential"}, "heightStatus": "unknown", "source": "OpenStreetMap", "license": "ODbL-1.0"}, "geometry": {"type": "MultiPolygon", "coordinates": [[[[114.0233985, 22.5256317], [114.0234776, 22.5255824], [114.0235229, 22.5256445], [114.0234438, 22.5256937], [114.0233985, 22.5256317]]]]}}, {"type": "Feature", "id": "way/349913809", "properties": {"tags": {"building": "residential"}, "heightStatus": "unknown", "source": "OpenStreetMap", "license": "ODbL-1.0"}, "geometry": {"type": "MultiPolygon", "coordinates": [[[[114.0221578, 22.5261173], [114.0222582, 22.5260611], [114.0223304, 22.5261713], [114.02223, 22.5262274], [114.0221578, 22.5261173]]]]}}, {"type": "Feature", "id": "way/349913814", "properties": {"tags": {"building": "residential"}, "heightStatus": "unknown", "source": "OpenStreetMap", "license": "ODbL-1.0"}, "geometry": {"type": "MultiPolygon", "coordinates": [[[[114.0225511, 22.5261221], [114.0226358, 22.526076], [114.0227177, 22.5262044], [114.022633, 22.5262506], [114.0225511, 22.5261221]]]]}}, {"type": "Feature", "id": "way/349913819", "properties": {"tags": {"building": "residential"}, "heightStatus": "unknown", "source": "OpenStreetMap", "license": "ODbL-1.0"}, "geometry": {"type": "MultiPolygon", "coordinates": [[[[114.0229167, 22.5259168], [114.0230106, 22.5258583], [114.0230599, 22.5259257], [114.022966, 22.5259842], [114.0229167, 22.5259168]]]]}}, {"type": "Feature", "id": "way/349913822", "properties": {"tags": {"building": "residential"}, "heightStatus": "unknown", "source": "OpenStreetMap", "license": "ODbL-1.0"}, "geometry": {"type": "MultiPolygon", "coordinates": [[[[114.022443, 22.5266372], [114.0225266, 22.5265927], [114.0226, 22.52671], [114.0225164, 22.5267546], [114.022443, 22.5266372]]]]}}, {"type": "Feature", "id": "way/349913825", "properties": {"tags": {"building": "residential"}, "heightStatus": "unknown", "source": "OpenStreetMap", "license": "ODbL-1.0"}, "geometry": {"type": "MultiPolygon", "coordinates": [[[[114.0229866, 22.5263754], [114.0230475, 22.5263719], [114.0230547, 22.5264787], [114.0229938, 22.5264822], [114.0229866, 22.5263754]]]]}}, {"type": "Feature", "id": "way/349913831", "properties": {"tags": {"building": "residential"}, "heightStatus": "unknown", "source": "OpenStreetMap", "license": "ODbL-1.0"}, "geometry": {"type": "MultiPolygon", "coordinates": [[[[114.0219866, 22.5266883], [114.0220667, 22.5266456], [114.0221459, 22.5267724], [114.0220659, 22.5268151], [114.0219866, 22.5266883]]]]}}, {"type": "Feature", "id": "way/349913840", "properties": {"tags": {"building": "residential"}, "heightStatus": "unknown", "source": "OpenStreetMap", "license": "ODbL-1.0"}, "geometry": {"type": "MultiPolygon", "coordinates": [[[[114.0235967, 22.5257187], [114.0236758, 22.5256694], [114.0237202, 22.5257301], [114.0236411, 22.5257794], [114.0235967, 22.5257187]]]]}}, {"type": "Feature", "id": "way/349913842", "properties": {"tags": {"building": "residential"}, "heightStatus": "unknown", "source": "OpenStreetMap", "license": "ODbL-1.0"}, "geometry": {"type": "MultiPolygon", "coordinates": [[[[114.0231413, 22.5254639], [114.0232204, 22.5254147], [114.0232622, 22.525472], [114.0231832, 22.5255213], [114.0231413, 22.5254639]]]]}}, {"type": "Feature", "id": "way/349913847", "properties": {"tags": {"building": "residential"}, "heightStatus": "unknown", "source": "OpenStreetMap", "license": "ODbL-1.0"}, "geometry": {"type": "MultiPolygon", "coordinates": [[[[114.022695, 22.5256134], [114.0227889, 22.5255549], [114.0228455, 22.5256324], [114.0227516, 22.5256909], [114.022695, 22.5256134]]]]}}, {"type": "Feature", "id": "way/349913848", "properties": {"tags": {"building": "residential"}, "heightStatus": "unknown", "source": "OpenStreetMap", "license": "ODbL-1.0"}, "geometry": {"type": "MultiPolygon", "coordinates": [[[[114.0222821, 22.5260478], [114.0223813, 22.5259923], [114.0224535, 22.5261025], [114.0223543, 22.5261579], [114.0222821, 22.5260478]]]]}}, {"type": "Feature", "id": "way/349913849", "properties": {"tags": {"building": "residential"}, "heightStatus": "unknown", "source": "OpenStreetMap", "license": "ODbL-1.0"}, "geometry": {"type": "MultiPolygon", "coordinates": [[[[114.0216144, 22.5269239], [114.0216891, 22.5269041], [114.0217385, 22.5270631], [114.0216637, 22.5270829], [114.0216144, 22.5269239]]]]}}, {"type": "Feature", "id": "way/349913853", "properties": {"tags": {"building": "residential"}, "heightStatus": "unknown", "source": "OpenStreetMap", "license": "ODbL-1.0"}, "geometry": {"type": "MultiPolygon", "coordinates": [[[[114.0230756, 22.525374], [114.0231547, 22.5253248], [114.0232081, 22.5253978], [114.023129, 22.5254471], [114.0230756, 22.525374]]]]}}, {"type": "Feature", "id": "way/349913854", "properties": {"tags": {"building": "residential"}, "heightStatus": "unknown", "source": "OpenStreetMap", "license": "ODbL-1.0"}, "geometry": {"type": "MultiPolygon", "coordinates": [[[[114.0218092, 22.5260959], [114.0219272, 22.5260299], [114.0220048, 22.5261482], [114.0218867, 22.5262142], [114.0218092, 22.5260959]]]]}}, {"type": "Feature", "id": "way/349913857", "properties": {"tags": {"building": "residential"}, "heightStatus": "unknown", "source": "OpenStreetMap", "license": "ODbL-1.0"}, "geometry": {"type": "MultiPolygon", "coordinates": [[[[114.0231019, 22.5258014], [114.023181, 22.5257521], [114.0232302, 22.5258196], [114.0231511, 22.5258688], [114.0231019, 22.5258014]]]]}}, {"type": "Feature", "id": "way/349913858", "properties": {"tags": {"building": "residential"}, "heightStatus": "unknown", "source": "OpenStreetMap", "license": "ODbL-1.0"}, "geometry": {"type": "MultiPolygon", "coordinates": [[[[114.0220461, 22.5261798], [114.0221465, 22.5261236], [114.0222187, 22.5262338], [114.0221183, 22.5262899], [114.0220461, 22.5261798]]]]}}, {"type": "Feature", "id": "way/349913863", "properties": {"tags": {"building": "residential"}, "heightStatus": "unknown", "source": "OpenStreetMap", "license": "ODbL-1.0"}, "geometry": {"type": "MultiPolygon", "coordinates": [[[[114.0231597, 22.5269464], [114.023226, 22.5269345], [114.0232452, 22.5270257], [114.0231789, 22.5270376], [114.0231597, 22.5269464]]]]}}, {"type": "Feature", "id": "way/349913865", "properties": {"tags": {"building": "residential"}, "heightStatus": "unknown", "source": "OpenStreetMap", "license": "ODbL-1.0"}, "geometry": {"type": "MultiPolygon", "coordinates": [[[[114.0226158, 22.5269298], [114.0226968, 22.5268866], [114.022775, 22.5270116], [114.0226939, 22.5270549], [114.0226158, 22.5269298]]]]}}, {"type": "Feature", "id": "way/349913867", "properties": {"tags": {"building": "residential"}, "heightStatus": "unknown", "source": "OpenStreetMap", "license": "ODbL-1.0"}, "geometry": {"type": "MultiPolygon", "coordinates": [[[[114.0234709, 22.52591], [114.02355, 22.5258607], [114.0236033, 22.5259337], [114.0235242, 22.525983], [114.0234709, 22.52591]]]]}}, {"type": "Feature", "id": "way/349913872", "properties": {"tags": {"building": "residential"}, "heightStatus": "unknown", "source": "OpenStreetMap", "license": "ODbL-1.0"}, "geometry": {"type": "MultiPolygon", "coordinates": [[[[114.0230236, 22.5266951], [114.0231192, 22.526692], [114.023124, 22.52682], [114.0230285, 22.5268231], [114.0230236, 22.5266951]]]]}}, {"type": "Feature", "id": "way/349913874", "properties": {"tags": {"building": "residential"}, "heightStatus": "unknown", "source": "OpenStreetMap", "license": "ODbL-1.0"}, "geometry": {"type": "MultiPolygon", "coordinates": [[[[114.023076, 22.5259356], [114.023155, 22.5258863], [114.0232125, 22.525965], [114.0231334, 22.5260143], [114.023076, 22.5259356]]]]}}, {"type": "Feature", "id": "way/349913876", "properties": {"tags": {"building": "residential"}, "heightStatus": "unknown", "source": "OpenStreetMap", "license": "ODbL-1.0"}, "geometry": {"type": "MultiPolygon", "coordinates": [[[[114.021918, 22.5267249], [114.0219815, 22.526691], [114.0220549, 22.5268085], [114.0219914, 22.5268424], [114.021918, 22.5267249]]]]}}, {"type": "Feature", "id": "way/349913877", "properties": {"tags": {"building": "residential"}, "heightStatus": "unknown", "source": "OpenStreetMap", "license": "ODbL-1.0"}, "geometry": {"type": "MultiPolygon", "coordinates": [[[[114.0233073, 22.5256886], [114.0233864, 22.5256393], [114.0234317, 22.5257013], [114.0233526, 22.5257506], [114.0233073, 22.5256886]]]]}}, {"type": "Feature", "id": "way/349913883", "properties": {"tags": {"building": "residential"}, "heightStatus": "unknown", "source": "OpenStreetMap", "license": "ODbL-1.0"}, "geometry": {"type": "MultiPolygon", "coordinates": [[[[114.0235621, 22.5258531], [114.0236412, 22.5258038], [114.0236946, 22.5258769], [114.0236155, 22.5259262], [114.0235621, 22.5258531]]]]}}, {"type": "Feature", "id": "way/349913884", "properties": {"tags": {"building": "residential"}, "heightStatus": "unknown", "source": "OpenStreetMap", "license": "ODbL-1.0"}, "geometry": {"type": "MultiPolygon", "coordinates": [[[[114.0232724, 22.5266361], [114.0234063, 22.5266361], [114.0234063, 22.5268245], [114.0232724, 22.5268245], [114.0232724, 22.5266361]]]]}}, {"type": "Feature", "id": "way/349913887", "properties": {"tags": {"building": "residential"}, "heightStatus": "unknown", "source": "OpenStreetMap", "license": "ODbL-1.0"}, "geometry": {"type": "MultiPolygon", "coordinates": [[[[114.0220065, 22.5264081], [114.0220988, 22.5263578], [114.0221487, 22.5264361], [114.0220564, 22.5264863], [114.0220065, 22.5264081]]]]}}, {"type": "Feature", "id": "way/349913888", "properties": {"tags": {"building": "residential"}, "heightStatus": "unknown", "source": "OpenStreetMap", "license": "ODbL-1.0"}, "geometry": {"type": "MultiPolygon", "coordinates": [[[[114.0222219, 22.5263013], [114.0223066, 22.5262552], [114.0223886, 22.5263837], [114.0223039, 22.5264298], [114.0222219, 22.5263013]]]]}}, {"type": "Feature", "id": "way/349913897", "properties": {"tags": {"building": "residential"}, "heightStatus": "unknown", "source": "OpenStreetMap", "license": "ODbL-1.0"}, "geometry": {"type": "MultiPolygon", "coordinates": [[[[114.0220616, 22.5264945], [114.0221539, 22.5264442], [114.022179, 22.5264836], [114.0220867, 22.5265338], [114.0220616, 22.5264945]]]]}}, {"type": "Feature", "id": "way/349913902", "properties": {"tags": {"building": "residential"}, "heightStatus": "unknown", "source": "OpenStreetMap", "license": "ODbL-1.0"}, "geometry": {"type": "MultiPolygon", "coordinates": [[[[114.023301, 22.5263573], [114.023396, 22.5263518], [114.0234046, 22.5264785], [114.0233095, 22.526484], [114.023301, 22.5263573]]]]}}, {"type": "Feature", "id": "way/349913906", "properties": {"tags": {"building": "residential"}, "heightStatus": "unknown", "source": "OpenStreetMap", "license": "ODbL-1.0"}, "geometry": {"type": "MultiPolygon", "coordinates": [[[[114.0223397, 22.5264753], [114.0224244, 22.5264292], [114.0224989, 22.5265459], [114.0224142, 22.5265921], [114.0223397, 22.5264753]]]]}}, {"type": "Feature", "id": "way/349913913", "properties": {"tags": {"building": "residential"}, "heightStatus": "unknown", "source": "OpenStreetMap", "license": "ODbL-1.0"}, "geometry": {"type": "MultiPolygon", "coordinates": [[[[114.0228836, 22.526647], [114.0228999, 22.5266383], [114.0229458, 22.5266443], [114.0229639, 22.5266732], [114.022916, 22.5266988], [114.0228836, 22.526647]]]]}}, {"type": "Feature", "id": "way/349913924", "properties": {"tags": {"building": "residential"}, "heightStatus": "unknown", "source": "OpenStreetMap", "license": "ODbL-1.0"}, "geometry": {"type": "MultiPolygon", "coordinates": [[[[114.022642, 22.5267324], [114.0226742, 22.5267152], [114.0226904, 22.526741], [114.0227417, 22.5267137], [114.0227868, 22.5267858], [114.0227033, 22.5268304], [114.022642, 22.5267324]]]]}}, {"type": "Feature", "id": "way/349913926", "properties": {"tags": {"building": "residential"}, "heightStatus": "unknown", "source": "OpenStreetMap", "license": "ODbL-1.0"}, "geometry": {"type": "MultiPolygon", "coordinates": [[[[114.0216992, 22.5268972], [114.0217754, 22.526877], [114.0218247, 22.527036], [114.0217867, 22.5270461], [114.0217838, 22.527037], [114.0217457, 22.5270471], [114.0216992, 22.5268972]]]]}}, {"type": "Feature", "id": "way/349913929", "properties": {"tags": {"building": "residential"}, "heightStatus": "unknown", "source": "OpenStreetMap", "license": "ODbL-1.0"}, "geometry": {"type": "MultiPolygon", "coordinates": [[[[114.0221079, 22.5269866], [114.0222413, 22.5269154], [114.0222817, 22.52698], [114.0222499, 22.5269969], [114.0222719, 22.5270322], [114.0221703, 22.5270864], [114.0221079, 22.5269866]]]]}}, {"type": "Feature", "id": "way/349913941", "properties": {"tags": {"building": "residential"}, "heightStatus": "unknown", "source": "OpenStreetMap", "license": "ODbL-1.0"}, "geometry": {"type": "MultiPolygon", "coordinates": [[[[114.0234388, 22.5261927], [114.0235169, 22.5261747], [114.0235426, 22.5262698], [114.0234528, 22.5262904], [114.023442, 22.5262504], [114.0234537, 22.5262477], [114.0234388, 22.5261927]]]]}}, {"type": "Feature", "id": "way/349913945", "properties": {"tags": {"building": "residential"}, "heightStatus": "unknown", "source": "OpenStreetMap", "license": "ODbL-1.0"}, "geometry": {"type": "MultiPolygon", "coordinates": [[[[114.0231144, 22.526062], [114.023171, 22.5260353], [114.0232652, 22.5262061], [114.0232532, 22.5262118], [114.0232647, 22.5262325], [114.02322, 22.5262535], [114.0231144, 22.526062]]]]}}, {"type": "Feature", "id": "way/349913950", "properties": {"tags": {"building": "residential"}, "heightStatus": "unknown", "source": "OpenStreetMap", "license": "ODbL-1.0"}, "geometry": {"type": "MultiPolygon", "coordinates": [[[[114.0232888, 22.5259431], [114.0233302, 22.5259292], [114.0233993, 22.5261044], [114.0233521, 22.5261203], [114.0233349, 22.5260766], [114.0233407, 22.5260747], [114.0232888, 22.5259431]]]]}}, {"type": "Feature", "id": "way/349913957", "properties": {"tags": {"building": "residential"}, "heightStatus": "unknown", "source": "OpenStreetMap", "license": "ODbL-1.0"}, "geometry": {"type": "MultiPolygon", "coordinates": [[[[114.0220231, 22.526866], [114.0221566, 22.5267949], [114.02223, 22.5269123], [114.0221258, 22.5269678], [114.0221214, 22.5269608], [114.0220921, 22.5269764], [114.0220231, 22.526866]]]]}}, {"type": "Feature", "id": "way/349913961", "properties": {"tags": {"building": "residential"}, "heightStatus": "unknown", "source": "OpenStreetMap", "license": "ODbL-1.0"}, "geometry": {"type": "MultiPolygon", "coordinates": [[[[114.0232372, 22.5265455], [114.0232471, 22.526545], [114.0232449, 22.5265127], [114.0232915, 22.52651], [114.0232986, 22.5266143], [114.0232421, 22.5266176], [114.0232372, 22.5265455]]]]}}, {"type": "Feature", "id": "way/349913964", "properties": {"tags": {"building": "residential"}, "heightStatus": "unknown", "source": "OpenStreetMap", "license": "ODbL-1.0"}, "geometry": {"type": "MultiPolygon", "coordinates": [[[[114.0217403, 22.526736], [114.021817, 22.526713], [114.0218603, 22.5268359], [114.0217709, 22.5268627], [114.0217454, 22.5267901], [114.021758, 22.5267863], [114.0217403, 22.526736]]]]}}, {"type": "Feature", "id": "way/349913965", "properties": {"tags": {"building": "residential"}, "heightStatus": "unknown", "source": "OpenStreetMap", "license": "ODbL-1.0"}, "geometry": {"type": "MultiPolygon", "coordinates": [[[[114.0231514, 22.5267049], [114.0231929, 22.5267025], [114.0231939, 22.5267175], [114.0232235, 22.5267157], [114.0232271, 22.5267696], [114.023156, 22.5267737], [114.0231514, 22.5267049]]]]}}, {"type": "Feature", "id": "way/349913975", "properties": {"tags": {"building": "residential"}, "heightStatus": "unknown", "source": "OpenStreetMap", "license": "ODbL-1.0"}, "geometry": {"type": "MultiPolygon", "coordinates": [[[[114.0218244, 22.526719], [114.0218871, 22.5266919], [114.0219717, 22.5268596], [114.0219204, 22.5268817], [114.0218996, 22.5268403], [114.0218882, 22.5268453], [114.0218244, 22.526719]]]]}}, {"type": "Feature", "id": "way/349913980", "properties": {"tags": {"building": "residential"}, "heightStatus": "unknown", "source": "OpenStreetMap", "license": "ODbL-1.0"}, "geometry": {"type": "MultiPolygon", "coordinates": [[[[114.0222571, 22.5265747], [114.0222931, 22.5265551], [114.0222867, 22.5265451], [114.0223355, 22.5265185], [114.0223906, 22.5266049], [114.0223059, 22.526651], [114.0222571, 22.5265747]]]]}}, {"type": "Feature", "id": "way/349913994", "properties": {"tags": {"building": "residential"}, "heightStatus": "unknown", "source": "OpenStreetMap", "license": "ODbL-1.0"}, "geometry": {"type": "MultiPolygon", "coordinates": [[[[114.0218028, 22.5265406], [114.0219515, 22.5264613], [114.0220043, 22.5265458], [114.0219929, 22.5265519], [114.0220501, 22.5266435], [114.0219128, 22.5267167], [114.0218028, 22.5265406]]]]}}, {"type": "Feature", "id": "way/349913998", "properties": {"tags": {"building": "residential"}, "heightStatus": "unknown", "source": "OpenStreetMap", "license": "ODbL-1.0"}, "geometry": {"type": "MultiPolygon", "coordinates": [[[[114.0228758, 22.526416], [114.0229179, 22.5264135], [114.0229168, 22.5263978], [114.0229769, 22.5263943], [114.0229822, 22.5264721], [114.02288, 22.526478], [114.0228758, 22.526416]]]]}}, {"type": "Feature", "id": "way/349914016", "properties": {"tags": {"building": "residential"}, "heightStatus": "unknown", "source": "OpenStreetMap", "license": "ODbL-1.0"}, "geometry": {"type": "MultiPolygon", "coordinates": [[[[114.024413, 22.5269797], [114.0245148, 22.526958], [114.0245748, 22.527054], [114.0245488, 22.5270657], [114.0244703, 22.5270824], [114.0244655, 22.527063], [114.0244354, 22.5270695], [114.024413, 22.5269797]]]]}}, {"type": "Feature", "id": "way/349914019", "properties": {"tags": {"building": "apartments"}, "heightStatus": "unknown", "source": "OpenStreetMap", "license": "ODbL-1.0"}, "geometry": {"type": "MultiPolygon", "coordinates": [[[[114.0234991, 22.5265657], [114.0235334, 22.5265586], [114.0235382, 22.5265784], [114.0235898, 22.5265678], [114.023585, 22.5265479], [114.0236194, 22.5265408], [114.0236376, 22.5266162], [114.0236054, 22.5266229], [114.023617, 22.5266705], [114.0237043, 22.5266524], [114.0236928, 22.5266048], [114.0236605, 22.5266115], [114.0236423, 22.5265361], [114.0236766, 22.526529], [114.0236814, 22.5265488], [114.023733, 22.5265381], [114.0237282, 22.5265183], [114.0237626, 22.5265112], [114.0237808, 22.5265866], [114.0237486, 22.5265933], [114.0237602, 22.5266409], [114.0238561, 22.526621], [114.0238446, 22.5265734], [114.0238123, 22.5265801], [114.0237941, 22.5265047], [114.0238284, 22.5264976], [114.0238333, 22.5265174], [114.0238848, 22.5265067], [114.02388, 22.5264869], [114.0239144, 22.5264798], [114.0239326, 22.5265552], [114.0239004, 22.5265619], [114.023912, 22.5266095], [114.0239556, 22.5266005], [114.0239666, 22.5266454], [114.0239587, 22.5266471], [114.0239677, 22.5266841], [114.0239319, 22.5266915], [114.0239286, 22.5266783], [114.0239115, 22.5266818], [114.023899, 22.5266302], [114.0238732, 22.5266356], [114.0238857, 22.5266872], [114.0238685, 22.5266907], [114.0238717, 22.5267039], [114.0238359, 22.5267113], [114.0238269, 22.5266743], [114.0238112, 22.5266776], [114.0238201, 22.5267146], [114.0237843, 22.526722], [114.0237811, 22.5267088], [114.023764, 22.5267123], [114.0237514, 22.5266607], [114.0237257, 22.5266661], [114.0237382, 22.5267177], [114.023721, 22.5267212], [114.0237242, 22.5267345], [114.0236884, 22.5267419], [114.0236794, 22.5267048], [114.0236637, 22.5267081], [114.0236726, 22.5267451], [114.0236368, 22.5267525], [114.0236336, 22.5267393], [114.0236164, 22.5267428], [114.0236039, 22.5266913], [114.0235782, 22.5266966], [114.0235907, 22.5267482], [114.0235735, 22.5267517], [114.0235767, 22.526765], [114.0235409, 22.5267724], [114.0235335, 22.5267419], [114.0235256, 22.5267436], [114.0235131, 22.526692], [114.0235611, 22.5266821], [114.0235496, 22.5266344], [114.0235173, 22.5266411], [114.0234991, 22.5265657]]]]}}, {"type": "Feature", "id": "way/349914020", "properties": {"tags": {"building": "residential"}, "heightStatus": "unknown", "source": "OpenStreetMap", "license": "ODbL-1.0"}, "geometry": {"type": "MultiPolygon", "coordinates": [[[[114.0214965, 22.5267057], [114.021552, 22.526689], [114.0215476, 22.5266766], [114.0216523, 22.5266208], [114.0217144, 22.52676], [114.0217466, 22.5268516], [114.021579, 22.5269019], [114.0215606, 22.5268495], [114.0214965, 22.5267057]]]]}}, {"type": "Feature", "id": "way/349914021", "properties": {"tags": {"building": "residential"}, "heightStatus": "unknown", "source": "OpenStreetMap", "license": "ODbL-1.0"}, "geometry": {"type": "MultiPolygon", "coordinates": [[[[114.0217851, 22.5268745], [114.0218754, 22.5268505], [114.0218843, 22.5268792], [114.0218928, 22.526877], [114.0219304, 22.5269982], [114.0218796, 22.5270116], [114.0218816, 22.5270181], [114.0218337, 22.5270308], [114.0217851, 22.5268745]]]]}}, {"type": "Feature", "id": "way/349914025", "properties": {"tags": {"building": "residential"}, "heightStatus": "unknown", "source": "OpenStreetMap", "license": "ODbL-1.0"}, "geometry": {"type": "MultiPolygon", "coordinates": [[[[114.0231405, 22.5266578], [114.0231635, 22.5265066], [114.023224, 22.5265144], [114.0232194, 22.5265449], [114.0232274, 22.5265459], [114.0232134, 22.526638], [114.0231983, 22.526636], [114.0231939, 22.5266648], [114.0231405, 22.5266578]]]]}}, {"type": "Feature", "id": "way/349914031", "properties": {"tags": {"building": "residential"}, "heightStatus": "unknown", "source": "OpenStreetMap", "license": "ODbL-1.0"}, "geometry": {"type": "MultiPolygon", "coordinates": [[[[114.0213007, 22.5268083], [114.021451, 22.5267282], [114.0215417, 22.5269316], [114.0215109, 22.5269408], [114.0215191, 22.526964], [114.021501, 22.5269695], [114.0215087, 22.5269914], [114.0214126, 22.5270202], [114.0213007, 22.5268083]]]]}}, {"type": "Feature", "id": "way/349914041", "properties": {"tags": {"building": "residential"}, "heightStatus": "unknown", "source": "OpenStreetMap", "license": "ODbL-1.0"}, "geometry": {"type": "MultiPolygon", "coordinates": [[[[114.0238395, 22.5262348], [114.0239521, 22.5261771], [114.0243553, 22.5268491], [114.0243216, 22.5268664], [114.0243294, 22.5268794], [114.0242571, 22.5269164], [114.0242493, 22.5269034], [114.02423, 22.5269132], [114.0238395, 22.5262348]]]]}}, {"type": "Feature", "id": "way/349914044", "properties": {"tags": {"building": "residential"}, "heightStatus": "unknown", "source": "OpenStreetMap", "license": "ODbL-1.0"}, "geometry": {"type": "MultiPolygon", "coordinates": [[[[114.0235705, 22.5260542], [114.0236713, 22.5259983], [114.0236625, 22.5259848], [114.0237843, 22.5259172], [114.0239055, 22.5261035], [114.0237267, 22.5262027], [114.0237314, 22.5262099], [114.0236876, 22.5262342], [114.0235705, 22.5260542]]]]}}, {"type": "Feature", "id": "way/349914054", "properties": {"tags": {"building": "residential"}, "heightStatus": "unknown", "source": "OpenStreetMap", "license": "ODbL-1.0"}, "geometry": {"type": "MultiPolygon", "coordinates": [[[[114.0227689, 22.5264635], [114.022835, 22.5264282], [114.0228828, 22.5265046], [114.0228647, 22.5265138], [114.0228756, 22.526532], [114.0228646, 22.5265376], [114.0228601, 22.5265713], [114.0228422, 22.5265808], [114.0227689, 22.5264635]]]]}}, {"type": "Feature", "id": "way/349914055", "properties": {"tags": {"building": "residential"}, "heightStatus": "unknown", "source": "OpenStreetMap", "license": "ODbL-1.0"}, "geometry": {"type": "MultiPolygon", "coordinates": [[[[114.0230026, 22.5261227], [114.0230326, 22.5261086], [114.0230626, 22.5260945], [114.0230514, 22.5260741], [114.0230881, 22.5260512], [114.0232262, 22.5263014], [114.0231797, 22.5263067], [114.0231733, 22.5262952], [114.0231509, 22.5263058], [114.0231063, 22.5263108], [114.0230026, 22.5261227]]]]}}, {"type": "Feature", "id": "way/349919582", "properties": {"tags": {"building": "residential"}, "heightStatus": "unknown", "source": "OpenStreetMap", "license": "ODbL-1.0"}, "geometry": {"type": "MultiPolygon", "coordinates": [[[[114.0228802, 22.5254981], [114.0229593, 22.5254488], [114.0230159, 22.5255264], [114.0229368, 22.5255756], [114.0228802, 22.5254981]]]]}}, {"type": "Feature", "id": "way/354881953", "properties": {"tags": {"building": "residential"}, "heightStatus": "unknown", "source": "OpenStreetMap", "license": "ODbL-1.0"}, "geometry": {"type": "MultiPolygon", "coordinates": [[[[114.0225109, 22.5251459], [114.0226503, 22.5250723], [114.0227163, 22.5251789], [114.022697, 22.5251891], [114.022708, 22.5252068], [114.0227272, 22.5251967], [114.0227355, 22.52521], [114.0227787, 22.5251871], [114.0228144, 22.5252449], [114.0227856, 22.5252601], [114.0227938, 22.5252734], [114.0229861, 22.5251719], [114.0229779, 22.5251586], [114.022949, 22.5251738], [114.0229133, 22.5251161], [114.0229566, 22.5250933], [114.0229483, 22.52508], [114.0229676, 22.5250698], [114.0229566, 22.525052], [114.0229374, 22.5250622], [114.0228714, 22.5249556], [114.0230108, 22.5248821], [114.0230767, 22.5249886], [114.0229854, 22.5250368], [114.0230458, 22.5251345], [114.0231179, 22.5250964], [114.0230685, 22.5250165], [114.0230877, 22.5250064], [114.023096, 22.5250197], [114.0231392, 22.5249969], [114.0231667, 22.5250413], [114.0232003, 22.5250235], [114.0232196, 22.5250546], [114.0232051, 22.5250622], [114.0232299, 22.5251021], [114.0232443, 22.5250945], [114.0232608, 22.5251212], [114.0231839, 22.5251618], [114.0231646, 22.5251307], [114.0231176, 22.5251571], [114.0230453, 22.5251937], [114.0230108, 22.5252119], [114.0230301, 22.525243], [114.0229676, 22.5252759], [114.0229483, 22.5252449], [114.0228811, 22.5252804], [114.0229003, 22.5253115], [114.0228378, 22.5253444], [114.0228186, 22.5253134], [114.0227993, 22.5253235], [114.0227856, 22.5253013], [114.0227423, 22.5253242], [114.0227561, 22.5253463], [114.0226648, 22.5253946], [114.022684, 22.5254256], [114.0226071, 22.5254662], [114.0225906, 22.5254396], [114.022605, 22.525432], [114.0225803, 22.525392], [114.0225659, 22.5253996], [114.0225467, 22.5253686], [114.0225803, 22.5253508], [114.0225528, 22.5253064], [114.0225961, 22.5252836], [114.0225879, 22.5252702], [114.0226071, 22.5252601], [114.0226565, 22.52534], [114.0227286, 22.525302], [114.0226682, 22.5252043], [114.0225769, 22.5252525], [114.0225109, 22.5251459]]]]}}, {"type": "Feature", "id": "way/1429423839", "properties": {"tags": {"building": "school"}, "heightStatus": "unknown", "source": "OpenStreetMap", "license": "ODbL-1.0"}, "geometry": {"type": "MultiPolygon", "coordinates": [[[[114.0236724, 22.5252469], [114.0240441, 22.5250542], [114.0240888, 22.5251277], [114.0239406, 22.5252044], [114.0239889, 22.5252838], [114.02419, 22.5251796], [114.0242691, 22.5253097], [114.024068, 22.525414], [114.0241248, 22.5255075], [114.0242703, 22.5254321], [114.024311, 22.5254991], [114.0241655, 22.5255745], [114.0240201, 22.5256499], [114.0239794, 22.5255829], [114.0240285, 22.5255575], [114.0238444, 22.5252544], [114.0237636, 22.5252962], [114.0237756, 22.525316], [114.023729, 22.5253401], [114.0236724, 22.5252469]]]]}}, {"type": "Feature", "id": "relation/19596426", "properties": {"tags": {"building": "school"}, "heightStatus": "unknown", "source": "OpenStreetMap", "license": "ODbL-1.0"}, "geometry": {"type": "MultiPolygon", "coordinates": [[[[114.0231527, 22.5244111], [114.0238573, 22.5240278], [114.0240992, 22.5244073], [114.024868, 22.5239891], [114.0249466, 22.5241124], [114.0234733, 22.5249139], [114.0231527, 22.5244111]], [[114.0233281, 22.5244748], [114.0234461, 22.524659], [114.0234923, 22.5246337], [114.0235593, 22.5247383], [114.0239427, 22.5245287], [114.0237578, 22.52424], [114.0236782, 22.5242835], [114.023661, 22.5242567], [114.0233747, 22.5244132], [114.0233919, 22.52444], [114.0233281, 22.5244748]]]]}}, {"type": "Feature", "id": "way/1429423866", "properties": {"tags": {"addr:housename": "中洲滨海华府一期", "addr:housename:zh": "中洲滨海华府一期", "building": "apartments", "building:levels": "46", "name": "B栋", "name:zh": "B栋"}, "heightStatus": "levels_only_unverified", "source": "OpenStreetMap", "license": "ODbL-1.0"}, "geometry": {"type": "MultiPolygon", "coordinates": [[[[114.0244622, 22.526493], [114.024561, 22.5263661], [114.0246715, 22.5264395], [114.0246288, 22.5264944], [114.0247257, 22.5265588], [114.0246188, 22.5266963], [114.0245249, 22.5266339], [114.0245604, 22.5265882], [114.0244925, 22.5265431], [114.0245079, 22.5265233], [114.0244622, 22.526493]]]]}}, {"type": "Feature", "id": "way/1429423867", "properties": {"tags": {"addr:housename": "中洲滨海华府一期", "addr:housename:zh": "中洲滨海华府一期", "building": "apartments", "building:levels": "50", "name": "A栋", "name:zh": "A栋"}, "heightStatus": "levels_only_unverified", "source": "OpenStreetMap", "license": "ODbL-1.0"}, "geometry": {"type": "MultiPolygon", "coordinates": [[[[114.0242875, 22.5262456], [114.0244017, 22.526099], [114.0245322, 22.5261856], [114.0244894, 22.5262405], [114.0245864, 22.5263049], [114.024515, 22.5263967], [114.0242875, 22.5262456]]]]}}, {"type": "Feature", "id": "way/1429423868", "properties": {"tags": {"addr:housename": "中洲滨海华府一期", "addr:housename:zh": "中洲滨海华府一期", "building": "apartments", "building:levels": "47", "name": "C栋", "name:zh": "C栋"}, "heightStatus": "levels_only_unverified", "source": "OpenStreetMap", "license": "ODbL-1.0"}, "geometry": {"type": "MultiPolygon", "coordinates": [[[[114.0248086, 22.5265599], [114.0249083, 22.5264991], [114.024868, 22.5264427], [114.0249816, 22.5263734], [114.0250748, 22.5265039], [114.0250279, 22.5265325], [114.0250424, 22.5265528], [114.0249725, 22.5265954], [114.0250061, 22.5266424], [114.0249096, 22.5267012], [114.0248086, 22.5265599]]]]}}, {"type": "Feature", "id": "way/1429425701", "properties": {"tags": {"building": "yes"}, "heightStatus": "unknown", "source": "OpenStreetMap", "license": "ODbL-1.0"}, "geometry": {"type": "MultiPolygon", "coordinates": [[[[114.0214481, 22.5254734], [114.0215055, 22.525395], [114.0215696, 22.5253212], [114.02164, 22.5252525], [114.0217162, 22.5251894], [114.0217977, 22.5251321], [114.021884, 22.5250812], [114.0219746, 22.5250369], [114.0220687, 22.5249996], [114.0221657, 22.5249695], [114.0222029, 22.5250717], [114.0221103, 22.5251004], [114.0220249, 22.5251343], [114.0219428, 22.5251744], [114.0218646, 22.5252206], [114.0217906, 22.5252725], [114.0217215, 22.5253298], [114.0216576, 22.5253922], [114.0215994, 22.5254591], [114.0215447, 22.5255338], [114.0214481, 22.5254734]]]]}}, {"type": "Feature", "id": "way/1429425702", "properties": {"tags": {"addr:housename": "万科金域蓝湾", "addr:housename:zh": "万科金域蓝湾", "building": "apartments", "building:levels": "47", "name": "10栋", "name:zh": "10栋"}, "heightStatus": "levels_only_unverified", "source": "OpenStreetMap", "license": "ODbL-1.0"}, "geometry": {"type": "MultiPolygon", "coordinates": [[[[114.0215642, 22.5256748], [114.0216765, 22.5254929], [114.0218287, 22.5255731], [114.0218686, 22.5255377], [114.0218496, 22.5255194], [114.0219113, 22.5254647], [114.0220374, 22.5255861], [114.0219757, 22.5256408], [114.0219428, 22.5256092], [114.0218607, 22.5256819], [114.0218254, 22.5257391], [114.0217893, 22.525845], [114.0216862, 22.525815], [114.0217203, 22.5257149], [114.0216427, 22.5256741], [114.0216231, 22.5257058], [114.0215642, 22.5256748]]]]}}, {"type": "Feature", "id": "way/1429425703", "properties": {"tags": {"addr:housename": "万科金域蓝湾", "addr:housename:zh": "万科金域蓝湾", "building": "apartments", "building:levels": "47", "name": "11栋", "name:zh": "11栋"}, "heightStatus": "levels_only_unverified", "source": "OpenStreetMap", "license": "ODbL-1.0"}, "geometry": {"type": "MultiPolygon", "coordinates": [[[[114.0219113, 22.5254647], [114.021973, 22.5254101], [114.021992, 22.5254284], [114.0220319, 22.525393], [114.0219515, 22.5252492], [114.0221178, 22.5251699], [114.0221899, 22.5252989], [114.0222775, 22.525277], [114.0222828, 22.525295], [114.0223047, 22.5252895], [114.0223115, 22.5253128], [114.0223659, 22.5252993], [114.022382, 22.5253545], [114.0222116, 22.5253969], [114.0221483, 22.5254271], [114.0220662, 22.5254998], [114.0220991, 22.5255315], [114.0220374, 22.5255861], [114.0219113, 22.5254647]]]]}}, {"type": "Feature", "id": "way/1429425704", "properties": {"tags": {"addr:housename": "万科金域蓝湾", "addr:housename:zh": "万科金域蓝湾", "building": "apartments", "building:levels": "33", "name": "3栋", "name:zh": "3栋"}, "heightStatus": "levels_only_unverified", "source": "OpenStreetMap", "license": "ODbL-1.0"}, "geometry": {"type": "MultiPolygon", "coordinates": [[[[114.0203995, 22.526066], [114.0204703, 22.5260034], [114.0205501, 22.5259508], [114.0206371, 22.5259093], [114.0207297, 22.5258795], [114.0207606, 22.5259847], [114.0206588, 22.5260199], [114.0205659, 22.5260719], [114.020485, 22.526139], [114.0203995, 22.526066]]]]}}, {"type": "Feature", "id": "way/1429425705", "properties": {"tags": {"addr:housename": "万科金域蓝湾", "addr:housename:zh": "万科金域蓝湾", "building": "apartments", "building:levels": "33", "name": "4栋", "name:zh": "4栋"}, "heightStatus": "levels_only_unverified", "source": "OpenStreetMap", "license": "ODbL-1.0"}, "geometry": {"type": "MultiPolygon", "coordinates": [[[[114.0201108, 22.5263078], [114.020161, 22.5262872], [114.0201585, 22.5262606], [114.0201648, 22.5262344], [114.0201791, 22.5262112], [114.0202003, 22.5261929], [114.020178, 22.5261466], [114.0202284, 22.5261259], [114.0202467, 22.526164], [114.0202669, 22.5261558], [114.0202768, 22.5261765], [114.020326, 22.5261557], [114.0203995, 22.526066], [114.020485, 22.526139], [114.0204191, 22.5262187], [114.0203703, 22.5263084], [114.0203403, 22.5264049], [114.0203303, 22.5265048], [114.0202171, 22.5264956], [114.0202273, 22.5263912], [114.0202059, 22.5263468], [114.0201835, 22.526356], [114.0201745, 22.5263374], [114.0201332, 22.5263543], [114.0201108, 22.5263078]]]]}}, {"type": "Feature", "id": "way/1429425706", "properties": {"tags": {"addr:housename": "万科金域蓝湾", "addr:housename:zh": "万科金域蓝湾", "building": "apartments", "building:levels": "33", "name": "2栋", "name:zh": "2栋"}, "heightStatus": "levels_only_unverified", "source": "OpenStreetMap", "license": "ODbL-1.0"}, "geometry": {"type": "MultiPolygon", "coordinates": [[[[114.0207297, 22.5258795], [114.0208516, 22.5258599], [114.0208941, 22.5258289], [114.0208788, 22.5258112], [114.0208959, 22.5257985], [114.0208676, 22.5257659], [114.0209106, 22.525734], [114.020945, 22.5257736], [114.0209723, 22.5257645], [114.0210012, 22.5257634], [114.0210292, 22.5257703], [114.0210537, 22.5257845], [114.0210965, 22.5257527], [114.0211311, 22.5257924], [114.0210958, 22.5258186], [114.0211096, 22.5258344], [114.0210905, 22.5258486], [114.0211235, 22.5258865], [114.0212285, 22.525926], [114.0211833, 22.5260273], [114.0210827, 22.5259892], [114.0209763, 22.5259691], [114.0208676, 22.5259676], [114.0207606, 22.5259847], [114.0207297, 22.5258795]]]]}}, {"type": "Feature", "id": "way/1429425707", "properties": {"tags": {"addr:housename": "万科金域蓝湾", "addr:housename:zh": "万科金域蓝湾", "building": "apartments", "building:levels": "33", "name": "1栋", "name:zh": "1栋"}, "heightStatus": "levels_only_unverified", "source": "OpenStreetMap", "license": "ODbL-1.0"}, "geometry": {"type": "MultiPolygon", "coordinates": [[[[114.0211833, 22.5260273], [114.0212285, 22.525926], [114.0213021, 22.5259438], [114.0213753, 22.5259506], [114.0214485, 22.5259435], [114.0215186, 22.5259229], [114.0215931, 22.5258842], [114.0216502, 22.5259782], [114.0215653, 22.5260223], [114.0214725, 22.5260495], [114.0213756, 22.5260589], [114.0212786, 22.52605], [114.0211833, 22.5260273]]]]}}, {"type": "Feature", "id": "way/1429425708", "properties": {"tags": {"addr:housename": "万科金域蓝湾", "addr:housename:zh": "万科金域蓝湾", "building": "apartments", "building:levels": "33", "name": "5栋", "name:zh": "5栋"}, "heightStatus": "levels_only_unverified", "source": "OpenStreetMap", "license": "ODbL-1.0"}, "geometry": {"type": "MultiPolygon", "coordinates": [[[[114.0200099, 22.5267758], [114.0200812, 22.5267323], [114.0201332, 22.5266841], [114.0201735, 22.5266273], [114.0202005, 22.5265642], [114.0202171, 22.5264956], [114.0203303, 22.5265048], [114.0203135, 22.5265935], [114.0202777, 22.5266772], [114.0202243, 22.5267524], [114.0201555, 22.5268162], [114.0200742, 22.5268657], [114.0200099, 22.5267758]]]]}}, {"type": "Feature", "id": "way/1429425710", "properties": {"tags": {"addr:housename": "万科金域蓝湾", "addr:housename:zh": "万科金域蓝湾", "building": "apartments", "building:levels": "34", "name": "8栋", "name:zh": "8栋"}, "heightStatus": "levels_only_unverified", "source": "OpenStreetMap", "license": "ODbL-1.0"}, "geometry": {"type": "MultiPolygon", "coordinates": [[[[114.0191163, 22.527067], [114.019186, 22.5270097], [114.0191745, 22.5269784], [114.0191989, 22.5269334], [114.019177, 22.5269232], [114.0191868, 22.526905], [114.0191464, 22.5268863], [114.0191711, 22.5268408], [114.0192202, 22.5268635], [114.0192409, 22.5268448], [114.0192667, 22.5268326], [114.0192953, 22.5268281], [114.019324, 22.5268317], [114.0193486, 22.5267863], [114.0193979, 22.5268091], [114.0193776, 22.5268464], [114.0193973, 22.5268555], [114.0193863, 22.5268758], [114.0194334, 22.5268976], [114.0194432, 22.5269244], [114.0196437, 22.5269468], [114.0196297, 22.5270538], [114.0193463, 22.5270222], [114.0191939, 22.5271475], [114.0191163, 22.527067]]]]}}, {"type": "Feature", "id": "way/1429425712", "properties": {"tags": {"addr:housename": "万科金域蓝湾", "addr:housename:zh": "万科金域蓝湾", "building": "apartments", "building:levels": "34", "name": "9栋", "name:zh": "9栋"}, "heightStatus": "levels_only_unverified", "source": "OpenStreetMap", "license": "ODbL-1.0"}, "geometry": {"type": "MultiPolygon", "coordinates": [[[[114.0196297, 22.5270538], [114.0196437, 22.5269468], [114.0197159, 22.526936], [114.0197846, 22.5269129], [114.0198474, 22.5268783], [114.019902, 22.5268333], [114.0199783, 22.5269149], [114.0199046, 22.5269737], [114.0198196, 22.5270176], [114.0197266, 22.5270446], [114.0196297, 22.5270538]]]]}}]}