{"type": "FeatureCollection", "features": [{"type": "Feature", "id": "way/345411562", "properties": {"tags": {"building": "commercial"}, "heightStatus": "unknown", "source": "OpenStreetMap", "license": "ODbL-1.0"}, "geometry": {"type": "MultiPolygon", "coordinates": [[[[114.0222128, 22.5588399], [114.0222256, 22.55808], [114.0229378, 22.5580902], [114.022925, 22.5588502], [114.0222128, 22.5588399]]]]}}, {"type": "Feature", "id": "way/345411563", "properties": {"tags": {"building": "commercial"}, "heightStatus": "unknown", "source": "OpenStreetMap", "license": "ODbL-1.0"}, "geometry": {"type": "MultiPolygon", "coordinates": [[[[114.0222145, 22.5592617], [114.0222159, 22.5591644], [114.0228998, 22.5591729], [114.0228984, 22.5592702], [114.0222145, 22.5592617]]]]}}, {"type": "Feature", "id": "way/345411564", "properties": {"tags": {"building": "commercial"}, "heightStatus": "unknown", "source": "OpenStreetMap", "license": "ODbL-1.0"}, "geometry": {"type": "MultiPolygon", "coordinates": [[[[114.0222169, 22.5590519], [114.022218, 22.5589817], [114.0229072, 22.5589912], [114.022906, 22.5590614], [114.0222169, 22.5590519]]]]}}, {"type": "Feature", "id": "way/345411565", "properties": {"tags": {"building": "commercial"}, "heightStatus": "unknown", "source": "OpenStreetMap", "license": "ODbL-1.0"}, "geometry": {"type": "MultiPolygon", "coordinates": [[[[114.022221, 22.5595302], [114.0222227, 22.5594339], [114.0223448, 22.5594357], [114.0223456, 22.5593884], [114.0228024, 22.5593951], [114.0228007, 22.5594953], [114.0227486, 22.5594945], [114.0227478, 22.559538], [114.022221, 22.5595302]]]]}}, {"type": "Feature", "id": "way/345411566", "properties": {"tags": {"building": "commercial"}, "heightStatus": "unknown", "source": "OpenStreetMap", "license": "ODbL-1.0"}, "geometry": {"type": "MultiPolygon", "coordinates": [[[[114.0225701, 22.5597442], [114.0225739, 22.559654], [114.0229265, 22.5596667], [114.0229227, 22.5597569], [114.0225701, 22.5597442]]]]}}, {"type": "Feature", "id": "way/345411567", "properties": {"tags": {"building": "yes"}, "heightStatus": "unknown", "source": "OpenStreetMap", "license": "ODbL-1.0"}, "geometry": {"type": "MultiPolygon", "coordinates": [[[[114.0241389, 22.5591201], [114.0242175, 22.5588014], [114.0243872, 22.5588371], [114.0243657, 22.5589243], [114.0245092, 22.5589545], [114.0244521, 22.559186], [114.0241389, 22.5591201]]]]}}, {"type": "Feature", "id": "way/345411568", "properties": {"tags": {"building": "yes"}, "heightStatus": "unknown", "source": "OpenStreetMap", "license": "ODbL-1.0"}, "geometry": {"type": "MultiPolygon", "coordinates": [[[[114.0245395, 22.5591568], [114.0245648, 22.5590479], [114.024711, 22.5590768], [114.0246911, 22.5591626], [114.0248491, 22.5591938], [114.0248326, 22.5592651], [114.0251013, 22.5593183], [114.0250723, 22.559443], [114.0247948, 22.559388], [114.024816, 22.5592966], [114.0246492, 22.5592635], [114.0246681, 22.5591823], [114.0245395, 22.5591568]]]]}}, {"type": "Feature", "id": "way/345411569", "properties": {"tags": {"building": "yes"}, "heightStatus": "unknown", "source": "OpenStreetMap", "license": "ODbL-1.0"}, "geometry": {"type": "MultiPolygon", "coordinates": [[[[114.0237953, 22.5596774], [114.0239221, 22.5591675], [114.0239946, 22.5591829], [114.0240065, 22.559135], [114.0240873, 22.5591521], [114.0239359, 22.5597608], [114.0238544, 22.5597435], [114.0238671, 22.5596926], [114.0237953, 22.5596774]]]]}}, {"type": "Feature", "id": "way/345411573", "properties": {"tags": {"building": "yes"}, "heightStatus": "unknown", "source": "OpenStreetMap", "license": "ODbL-1.0"}, "geometry": {"type": "MultiPolygon", "coordinates": [[[[114.0225505, 22.554532], [114.0226787, 22.5540871], [114.0228198, 22.5541217], [114.0226916, 22.5545667], [114.0225505, 22.554532]]]]}}, {"type": "Feature", "id": "way/345411574", "properties": {"tags": {"building": "yes", "layer": "1"}, "heightStatus": "unknown", "source": "OpenStreetMap", "license": "ODbL-1.0"}, "geometry": {"type": "MultiPolygon", "coordinates": [[[[114.0226811, 22.5546076], [114.0226916, 22.5545667], [114.0228198, 22.5541217], [114.0228363, 22.5540586], [114.0230751, 22.554118], [114.0230537, 22.5541916], [114.0233457, 22.5542642], [114.0233814, 22.5542731], [114.0232583, 22.5546964], [114.0231606, 22.5546721], [114.0231046, 22.5548647], [114.0228958, 22.5548129], [114.022937, 22.5546711], [114.0226811, 22.5546076]]]]}}, {"type": "Feature", "id": "way/345411575", "properties": {"tags": {"building": "yes"}, "heightStatus": "unknown", "source": "OpenStreetMap", "license": "ODbL-1.0"}, "geometry": {"type": "MultiPolygon", "coordinates": [[[[114.0226787, 22.5540871], [114.0227844, 22.5537309], [114.0229555, 22.5537736], [114.0229131, 22.553918], [114.0230435, 22.5539506], [114.0230923, 22.5539074], [114.0231675, 22.5538886], [114.0232427, 22.5538943], [114.0233037, 22.5539243], [114.0233443, 22.5539656], [114.0233667, 22.5540351], [114.0234979, 22.5540678], [114.0234617, 22.5541911], [114.0233736, 22.5541691], [114.0233457, 22.5542642], [114.0230537, 22.5541916], [114.0230751, 22.554118], [114.0228363, 22.5540586], [114.0228198, 22.5541217], [114.0226787, 22.5540871]]]]}}, {"type": "Feature", "id": "way/345411576", "properties": {"tags": {"building": "yes"}, "heightStatus": "unknown", "source": "OpenStreetMap", "license": "ODbL-1.0"}, "geometry": {"type": "MultiPolygon", "coordinates": [[[[114.0220351, 22.554419], [114.0221501, 22.5544157], [114.0221404, 22.5550128], [114.022038, 22.5550107], [114.0220351, 22.554419]]]]}}, {"type": "Feature", "id": "way/1089347062", "properties": {"tags": {"addr:housename": "豪峰园", "addr:housename:en": "Haofeng Garden", "addr:housename:zh": "豪峰园", "building": "apartments", "name": "6栋", "name:en": "Block 6", "name:zh": "6栋"}, "heightStatus": "unknown", "source": "OpenStreetMap", "license": "ODbL-1.0"}, "geometry": {"type": "MultiPolygon", "coordinates": [[[[114.0171925, 22.5569886], [114.0171941, 22.5568968], [114.017233, 22.5568974], [114.0172346, 22.5568042], [114.0174221, 22.5568069], [114.0174205, 22.5569001], [114.0174594, 22.5569007], [114.0174579, 22.5569924], [114.0171925, 22.5569886]]]]}}, {"type": "Feature", "id": "way/1089347063", "properties": {"tags": {"addr:housename": "豪峰园", "addr:housename:en": "Haofeng Garden", "addr:housename:zh": "豪峰园", "building": "apartments", "name": "7栋", "name:en": "Block 7", "name:zh": "7栋"}, "heightStatus": "unknown", "source": "OpenStreetMap", "license": "ODbL-1.0"}, "geometry": {"type": "MultiPolygon", "coordinates": [[[[114.0175727, 22.5569946], [114.0175743, 22.5569029], [114.0176132, 22.5569035], [114.0176148, 22.5568103], [114.0178023, 22.556813], [114.0178007, 22.5569061], [114.0178396, 22.5569067], [114.0178381, 22.5569985], [114.0175727, 22.5569946]]]]}}, {"type": "Feature", "id": "way/1089347064", "properties": {"tags": {"addr:housename": "豪峰园", "addr:housename:en": "Haofeng Garden", "addr:housename:zh": "豪峰园", "building": "apartments", "name": "5栋", "name:en": "Block 5", "name:zh": "5栋"}, "heightStatus": "unknown", "source": "OpenStreetMap", "license": "ODbL-1.0"}, "geometry": {"type": "MultiPolygon", "coordinates": [[[[114.0175573, 22.5566237], [114.0175589, 22.556527], [114.0178255, 22.5565309], [114.0178239, 22.5566276], [114.0177461, 22.5566265], [114.0177454, 22.5566649], [114.0176345, 22.5566634], [114.0176351, 22.5566249], [114.0175573, 22.5566237]]]]}}, {"type": "Feature", "id": "way/1089347065", "properties": {"tags": {"addr:housename": "豪峰园", "addr:housename:en": "Haofeng Garden", "addr:housename:zh": "豪峰园", "building": "apartments", "name": "3栋", "name:en": "Block 3", "name:zh": "3栋"}, "heightStatus": "unknown", "source": "OpenStreetMap", "license": "ODbL-1.0"}, "geometry": {"type": "MultiPolygon", "coordinates": [[[[114.0172055, 22.5563577], [114.0172071, 22.556266], [114.017246, 22.5562666], [114.0172476, 22.5561734], [114.0174351, 22.5561761], [114.0174335, 22.5562693], [114.0174724, 22.5562698], [114.0174709, 22.5563616], [114.0172055, 22.5563577]]]]}}, {"type": "Feature", "id": "way/1089347066", "properties": {"tags": {"addr:housename": "豪峰园", "addr:housename:en": "Haofeng Garden", "addr:housename:zh": "豪峰园", "building": "apartments", "name": "4栋", "name:en": "Block 4", "name:zh": "4栋"}, "heightStatus": "unknown", "source": "OpenStreetMap", "license": "ODbL-1.0"}, "geometry": {"type": "MultiPolygon", "coordinates": [[[[114.0175858, 22.5563638], [114.0175873, 22.556272], [114.0176262, 22.5562726], [114.0176278, 22.5561794], [114.0178153, 22.5561821], [114.0178137, 22.5562753], [114.0178526, 22.5562759], [114.0178511, 22.5563676], [114.0175858, 22.5563638]]]]}}, {"type": "Feature", "id": "way/1089347067", "properties": {"tags": {"addr:housename": "豪峰园", "addr:housename:en": "Haofeng Garden", "addr:housename:zh": "豪峰园", "building": "apartments", "name": "2栋", "name:en": "Block 2", "name:zh": "2栋"}, "heightStatus": "unknown", "source": "OpenStreetMap", "license": "ODbL-1.0"}, "geometry": {"type": "MultiPolygon", "coordinates": [[[[114.017573, 22.5560053], [114.0175746, 22.5559086], [114.0178412, 22.5559124], [114.0178396, 22.5560091], [114.0177618, 22.556008], [114.0177611, 22.5560465], [114.0176502, 22.5560449], [114.0176508, 22.5560064], [114.017573, 22.5560053]]]]}}, {"type": "Feature", "id": "way/1089347068", "properties": {"tags": {"addr:housename": "豪峰园", "addr:housename:en": "Haofeng Garden", "addr:housename:zh": "豪峰园", "building": "apartments", "name": "1栋", "name:en": "Block 1", "name:zh": "1栋"}, "heightStatus": "unknown", "source": "OpenStreetMap", "license": "ODbL-1.0"}, "geometry": {"type": "MultiPolygon", "coordinates": [[[[114.0172109, 22.5560011], [114.0172125, 22.5559043], [114.0174791, 22.5559082], [114.0174775, 22.5560049], [114.0173997, 22.5560038], [114.017399, 22.5560423], [114.0172881, 22.5560407], [114.0172887, 22.5560022], [114.0172109, 22.5560011]]]]}}, {"type": "Feature", "id": "way/1090012303", "properties": {"tags": {"addr:city": "深圳市", "addr:country": "CN", "addr:district": "福田区", "addr:housenumber": "1042", "addr:province": "广东省", "addr:street": "侨香路", "addr:subdistrict": "香蜜湖街道", "building": "residential", "building:levels": "12", "name": "星逸居", "name:en": "Xingyi Residence", "name:zh": "星逸居"}, "heightStatus": "levels_only_unverified", "source": "OpenStreetMap", "license": "ODbL-1.0"}, "geometry": {"type": "MultiPolygon", "coordinates": [[[[114.0162353, 22.5569578], [114.016238, 22.5568439], [114.0170252, 22.55686], [114.0170225, 22.5569739], [114.0162353, 22.5569578]]]]}}, {"type": "Feature", "id": "way/1090014086", "properties": {"tags": {"addr:housename": "嘉园", "addr:housename:en": "Jiayuan", "addr:housename:zh": "嘉园", "building": "apartments", "building:levels": "12", "name": "1栋", "name:en": "Block 1", "name:zh": "1栋"}, "heightStatus": "levels_only_unverified", "source": "OpenStreetMap", "license": "ODbL-1.0"}, "geometry": {"type": "MultiPolygon", "coordinates": [[[[114.0172869, 22.5573384], [114.0172898, 22.5571967], [114.0174407, 22.5571993], [114.0174414, 22.5571683], [114.0181281, 22.5571802], [114.0181275, 22.5572112], [114.0182784, 22.5572138], [114.0182755, 22.5573555], [114.0181246, 22.5573529], [114.0181255, 22.5573063], [114.0174388, 22.5572945], [114.0174379, 22.557341], [114.0172869, 22.5573384]]]]}}, {"type": "Feature", "id": "way/1090014087", "properties": {"tags": {"addr:housename": "嘉园", "addr:housename:en": "Jiayuan", "addr:housename:zh": "嘉园", "building": "apartments", "building:levels": "12", "name": "2栋", "name:en": "Block 2", "name:zh": "2栋"}, "heightStatus": "levels_only_unverified", "source": "OpenStreetMap", "license": "ODbL-1.0"}, "geometry": {"type": "MultiPolygon", "coordinates": [[[[114.0172893, 22.5576943], [114.0172921, 22.5575526], [114.0174431, 22.5575552], [114.0174421, 22.5576018], [114.0181289, 22.5576137], [114.0181298, 22.5575671], [114.0182808, 22.5575697], [114.0182779, 22.5577114], [114.0181269, 22.5577088], [114.0181263, 22.5577398], [114.0174396, 22.5577279], [114.0174402, 22.5576969], [114.0172893, 22.5576943]]]]}}, {"type": "Feature", "id": "way/1090020837", "properties": {"tags": {"building": "school", "name": "国贸加油站"}, "heightStatus": "unknown", "source": "OpenStreetMap", "license": "ODbL-1.0"}, "geometry": {"type": "MultiPolygon", "coordinates": [[[[114.0182242, 22.5594193], [114.0182295, 22.5591927], [114.0185139, 22.5591951], [114.0185139, 22.5594206], [114.0182242, 22.5594193]]]]}}, {"type": "Feature", "id": "way/1120220013", "properties": {"tags": {"amenity": "fuel", "building": "roof", "layer": "1"}, "heightStatus": "unknown", "source": "OpenStreetMap", "license": "ODbL-1.0"}, "geometry": {"type": "MultiPolygon", "coordinates": [[[[114.0185668, 22.555069], [114.0185709, 22.5549135], [114.0187388, 22.5549173], [114.0187346, 22.5550729], [114.0185668, 22.555069]]]]}}, {"type": "Feature", "id": "way/1243990479", "properties": {"tags": {"building": "yes", "name": "金来达汽配城", "shop": "car"}, "heightStatus": "unknown", "source": "OpenStreetMap", "license": "ODbL-1.0"}, "geometry": {"type": "MultiPolygon", "coordinates": [[[[114.0224379, 22.5617367], [114.0225278, 22.5612311], [114.0232372, 22.5613387], [114.0231472, 22.5618443], [114.0224379, 22.5617367]]]]}}, {"type": "Feature", "id": "way/1243990480", "properties": {"tags": {"building": "yes"}, "heightStatus": "unknown", "source": "OpenStreetMap", "license": "ODbL-1.0"}, "geometry": {"type": "MultiPolygon", "coordinates": [[[[114.0218308, 22.5612855], [114.0219, 22.5609194], [114.022239, 22.560974], [114.0222287, 22.5610285], [114.0222868, 22.5610379], [114.0222987, 22.5609748], [114.0224747, 22.5610031], [114.0224137, 22.5613265], [114.0222432, 22.5612991], [114.0222854, 22.5610753], [114.0222292, 22.5610662], [114.0221773, 22.5613413], [114.0218308, 22.5612855]]]]}}, {"type": "Feature", "id": "way/1243990482", "properties": {"tags": {"building": "yes", "shop": "car"}, "heightStatus": "unknown", "source": "OpenStreetMap", "license": "ODbL-1.0"}, "geometry": {"type": "MultiPolygon", "coordinates": [[[[114.0236904, 22.5622733], [114.0238375, 22.5613036], [114.0245942, 22.5614014], [114.024447, 22.5623712], [114.0236904, 22.5622733]]]]}}, {"type": "Feature", "id": "way/1311279289", "properties": {"tags": {"building": "train_station", "building:levels": "0", "building:levels:underground": "2", "layer": "-1", "location": "underground", "name": "香蜜站", "name:en": "Xiangmi Station", "name:zh": "香蜜站", "public_transport": "station", "start_date": "2011-06-28", "wikidata": "Q5941381", "wikipedia": "zh:香蜜站"}, "heightStatus": "levels_only_unverified", "source": "OpenStreetMap", "license": "ODbL-1.0"}, "geometry": {"type": "MultiPolygon", "coordinates": [[[[114.0179209, 22.5553203], [114.0179217, 22.5552726], [114.0182686, 22.5552823], [114.0184081, 22.5556127], [114.0190907, 22.5556139], [114.0191013, 22.5552962], [114.0195717, 22.5553095], [114.0195695, 22.5553751], [114.019153, 22.5553633], [114.0191446, 22.5556154], [114.0198043, 22.5556172], [114.0198044, 22.5556017], [114.0199388, 22.5556022], [114.0199374, 22.5559164], [114.0196189, 22.5559152], [114.0196195, 22.5557858], [114.0191547, 22.5557833], [114.0191556, 22.5558381], [114.0190902, 22.5558374], [114.0190904, 22.5557837], [114.0185578, 22.5557819], [114.018557, 22.5558675], [114.0182012, 22.5558675], [114.0182016, 22.5559148], [114.0179334, 22.5559148], [114.0179322, 22.5556001], [114.0180693, 22.5555993], [114.0180693, 22.5556142], [114.01835, 22.5556146], [114.0182314, 22.5553296], [114.0179209, 22.5553203]]]]}}, {"type": "Feature", "id": "way/1343531525", "properties": {"tags": {"building": "yes"}, "heightStatus": "unknown", "source": "OpenStreetMap", "license": "ODbL-1.0"}, "geometry": {"type": "MultiPolygon", "coordinates": [[[[114.0154584, 22.5540751], [114.0154586, 22.5539867], [114.0156631, 22.5539871], [114.0156629, 22.5541084], [114.0155091, 22.5541081], [114.0155092, 22.5540752], [114.0154584, 22.5540751]]]]}}, {"type": "Feature", "id": "way/1347317107", "properties": {"tags": {"building": "yes"}, "heightStatus": "unknown", "source": "OpenStreetMap", "license": "ODbL-1.0"}, "geometry": {"type": "MultiPolygon", "coordinates": [[[[114.0217084, 22.5549483], [114.0217271, 22.5544975], [114.0219293, 22.5545047], [114.0219106, 22.5549555], [114.0217084, 22.5549483]]]]}}, {"type": "Feature", "id": "way/1347317108", "properties": {"tags": {"building": "yes"}, "heightStatus": "unknown", "source": "OpenStreetMap", "license": "ODbL-1.0"}, "geometry": {"type": "MultiPolygon", "coordinates": [[[[114.0212028, 22.5549669], [114.0212068, 22.5545978], [114.021373, 22.5545994], [114.021369, 22.5549684], [114.0212028, 22.5549669]]]]}}, {"type": "Feature", "id": "way/1347317109", "properties": {"tags": {"building": "yes"}, "heightStatus": "unknown", "source": "OpenStreetMap", "license": "ODbL-1.0"}, "geometry": {"type": "MultiPolygon", "coordinates": [[[[114.0207511, 22.5545656], [114.0207535, 22.5544331], [114.0213235, 22.5544418], [114.0213211, 22.5545743], [114.0207511, 22.5545656]]]]}}, {"type": "Feature", "id": "way/1347317110", "properties": {"tags": {"building": "yes"}, "heightStatus": "unknown", "source": "OpenStreetMap", "license": "ODbL-1.0"}, "geometry": {"type": "MultiPolygon", "coordinates": [[[[114.0203402, 22.5549598], [114.0203418, 22.5548282], [114.0210754, 22.5548356], [114.0210738, 22.5549672], [114.0203402, 22.5549598]]]]}}, {"type": "Feature", "id": "way/1347317111", "properties": {"tags": {"building": "yes"}, "heightStatus": "unknown", "source": "OpenStreetMap", "license": "ODbL-1.0"}, "geometry": {"type": "MultiPolygon", "coordinates": [[[[114.0197622, 22.5545151], [114.0197651, 22.5544095], [114.0204558, 22.5544256], [114.0204529, 22.5545312], [114.0197622, 22.5545151]]]]}}, {"type": "Feature", "id": "way/1347317112", "properties": {"tags": {"building": "yes"}, "heightStatus": "unknown", "source": "OpenStreetMap", "license": "ODbL-1.0"}, "geometry": {"type": "MultiPolygon", "coordinates": [[[[114.0167317, 22.5548829], [114.0167345, 22.5547392], [114.0174232, 22.5547507], [114.0174204, 22.5548944], [114.0172995, 22.5548924], [114.017298, 22.5549677], [114.0171295, 22.5549649], [114.0171309, 22.5548895], [114.016983, 22.5548871], [114.0169816, 22.5549624], [114.016813, 22.5549596], [114.0168145, 22.5548843], [114.0167317, 22.5548829]]]]}}, {"type": "Feature", "id": "way/1347317113", "properties": {"tags": {"building": "yes"}, "heightStatus": "unknown", "source": "OpenStreetMap", "license": "ODbL-1.0"}, "geometry": {"type": "MultiPolygon", "coordinates": [[[[114.0177201, 22.5548969], [114.017723, 22.5547532], [114.0183005, 22.5547629], [114.0182977, 22.5549066], [114.0182052, 22.554905], [114.0182037, 22.5549803], [114.0180524, 22.5549778], [114.0180539, 22.5549025], [114.0179339, 22.5549005], [114.0179324, 22.5549758], [114.0177639, 22.554973], [114.0177653, 22.5548976], [114.0177201, 22.5548969]]]]}}, {"type": "Feature", "id": "way/1347317114", "properties": {"tags": {"building": "yes"}, "heightStatus": "unknown", "source": "OpenStreetMap", "license": "ODbL-1.0"}, "geometry": {"type": "MultiPolygon", "coordinates": [[[[114.0179049, 22.5543743], [114.0179076, 22.5542365], [114.0182756, 22.5542427], [114.0182729, 22.5543804], [114.018164, 22.5543786], [114.0181623, 22.554463], [114.017981, 22.55446], [114.0179827, 22.5543756], [114.0179049, 22.5543743]]]]}}, {"type": "Feature", "id": "way/1347317115", "properties": {"tags": {"building": "yes"}, "heightStatus": "unknown", "source": "OpenStreetMap", "license": "ODbL-1.0"}, "geometry": {"type": "MultiPolygon", "coordinates": [[[[114.0171919, 22.5541487], [114.0171931, 22.5540881], [114.0172194, 22.5540886], [114.0172204, 22.5540347], [114.0176704, 22.5540422], [114.0176693, 22.5540961], [114.0176955, 22.5540965], [114.0176944, 22.5541571], [114.0176681, 22.5541566], [114.0176671, 22.5542105], [114.0175214, 22.5542081], [114.0175196, 22.5543], [114.0173244, 22.5542967], [114.0173263, 22.5542048], [114.0172171, 22.554203], [114.0172182, 22.5541491], [114.0171919, 22.5541487]]]]}}, {"type": "Feature", "id": "way/1347317116", "properties": {"tags": {"building": "yes"}, "heightStatus": "unknown", "source": "OpenStreetMap", "license": "ODbL-1.0"}, "geometry": {"type": "MultiPolygon", "coordinates": [[[[114.0191202, 22.5549299], [114.0191281, 22.5547935], [114.0195063, 22.5548121], [114.0194984, 22.5549484], [114.0191202, 22.5549299]]]]}}, {"type": "Feature", "id": "way/1347317117", "properties": {"tags": {"building": "yes"}, "heightStatus": "unknown", "source": "OpenStreetMap", "license": "ODbL-1.0"}, "geometry": {"type": "MultiPolygon", "coordinates": [[[[114.0185702, 22.5546127], [114.0185728, 22.5543997], [114.0195183, 22.5544096], [114.0195157, 22.5546226], [114.0185702, 22.5546127]]]]}}, {"type": "Feature", "id": "way/1347317131", "properties": {"tags": {"addr:housename": "熙园", "addr:housename:en": "Xi Yuan", "addr:housename:zh": "熙园", "building": "apartments", "name": "2D号楼", "name:en": "Block 2D", "name:zh": "2D号楼"}, "heightStatus": "unknown", "source": "OpenStreetMap", "license": "ODbL-1.0"}, "geometry": {"type": "MultiPolygon", "coordinates": [[[[114.0209372, 22.5540178], [114.0209611, 22.5539072], [114.0214452, 22.5539962], [114.0214213, 22.5541067], [114.0213641, 22.5540962], [114.0213542, 22.5541419], [114.0212267, 22.5541185], [114.0212365, 22.5540728], [114.0211221, 22.5540517], [114.0211122, 22.5540975], [114.0209846, 22.554074], [114.0209945, 22.5540283], [114.0209372, 22.5540178]]]]}}, {"type": "Feature", "id": "way/1347317132", "properties": {"tags": {"addr:housename": "熙园", "addr:housename:en": "Xi Yuan", "addr:housename:zh": "熙园", "building": "apartments", "name": "2C号楼", "name:en": "Block 2C", "name:zh": "2C号楼"}, "heightStatus": "unknown", "source": "OpenStreetMap", "license": "ODbL-1.0"}, "geometry": {"type": "MultiPolygon", "coordinates": [[[[114.0200216, 22.5539389], [114.0202798, 22.5539052], [114.0205403, 22.5538959], [114.0208005, 22.5539112], [114.0207919, 22.5540367], [114.0207302, 22.554033], [114.0207289, 22.5540636], [114.0205989, 22.5540589], [114.0206003, 22.5540253], [114.020542, 22.5540218], [114.0204803, 22.554024], [114.0204818, 22.5540589], [114.0203517, 22.5540636], [114.0203503, 22.5540286], [114.0202919, 22.5540306], [114.0202342, 22.5540382], [114.0202395, 22.5540729], [114.0201106, 22.5540897], [114.0201053, 22.554055], [114.0200406, 22.5540634], [114.0200216, 22.5539389]]]]}}, {"type": "Feature", "id": "way/1432192844", "properties": {"tags": {"building": "yes"}, "heightStatus": "unknown", "source": "OpenStreetMap", "license": "ODbL-1.0"}, "geometry": {"type": "MultiPolygon", "coordinates": [[[[114.0207313, 22.5562972], [114.0207353, 22.5560983], [114.0213898, 22.5561097], [114.0213858, 22.5563086], [114.0207313, 22.5562972]]]]}}, {"type": "Feature", "id": "way/1432192849", "properties": {"tags": {"building": "yes"}, "heightStatus": "unknown", "source": "OpenStreetMap", "license": "ODbL-1.0"}, "geometry": {"type": "MultiPolygon", "coordinates": [[[[114.0190574, 22.5568588], [114.0190592, 22.5567723], [114.0193451, 22.5567773], [114.0193464, 22.5567172], [114.0193312, 22.556717], [114.0193335, 22.5566032], [114.0194625, 22.5566055], [114.0194602, 22.5567174], [114.0194853, 22.5567178], [114.0194843, 22.5567707], [114.0194591, 22.5567703], [114.0194566, 22.5568902], [114.0193429, 22.5568883], [114.0193434, 22.5568638], [114.0191882, 22.5568611], [114.0191877, 22.5568858], [114.0191111, 22.5568845], [114.0191116, 22.5568598], [114.0190574, 22.5568588]]]]}}, {"type": "Feature", "id": "way/1432192850", "properties": {"tags": {"building": "yes"}, "heightStatus": "unknown", "source": "OpenStreetMap", "license": "ODbL-1.0"}, "geometry": {"type": "MultiPolygon", "coordinates": [[[[114.0196383, 22.5562664], [114.0196434, 22.55602], [114.0197104, 22.5560212], [114.0197071, 22.5561821], [114.0199332, 22.5561861], [114.0199315, 22.5562715], [114.0196383, 22.5562664]]]]}}, {"type": "Feature", "id": "way/1432192851", "properties": {"tags": {"building": "yes"}, "heightStatus": "unknown", "source": "OpenStreetMap", "license": "ODbL-1.0"}, "geometry": {"type": "MultiPolygon", "coordinates": [[[[114.0189255, 22.5561883], [114.0189272, 22.5561092], [114.0193414, 22.5561164], [114.0193422, 22.5560744], [114.0194808, 22.5560768], [114.0194771, 22.5562551], [114.0193386, 22.5562527], [114.0193398, 22.5561955], [114.0189255, 22.5561883]]]]}}, {"type": "Feature", "id": "way/1432192852", "properties": {"tags": {"building": "yes"}, "heightStatus": "unknown", "source": "OpenStreetMap", "license": "ODbL-1.0"}, "geometry": {"type": "MultiPolygon", "coordinates": [[[[114.0200781, 22.5563875], [114.0200853, 22.556037], [114.0202535, 22.5560399], [114.0202463, 22.5563904], [114.0200781, 22.5563875]]]]}}, {"type": "Feature", "id": "way/1432192853", "properties": {"tags": {"building": "yes"}, "heightStatus": "unknown", "source": "OpenStreetMap", "license": "ODbL-1.0"}, "geometry": {"type": "MultiPolygon", "coordinates": [[[[114.018866, 22.5577631], [114.0188775, 22.5572034], [114.019051, 22.5572064], [114.0190395, 22.5577662], [114.018866, 22.5577631]]]]}}, {"type": "Feature", "id": "way/1432192854", "properties": {"tags": {"building": "yes"}, "heightStatus": "unknown", "source": "OpenStreetMap", "license": "ODbL-1.0"}, "geometry": {"type": "MultiPolygon", "coordinates": [[[[114.0191244, 22.5580577], [114.0191283, 22.5578653], [114.0198548, 22.557878], [114.0198509, 22.5580704], [114.0191244, 22.5580577]]]]}}, {"type": "Feature", "id": "way/1432192855", "properties": {"tags": {"building": "yes"}, "heightStatus": "unknown", "source": "OpenStreetMap", "license": "ODbL-1.0"}, "geometry": {"type": "MultiPolygon", "coordinates": [[[[114.0201738, 22.5580783], [114.0201822, 22.5576687], [114.0218803, 22.5576983], [114.0218719, 22.558108], [114.0201738, 22.5580783]]]]}}, {"type": "Feature", "id": "way/1432192861", "properties": {"tags": {"addr:housename": "香蜜湖·瀚城", "addr:housename:en": "Xiangmi Lake Hancheng", "addr:housename:zh": "香蜜湖·瀚城", "building": "apartments", "building:levels": "28", "name": "5栋", "name:en": "Block 5", "name:zh": "5栋"}, "heightStatus": "levels_only_unverified", "source": "OpenStreetMap", "license": "ODbL-1.0"}, "geometry": {"type": "MultiPolygon", "coordinates": [[[[114.0161857, 22.5590078], [114.0162409, 22.5589147], [114.0163468, 22.5589683], [114.016423, 22.5588818], [114.0165383, 22.5589685], [114.0164707, 22.5590453], [114.0164373, 22.5590202], [114.016387, 22.5590772], [114.0163471, 22.5590472], [114.0163336, 22.5590489], [114.0163072, 22.5590934], [114.0162687, 22.5590739], [114.0162797, 22.5590553], [114.0161857, 22.5590078]]]]}}, {"type": "Feature", "id": "way/1432192862", "properties": {"tags": {"addr:housename": "香蜜湖·瀚城", "addr:housename:en": "Xiangmi Lake Hancheng", "addr:housename:zh": "香蜜湖·瀚城", "building": "apartments", "building:levels": "28", "name": "6栋", "name:en": "Block 6", "name:zh": "6栋"}, "heightStatus": "levels_only_unverified", "source": "OpenStreetMap", "license": "ODbL-1.0"}, "geometry": {"type": "MultiPolygon", "coordinates": [[[[114.0166609, 22.5591056], [114.0166914, 22.5590033], [114.0168078, 22.5590329], [114.0168605, 22.5589326], [114.0169943, 22.5589925], [114.0169475, 22.5590815], [114.0169088, 22.5590642], [114.0168741, 22.5591304], [114.0168278, 22.5591097], [114.016815, 22.5591142], [114.0168005, 22.5591631], [114.0167581, 22.5591523], [114.0167642, 22.5591319], [114.0166609, 22.5591056]]]]}}, {"type": "Feature", "id": "way/1432192863", "properties": {"tags": {"addr:housename": "香蜜湖·瀚城", "addr:housename:en": "Xiangmi Lake Hancheng", "addr:housename:zh": "香蜜湖·瀚城", "building": "apartments", "building:levels": "28", "name": "4栋", "name:en": "Block 4", "name:zh": "4栋"}, "heightStatus": "levels_only_unverified", "source": "OpenStreetMap", "license": "ODbL-1.0"}, "geometry": {"type": "MultiPolygon", "coordinates": [[[[114.016197, 22.558625], [114.0162531, 22.558572], [114.0162076, 22.55855], [114.0162402, 22.5584927], [114.0162024, 22.5584744], [114.0162536, 22.5583843], [114.0164261, 22.5584679], [114.016375, 22.5585579], [114.0163077, 22.5585254], [114.0162902, 22.5585561], [114.0164225, 22.5586756], [114.0163396, 22.5587538], [114.016197, 22.558625]]]]}}, {"type": "Feature", "id": "way/1432192864", "properties": {"tags": {"addr:housename": "香蜜湖·瀚城", "addr:housename:en": "Xiangmi Lake Hancheng", "addr:housename:zh": "香蜜湖·瀚城", "building": "apartments", "building:levels": "28", "name": "3栋", "name:en": "Block 3", "name:zh": "3栋"}, "heightStatus": "levels_only_unverified", "source": "OpenStreetMap", "license": "ODbL-1.0"}, "geometry": {"type": "MultiPolygon", "coordinates": [[[[114.0161891, 22.5581041], [114.0163281, 22.5579914], [114.0163125, 22.5579598], [114.0162434, 22.557989], [114.0161976, 22.5578965], [114.0164041, 22.5578092], [114.01645, 22.5579017], [114.0163818, 22.5579305], [114.016411, 22.5579894], [114.0163643, 22.5580091], [114.0164172, 22.5580648], [114.0162673, 22.5581863], [114.0161891, 22.5581041]]]]}}, {"type": "Feature", "id": "way/1432192865", "properties": {"tags": {"addr:housename": "香蜜湖·瀚城", "addr:housename:en": "Xiangmi Lake Hancheng", "addr:housename:zh": "香蜜湖·瀚城", "building": "apartments", "building:levels": "28", "name": "2栋", "name:en": "Block 2", "name:zh": "2栋"}, "heightStatus": "levels_only_unverified", "source": "OpenStreetMap", "license": "ODbL-1.0"}, "geometry": {"type": "MultiPolygon", "coordinates": [[[[114.0162515, 22.5575223], [114.0163979, 22.5574177], [114.0163844, 22.5573853], [114.0163135, 22.5574105], [114.0162739, 22.5573156], [114.0164859, 22.5572403], [114.0165255, 22.5573352], [114.0164555, 22.5573601], [114.0164807, 22.5574205], [114.0164328, 22.5574375], [114.0164819, 22.5574961], [114.0163241, 22.5576088], [114.0162515, 22.5575223]]]]}}, {"type": "Feature", "id": "way/1432192866", "properties": {"tags": {"addr:housename": "香蜜湖·瀚城", "addr:housename:en": "Xiangmi Lake Hancheng", "addr:housename:zh": "香蜜湖·瀚城", "building": "apartments", "building:levels": "28", "name": "1栋", "name:en": "Block 1", "name:zh": "1栋"}, "heightStatus": "levels_only_unverified", "source": "OpenStreetMap", "license": "ODbL-1.0"}, "geometry": {"type": "MultiPolygon", "coordinates": [[[[114.0167425, 22.5573188], [114.0169114, 22.5572383], [114.0169619, 22.5573287], [114.0169282, 22.5573448], [114.0169604, 22.5574023], [114.0169148, 22.5574241], [114.0169704, 22.5574773], [114.0168551, 22.5575801], [114.0167728, 22.5575014], [114.0168777, 22.5574079], [114.0168605, 22.557377], [114.016793, 22.5574092], [114.0167425, 22.5573188]]]]}}, {"type": "Feature", "id": "way/1432192867", "properties": {"tags": {"addr:housename": "香雅园", "addr:housename:en": "Xiangya Garden", "addr:housename:zh": "香雅园", "building": "apartments", "building:levels": "18", "name": "4栋", "name:en": "Block 4", "name:zh": "4栋"}, "heightStatus": "levels_only_unverified", "source": "OpenStreetMap", "license": "ODbL-1.0"}, "geometry": {"type": "MultiPolygon", "coordinates": [[[[114.0179831, 22.5585291], [114.0179844, 22.55849], [114.0180083, 22.5584906], [114.018184, 22.5583377], [114.0183013, 22.5584526], [114.018282, 22.5584695], [114.0183226, 22.5585092], [114.0182733, 22.5585521], [114.0183003, 22.5585787], [114.0182729, 22.5586025], [114.0182354, 22.5585657], [114.0182152, 22.5585833], [114.0181759, 22.5585448], [114.0181055, 22.5586061], [114.0180281, 22.5585304], [114.0179831, 22.5585291]]]]}}, {"type": "Feature", "id": "way/1432192868", "properties": {"tags": {"addr:housename": "香雅园", "addr:housename:en": "Xiangya Garden", "addr:housename:zh": "香雅园", "building": "apartments", "building:levels": "18", "name": "3栋", "name:en": "Block 3", "name:zh": "3栋"}, "heightStatus": "levels_only_unverified", "source": "OpenStreetMap", "license": "ODbL-1.0"}, "geometry": {"type": "MultiPolygon", "coordinates": [[[[114.0176546, 22.5585074], [114.0177086, 22.5584603], [114.0176567, 22.5584094], [114.0176886, 22.5583817], [114.0177224, 22.5584148], [114.0177754, 22.5583686], [114.0178081, 22.5583401], [114.0179604, 22.5584893], [114.0179844, 22.55849], [114.0179831, 22.5585291], [114.0179381, 22.5585279], [114.0179049, 22.5585569], [114.0178605, 22.5585134], [114.01777, 22.5585922], [114.0177363, 22.5585592], [114.0177211, 22.5585725], [114.0176546, 22.5585074]]]]}}, {"type": "Feature", "id": "way/1432192869", "properties": {"tags": {"addr:housename": "香雅园", "addr:housename:en": "Xiangya Garden", "addr:housename:zh": "香雅园", "building": "apartments", "building:levels": "18", "name": "2栋", "name:en": "Block 2", "name:zh": "2栋"}, "heightStatus": "levels_only_unverified", "source": "OpenStreetMap", "license": "ODbL-1.0"}, "geometry": {"type": "MultiPolygon", "coordinates": [[[[114.0176603, 22.5582841], [114.0177143, 22.558237], [114.0176624, 22.5581861], [114.0176943, 22.5581583], [114.0177272, 22.5581906], [114.017788, 22.5581376], [114.0178129, 22.5581159], [114.0179161, 22.558217], [114.0179366, 22.5581991], [114.017997, 22.5582583], [114.0179106, 22.5583335], [114.0178659, 22.5582898], [114.0178081, 22.5583401], [114.0177754, 22.5583686], [114.017742, 22.5583359], [114.0177268, 22.5583492], [114.0176603, 22.5582841]]]]}}, {"type": "Feature", "id": "way/1432192870", "properties": {"tags": {"addr:housename": "香雅园", "addr:housename:en": "Xiangya Garden", "addr:housename:zh": "香雅园", "building": "apartments", "building:levels": "18", "name": "1栋", "name:en": "Block 1", "name:zh": "1栋"}, "heightStatus": "levels_only_unverified", "source": "OpenStreetMap", "license": "ODbL-1.0"}, "geometry": {"type": "MultiPolygon", "coordinates": [[[[114.017672, 22.5580522], [114.017726, 22.5580051], [114.0176741, 22.5579542], [114.0177059, 22.5579264], [114.0177394, 22.5579593], [114.0178252, 22.5578846], [114.0179277, 22.5579851], [114.0179483, 22.5579672], [114.0180087, 22.5580264], [114.0179222, 22.5581017], [114.0178785, 22.5580588], [114.0178129, 22.5581159], [114.017788, 22.5581376], [114.0177537, 22.558104], [114.0177384, 22.5581173], [114.017672, 22.5580522]]]]}}, {"type": "Feature", "id": "way/1432192871", "properties": {"tags": {"addr:housename": "枫丹雅苑", "addr:housename:en": "Fengdan Yayuan", "addr:housename:zh": "枫丹雅苑", "building": "apartments", "name": "1栋", "name:en": "Block 1", "name:zh": "1栋"}, "heightStatus": "unknown", "source": "OpenStreetMap", "license": "ODbL-1.0"}, "geometry": {"type": "MultiPolygon", "coordinates": [[[[114.0178797, 22.5561586], [114.0178821, 22.5560137], [114.0179683, 22.5559365], [114.0182911, 22.5559412], [114.0182893, 22.5560489], [114.0179984, 22.5560448], [114.0179964, 22.5561603], [114.0178797, 22.5561586]]]]}}, {"type": "Feature", "id": "way/1432192872", "properties": {"tags": {"addr:housename": "枫丹雅苑", "addr:housename:en": "Fengdan Yayuan", "addr:housename:zh": "枫丹雅苑", "building": "apartments", "name": "2栋", "name:en": "Block 2", "name:zh": "2栋"}, "heightStatus": "unknown", "source": "OpenStreetMap", "license": "ODbL-1.0"}, "geometry": {"type": "MultiPolygon", "coordinates": [[[[114.0178773, 22.5563035], [114.0178797, 22.5561586], [114.0179964, 22.5561603], [114.0179945, 22.5562758], [114.0182022, 22.5562788], [114.0182004, 22.5563866], [114.0179608, 22.5563831], [114.0178773, 22.5563035]]]]}}, {"type": "Feature", "id": "way/1432192873", "properties": {"tags": {"addr:housename": "枫丹雅苑", "addr:housename:en": "Fengdan Yayuan", "addr:housename:zh": "枫丹雅苑", "building": "apartments", "name": "3栋", "name:en": "Block 3", "name:zh": "3栋"}, "heightStatus": "unknown", "source": "OpenStreetMap", "license": "ODbL-1.0"}, "geometry": {"type": "MultiPolygon", "coordinates": [[[[114.0178837, 22.5567657], [114.0178862, 22.5566208], [114.0179724, 22.5565436], [114.0182119, 22.556547], [114.0182101, 22.5566548], [114.0180024, 22.5566518], [114.0180005, 22.5567674], [114.0178837, 22.5567657]]]]}}, {"type": "Feature", "id": "way/1432192874", "properties": {"tags": {"addr:housename": "枫丹雅苑", "addr:housename:en": "Fengdan Yayuan", "addr:housename:zh": "枫丹雅苑", "building": "apartments", "name": "4栋", "name:en": "Block 4", "name:zh": "4栋"}, "heightStatus": "unknown", "source": "OpenStreetMap", "license": "ODbL-1.0"}, "geometry": {"type": "MultiPolygon", "coordinates": [[[[114.0178813, 22.5569106], [114.0178837, 22.5567657], [114.0180005, 22.5567674], [114.0179985, 22.5568829], [114.0182895, 22.5568871], [114.0182876, 22.5569948], [114.0179648, 22.5569902], [114.0178813, 22.5569106]]]]}}, {"type": "Feature", "id": "way/1432192880", "properties": {"tags": {"building": "construction", "building:levels": "29", "construction": "apartments"}, "heightStatus": "levels_only_unverified", "source": "OpenStreetMap", "license": "ODbL-1.0"}, "geometry": {"type": "MultiPolygon", "coordinates": [[[[114.023258, 22.5591566], [114.0232777, 22.5590766], [114.0233443, 22.5590906], [114.0233486, 22.5590731], [114.0234845, 22.5591016], [114.0234802, 22.5591192], [114.0235468, 22.5591332], [114.0235272, 22.5592131], [114.0234442, 22.5591957], [114.0234314, 22.5592476], [114.0233282, 22.559226], [114.023341, 22.559174], [114.023258, 22.5591566]]]]}}, {"type": "Feature", "id": "way/1432192881", "properties": {"tags": {"building": "construction", "building:levels": "29", "construction": "apartments"}, "heightStatus": "levels_only_unverified", "source": "OpenStreetMap", "license": "ODbL-1.0"}, "geometry": {"type": "MultiPolygon", "coordinates": [[[[114.0234717, 22.5587442], [114.0234914, 22.5586642], [114.023558, 22.5586782], [114.0235623, 22.5586607], [114.0236982, 22.5586893], [114.0236939, 22.5587068], [114.0237605, 22.5587208], [114.0237409, 22.5588007], [114.0236579, 22.5587833], [114.0236451, 22.5588352], [114.0235419, 22.5588136], [114.0235547, 22.5587616], [114.0234717, 22.5587442]]]]}}, {"type": "Feature", "id": "way/1432192882", "properties": {"tags": {"building": "construction", "building:levels": "29", "construction": "apartments"}, "heightStatus": "levels_only_unverified", "source": "OpenStreetMap", "license": "ODbL-1.0"}, "geometry": {"type": "MultiPolygon", "coordinates": [[[[114.0232596, 22.5584216], [114.0232793, 22.5583417], [114.0233459, 22.5583557], [114.0233502, 22.5583382], [114.0234861, 22.5583667], [114.0234818, 22.5583842], [114.0235484, 22.5583982], [114.0235287, 22.5584781], [114.0234458, 22.5584607], [114.023433, 22.5585127], [114.0233298, 22.558491], [114.0233426, 22.558439], [114.0232596, 22.5584216]]]]}}, {"type": "Feature", "id": "way/1432192883", "properties": {"tags": {"building": "construction", "building:levels": "29", "construction": "apartments"}, "heightStatus": "levels_only_unverified", "source": "OpenStreetMap", "license": "ODbL-1.0"}, "geometry": {"type": "MultiPolygon", "coordinates": [[[[114.0235881, 22.5582228], [114.0236078, 22.5581429], [114.0236745, 22.5581569], [114.0236788, 22.5581393], [114.0238146, 22.5581679], [114.0238103, 22.5581854], [114.023877, 22.5581994], [114.0238573, 22.5582793], [114.0237743, 22.5582619], [114.0237615, 22.5583139], [114.0236583, 22.5582922], [114.0236711, 22.5582402], [114.0235881, 22.5582228]]]]}}, {"type": "Feature", "id": "way/1432192884", "properties": {"tags": {"building": "construction", "building:levels": "29", "construction": "apartments"}, "heightStatus": "levels_only_unverified", "source": "OpenStreetMap", "license": "ODbL-1.0"}, "geometry": {"type": "MultiPolygon", "coordinates": [[[[114.0232707, 22.5579164], [114.0232904, 22.5578365], [114.0233571, 22.5578505], [114.0233614, 22.557833], [114.0234972, 22.5578615], [114.0234929, 22.557879], [114.0235596, 22.557893], [114.0235399, 22.557973], [114.0234569, 22.5579555], [114.0234441, 22.5580075], [114.0233409, 22.5579858], [114.0233537, 22.5579339], [114.0232707, 22.5579164]]]]}}, {"type": "Feature", "id": "way/1432192885", "properties": {"tags": {"building": "construction", "building:levels": "29", "construction": "apartments"}, "heightStatus": "levels_only_unverified", "source": "OpenStreetMap", "license": "ODbL-1.0"}, "geometry": {"type": "MultiPolygon", "coordinates": [[[[114.023821, 22.5572816], [114.0238406, 22.5572017], [114.0239073, 22.5572157], [114.0239116, 22.5571982], [114.0240475, 22.5572267], [114.0240432, 22.5572442], [114.0241098, 22.5572582], [114.0240901, 22.5573382], [114.0240072, 22.5573207], [114.0239944, 22.5573727], [114.0238911, 22.557351], [114.0239039, 22.5572991], [114.023821, 22.5572816]]]]}}, {"type": "Feature", "id": "way/1432192886", "properties": {"tags": {"building": "construction", "building:levels": "29", "construction": "apartments"}, "heightStatus": "levels_only_unverified", "source": "OpenStreetMap", "license": "ODbL-1.0"}, "geometry": {"type": "MultiPolygon", "coordinates": [[[[114.0237077, 22.5577456], [114.0237274, 22.5576657], [114.0237941, 22.5576797], [114.0237984, 22.5576621], [114.0239342, 22.5576907], [114.0239299, 22.5577082], [114.0239966, 22.5577222], [114.0239769, 22.5578021], [114.0238939, 22.5577847], [114.0238811, 22.5578367], [114.0237779, 22.557815], [114.0237907, 22.557763], [114.0237077, 22.5577456]]]]}}, {"type": "Feature", "id": "way/1432192887", "properties": {"tags": {"building": "construction", "building:levels": "29", "construction": "apartments"}, "heightStatus": "levels_only_unverified", "source": "OpenStreetMap", "license": "ODbL-1.0"}, "geometry": {"type": "MultiPolygon", "coordinates": [[[[114.0232851, 22.5574205], [114.0233048, 22.5573405], [114.0233714, 22.5573545], [114.0233757, 22.557337], [114.0235116, 22.5573655], [114.0235073, 22.5573831], [114.0235739, 22.557397], [114.0235543, 22.557477], [114.0234713, 22.5574595], [114.0234585, 22.5575115], [114.0233553, 22.5574899], [114.0233681, 22.5574379], [114.0232851, 22.5574205]]]]}}, {"type": "Feature", "id": "way/1432192888", "properties": {"tags": {"building": "construction", "building:levels": "29", "construction": "apartments"}, "heightStatus": "levels_only_unverified", "source": "OpenStreetMap", "license": "ODbL-1.0"}, "geometry": {"type": "MultiPolygon", "coordinates": [[[[114.0223946, 22.557252], [114.0224143, 22.557172], [114.0224522, 22.55718], [114.0224566, 22.5571625], [114.0227115, 22.557216], [114.0227072, 22.5572335], [114.0227452, 22.5572415], [114.0227255, 22.5573214], [114.0226117, 22.5572975], [114.0225989, 22.5573495], [114.0224957, 22.5573278], [114.0225084, 22.5572759], [114.0223946, 22.557252]]]]}}, {"type": "Feature", "id": "way/1432192889", "properties": {"tags": {"building": "construction", "building:levels": "29", "construction": "apartments"}, "heightStatus": "levels_only_unverified", "source": "OpenStreetMap", "license": "ODbL-1.0"}, "geometry": {"type": "MultiPolygon", "coordinates": [[[[114.0228432, 22.557084], [114.0228629, 22.5570041], [114.0229291, 22.557018], [114.0229334, 22.5570005], [114.0231884, 22.557054], [114.0231841, 22.5570715], [114.0232503, 22.5570854], [114.0232306, 22.5571654], [114.0230885, 22.5571355], [114.0230757, 22.5571875], [114.0229725, 22.5571658], [114.0229853, 22.5571139], [114.0228432, 22.557084]]]]}}, {"type": "Feature", "id": "way/1432192890", "properties": {"tags": {"building": "construction", "building:levels": "29", "construction": "apartments"}, "heightStatus": "levels_only_unverified", "source": "OpenStreetMap", "license": "ODbL-1.0"}, "geometry": {"type": "MultiPolygon", "coordinates": [[[[114.0221889, 22.5567041], [114.0222086, 22.5566241], [114.0222465, 22.5566321], [114.0222508, 22.5566146], [114.0225058, 22.5566681], [114.0225015, 22.5566856], [114.0225394, 22.5566936], [114.0225197, 22.5567735], [114.0224059, 22.5567496], [114.0223931, 22.5568016], [114.0222899, 22.5567799], [114.0223027, 22.556728], [114.0221889, 22.5567041]]]]}}, {"type": "Feature", "id": "way/1432192891", "properties": {"tags": {"building": "construction", "building:levels": "29", "construction": "apartments"}, "heightStatus": "levels_only_unverified", "source": "OpenStreetMap", "license": "ODbL-1.0"}, "geometry": {"type": "MultiPolygon", "coordinates": [[[[114.0237662, 22.5568101], [114.0237859, 22.5567302], [114.0238238, 22.5567382], [114.0238281, 22.5567206], [114.0240831, 22.5567742], [114.0240788, 22.5567917], [114.0241167, 22.5567997], [114.0240971, 22.5568796], [114.0239832, 22.5568557], [114.0239704, 22.5569077], [114.0238672, 22.556886], [114.02388, 22.556834], [114.0237662, 22.5568101]]]]}}, {"type": "Feature", "id": "way/1432192892", "properties": {"tags": {"building": "construction", "building:levels": "29", "construction": "apartments"}, "heightStatus": "levels_only_unverified", "source": "OpenStreetMap", "license": "ODbL-1.0"}, "geometry": {"type": "MultiPolygon", "coordinates": [[[[114.0234935, 22.5564699], [114.0235132, 22.55639], [114.0235511, 22.5563979], [114.0235554, 22.5563804], [114.0238104, 22.556434], [114.0238061, 22.5564515], [114.023844, 22.5564594], [114.0238243, 22.5565394], [114.0237105, 22.5565155], [114.0236977, 22.5565674], [114.0235945, 22.5565458], [114.0236073, 22.5564938], [114.0234935, 22.5564699]]]]}}, {"type": "Feature", "id": "way/1432192893", "properties": {"tags": {"building": "construction", "building:levels": "29", "construction": "apartments"}, "heightStatus": "levels_only_unverified", "source": "OpenStreetMap", "license": "ODbL-1.0"}, "geometry": {"type": "MultiPolygon", "coordinates": [[[[114.0226436, 22.5562957], [114.0226632, 22.5562158], [114.0227012, 22.5562238], [114.0227055, 22.5562063], [114.0229605, 22.5562598], [114.0229562, 22.5562773], [114.0229941, 22.5562853], [114.0229744, 22.5563652], [114.0228606, 22.5563413], [114.0228478, 22.5563933], [114.0227446, 22.5563716], [114.0227574, 22.5563196], [114.0226436, 22.5562957]]]]}}, {"type": "Feature", "id": "way/1432192895", "properties": {"tags": {"building": "commercial"}, "heightStatus": "unknown", "source": "OpenStreetMap", "license": "ODbL-1.0"}, "geometry": {"type": "MultiPolygon", "coordinates": [[[[114.02407, 22.5560286], [114.0248774, 22.5561785], [114.0247847, 22.5566042], [114.0243228, 22.5565184], [114.0242391, 22.5563563], [114.0245433, 22.5564128], [114.0245746, 22.5562689], [114.0241537, 22.5561907], [114.02407, 22.5560286]]]]}}, {"type": "Feature", "id": "way/1432192898", "properties": {"tags": {"addr:housename": "特发小区", "addr:housename:en": "Tefa Estate", "addr:housename:zh": "特发小区", "building": "apartments", "building:levels": "7", "name": "9栋", "name:en": "Block 9", "name:zh": "9栋"}, "heightStatus": "levels_only_unverified", "source": "OpenStreetMap", "license": "ODbL-1.0"}, "geometry": {"type": "MultiPolygon", "coordinates": [[[[114.0243579, 22.557404], [114.0243741, 22.5573337], [114.0244312, 22.5573449], [114.0244367, 22.5573213], [114.0243986, 22.5573138], [114.0244137, 22.5572486], [114.0246129, 22.5572879], [114.0245979, 22.557353], [114.0245598, 22.5573455], [114.0245544, 22.5573692], [114.0246115, 22.5573805], [114.0245952, 22.5574508], [114.0243579, 22.557404]]]]}}, {"type": "Feature", "id": "way/1432192899", "properties": {"tags": {"addr:housename": "特发小区", "addr:housename:en": "Tefa Estate", "addr:housename:zh": "特发小区", "building": "apartments", "building:levels": "7", "name": "10栋", "name:en": "Block 10", "name:zh": "10栋"}, "heightStatus": "levels_only_unverified", "source": "OpenStreetMap", "license": "ODbL-1.0"}, "geometry": {"type": "MultiPolygon", "coordinates": [[[[114.0244185, 22.5571093], [114.0244348, 22.5570389], [114.0244919, 22.5570502], [114.0244973, 22.5570265], [114.0244593, 22.557019], [114.0244743, 22.5569539], [114.0246736, 22.5569931], [114.0246586, 22.5570583], [114.0246205, 22.5570508], [114.024615, 22.5570745], [114.0246721, 22.5570857], [114.0246559, 22.557156], [114.0244185, 22.5571093]]]]}}, {"type": "Feature", "id": "way/1432192900", "properties": {"tags": {"addr:housename": "特发小区", "addr:housename:en": "Tefa Estate", "addr:housename:zh": "特发小区", "building": "apartments", "building:levels": "7", "name": "8栋", "name:en": "Block 8", "name:zh": "8栋"}, "heightStatus": "levels_only_unverified", "source": "OpenStreetMap", "license": "ODbL-1.0"}, "geometry": {"type": "MultiPolygon", "coordinates": [[[[114.0242973, 22.5577], [114.0243135, 22.5576296], [114.0243706, 22.5576409], [114.0243761, 22.5576172], [114.024338, 22.5576097], [114.0243531, 22.5575446], [114.0245524, 22.5575839], [114.0245373, 22.557649], [114.0244993, 22.5576415], [114.0244938, 22.5576652], [114.0245509, 22.5576764], [114.0245346, 22.5577467], [114.0242973, 22.5577]]]]}}, {"type": "Feature", "id": "way/1432192901", "properties": {"tags": {"addr:housename": "特发小区", "addr:housename:en": "Tefa Estate", "addr:housename:zh": "特发小区", "building": "apartments", "building:levels": "7", "name": "7栋", "name:en": "Block 7", "name:zh": "7栋"}, "heightStatus": "levels_only_unverified", "source": "OpenStreetMap", "license": "ODbL-1.0"}, "geometry": {"type": "MultiPolygon", "coordinates": [[[[114.0242366, 22.5579947], [114.0242529, 22.5579244], [114.02431, 22.5579356], [114.0243154, 22.557912], [114.0242774, 22.5579045], [114.0242924, 22.5578393], [114.0244917, 22.5578786], [114.0244767, 22.5579437], [114.0244386, 22.5579362], [114.0244331, 22.5579599], [114.0244902, 22.5579712], [114.024474, 22.5580415], [114.0242366, 22.5579947]]]]}}, {"type": "Feature", "id": "way/1432192913", "properties": {"tags": {"addr:housename": "特发小区", "addr:housename:en": "Tefa Estate", "addr:housename:zh": "特发小区", "building": "apartments", "building:levels": "7", "name": "5栋", "name:en": "Block 5", "name:zh": "5栋"}, "heightStatus": "levels_only_unverified", "source": "OpenStreetMap", "license": "ODbL-1.0"}, "geometry": {"type": "MultiPolygon", "coordinates": [[[[114.0242345, 22.5582488], [114.02431, 22.5581549], [114.0245865, 22.5583445], [114.024511, 22.5584384], [114.0242345, 22.5582488]]]]}}, {"type": "Feature", "id": "way/1432192914", "properties": {"tags": {"addr:housename": "特发小区", "addr:housename:en": "Tefa Estate", "addr:housename:zh": "特发小区", "building": "apartments", "building:levels": "7", "name": "6栋", "name:en": "Block 6", "name:zh": "6栋"}, "heightStatus": "levels_only_unverified", "source": "OpenStreetMap", "license": "ODbL-1.0"}, "geometry": {"type": "MultiPolygon", "coordinates": [[[[114.0240677, 22.55845], [114.0241433, 22.5583561], [114.0244198, 22.5585458], [114.0243442, 22.5586397], [114.0240677, 22.55845]]]]}}, {"type": "Feature", "id": "way/1432192916", "properties": {"tags": {"addr:housename": "特发小区", "addr:housename:en": "Tefa Estate", "addr:housename:zh": "特发小区", "building": "apartments", "building:levels": "7", "name": "4栋", "name:en": "Block 4", "name:zh": "4栋"}, "heightStatus": "levels_only_unverified", "source": "OpenStreetMap", "license": "ODbL-1.0"}, "geometry": {"type": "MultiPolygon", "coordinates": [[[[114.0243982, 22.558671], [114.0244628, 22.5585907], [114.0248571, 22.5588611], [114.0247925, 22.5589415], [114.0243982, 22.558671]]]]}}, {"type": "Feature", "id": "way/1432192917", "properties": {"tags": {"addr:housename": "特发小区", "addr:housename:en": "Tefa Estate", "addr:housename:zh": "特发小区", "building": "apartments", "building:levels": "7", "name": "3栋", "name:en": "Block 3", "name:zh": "3栋"}, "heightStatus": "levels_only_unverified", "source": "OpenStreetMap", "license": "ODbL-1.0"}, "geometry": {"type": "MultiPolygon", "coordinates": [[[[114.0246035, 22.5584206], [114.0246681, 22.5583402], [114.0250106, 22.5585751], [114.0249459, 22.5586554], [114.0246035, 22.5584206]]]]}}]}