{"type": "FeatureCollection", "features": [{"type": "Feature", "id": "way/865658017", "properties": {"tags": {"building": "train_station", "building:levels": "0", "building:levels:underground": "3", "layer": "-1", "location": "underground", "name": "安托山站", "name:en": "Antuo Hill Station", "name:zh": "安托山站"}, "heightStatus": "levels_only_unverified", "source": "OpenStreetMap", "license": "ODbL-1.0"}, "geometry": {"type": "MultiPolygon", "coordinates": [[[[114.0006046, 22.5514616], [114.0006049, 22.5513784], [114.000893, 22.5513792], [114.0008931, 22.5513365], [114.0010761, 22.551337], [114.0010775, 22.5509207], [114.000969, 22.5509204], [114.0009701, 22.5505849], [114.0018762, 22.5505874], [114.001876, 22.5506612], [114.0013759, 22.5506598], [114.0013731, 22.5515213], [114.0022548, 22.5515237], [114.0022538, 22.5518307], [114.0015335, 22.5518287], [114.0015321, 22.5522513], [114.0011298, 22.5522502], [114.0011311, 22.5518403], [114.001091, 22.5518401], [114.0010895, 22.5523097], [114.0010031, 22.5523095], [114.0010044, 22.5519096], [114.0009466, 22.5519095], [114.0009468, 22.55184], [114.0006478, 22.5518392], [114.0006489, 22.5514951], [114.0007468, 22.5514954], [114.000747, 22.551462], [114.0006046, 22.5514616]]]]}}, {"type": "Feature", "id": "way/1202916677", "properties": {"tags": {"building": "industrial", "cooling:method": "mechanical_draft", "man_made": "cooling"}, "heightStatus": "unknown", "source": "OpenStreetMap", "license": "ODbL-1.0"}, "geometry": {"type": "MultiPolygon", "coordinates": [[[[113.9974764, 22.5492125], [113.9975989, 22.5483234], [113.9977841, 22.5483451], [113.9976614, 22.5492342], [113.9974764, 22.5492125]]]]}}, {"type": "Feature", "id": "way/1202916678", "properties": {"tags": {"building": "industrial", "cooling:method": "mechanical_draft", "man_made": "cooling"}, "heightStatus": "unknown", "source": "OpenStreetMap", "license": "ODbL-1.0"}, "geometry": {"type": "MultiPolygon", "coordinates": [[[[113.997588, 22.5482037], [113.997609, 22.5480488], [113.9982661, 22.548125], [113.998245, 22.5482799], [113.997588, 22.5482037]]]]}}, {"type": "Feature", "id": "way/1215939858", "properties": {"tags": {"access": "students", "building": "yes", "building:levels": "14", "name": "羲和居", "name:en": "Helius Residence", "name:zh": "羲和居"}, "heightStatus": "levels_only_unverified", "source": "OpenStreetMap", "license": "ODbL-1.0"}, "geometry": {"type": "MultiPolygon", "coordinates": [[[[114.0028891, 22.5495555], [114.003637, 22.5495649], [114.0037501, 22.5495678], [114.003744, 22.5497781], [114.0028892, 22.5497746], [114.0028891, 22.5495555]]]]}}, {"type": "Feature", "id": "way/1215939859", "properties": {"tags": {"building": "yes", "name": "望舒居", "name:en": "Selene Apartment", "name:zh": "望舒居"}, "heightStatus": "unknown", "source": "OpenStreetMap", "license": "ODbL-1.0"}, "geometry": {"type": "MultiPolygon", "coordinates": [[[[114.0021778, 22.5497336], [114.0021793, 22.5496412], [114.0022311, 22.5496419], [114.0022316, 22.5496127], [114.00235, 22.5496143], [114.0023495, 22.5496444], [114.0023998, 22.549645], [114.0024003, 22.5496145], [114.0025533, 22.5496165], [114.0025529, 22.5496477], [114.002618, 22.5496486], [114.0026185, 22.5496179], [114.0027629, 22.5496198], [114.0027624, 22.5496532], [114.0028059, 22.5496538], [114.0028045, 22.5497421], [114.0021778, 22.5497336]]]]}}, {"type": "Feature", "id": "way/1215939860", "properties": {"tags": {"building": "school", "building:levels": "9", "name": "颂雅楼", "name:en": "Auster Building", "name:zh": "颂雅楼"}, "heightStatus": "levels_only_unverified", "source": "OpenStreetMap", "license": "ODbL-1.0"}, "geometry": {"type": "MultiPolygon", "coordinates": [[[[114.0021009, 22.5488701], [114.0021025, 22.5487608], [114.0035843, 22.5487788], [114.0037497, 22.5487808], [114.0037481, 22.5488904], [114.0021009, 22.5488701]]]]}}, {"type": "Feature", "id": "way/1215939861", "properties": {"tags": {"building": "school", "building:levels": "9", "name": "在兮楼", "name:en": "Boreas Building", "name:zh": "在兮楼"}, "heightStatus": "levels_only_unverified", "source": "OpenStreetMap", "license": "ODbL-1.0"}, "geometry": {"type": "MultiPolygon", "coordinates": [[[[114.0023588, 22.5491602], [114.0023612, 22.5490382], [114.0037398, 22.5490615], [114.0037374, 22.5491833], [114.0023588, 22.5491602]]]]}}, {"type": "Feature", "id": "way/1244517768", "properties": {"tags": {"amenity": "police", "building": "yes", "name": "深圳市公安局经济犯罪侦查局"}, "heightStatus": "unknown", "source": "OpenStreetMap", "license": "ODbL-1.0"}, "geometry": {"type": "MultiPolygon", "coordinates": [[[[114.0043354, 22.5485426], [114.0043363, 22.5484017], [114.0047643, 22.548404], [114.0047639, 22.5484708], [114.0047437, 22.5484707], [114.0047433, 22.5485386], [114.0044581, 22.548537], [114.0044562, 22.5488326], [114.0043947, 22.5488323], [114.0043949, 22.5487966], [114.0043561, 22.5487964], [114.0043574, 22.5485934], [114.0044116, 22.5485937], [114.0044119, 22.548543], [114.0043354, 22.5485426]]]]}}, {"type": "Feature", "id": "way/1244517769", "properties": {"tags": {"building": "yes"}, "heightStatus": "unknown", "source": "OpenStreetMap", "license": "ODbL-1.0"}, "geometry": {"type": "MultiPolygon", "coordinates": [[[[114.0048607, 22.5489588], [114.0048614, 22.5488873], [114.0049063, 22.5488876], [114.0049068, 22.5488331], [114.0053844, 22.5488369], [114.0053839, 22.5488944], [114.0054118, 22.5488946], [114.0054112, 22.5489631], [114.0048607, 22.5489588]]]]}}, {"type": "Feature", "id": "way/1244599872", "properties": {"tags": {"building": "apartments"}, "heightStatus": "unknown", "source": "OpenStreetMap", "license": "ODbL-1.0"}, "geometry": {"type": "MultiPolygon", "coordinates": [[[[114.0027607, 22.5530104], [114.0027645, 22.5528662], [114.0030441, 22.5528726], [114.0030403, 22.5530168], [114.0027607, 22.5530104]]]]}}, {"type": "Feature", "id": "way/1244599873", "properties": {"tags": {"building": "apartments"}, "heightStatus": "unknown", "source": "OpenStreetMap", "license": "ODbL-1.0"}, "geometry": {"type": "MultiPolygon", "coordinates": [[[[114.0027593, 22.5525658], [114.0027632, 22.5524215], [114.0030428, 22.5524279], [114.0030389, 22.5525721], [114.0027593, 22.5525658]]]]}}, {"type": "Feature", "id": "way/1244599874", "properties": {"tags": {"building": "apartments"}, "heightStatus": "unknown", "source": "OpenStreetMap", "license": "ODbL-1.0"}, "geometry": {"type": "MultiPolygon", "coordinates": [[[[114.0033166, 22.5525849], [114.0033205, 22.5524407], [114.0036001, 22.5524471], [114.0035962, 22.5525913], [114.0033166, 22.5525849]]]]}}, {"type": "Feature", "id": "way/1244599875", "properties": {"tags": {"building": "apartments", "building:levels": "29"}, "heightStatus": "levels_only_unverified", "source": "OpenStreetMap", "license": "ODbL-1.0"}, "geometry": {"type": "MultiPolygon", "coordinates": [[[[114.003318, 22.5530296], [114.0033218, 22.5528853], [114.0036014, 22.5528917], [114.0035976, 22.5530359], [114.003318, 22.5530296]]]]}}, {"type": "Feature", "id": "way/1244599876", "properties": {"tags": {"building": "apartments", "building:levels": "36"}, "heightStatus": "levels_only_unverified", "source": "OpenStreetMap", "license": "ODbL-1.0"}, "geometry": {"type": "MultiPolygon", "coordinates": [[[[114.0027197, 22.5521286], [114.0027252, 22.5518457], [114.0028886, 22.5518485], [114.002883, 22.5521313], [114.0027197, 22.5521286]]]]}}, {"type": "Feature", "id": "way/1244599877", "properties": {"tags": {"building": "apartments", "building:levels": "36"}, "heightStatus": "levels_only_unverified", "source": "OpenStreetMap", "license": "ODbL-1.0"}, "geometry": {"type": "MultiPolygon", "coordinates": [[[[114.0031765, 22.5519257], [114.0031767, 22.55186], [114.0036629, 22.5518614], [114.0036623, 22.5520454], [114.0035097, 22.5520449], [114.00351, 22.5519388], [114.0033586, 22.5519384], [114.0033585, 22.5519945], [114.0032832, 22.5519944], [114.0032834, 22.551926], [114.0031765, 22.5519257]]]]}}, {"type": "Feature", "id": "way/1244599890", "properties": {"tags": {"building": "yes"}, "heightStatus": "unknown", "source": "OpenStreetMap", "license": "ODbL-1.0"}, "geometry": {"type": "MultiPolygon", "coordinates": [[[[114.0041965, 22.5535043], [114.004197, 22.553356], [114.0045157, 22.5533571], [114.0045151, 22.5535054], [114.0041965, 22.5535043]]]]}}, {"type": "Feature", "id": "way/1244599891", "properties": {"tags": {"building": "yes"}, "heightStatus": "unknown", "source": "OpenStreetMap", "license": "ODbL-1.0"}, "geometry": {"type": "MultiPolygon", "coordinates": [[[[114.0050969, 22.553517], [114.0050998, 22.5533682], [114.0054214, 22.5533736], [114.0054185, 22.5535224], [114.0050969, 22.553517]]]]}}, {"type": "Feature", "id": "way/1244599892", "properties": {"tags": {"building": "yes"}, "heightStatus": "unknown", "source": "OpenStreetMap", "license": "ODbL-1.0"}, "geometry": {"type": "MultiPolygon", "coordinates": [[[[114.0046416, 22.5535181], [114.0046433, 22.5534222], [114.0050179, 22.5534282], [114.0050162, 22.5535239], [114.0046416, 22.5535181]]]]}}, {"type": "Feature", "id": "way/1244599901", "properties": {"tags": {"addr:housename": "万科·瑧山府", "addr:housename:en": "Vanke Zhenshanfu", "addr:housename:zh": "万科·瑧山府", "building": "apartments", "building:levels": "41", "name": "5栋", "name:en": "Block 5", "name:zh": "5栋"}, "heightStatus": "levels_only_unverified", "source": "OpenStreetMap", "license": "ODbL-1.0"}, "geometry": {"type": "MultiPolygon", "coordinates": [[[[114.0019373, 22.5537927], [114.0019884, 22.5537926], [114.0019883, 22.5537753], [114.0021864, 22.5537746], [114.0021865, 22.5537926], [114.0022317, 22.5537924], [114.0022323, 22.5539206], [114.0021355, 22.5539209], [114.0021357, 22.5539756], [114.0020347, 22.553976], [114.0020344, 22.5539114], [114.0019379, 22.5539118], [114.0019373, 22.5537927]]]]}}, {"type": "Feature", "id": "way/1244599905", "properties": {"tags": {"addr:housename": "万科·瑧山府", "addr:housename:en": "Vanke Zhenshanfu", "addr:housename:zh": "万科·瑧山府", "building": "apartments", "building:levels": "41", "name": "4栋", "name:en": "Block 4", "name:zh": "4栋"}, "heightStatus": "levels_only_unverified", "source": "OpenStreetMap", "license": "ODbL-1.0"}, "geometry": {"type": "MultiPolygon", "coordinates": [[[[114.0028384, 22.5538023], [114.0028895, 22.5538021], [114.0028894, 22.5537848], [114.0030874, 22.5537841], [114.0030875, 22.5538021], [114.0031328, 22.5538019], [114.0031334, 22.5539301], [114.0030365, 22.5539305], [114.0030368, 22.5539852], [114.0029357, 22.5539856], [114.0029354, 22.5539209], [114.0028389, 22.5539213], [114.0028384, 22.5538023]]]]}}, {"type": "Feature", "id": "way/1244599906", "properties": {"tags": {"addr:housename": "万科·瑧山府", "addr:housename:en": "Vanke Zhenshanfu", "addr:housename:zh": "万科·瑧山府", "building": "apartments", "name": "7栋", "name:en": "Block 7", "name:zh": "7栋"}, "heightStatus": "unknown", "source": "OpenStreetMap", "license": "ODbL-1.0"}, "geometry": {"type": "MultiPolygon", "coordinates": [[[[114.0018176, 22.5534175], [114.0018194, 22.5533427], [114.0023143, 22.553353], [114.0023125, 22.553427], [114.0020855, 22.5534222], [114.0020845, 22.5534644], [114.0020332, 22.5534634], [114.0020342, 22.553422], [114.0018176, 22.5534175]]]]}}, {"type": "Feature", "id": "way/1244599907", "properties": {"tags": {"building": "yes"}, "heightStatus": "unknown", "source": "OpenStreetMap", "license": "ODbL-1.0"}, "geometry": {"type": "MultiPolygon", "coordinates": [[[[114.002313, 22.5538237], [114.0023171, 22.553687], [114.0027478, 22.553698], [114.0027437, 22.5538346], [114.002313, 22.5538237]]]]}}, {"type": "Feature", "id": "way/1244599908", "properties": {"tags": {"addr:housename": "万科·瑧山府", "addr:housename:en": "Vanke Zhenshanfu", "addr:housename:zh": "万科·瑧山府", "building": "apartments", "name": "6栋", "name:en": "Block 6", "name:zh": "6栋"}, "heightStatus": "unknown", "source": "OpenStreetMap", "license": "ODbL-1.0"}, "geometry": {"type": "MultiPolygon", "coordinates": [[[[114.0014755, 22.5536127], [114.0014767, 22.5535336], [114.001497, 22.5535338], [114.0014983, 22.5534404], [114.0017345, 22.5534433], [114.0017331, 22.5535403], [114.0017464, 22.5535405], [114.0017453, 22.5536145], [114.0016596, 22.5536135], [114.0016594, 22.5536288], [114.0015585, 22.5536276], [114.0015587, 22.5536137], [114.0014755, 22.5536127]]]]}}, {"type": "Feature", "id": "way/1244599909", "properties": {"tags": {"addr:housename": "万科·瑧山府", "addr:housename:en": "Vanke Zhenshanfu", "addr:housename:zh": "万科·瑧山府", "building": "apartments", "building:levels": "40", "name": "9栋", "name:en": "Block 9", "name:zh": "9栋"}, "heightStatus": "levels_only_unverified", "source": "OpenStreetMap", "license": "ODbL-1.0"}, "geometry": {"type": "MultiPolygon", "coordinates": [[[[114.0033767, 22.5536489], [114.0033778, 22.5535698], [114.0033981, 22.5535701], [114.0033995, 22.5534766], [114.0036357, 22.5534795], [114.0036343, 22.5535765], [114.0036475, 22.5535767], [114.0036464, 22.5536508], [114.0035608, 22.5536497], [114.0035605, 22.553665], [114.0034596, 22.5536638], [114.0034598, 22.5536499], [114.0033767, 22.5536489]]]]}}, {"type": "Feature", "id": "way/1244599910", "properties": {"tags": {"addr:housename": "万科·瑧山府", "addr:housename:en": "Vanke Zhenshanfu", "addr:housename:zh": "万科·瑧山府", "building": "apartments", "name": "8栋", "name:en": "Block 8", "name:zh": "8栋"}, "heightStatus": "unknown", "source": "OpenStreetMap", "license": "ODbL-1.0"}, "geometry": {"type": "MultiPolygon", "coordinates": [[[[114.0027942, 22.5534334], [114.002796, 22.5533585], [114.0032909, 22.5533689], [114.0032891, 22.5534429], [114.0030622, 22.5534381], [114.0030611, 22.5534803], [114.0030098, 22.5534793], [114.0030108, 22.5534379], [114.0027942, 22.5534334]]]]}}, {"type": "Feature", "id": "way/1244599914", "properties": {"tags": {"building": "apartments"}, "heightStatus": "unknown", "source": "OpenStreetMap", "license": "ODbL-1.0"}, "geometry": {"type": "MultiPolygon", "coordinates": [[[[113.999178, 22.5507382], [113.9991781, 22.5506541], [113.9994738, 22.5506545], [113.9994736, 22.5507386], [113.999178, 22.5507382]]]]}}, {"type": "Feature", "id": "way/1244599915", "properties": {"tags": {"building": "apartments"}, "heightStatus": "unknown", "source": "OpenStreetMap", "license": "ODbL-1.0"}, "geometry": {"type": "MultiPolygon", "coordinates": [[[[113.9991826, 22.5508816], [113.9991828, 22.5507975], [113.9994785, 22.5507979], [113.9994783, 22.550882], [113.9991826, 22.5508816]]]]}}, {"type": "Feature", "id": "way/1244599916", "properties": {"tags": {"building": "apartments"}, "heightStatus": "unknown", "source": "OpenStreetMap", "license": "ODbL-1.0"}, "geometry": {"type": "MultiPolygon", "coordinates": [[[[113.9995341, 22.5508956], [113.9995342, 22.5508115], [113.9998299, 22.5508119], [113.9998297, 22.550896], [113.9995341, 22.5508956]]]]}}, {"type": "Feature", "id": "way/1244599917", "properties": {"tags": {"building": "apartments"}, "heightStatus": "unknown", "source": "OpenStreetMap", "license": "ODbL-1.0"}, "geometry": {"type": "MultiPolygon", "coordinates": [[[[113.9995294, 22.5507522], [113.9995295, 22.5506681], [113.9998252, 22.5506685], [113.9998251, 22.5507526], [113.9995294, 22.5507522]]]]}}, {"type": "Feature", "id": "way/1244599918", "properties": {"tags": {"building": "apartments"}, "heightStatus": "unknown", "source": "OpenStreetMap", "license": "ODbL-1.0"}, "geometry": {"type": "MultiPolygon", "coordinates": [[[[113.9998855, 22.5509107], [113.9998856, 22.5508266], [114.0001813, 22.550827], [114.0001812, 22.5509111], [113.9998855, 22.5509107]]]]}}, {"type": "Feature", "id": "way/1244599919", "properties": {"tags": {"building": "apartments"}, "heightStatus": "unknown", "source": "OpenStreetMap", "license": "ODbL-1.0"}, "geometry": {"type": "MultiPolygon", "coordinates": [[[[113.9998808, 22.5507673], [113.9998809, 22.5506832], [114.0001766, 22.5506836], [114.0001765, 22.5507677], [113.9998808, 22.5507673]]]]}}, {"type": "Feature", "id": "way/1244599920", "properties": {"tags": {"building": "apartments"}, "heightStatus": "unknown", "source": "OpenStreetMap", "license": "ODbL-1.0"}, "geometry": {"type": "MultiPolygon", "coordinates": [[[[114.0002675, 22.5511509], [114.0002765, 22.5506558], [114.0004014, 22.5506578], [114.0003925, 22.5511528], [114.0002675, 22.5511509]]]]}}, {"type": "Feature", "id": "way/1244599921", "properties": {"tags": {"building": "apartments", "name": "A栋"}, "heightStatus": "unknown", "source": "OpenStreetMap", "license": "ODbL-1.0"}, "geometry": {"type": "MultiPolygon", "coordinates": [[[[113.9991684, 22.5512727], [113.9992693, 22.5511823], [113.999179, 22.5510963], [113.9992436, 22.5510384], [113.9993234, 22.5511144], [113.9994067, 22.5510399], [113.9994739, 22.5511038], [113.9993827, 22.5511854], [113.9994712, 22.5512697], [113.9994077, 22.5513266], [113.9993211, 22.551244], [113.9992268, 22.5513284], [113.9991684, 22.5512727]]]]}}, {"type": "Feature", "id": "way/1244599922", "properties": {"tags": {"building": "apartments", "name": "B栋"}, "heightStatus": "unknown", "source": "OpenStreetMap", "license": "ODbL-1.0"}, "geometry": {"type": "MultiPolygon", "coordinates": [[[[113.9995888, 22.5513434], [113.9995936, 22.5512484], [113.999702, 22.551253], [113.9997088, 22.551119], [113.9998188, 22.5511238], [113.9998117, 22.5512637], [114.0000121, 22.5512723], [114.0000178, 22.5511591], [114.0000996, 22.5511626], [114.0000938, 22.551278], [114.0001971, 22.5512825], [114.0001927, 22.5513696], [113.9995888, 22.5513434]]]]}}, {"type": "Feature", "id": "way/1244599930", "properties": {"tags": {"building": "yes"}, "heightStatus": "unknown", "source": "OpenStreetMap", "license": "ODbL-1.0"}, "geometry": {"type": "MultiPolygon", "coordinates": [[[[114.004972, 22.5530834], [114.0049735, 22.5529896], [114.0050019, 22.5529899], [114.0050027, 22.5529352], [114.0059964, 22.5529485], [114.0059955, 22.5530061], [114.0060269, 22.5530065], [114.0060255, 22.5530922], [114.0059959, 22.5530918], [114.0059948, 22.5531545], [114.0050009, 22.5531407], [114.0050018, 22.5530838], [114.004972, 22.5530834]]]]}}, {"type": "Feature", "id": "way/1244599932", "properties": {"tags": {"building": "yes"}, "heightStatus": "unknown", "source": "OpenStreetMap", "license": "ODbL-1.0"}, "geometry": {"type": "MultiPolygon", "coordinates": [[[[114.0042939, 22.5521308], [114.0042953, 22.5520671], [114.0045775, 22.5520724], [114.0045762, 22.552136], [114.0042939, 22.5521308]]]]}}, {"type": "Feature", "id": "way/1244599933", "properties": {"tags": {"building": "yes"}, "heightStatus": "unknown", "source": "OpenStreetMap", "license": "ODbL-1.0"}, "geometry": {"type": "MultiPolygon", "coordinates": [[[[114.004211, 22.5531346], [114.0042122, 22.5530467], [114.0049475, 22.5530548], [114.0049464, 22.5531428], [114.004211, 22.5531346]]]]}}, {"type": "Feature", "id": "way/1244599934", "properties": {"tags": {"building": "yes"}, "heightStatus": "unknown", "source": "OpenStreetMap", "license": "ODbL-1.0"}, "geometry": {"type": "MultiPolygon", "coordinates": [[[[114.0042109, 22.5529127], [114.0042159, 22.5527442], [114.0047756, 22.5527584], [114.0047751, 22.5527778], [114.0048722, 22.5527802], [114.0048684, 22.55291], [114.0047798, 22.5529078], [114.0047792, 22.5529271], [114.0042109, 22.5529127]]]]}}, {"type": "Feature", "id": "way/1273285324", "properties": {"tags": {"building": "hospital"}, "heightStatus": "unknown", "source": "OpenStreetMap", "license": "ODbL-1.0"}, "geometry": {"type": "MultiPolygon", "coordinates": [[[[113.9978389, 22.5474061], [113.9978858, 22.5470842], [113.9981339, 22.547115], [113.9981127, 22.5472608], [113.9986949, 22.547333], [113.9986692, 22.5475092], [113.9978389, 22.5474061]]]]}}, {"type": "Feature", "id": "way/1314571965", "properties": {"tags": {"access": "customers", "building": "yes", "leisure": "sports_hall", "name": "规量体育馆", "name:en": "Gallium Sports Hall", "opening_hours": "off-campus time", "operator": "SCIE"}, "heightStatus": "unknown", "source": "OpenStreetMap", "license": "ODbL-1.0"}, "geometry": {"type": "MultiPolygon", "coordinates": [[[[114.002169, 22.5495824], [114.0021757, 22.5492493], [114.0026262, 22.5492555], [114.0026208, 22.5495869], [114.002169, 22.5495824]]]]}}, {"type": "Feature", "id": "way/1333330694", "properties": {"tags": {"building": "yes"}, "heightStatus": "unknown", "source": "OpenStreetMap", "license": "ODbL-1.0"}, "geometry": {"type": "MultiPolygon", "coordinates": [[[[114.0038031, 22.5460719], [114.0038324, 22.5459534], [114.0039332, 22.5459747], [114.0039233, 22.5460149], [114.0041214, 22.5460567], [114.0041337, 22.5460067], [114.0042402, 22.5460291], [114.0042085, 22.5461573], [114.0038031, 22.5460719]]]]}}, {"type": "Feature", "id": "way/1333330697", "properties": {"tags": {"building": "yes"}, "heightStatus": "unknown", "source": "OpenStreetMap", "license": "ODbL-1.0"}, "geometry": {"type": "MultiPolygon", "coordinates": [[[[114.0015055, 22.5460871], [114.0015603, 22.5456943], [114.0023635, 22.5457901], [114.0023086, 22.5461828], [114.0015055, 22.5460871]]]]}}, {"type": "Feature", "id": "way/1333330698", "properties": {"tags": {"building": "yes"}, "heightStatus": "unknown", "source": "OpenStreetMap", "license": "ODbL-1.0"}, "geometry": {"type": "MultiPolygon", "coordinates": [[[[114.0026528, 22.5485189], [114.0026579, 22.5484342], [114.0027906, 22.5484411], [114.0027946, 22.5483747], [114.0029034, 22.5483803], [114.0028996, 22.5484437], [114.0030198, 22.5484498], [114.0030145, 22.5485374], [114.0026528, 22.5485189]]]]}}, {"type": "Feature", "id": "way/1333330699", "properties": {"tags": {"building": "yes"}, "heightStatus": "unknown", "source": "OpenStreetMap", "license": "ODbL-1.0"}, "geometry": {"type": "MultiPolygon", "coordinates": [[[[114.0021336, 22.5484739], [114.0021514, 22.5483061], [114.0025436, 22.5483416], [114.0025258, 22.5485093], [114.0024057, 22.5484985], [114.0024098, 22.5484594], [114.0022775, 22.5484474], [114.0022733, 22.5484866], [114.0021336, 22.5484739]]]]}}, {"type": "Feature", "id": "way/1333330700", "properties": {"tags": {"building": "yes"}, "heightStatus": "unknown", "source": "OpenStreetMap", "license": "ODbL-1.0"}, "geometry": {"type": "MultiPolygon", "coordinates": [[[[114.0021635, 22.5481179], [114.0021965, 22.5477962], [114.0023399, 22.5478087], [114.0023069, 22.5481305], [114.0021635, 22.5481179]]]]}}, {"type": "Feature", "id": "way/1333330701", "properties": {"tags": {"building": "yes"}, "heightStatus": "unknown", "source": "OpenStreetMap", "license": "ODbL-1.0"}, "geometry": {"type": "MultiPolygon", "coordinates": [[[[114.0022548, 22.5475459], [114.0022927, 22.5472977], [114.0027236, 22.5473539], [114.0026857, 22.5476022], [114.0022548, 22.5475459]]]]}}, {"type": "Feature", "id": "way/1333330702", "properties": {"tags": {"building": "yes"}, "heightStatus": "unknown", "source": "OpenStreetMap", "license": "ODbL-1.0"}, "geometry": {"type": "MultiPolygon", "coordinates": [[[[114.0021529, 22.55017], [114.0021535, 22.5499947], [114.0025487, 22.549996], [114.0025481, 22.5501712], [114.0021529, 22.55017]]]]}}, {"type": "Feature", "id": "way/1333330703", "properties": {"tags": {"building": "yes"}, "heightStatus": "unknown", "source": "OpenStreetMap", "license": "ODbL-1.0"}, "geometry": {"type": "MultiPolygon", "coordinates": [[[[114.0014871, 22.550169], [114.0014878, 22.5499938], [114.001883, 22.549995], [114.0018823, 22.5501703], [114.0014871, 22.550169]]]]}}, {"type": "Feature", "id": "way/1333330704", "properties": {"tags": {"addr:housename": "雅福居", "addr:housename:en": "Yafu Residence", "addr:housename:zh": "雅福居", "building": "commercial", "name": "C栋", "name:en": "Block C", "name:zh": "C栋"}, "heightStatus": "unknown", "source": "OpenStreetMap", "license": "ODbL-1.0"}, "geometry": {"type": "MultiPolygon", "coordinates": [[[[114.0019522, 22.5514164], [114.0019535, 22.5513243], [114.0020284, 22.5513252], [114.0020294, 22.5512552], [114.0021228, 22.5512564], [114.0021217, 22.5513349], [114.0022679, 22.5513367], [114.0022692, 22.5512492], [114.0023743, 22.5512505], [114.0023733, 22.5513218], [114.0024511, 22.5513228], [114.0024497, 22.5514224], [114.0019522, 22.5514164]]]]}}, {"type": "Feature", "id": "way/1333330705", "properties": {"tags": {"addr:housename": "雅福居", "addr:housename:en": "Yafu Residence", "addr:housename:zh": "雅福居", "building": "commercial", "name": "B栋", "name:en": "Block B", "name:zh": "B栋"}, "heightStatus": "unknown", "source": "OpenStreetMap", "license": "ODbL-1.0"}, "geometry": {"type": "MultiPolygon", "coordinates": [[[[114.0019569, 22.5509196], [114.0019582, 22.5508275], [114.0020331, 22.5508284], [114.0020341, 22.5507584], [114.0021275, 22.5507596], [114.0021264, 22.5508381], [114.0022726, 22.5508399], [114.0022739, 22.5507524], [114.002379, 22.5507537], [114.002378, 22.550825], [114.0024558, 22.550826], [114.0024544, 22.5509256], [114.0019569, 22.5509196]]]]}}, {"type": "Feature", "id": "way/1333330706", "properties": {"tags": {"addr:housename": "雅福居", "addr:housename:en": "Yafu Residence", "addr:housename:zh": "雅福居", "building": "commercial", "name": "A栋", "name:en": "Block A", "name:zh": "A栋"}, "heightStatus": "unknown", "source": "OpenStreetMap", "license": "ODbL-1.0"}, "geometry": {"type": "MultiPolygon", "coordinates": [[[[114.0015902, 22.5509044], [114.0015911, 22.5508111], [114.0016559, 22.5508116], [114.0016565, 22.5507506], [114.0017509, 22.5507514], [114.0017502, 22.550818], [114.001831, 22.5508187], [114.0018302, 22.5509065], [114.0015902, 22.5509044]]]]}}, {"type": "Feature", "id": "way/1333330707", "properties": {"tags": {"addr:housename": "万科·瑧山府（三期）", "addr:housename:en": "Vanke Zhenshanfu (Phase 3)", "addr:housename:zh": "万科·瑧山府（三期）", "building": "commercial", "building:levels": "38", "layer": "1", "name": "D座", "name:en": "Block D", "name:zh": "D座"}, "heightStatus": "levels_only_unverified", "source": "OpenStreetMap", "license": "ODbL-1.0"}, "geometry": {"type": "MultiPolygon", "coordinates": [[[[114.002083, 22.5523919], [114.0020847, 22.5522895], [114.0023341, 22.552293], [114.0023324, 22.5523955], [114.0022853, 22.5523948], [114.0022845, 22.5524453], [114.0021211, 22.552443], [114.0021219, 22.5523925], [114.002083, 22.5523919]]]]}}, {"type": "Feature", "id": "way/1333330708", "properties": {"tags": {"addr:housename": "万科·瑧山府（三期）", "addr:housename:en": "Vanke Zhenshanfu (Phase 3)", "addr:housename:zh": "万科·瑧山府（三期）", "building": "commercial", "building:levels": "38", "layer": "1", "name": "A座", "name:en": "Block A", "name:zh": "A座"}, "heightStatus": "levels_only_unverified", "source": "OpenStreetMap", "license": "ODbL-1.0"}, "geometry": {"type": "MultiPolygon", "coordinates": [[[[114.0016396, 22.5528614], [114.0016413, 22.5527589], [114.0021401, 22.552766], [114.0021384, 22.5528684], [114.0020995, 22.5528679], [114.0020986, 22.5529184], [114.0019352, 22.552916], [114.0019361, 22.5528656], [114.0018419, 22.5528642], [114.0018411, 22.5529147], [114.0016777, 22.5529124], [114.0016785, 22.5528619], [114.0016396, 22.5528614]]]]}}, {"type": "Feature", "id": "way/1343470528", "properties": {"tags": {"building": "yes"}, "heightStatus": "unknown", "source": "OpenStreetMap", "license": "ODbL-1.0"}, "geometry": {"type": "MultiPolygon", "coordinates": [[[[114.003415, 22.5462614], [114.0034305, 22.5462016], [114.0039065, 22.5463068], [114.003891, 22.5463666], [114.003415, 22.5462614]]]]}}, {"type": "Feature", "id": "way/1343470529", "properties": {"tags": {"building": "yes"}, "heightStatus": "unknown", "source": "OpenStreetMap", "license": "ODbL-1.0"}, "geometry": {"type": "MultiPolygon", "coordinates": [[[[114.0036196, 22.5461594], [114.0036812, 22.5458882], [114.0037636, 22.5459042], [114.0037019, 22.5461754], [114.0036196, 22.5461594]]]]}}, {"type": "Feature", "id": "way/1343470530", "properties": {"tags": {"building": "yes"}, "heightStatus": "unknown", "source": "OpenStreetMap", "license": "ODbL-1.0"}, "geometry": {"type": "MultiPolygon", "coordinates": [[[[114.0040002, 22.5455082], [114.0040179, 22.5454336], [114.0041774, 22.5454658], [114.0041598, 22.5455404], [114.0040002, 22.5455082]]]]}}, {"type": "Feature", "id": "way/1343470531", "properties": {"tags": {"building": "yes"}, "heightStatus": "unknown", "source": "OpenStreetMap", "license": "ODbL-1.0"}, "geometry": {"type": "MultiPolygon", "coordinates": [[[[114.0043149, 22.5456395], [114.0043357, 22.5455513], [114.0046562, 22.5456157], [114.0046354, 22.5457039], [114.0043149, 22.5456395]]]]}}, {"type": "Feature", "id": "way/1343470532", "properties": {"tags": {"building": "yes"}, "heightStatus": "unknown", "source": "OpenStreetMap", "license": "ODbL-1.0"}, "geometry": {"type": "MultiPolygon", "coordinates": [[[[114.0041868, 22.5459415], [114.0042499, 22.5456454], [114.0043283, 22.5456597], [114.0042653, 22.5459557], [114.0041868, 22.5459415]]]]}}, {"type": "Feature", "id": "way/1343470533", "properties": {"tags": {"building": "yes"}, "heightStatus": "unknown", "source": "OpenStreetMap", "license": "ODbL-1.0"}, "geometry": {"type": "MultiPolygon", "coordinates": [[[[114.0037, 22.5458547], [114.0037724, 22.5455265], [114.0038759, 22.545546], [114.0038035, 22.5458742], [114.0037, 22.5458547]]]]}}, {"type": "Feature", "id": "way/1343470534", "properties": {"tags": {"building": "yes"}, "heightStatus": "unknown", "source": "OpenStreetMap", "license": "ODbL-1.0"}, "geometry": {"type": "MultiPolygon", "coordinates": [[[[114.0034197, 22.5461235], [114.0034881, 22.5457705], [114.0036703, 22.5458006], [114.0036019, 22.5461536], [114.0034197, 22.5461235]]]]}}, {"type": "Feature", "id": "way/1347317197", "properties": {"tags": {"building": "yes"}, "heightStatus": "unknown", "source": "OpenStreetMap", "license": "ODbL-1.0"}, "geometry": {"type": "MultiPolygon", "coordinates": [[[[114.0049298, 22.5511609], [114.0049311, 22.5509577], [114.0053844, 22.5509602], [114.0053831, 22.5511634], [114.0049298, 22.5511609]]]]}}, {"type": "Feature", "id": "way/1347317198", "properties": {"tags": {"building": "yes"}, "heightStatus": "unknown", "source": "OpenStreetMap", "license": "ODbL-1.0"}, "geometry": {"type": "MultiPolygon", "coordinates": [[[[114.0048373, 22.5506803], [114.0054113, 22.5504846], [114.0054559, 22.5505964], [114.004882, 22.5507921], [114.0048373, 22.5506803]]]]}}, {"type": "Feature", "id": "way/1347317200", "properties": {"tags": {"building": "yes"}, "heightStatus": "unknown", "source": "OpenStreetMap", "license": "ODbL-1.0"}, "geometry": {"type": "MultiPolygon", "coordinates": [[[[114.0049872, 22.5526472], [114.0049902, 22.5524923], [114.0055199, 22.552501], [114.0055169, 22.5526559], [114.0049872, 22.5526472]]]]}}, {"type": "Feature", "id": "way/1347317210", "properties": {"tags": {"building": "yes"}, "heightStatus": "unknown", "source": "OpenStreetMap", "license": "ODbL-1.0"}, "geometry": {"type": "MultiPolygon", "coordinates": [[[[114.0047488, 22.5495965], [114.0052986, 22.5495941], [114.0052997, 22.5498059], [114.0047499, 22.5498084], [114.0047488, 22.5495965]]]]}}, {"type": "Feature", "id": "way/1432673776", "properties": {"tags": {"building": "school"}, "heightStatus": "unknown", "source": "OpenStreetMap", "license": "ODbL-1.0"}, "geometry": {"type": "MultiPolygon", "coordinates": [[[[113.9991101, 22.5526], [113.9991408, 22.5523116], [113.9991629, 22.5520225], [113.9991764, 22.551733], [113.9995785, 22.5517242], [113.9995637, 22.5519154], [113.9993946, 22.5518819], [113.9993709, 22.5518778], [113.9993471, 22.5518815], [113.9993262, 22.5518924], [113.9993105, 22.5519093], [113.999302, 22.5519301], [113.9992765, 22.5520342], [113.9992746, 22.5520513], [113.9992791, 22.5520681], [113.9992896, 22.5520823], [113.9993048, 22.5520924], [113.9993228, 22.552097], [113.9993415, 22.5520955], [113.9995505, 22.5520863], [113.9995344, 22.5522953], [113.9993471, 22.5522584], [113.999328, 22.5522602], [113.9993099, 22.5522664], [113.9992942, 22.5522768], [113.9992819, 22.5522905], [113.9992739, 22.5523066], [113.9992303, 22.5524357], [113.9992309, 22.5524503], [113.9992377, 22.5524651], [113.9992499, 22.5524765], [113.9992658, 22.552483], [113.9995196, 22.5524865], [113.9995103, 22.552607], [113.9991101, 22.5526]]]]}}, {"type": "Feature", "id": "way/1432673777", "properties": {"tags": {"addr:housename": "雅福居", "addr:housename:en": "Yafu Residence", "addr:housename:zh": "雅福居", "building": "commercial", "name": "D栋", "name:en": "Block D", "name:zh": "D栋"}, "heightStatus": "unknown", "source": "OpenStreetMap", "license": "ODbL-1.0"}, "geometry": {"type": "MultiPolygon", "coordinates": [[[[114.0015048, 22.5514041], [114.0015054, 22.551141], [114.0017601, 22.5511414], [114.0017596, 22.5514045], [114.0015048, 22.5514041]]]]}}, {"type": "Feature", "id": "way/1432673778", "properties": {"tags": {"addr:city": "深圳市", "addr:country": "CN", "addr:district": "福田区", "addr:housenumber": "1", "addr:neighbourhood": "香安社区", "addr:postcode": "518040", "addr:province": "广东省", "addr:street": "安托山五路", "addr:subdistrict": "香蜜湖街道", "building": "retail", "name": "万科里·瑧", "name:en": "Vanke Li·Zhen", "name:zh": "万科里·瑧", "name:zh-Hans": "万科里·瑧", "name:zh-Hant": "萬科裏·瑧"}, "heightStatus": "unknown", "source": "OpenStreetMap", "license": "ODbL-1.0"}, "geometry": {"type": "MultiPolygon", "coordinates": [[[[114.0014276, 22.5529138], [114.0014418, 22.5518237], [114.0023699, 22.5518341], [114.0023557, 22.5529241], [114.0014276, 22.5529138]]]]}}, {"type": "Feature", "id": "way/1432673779", "properties": {"tags": {"addr:housename": "万科·瑧山府（三期）", "addr:housename:en": "Vanke Zhenshanfu (Phase 3)", "addr:housename:zh": "万科·瑧山府（三期）", "building": "commercial", "building:levels": "38", "layer": "1", "name": "C座", "name:en": "Block C", "name:zh": "C座"}, "heightStatus": "levels_only_unverified", "source": "OpenStreetMap", "license": "ODbL-1.0"}, "geometry": {"type": "MultiPolygon", "coordinates": [[[[114.0016429, 22.5519471], [114.0016446, 22.5518447], [114.0021434, 22.5518517], [114.0021417, 22.5519542], [114.0021027, 22.5519536], [114.0021019, 22.5520041], [114.0019385, 22.5520018], [114.0019394, 22.5519513], [114.0018452, 22.55195], [114.0018444, 22.5520005], [114.001681, 22.5519981], [114.0016818, 22.5519477], [114.0016429, 22.5519471]]]]}}, {"type": "Feature", "id": "way/1432673780", "properties": {"tags": {"addr:housename": "万科·瑧山府（三期）", "addr:housename:en": "Vanke Zhenshanfu (Phase 3)", "addr:housename:zh": "万科·瑧山府（三期）", "building": "commercial", "building:levels": "38", "layer": "1", "name": "B座", "name:en": "Block B", "name:zh": "B座"}, "heightStatus": "levels_only_unverified", "source": "OpenStreetMap", "license": "ODbL-1.0"}, "geometry": {"type": "MultiPolygon", "coordinates": [[[[114.0014481, 22.5523683], [114.0014498, 22.5522659], [114.0016992, 22.5522694], [114.0016975, 22.5523719], [114.0016504, 22.5523712], [114.0016496, 22.5524217], [114.0014862, 22.5524194], [114.001487, 22.5523689], [114.0014481, 22.5523683]]]]}}, {"type": "Feature", "id": "way/1432673785", "properties": {"tags": {"addr:housename": "海德园", "addr:housename:en": "Haide Garden", "addr:housename:zh": "海德园", "building": "apartments", "building:levels": "42", "name": "5栋A座", "name:en": "Block 5A", "name:zh": "5栋A座"}, "heightStatus": "levels_only_unverified", "source": "OpenStreetMap", "license": "ODbL-1.0"}, "geometry": {"type": "MultiPolygon", "coordinates": [[[[113.9990196, 22.5536479], [113.9990989, 22.5535671], [113.9990425, 22.5533878], [113.9991638, 22.5533553], [113.9992148, 22.5535176], [113.9993317, 22.5535252], [113.999325, 22.5536138], [113.9992267, 22.5536074], [113.9991114, 22.5537248], [113.9990196, 22.5536479]]]]}}, {"type": "Feature", "id": "way/1432673786", "properties": {"tags": {"addr:housename": "海德园", "addr:housename:en": "Haide Garden", "addr:housename:zh": "海德园", "building": "apartments", "building:levels": "42", "name": "5栋B座", "name:en": "Block 5B", "name:zh": "5栋B座"}, "heightStatus": "levels_only_unverified", "source": "OpenStreetMap", "license": "ODbL-1.0"}, "geometry": {"type": "MultiPolygon", "coordinates": [[[[113.9994921, 22.5536152], [113.9994995, 22.5535267], [113.9996163, 22.553535], [113.9996926, 22.5533813], [113.9998074, 22.5534299], [113.9997232, 22.5535997], [113.9997888, 22.5536903], [113.9996857, 22.5537539], [113.9995903, 22.5536222], [113.9994921, 22.5536152]]]]}}, {"type": "Feature", "id": "way/1432673788", "properties": {"tags": {"addr:housename": "海德园", "addr:housename:en": "Haide Garden", "addr:housename:zh": "海德园", "building": "apartments", "building:levels": "39", "name": "A座", "name:en": "Block A", "name:zh": "A座"}, "heightStatus": "levels_only_unverified", "source": "OpenStreetMap", "license": "ODbL-1.0"}, "geometry": {"type": "MultiPolygon", "coordinates": [[[[114.0003147, 22.5536892], [114.0003972, 22.5536145], [114.0003434, 22.553508], [114.000463, 22.5534565], [114.0005293, 22.5535877], [114.0006161, 22.5535891], [114.0006145, 22.5536774], [114.0004987, 22.5536756], [114.0003976, 22.5537673], [114.0003147, 22.5536892]]]]}}]}