{"type": "FeatureCollection", "features": [{"type": "Feature", "id": "way/450057885", "properties": {"tags": {"building": "commercial", "building:levels": "12", "name": "天经大厦"}, "heightStatus": "levels_only_unverified", "source": "OpenStreetMap", "license": "ODbL-1.0"}, "geometry": {"type": "MultiPolygon", "coordinates": [[[[114.0260008, 22.5342941], [114.0260558, 22.5340478], [114.0275233, 22.5343277], [114.0274682, 22.5345739], [114.0260008, 22.5342941]]]]}}, {"type": "Feature", "id": "way/450057888", "properties": {"tags": {"building": "commercial", "building:levels": "12", "name": "天展大厦"}, "heightStatus": "levels_only_unverified", "source": "OpenStreetMap", "license": "ODbL-1.0"}, "geometry": {"type": "MultiPolygon", "coordinates": [[[[114.026059, 22.5338054], [114.026113, 22.5335685], [114.0275797, 22.5338541], [114.0275256, 22.5340909], [114.026059, 22.5338054]]]]}}, {"type": "Feature", "id": "way/450057893", "properties": {"tags": {"building": "commercial", "building:levels": "12", "name": "天济大厦"}, "heightStatus": "levels_only_unverified", "source": "OpenStreetMap", "license": "ODbL-1.0"}, "geometry": {"type": "MultiPolygon", "coordinates": [[[[114.0258765, 22.5348159], [114.02593, 22.5345726], [114.0273985, 22.5348478], [114.027345, 22.5350912], [114.0258765, 22.5348159]]]]}}, {"type": "Feature", "id": "way/450057895", "properties": {"tags": {"building": "commercial", "building:levels": "12", "name": "天吉大厦"}, "heightStatus": "levels_only_unverified", "source": "OpenStreetMap", "license": "ODbL-1.0"}, "geometry": {"type": "MultiPolygon", "coordinates": [[[[114.0257653, 22.5352889], [114.0258209, 22.5350452], [114.0272895, 22.5353306], [114.0272339, 22.5355744], [114.0257653, 22.5352889]]]]}}, {"type": "Feature", "id": "way/450057897", "properties": {"tags": {"building": "commercial", "building:levels": "12", "name": "天祥大厦"}, "heightStatus": "levels_only_unverified", "source": "OpenStreetMap", "license": "ODbL-1.0"}, "geometry": {"type": "MultiPolygon", "coordinates": [[[[114.0256418, 22.5358111], [114.0256994, 22.5355643], [114.0271663, 22.5358563], [114.0271087, 22.5361031], [114.0256418, 22.5358111]]]]}}, {"type": "Feature", "id": "way/450057901", "properties": {"tags": {"building": "commercial", "building:levels": "12", "name": "天发大厦"}, "heightStatus": "levels_only_unverified", "source": "OpenStreetMap", "license": "ODbL-1.0"}, "geometry": {"type": "MultiPolygon", "coordinates": [[[[114.0261779, 22.5332764], [114.0262324, 22.5330402], [114.0276904, 22.5333271], [114.0276359, 22.5335633], [114.0261779, 22.5332764]]]]}}, {"type": "Feature", "id": "way/854903591", "properties": {"tags": {"building": "commercial"}, "heightStatus": "unknown", "source": "OpenStreetMap", "license": "ODbL-1.0"}, "geometry": {"type": "MultiPolygon", "coordinates": [[[[114.0284163, 22.5315515], [114.0285042, 22.531144], [114.0288435, 22.5312065], [114.0288206, 22.5313122], [114.0285959, 22.5312708], [114.0285535, 22.5314669], [114.0287783, 22.5315083], [114.0287555, 22.531614], [114.0284163, 22.5315515]]]]}}, {"type": "Feature", "id": "way/854903592", "properties": {"tags": {"building": "commercial"}, "heightStatus": "unknown", "source": "OpenStreetMap", "license": "ODbL-1.0"}, "geometry": {"type": "MultiPolygon", "coordinates": [[[[114.027875, 22.5316807], [114.0278978, 22.531575], [114.0281226, 22.5316164], [114.0281649, 22.5314203], [114.0279401, 22.5313789], [114.0279629, 22.5312732], [114.0283022, 22.5313357], [114.0282142, 22.5317432], [114.027875, 22.5316807]]]]}}, {"type": "Feature", "id": "way/854903593", "properties": {"tags": {"building": "commercial"}, "heightStatus": "unknown", "source": "OpenStreetMap", "license": "ODbL-1.0"}, "geometry": {"type": "MultiPolygon", "coordinates": [[[[114.0268042, 22.5319406], [114.026827, 22.5318348], [114.0270518, 22.5318762], [114.0270941, 22.5316802], [114.0268693, 22.5316388], [114.0268922, 22.5315331], [114.0272314, 22.5315956], [114.0271434, 22.532003], [114.0268042, 22.5319406]]]]}}, {"type": "Feature", "id": "way/854903594", "properties": {"tags": {"building": "commercial"}, "heightStatus": "unknown", "source": "OpenStreetMap", "license": "ODbL-1.0"}, "geometry": {"type": "MultiPolygon", "coordinates": [[[[114.0273576, 22.5318098], [114.0274455, 22.5314024], [114.0277848, 22.5314648], [114.0277619, 22.5315706], [114.0275372, 22.5315292], [114.0274948, 22.5317252], [114.0277196, 22.5317666], [114.0276968, 22.5318723], [114.0273576, 22.5318098]]]]}}, {"type": "Feature", "id": "way/854903595", "properties": {"tags": {"building": "commercial"}, "heightStatus": "unknown", "source": "OpenStreetMap", "license": "ODbL-1.0"}, "geometry": {"type": "MultiPolygon", "coordinates": [[[[114.0263029, 22.5320557], [114.0263909, 22.5316482], [114.0267301, 22.5317107], [114.0267073, 22.5318164], [114.0264825, 22.531775], [114.0264402, 22.531971], [114.026665, 22.5320124], [114.0266421, 22.5321181], [114.0263029, 22.5320557]]]]}}, {"type": "Feature", "id": "way/881574278", "properties": {"tags": {"building": "residential"}, "heightStatus": "unknown", "source": "OpenStreetMap", "license": "ODbL-1.0"}, "geometry": {"type": "MultiPolygon", "coordinates": [[[[114.0328049, 22.5295608], [114.0328497, 22.5291503], [114.033005, 22.5291648], [114.0329797, 22.5293963], [114.0333065, 22.5294266], [114.033296, 22.5295234], [114.0332059, 22.529515], [114.0331969, 22.5295974], [114.0328049, 22.5295608]]]]}}, {"type": "Feature", "id": "way/881574279", "properties": {"tags": {"building": "residential"}, "heightStatus": "unknown", "source": "OpenStreetMap", "license": "ODbL-1.0"}, "geometry": {"type": "MultiPolygon", "coordinates": [[[[114.0328796, 22.5290195], [114.032884, 22.5289441], [114.0329633, 22.5288868], [114.0329662, 22.5288106], [114.0331134, 22.5288154], [114.0331106, 22.5288887], [114.0331747, 22.52896], [114.0331703, 22.5290341], [114.0328796, 22.5290195]]]]}}, {"type": "Feature", "id": "way/881574280", "properties": {"tags": {"building": "residential"}, "heightStatus": "unknown", "source": "OpenStreetMap", "license": "ODbL-1.0"}, "geometry": {"type": "MultiPolygon", "coordinates": [[[[114.0331979, 22.5290365], [114.0332023, 22.5289611], [114.0332816, 22.5289038], [114.0332845, 22.5288276], [114.0334317, 22.5288324], [114.033429, 22.5289057], [114.033493, 22.528977], [114.0334886, 22.5290511], [114.0331979, 22.5290365]]]]}}, {"type": "Feature", "id": "way/881574286", "properties": {"tags": {"building": "residential"}, "heightStatus": "unknown", "source": "OpenStreetMap", "license": "ODbL-1.0"}, "geometry": {"type": "MultiPolygon", "coordinates": [[[[114.0328541, 22.5285483], [114.0331982, 22.5285387], [114.0332011, 22.5286293], [114.032857, 22.5286388], [114.0328541, 22.5285483]]]]}}, {"type": "Feature", "id": "way/881574287", "properties": {"tags": {"building": "residential"}, "heightStatus": "unknown", "source": "OpenStreetMap", "license": "ODbL-1.0"}, "geometry": {"type": "MultiPolygon", "coordinates": [[[[114.0327928, 22.5283037], [114.0331938, 22.5282893], [114.033199, 22.5284132], [114.032798, 22.5284276], [114.0327928, 22.5283037]]]]}}, {"type": "Feature", "id": "way/881574288", "properties": {"tags": {"building": "residential"}, "heightStatus": "unknown", "source": "OpenStreetMap", "license": "ODbL-1.0"}, "geometry": {"type": "MultiPolygon", "coordinates": [[[[114.0326155, 22.5281027], [114.0329594, 22.5279071], [114.0330362, 22.5280222], [114.0326923, 22.5282179], [114.0326155, 22.5281027]]]]}}, {"type": "Feature", "id": "way/881574289", "properties": {"tags": {"building": "residential"}, "heightStatus": "unknown", "source": "OpenStreetMap", "license": "ODbL-1.0"}, "geometry": {"type": "MultiPolygon", "coordinates": [[[[114.0324861, 22.5278928], [114.0328257, 22.5277017], [114.0329008, 22.5278156], [114.0325612, 22.5280067], [114.0324861, 22.5278928]]]]}}, {"type": "Feature", "id": "way/881574290", "properties": {"tags": {"building": "residential"}, "heightStatus": "unknown", "source": "OpenStreetMap", "license": "ODbL-1.0"}, "geometry": {"type": "MultiPolygon", "coordinates": [[[[114.0323481, 22.5276287], [114.0324875, 22.5275508], [114.0325241, 22.5276074], [114.0325017, 22.52762], [114.0325183, 22.5276457], [114.0325979, 22.5276013], [114.0325811, 22.5275755], [114.0325606, 22.527587], [114.0325239, 22.5275304], [114.0326675, 22.5274502], [114.0327041, 22.5275067], [114.0326817, 22.5275193], [114.0326985, 22.5275453], [114.032748, 22.5275177], [114.0327886, 22.5275799], [114.0324124, 22.5277897], [114.0323717, 22.5277274], [114.0324177, 22.5277018], [114.0324011, 22.5276762], [114.0323851, 22.5276851], [114.0323481, 22.5276287]]]]}}, {"type": "Feature", "id": "way/881574291", "properties": {"tags": {"building": "residential"}, "heightStatus": "unknown", "source": "OpenStreetMap", "license": "ODbL-1.0"}, "geometry": {"type": "MultiPolygon", "coordinates": [[[[114.0327862, 22.5273849], [114.0328721, 22.5273377], [114.0333292, 22.5280464], [114.0332435, 22.5280936], [114.032861, 22.5275008], [114.0327862, 22.5273849]]]]}}, {"type": "Feature", "id": "way/881574292", "properties": {"tags": {"building": "residential"}, "heightStatus": "unknown", "source": "OpenStreetMap", "license": "ODbL-1.0"}, "geometry": {"type": "MultiPolygon", "coordinates": [[[[114.0332705, 22.5281357], [114.0333658, 22.528101], [114.033406, 22.5282385], [114.0334395, 22.5286009], [114.0333389, 22.5286077], [114.0333121, 22.5282472], [114.0332705, 22.5281357]]]]}}, {"type": "Feature", "id": "way/964018906", "properties": {"tags": {"addr:housename": "金沙花园", "addr:housename:en": "Jinsha Garden", "addr:housename:zh": "金沙花园", "building": "apartments", "building:levels": "8", "name": "4栋", "name:en": "Block 4", "name:zh": "4栋"}, "heightStatus": "levels_only_unverified", "source": "OpenStreetMap", "license": "ODbL-1.0"}, "geometry": {"type": "MultiPolygon", "coordinates": [[[[114.0344806, 22.5273992], [114.0346389, 22.5273134], [114.0346832, 22.5273832], [114.0346496, 22.5274014], [114.0346642, 22.5274244], [114.0347649, 22.5273699], [114.0347503, 22.5273469], [114.0347167, 22.527365], [114.0346725, 22.5272953], [114.0348307, 22.5272095], [114.034875, 22.5272793], [114.0348415, 22.5272975], [114.0348561, 22.5273205], [114.0349064, 22.5272932], [114.0349411, 22.5273478], [114.0345574, 22.5275556], [114.0345227, 22.527501], [114.0345731, 22.5274738], [114.0345585, 22.5274508], [114.0345249, 22.5274689], [114.0344806, 22.5273992]]]]}}, {"type": "Feature", "id": "way/1291222062", "properties": {"tags": {"building": "grandstand"}, "heightStatus": "unknown", "source": "OpenStreetMap", "license": "ODbL-1.0"}, "geometry": {"type": "MultiPolygon", "coordinates": [[[[114.0312026, 22.5283278], [114.031448, 22.5283096], [114.0315458, 22.5294339], [114.0313001, 22.5294521], [114.0312026, 22.5283278]]]]}}, {"type": "Feature", "id": "way/1291222063", "properties": {"tags": {"building": "commercial"}, "heightStatus": "unknown", "source": "OpenStreetMap", "license": "ODbL-1.0"}, "geometry": {"type": "MultiPolygon", "coordinates": [[[[114.0306451, 22.52907], [114.03069, 22.5289763], [114.0308582, 22.5287144], [114.0310235, 22.5287177], [114.0310152, 22.5287807], [114.0309836, 22.5288749], [114.0309553, 22.5289477], [114.0309048, 22.5290247], [114.0307308, 22.5292305], [114.0307076, 22.5292173], [114.0306451, 22.52907]]]]}}, {"type": "Feature", "id": "way/1291222064", "properties": {"tags": {"building": "yes"}, "heightStatus": "unknown", "source": "OpenStreetMap", "license": "ODbL-1.0"}, "geometry": {"type": "MultiPolygon", "coordinates": [[[[114.0304564, 22.5281227], [114.0305063, 22.5280886], [114.0305405, 22.5279398], [114.0307085, 22.5280317], [114.0308211, 22.528102], [114.0308923, 22.5281608], [114.0309625, 22.528226], [114.0310384, 22.5283215], [114.0310847, 22.5284154], [114.0311243, 22.5285253], [114.0311447, 22.5286338], [114.0311523, 22.5287121], [114.0311492, 22.5288211], [114.0311139, 22.5288023], [114.0310235, 22.5287177], [114.0308582, 22.5287144], [114.0307438, 22.5287707], [114.0304993, 22.5283172], [114.0305532, 22.5282918], [114.0304564, 22.5281227]]]]}}, {"type": "Feature", "id": "way/1291222065", "properties": {"tags": {"building": "yes"}, "heightStatus": "unknown", "source": "OpenStreetMap", "license": "ODbL-1.0"}, "geometry": {"type": "MultiPolygon", "coordinates": [[[[114.0308135, 22.5278251], [114.0309879, 22.5276656], [114.031163, 22.5275559], [114.0317141, 22.5272629], [114.032013, 22.5275346], [114.0317482, 22.5278959], [114.0316574, 22.528005], [114.0315778, 22.5280821], [114.0315129, 22.528136], [114.031455, 22.5281745], [114.0314122, 22.5281961], [114.0313612, 22.5282133], [114.0313051, 22.5282181], [114.0312488, 22.5282126], [114.0311998, 22.5281988], [114.0311575, 22.5281707], [114.0308135, 22.5278251]]]]}}, {"type": "Feature", "id": "way/1305353896", "properties": {"tags": {"building": "commercial", "building:levels": "19", "name": "天安创新科技广场二期", "name:en": "Tian'an Innovation Technology Plaza Phase 2", "name:zh": "天安创新科技广场二期"}, "heightStatus": "levels_only_unverified", "source": "OpenStreetMap", "license": "ODbL-1.0"}, "geometry": {"type": "MultiPolygon", "coordinates": [[[[114.0263224, 22.5327233], [114.0263722, 22.5324968], [114.026512, 22.532523], [114.0265492, 22.5323538], [114.0274797, 22.5325283], [114.0274184, 22.5328074], [114.0267734, 22.5326864], [114.0267478, 22.5328031], [114.0263224, 22.5327233]]]]}}, {"type": "Feature", "id": "way/1305353897", "properties": {"tags": {"building": "commercial"}, "heightStatus": "unknown", "source": "OpenStreetMap", "license": "ODbL-1.0"}, "geometry": {"type": "MultiPolygon", "coordinates": [[[[114.0277081, 22.5323702], [114.027796, 22.5319628], [114.0281353, 22.5320252], [114.0281124, 22.532131], [114.0278877, 22.5320895], [114.0278453, 22.5322856], [114.0280701, 22.532327], [114.0280473, 22.5324327], [114.0277081, 22.5323702]]]]}}, {"type": "Feature", "id": "way/1305353898", "properties": {"tags": {"building": "commercial"}, "heightStatus": "unknown", "source": "OpenStreetMap", "license": "ODbL-1.0"}, "geometry": {"type": "MultiPolygon", "coordinates": [[[[114.0282246, 22.5324786], [114.0282474, 22.5323729], [114.0284722, 22.5324143], [114.0285145, 22.5322182], [114.0282897, 22.5321768], [114.0283125, 22.5320711], [114.0286518, 22.5321336], [114.0285638, 22.5325411], [114.0282246, 22.5324786]]]]}}, {"type": "Feature", "id": "way/1305353903", "properties": {"tags": {"building": "yes"}, "heightStatus": "unknown", "source": "OpenStreetMap", "license": "ODbL-1.0"}, "geometry": {"type": "MultiPolygon", "coordinates": [[[[114.0249821, 22.5354268], [114.0250337, 22.5351993], [114.0254184, 22.5352736], [114.0253983, 22.5353623], [114.0250928, 22.5353033], [114.0250614, 22.5354421], [114.0249821, 22.5354268]]]]}}, {"type": "Feature", "id": "way/1305353924", "properties": {"tags": {"building": "commercial"}, "heightStatus": "unknown", "source": "OpenStreetMap", "license": "ODbL-1.0"}, "geometry": {"type": "MultiPolygon", "coordinates": [[[[114.0249597, 22.5355707], [114.0249833, 22.5354743], [114.0253425, 22.5355495], [114.0253189, 22.5356458], [114.0249597, 22.5355707]]]]}}, {"type": "Feature", "id": "way/1345394382", "properties": {"tags": {"building": "train_station", "building:levels": "0", "building:levels:underground": "2", "layer": "-1", "location": "underground", "name": "上沙站", "name:en": "Shangsha Station", "name:zh": "上沙站", "start_date": "2016-10-28", "wikidata": "Q27728640", "wikipedia": "zh:上沙站"}, "heightStatus": "levels_only_unverified", "source": "OpenStreetMap", "license": "ODbL-1.0"}, "geometry": {"type": "MultiPolygon", "coordinates": [[[[114.0289723, 22.5279207], [114.0293515, 22.5277144], [114.0294554, 22.5278773], [114.0305069, 22.5273051], [114.0304538, 22.5272217], [114.0303827, 22.5272604], [114.0303587, 22.5272229], [114.0304744, 22.5271599], [114.0305538, 22.5272842], [114.0312361, 22.5269129], [114.0310799, 22.5266681], [114.0314246, 22.5264805], [114.0314596, 22.5265353], [114.031174, 22.5266907], [114.0312958, 22.5268816], [114.0316242, 22.5267029], [114.0316137, 22.5266864], [114.0317342, 22.5266208], [114.0319673, 22.5269863], [114.0316637, 22.5271515], [114.0316392, 22.5271132], [114.0316631, 22.5271002], [114.0316512, 22.5270815], [114.031392, 22.5272226], [114.0313762, 22.5271978], [114.0314055, 22.5271818], [114.0313804, 22.5271424], [114.0313727, 22.5271467], [114.031357, 22.5271221], [114.0313417, 22.5271305], [114.0313181, 22.5270935], [114.0313405, 22.5270813], [114.0313319, 22.5270677], [114.0300033, 22.5277908], [114.0300481, 22.527861], [114.0300843, 22.5278413], [114.0300994, 22.527865], [114.0300464, 22.5278939], [114.0300804, 22.5279472], [114.0299777, 22.5280031], [114.0299824, 22.5280104], [114.0299195, 22.5280447], [114.0299141, 22.5280363], [114.0297493, 22.528126], [114.0297673, 22.5281541], [114.0294643, 22.528319], [114.0292461, 22.5279768], [114.0293682, 22.5279103], [114.029375, 22.5279211], [114.0293994, 22.5279079], [114.0293188, 22.5277816], [114.0289957, 22.5279575], [114.0289723, 22.5279207]]]]}}, {"type": "Feature", "id": "way/1426577665", "properties": {"tags": {"building": "yes"}, "heightStatus": "unknown", "source": "OpenStreetMap", "license": "ODbL-1.0"}, "geometry": {"type": "MultiPolygon", "coordinates": [[[[114.0283893, 22.5333125], [114.028431, 22.5331111], [114.028686, 22.5331561], [114.0287092, 22.5330436], [114.0286832, 22.533027], [114.0286637, 22.533004], [114.0286527, 22.5329766], [114.0286511, 22.5329474], [114.0286591, 22.5329191], [114.0286759, 22.5328944], [114.0287, 22.5328755], [114.0287291, 22.5328642], [114.0287606, 22.5328615], [114.0287915, 22.5328676], [114.028819, 22.5328821], [114.0288405, 22.5329035], [114.028854, 22.5329299], [114.0288583, 22.5329589], [114.0288529, 22.5329877], [114.0289072, 22.532997], [114.028876, 22.5331478], [114.0288536, 22.5331847], [114.028825, 22.5332177], [114.0287909, 22.5332459], [114.0287522, 22.5332685], [114.02871, 22.5332849], [114.0286655, 22.5332946], [114.0286198, 22.5332974], [114.0285743, 22.5332932], [114.0285481, 22.5332886], [114.0285377, 22.5333388], [114.0283893, 22.5333125]]]]}}, {"type": "Feature", "id": "way/1426577666", "properties": {"tags": {"addr:housename": "天安高尔夫花园", "addr:housename:en": "Tian'an Golf Garden", "addr:housename:zh": "天安高尔夫花园", "building": "apartments", "building:levels": "32", "name": "豪景阁", "name:en": "Haojing Tower", "name:zh": "豪景阁"}, "heightStatus": "levels_only_unverified", "source": "OpenStreetMap", "license": "ODbL-1.0"}, "geometry": {"type": "MultiPolygon", "coordinates": [[[[114.0290051, 22.5311676], [114.0290208, 22.531158], [114.0290322, 22.5311442], [114.029038, 22.5311276], [114.0290374, 22.5311102], [114.0290307, 22.5310939], [114.0290184, 22.5310807], [114.0290629, 22.5310865], [114.0290762, 22.5309997], [114.0291541, 22.5310099], [114.0291445, 22.5310725], [114.0291815, 22.5310773], [114.0291793, 22.5310917], [114.0292148, 22.5310964], [114.0292282, 22.5311001], [114.0292387, 22.5311089], [114.0292441, 22.5311208], [114.0292435, 22.5311338], [114.0292404, 22.5311539], [114.0291481, 22.5311418], [114.0291414, 22.5311858], [114.0291802, 22.5311588], [114.0291888, 22.5311693], [114.0292043, 22.5311585], [114.0292296, 22.5311894], [114.0292372, 22.5311887], [114.029244, 22.5311922], [114.0292474, 22.5311986], [114.0292462, 22.5312056], [114.0292385, 22.5312132], [114.0292281, 22.5312174], [114.0292168, 22.5312173], [114.029197, 22.5312117], [114.0291924, 22.5312284], [114.0291846, 22.531244], [114.0291739, 22.5312581], [114.0291606, 22.5312701], [114.0291451, 22.5312797], [114.029128, 22.5312865], [114.0291099, 22.5312903], [114.0291112, 22.5312992], [114.0291081, 22.5313092], [114.0291009, 22.5313173], [114.0290908, 22.5313221], [114.0290832, 22.5313212], [114.0290774, 22.5313164], [114.0290757, 22.5313094], [114.0290786, 22.5313028], [114.0290534, 22.5312718], [114.0290689, 22.531261], [114.0290604, 22.5312505], [114.0290767, 22.5312392], [114.0290639, 22.5312235], [114.0290554, 22.5312294], [114.0290051, 22.5311676]]]]}}, {"type": "Feature", "id": "way/1426577667", "properties": {"tags": {"addr:housename": "天安高尔夫花园", "addr:housename:en": "Tian'an Golf Garden", "addr:housename:zh": "天安高尔夫花园", "building": "apartments", "building:levels": "32", "name": "富景阁", "name:en": "Fujing Tower", "name:zh": "富景阁"}, "heightStatus": "levels_only_unverified", "source": "OpenStreetMap", "license": "ODbL-1.0"}, "geometry": {"type": "MultiPolygon", "coordinates": [[[[114.028905, 22.531549], [114.0289207, 22.5315395], [114.0289321, 22.5315256], [114.0289379, 22.531509], [114.0289373, 22.5314916], [114.0289305, 22.5314754], [114.0289183, 22.5314621], [114.0289852, 22.5314157], [114.0289916, 22.5314235], [114.0290086, 22.5314117], [114.0289963, 22.5313966], [114.0290077, 22.5313887], [114.028996, 22.5313744], [114.0290295, 22.5313511], [114.0290287, 22.531344], [114.0290324, 22.5313377], [114.0290394, 22.5313346], [114.029047, 22.5313357], [114.0290552, 22.5313428], [114.0290597, 22.5313524], [114.0290597, 22.5313629], [114.0290558, 22.5313711], [114.029072, 22.5313794], [114.0290864, 22.5313903], [114.0290984, 22.5314035], [114.0291076, 22.5314184], [114.0291137, 22.5314347], [114.0291165, 22.5314517], [114.0291158, 22.5314689], [114.0291366, 22.5314686], [114.0291475, 22.5314714], [114.0291562, 22.5314781], [114.0291613, 22.5314874], [114.0291604, 22.5314944], [114.0291552, 22.5314997], [114.0291476, 22.5315013], [114.0291405, 22.5314986], [114.029107, 22.5315219], [114.0290953, 22.5315076], [114.0290839, 22.5315155], [114.0290547, 22.5314796], [114.0290412, 22.5315672], [114.0290801, 22.5315402], [114.0290887, 22.5315507], [114.0291042, 22.5315399], [114.0291294, 22.5315709], [114.0291371, 22.5315701], [114.0291439, 22.5315736], [114.0291473, 22.53158], [114.0291461, 22.5315871], [114.0291383, 22.5315947], [114.029128, 22.5315988], [114.0291166, 22.5315988], [114.0291063, 22.5315945], [114.0290912, 22.531605], [114.0290831, 22.5316246], [114.0290704, 22.531642], [114.0290574, 22.5316534], [114.0290419, 22.5316618], [114.0290203, 22.5316682], [114.0289977, 22.53167], [114.0289826, 22.5316805], [114.0289841, 22.5316908], [114.028981, 22.5317009], [114.0289738, 22.531709], [114.0289638, 22.5317137], [114.0289561, 22.5317128], [114.0289504, 22.531708], [114.0289487, 22.5317011], [114.0289516, 22.5316945], [114.0289263, 22.5316635], [114.0289419, 22.5316527], [114.0289333, 22.5316422], [114.0289722, 22.5316152], [114.0289638, 22.5316049], [114.0289553, 22.5316108], [114.028905, 22.531549]]]]}}, {"type": "Feature", "id": "way/1426577668", "properties": {"tags": {"addr:housename": "天安高尔夫花园", "addr:housename:en": "Tian'an Golf Garden", "addr:housename:zh": "天安高尔夫花园", "building": "apartments", "building:levels": "32", "name": "怡景阁", "name:en": "Yijing Tower", "name:zh": "怡景阁"}, "heightStatus": "levels_only_unverified", "source": "OpenStreetMap", "license": "ODbL-1.0"}, "geometry": {"type": "MultiPolygon", "coordinates": [[[[114.0287379, 22.5324402], [114.0287537, 22.5324307], [114.0287651, 22.5324168], [114.0287708, 22.5324002], [114.0287703, 22.5323828], [114.0287635, 22.5323666], [114.0287512, 22.5323533], [114.0288181, 22.5323068], [114.0288245, 22.5323147], [114.0288357, 22.532307], [114.0288064, 22.5322711], [114.0288178, 22.5322632], [114.0288061, 22.5322488], [114.0288396, 22.5322255], [114.0288388, 22.5322184], [114.0288426, 22.5322122], [114.0288495, 22.5322091], [114.0288572, 22.5322102], [114.0288654, 22.5322173], [114.0288699, 22.5322269], [114.0288698, 22.5322373], [114.0288653, 22.5322469], [114.0288766, 22.5322608], [114.0288978, 22.5322684], [114.0289167, 22.53228], [114.028929, 22.5322921], [114.0289381, 22.5323064], [114.028945, 22.5323263], [114.028947, 22.5323472], [114.0289583, 22.5323612], [114.0289695, 22.5323598], [114.0289804, 22.5323626], [114.0289892, 22.5323692], [114.0289943, 22.5323785], [114.0289933, 22.5323856], [114.0289881, 22.5323909], [114.0289806, 22.5323925], [114.0289734, 22.5323898], [114.0289399, 22.5324131], [114.0289282, 22.5323988], [114.0289168, 22.5324067], [114.0288876, 22.5323708], [114.0288742, 22.5324584], [114.0289131, 22.5324314], [114.0289216, 22.5324419], [114.0289372, 22.5324311], [114.0289624, 22.5324621], [114.0289701, 22.5324613], [114.0289768, 22.5324648], [114.0289802, 22.5324712], [114.028979, 22.5324782], [114.0289713, 22.5324859], [114.0289609, 22.53249], [114.0289496, 22.5324899], [114.0289393, 22.5324857], [114.0289242, 22.5324962], [114.028916, 22.5325158], [114.0289034, 22.5325332], [114.0288903, 22.5325446], [114.0288749, 22.532553], [114.0288533, 22.5325594], [114.0288307, 22.5325612], [114.0288155, 22.5325717], [114.0288171, 22.532582], [114.028814, 22.5325921], [114.0288068, 22.5326002], [114.0287967, 22.5326049], [114.0287891, 22.532604], [114.0287833, 22.5325992], [114.0287816, 22.5325923], [114.0287845, 22.5325856], [114.0287593, 22.5325547], [114.0287748, 22.5325439], [114.0287663, 22.5325334], [114.0288051, 22.5325064], [114.0287968, 22.5324961], [114.0287882, 22.532502], [114.0287379, 22.5324402]]]]}}, {"type": "Feature", "id": "way/1426577669", "properties": {"tags": {"addr:housename": "天安高尔夫花园", "addr:housename:en": "Tian'an Golf Garden", "addr:housename:zh": "天安高尔夫花园", "building": "apartments", "building:levels": "32", "name": "美景阁", "name:en": "Meijing Tower", "name:zh": "美景阁"}, "heightStatus": "levels_only_unverified", "source": "OpenStreetMap", "license": "ODbL-1.0"}, "geometry": {"type": "MultiPolygon", "coordinates": [[[[114.0288015, 22.5320356], [114.0288172, 22.5320261], [114.0288286, 22.5320122], [114.0288344, 22.5319956], [114.0288338, 22.5319782], [114.0288271, 22.531962], [114.0288148, 22.5319487], [114.0288817, 22.5319023], [114.0288881, 22.5319101], [114.0288992, 22.5319024], [114.02887, 22.5318665], [114.0288814, 22.5318586], [114.0288697, 22.5318442], [114.0289032, 22.5318209], [114.0289024, 22.5318138], [114.0289062, 22.5318076], [114.0289131, 22.5318045], [114.0289207, 22.5318056], [114.028929, 22.5318127], [114.0289335, 22.5318223], [114.0289334, 22.5318327], [114.0289288, 22.5318423], [114.0289402, 22.5318563], [114.0289614, 22.5318638], [114.0289803, 22.5318754], [114.0289926, 22.5318875], [114.0290017, 22.5319018], [114.0290086, 22.5319217], [114.0290105, 22.5319426], [114.0290219, 22.5319566], [114.0290331, 22.5319552], [114.029044, 22.531958], [114.0290527, 22.5319647], [114.0290579, 22.531974], [114.0290569, 22.531981], [114.0290517, 22.5319863], [114.0290442, 22.5319879], [114.029037, 22.5319852], [114.0290035, 22.5320085], [114.0289918, 22.5319942], [114.0289804, 22.5320021], [114.0289512, 22.5319662], [114.0289378, 22.5320538], [114.0289766, 22.5320268], [114.0289852, 22.5320373], [114.0290007, 22.5320265], [114.029026, 22.5320575], [114.0290337, 22.5320567], [114.0290404, 22.5320602], [114.0290438, 22.5320666], [114.0290426, 22.5320736], [114.0290349, 22.5320813], [114.0290245, 22.5320854], [114.0290132, 22.5320853], [114.0290028, 22.5320811], [114.0289877, 22.5320916], [114.0289796, 22.5321112], [114.028967, 22.5321286], [114.0289539, 22.53214], [114.0289385, 22.5321484], [114.0289168, 22.5321548], [114.0288942, 22.5321566], [114.0288791, 22.5321671], [114.0288806, 22.5321774], [114.0288776, 22.5321875], [114.0288704, 22.5321956], [114.0288603, 22.5322003], [114.0288526, 22.5321994], [114.0288469, 22.5321946], [114.0288452, 22.5321877], [114.0288481, 22.5321811], [114.0288229, 22.5321501], [114.0288384, 22.5321393], [114.0288299, 22.5321288], [114.0288687, 22.5321018], [114.0288604, 22.5320915], [114.0288518, 22.5320974], [114.0288015, 22.5320356]]]]}}, {"type": "Feature", "id": "way/1426577670", "properties": {"tags": {"addr:housename": "天安高尔夫花园", "addr:housename:en": "Tian'an Golf Garden", "addr:housename:zh": "天安高尔夫花园", "building": "apartments", "building:levels": "33", "name": "雅景阁", "name:en": "Yajing Tower", "name:zh": "雅景阁"}, "heightStatus": "levels_only_unverified", "source": "OpenStreetMap", "license": "ODbL-1.0"}, "geometry": {"type": "MultiPolygon", "coordinates": [[[[114.0279784, 22.53594], [114.0280699, 22.5358496], [114.0280903, 22.5357404], [114.0280368, 22.5356269], [114.0281408, 22.5355851], [114.0281763, 22.5356605], [114.028222, 22.5356421], [114.0282491, 22.5356997], [114.0282034, 22.5357181], [114.0282121, 22.5357364], [114.0282919, 22.5357491], [114.0282807, 22.5358089], [114.0282106, 22.5357978], [114.0282041, 22.5358327], [114.0282742, 22.5358439], [114.028263, 22.5359037], [114.0281832, 22.535891], [114.0281684, 22.5359056], [114.0282048, 22.535937], [114.0281583, 22.5359829], [114.028122, 22.5359515], [114.0280612, 22.5360116], [114.0279784, 22.53594]]]]}}, {"type": "Feature", "id": "way/1426577673", "properties": {"tags": {"addr:housename": "天安高尔夫花园", "addr:housename:en": "Tian'an Golf Garden", "addr:housename:zh": "天安高尔夫花园", "building": "apartments", "building:levels": "19", "name": "2栋", "name:en": "Tower 2", "name:zh": "2栋"}, "heightStatus": "levels_only_unverified", "source": "OpenStreetMap", "license": "ODbL-1.0"}, "geometry": {"type": "MultiPolygon", "coordinates": [[[[114.0280007, 22.5333258], [114.0281086, 22.5333228], [114.0281064, 22.533251], [114.028199, 22.5332485], [114.0282059, 22.5334673], [114.0281133, 22.5334698], [114.028111, 22.533398], [114.0280031, 22.5334009], [114.0280007, 22.5333258]]]]}}, {"type": "Feature", "id": "way/1426577674", "properties": {"tags": {"addr:housename": "天安高尔夫花园", "addr:housename:en": "Tian'an Golf Garden", "addr:housename:zh": "天安高尔夫花园", "building": "apartments", "building:levels": "19", "name": "1栋", "name:en": "Tower 1", "name:zh": "1栋"}, "heightStatus": "levels_only_unverified", "source": "OpenStreetMap", "license": "ODbL-1.0"}, "geometry": {"type": "MultiPolygon", "coordinates": [[[[114.0280762, 22.5330132], [114.0280924, 22.5329395], [114.0281982, 22.5329594], [114.0282292, 22.5328185], [114.0281234, 22.5327987], [114.0281396, 22.532725], [114.0282454, 22.5327449], [114.0282609, 22.5326744], [114.0283517, 22.5326915], [114.0282573, 22.5331205], [114.0281665, 22.5331035], [114.028182, 22.5330331], [114.0280762, 22.5330132]]]]}}, {"type": "Feature", "id": "way/1426577675", "properties": {"tags": {"addr:housename": "天安高尔夫花园", "addr:housename:en": "Tian'an Golf Garden", "addr:housename:zh": "天安高尔夫花园", "building": "apartments", "building:levels": "19", "name": "7栋", "name:en": "Tower 7", "name:zh": "7栋"}, "heightStatus": "levels_only_unverified", "source": "OpenStreetMap", "license": "ODbL-1.0"}, "geometry": {"type": "MultiPolygon", "coordinates": [[[[114.0275742, 22.5354854], [114.0276941, 22.5354461], [114.0276552, 22.5353445], [114.0277648, 22.5353086], [114.0278772, 22.5356017], [114.0277676, 22.5356376], [114.0277286, 22.535536], [114.0276086, 22.5355752], [114.0275742, 22.5354854]]]]}}, {"type": "Feature", "id": "way/1426577676", "properties": {"tags": {"addr:housename": "天安高尔夫花园", "addr:housename:en": "Tian'an Golf Garden", "addr:housename:zh": "天安高尔夫花园", "building": "apartments", "building:levels": "19", "name": "6栋", "name:en": "Tower 6", "name:zh": "6栋"}, "heightStatus": "levels_only_unverified", "source": "OpenStreetMap", "license": "ODbL-1.0"}, "geometry": {"type": "MultiPolygon", "coordinates": [[[[114.0276281, 22.5350348], [114.0276493, 22.5349414], [114.0277739, 22.5349655], [114.0277978, 22.53486], [114.0279116, 22.534882], [114.0278427, 22.5351864], [114.0277288, 22.5351644], [114.0277527, 22.5350589], [114.0276281, 22.5350348]]]]}}, {"type": "Feature", "id": "way/1426577677", "properties": {"tags": {"addr:housename": "天安高尔夫花园", "addr:housename:en": "Tian'an Golf Garden", "addr:housename:zh": "天安高尔夫花园", "building": "apartments", "building:levels": "19", "name": "5栋", "name:en": "Tower 5", "name:zh": "5栋"}, "heightStatus": "levels_only_unverified", "source": "OpenStreetMap", "license": "ODbL-1.0"}, "geometry": {"type": "MultiPolygon", "coordinates": [[[[114.0278788, 22.5345321], [114.027949, 22.5344621], [114.0280424, 22.534542], [114.0281217, 22.5344629], [114.028207, 22.5345359], [114.0279783, 22.534764], [114.0278929, 22.534691], [114.0279722, 22.5346119], [114.0278788, 22.5345321]]]]}}, {"type": "Feature", "id": "way/1426577678", "properties": {"tags": {"addr:housename": "天安高尔夫花园", "addr:housename:en": "Tian'an Golf Garden", "addr:housename:zh": "天安高尔夫花园", "building": "apartments", "building:levels": "35", "name": "4栋", "name:en": "Tower 4", "name:zh": "4栋"}, "heightStatus": "levels_only_unverified", "source": "OpenStreetMap", "license": "ODbL-1.0"}, "geometry": {"type": "MultiPolygon", "coordinates": [[[[114.0281238, 22.5341806], [114.0281629, 22.5340924], [114.0282807, 22.534137], [114.028325, 22.5340373], [114.0284326, 22.534078], [114.0283049, 22.5343657], [114.0281972, 22.534325], [114.0282415, 22.5342252], [114.0281238, 22.5341806]]]]}}, {"type": "Feature", "id": "way/1426577679", "properties": {"tags": {"addr:housename": "天安高尔夫花园", "addr:housename:en": "Tian'an Golf Garden", "addr:housename:zh": "天安高尔夫花园", "building": "apartments", "building:levels": "35", "name": "3栋", "name:en": "Tower 3", "name:zh": "3栋"}, "heightStatus": "levels_only_unverified", "source": "OpenStreetMap", "license": "ODbL-1.0"}, "geometry": {"type": "MultiPolygon", "coordinates": [[[[114.0282639, 22.5337539], [114.0282845, 22.5336604], [114.0284092, 22.5336838], [114.0284325, 22.5335782], [114.0285465, 22.5335996], [114.0284794, 22.5339043], [114.0283654, 22.5338829], [114.0283887, 22.5337773], [114.0282639, 22.5337539]]]]}}, {"type": "Feature", "id": "way/1429423856", "properties": {"tags": {"building": "construction", "construction": "apartments"}, "heightStatus": "unknown", "source": "OpenStreetMap", "license": "ODbL-1.0"}, "geometry": {"type": "MultiPolygon", "coordinates": [[[[114.0259402, 22.5272652], [114.0260144, 22.5271622], [114.0259535, 22.5271351], [114.0260302, 22.5269882], [114.026113, 22.527025], [114.0261956, 22.5269102], [114.026274, 22.5269583], [114.026317, 22.5268985], [114.0264533, 22.5269822], [114.0261118, 22.5274568], [114.0259755, 22.5273731], [114.0260185, 22.5273133], [114.0259402, 22.5272652]]]]}}, {"type": "Feature", "id": "way/1429423857", "properties": {"tags": {"building": "construction", "construction": "apartments"}, "heightStatus": "unknown", "source": "OpenStreetMap", "license": "ODbL-1.0"}, "geometry": {"type": "MultiPolygon", "coordinates": [[[[114.0251635, 22.5273749], [114.0252445, 22.5272464], [114.0251717, 22.5272071], [114.0253022, 22.5270002], [114.0253751, 22.5270395], [114.0254241, 22.5269619], [114.0255774, 22.5270445], [114.0253168, 22.5274574], [114.0251635, 22.5273749]]]]}}, {"type": "Feature", "id": "way/1429423858", "properties": {"tags": {"building": "construction", "construction": "apartments"}, "heightStatus": "unknown", "source": "OpenStreetMap", "license": "ODbL-1.0"}, "geometry": {"type": "MultiPolygon", "coordinates": [[[[114.0255669, 22.5278241], [114.0257774, 22.5275315], [114.0258584, 22.5275812], [114.0258369, 22.5276111], [114.0259059, 22.5276535], [114.0259275, 22.5276236], [114.0260084, 22.5276733], [114.0257979, 22.5279659], [114.0257169, 22.5279162], [114.0257385, 22.5278862], [114.0256694, 22.5278439], [114.0256479, 22.5278738], [114.0255669, 22.5278241]]]]}}, {"type": "Feature", "id": "way/1431604067", "properties": {"tags": {"addr:housename": "金沙花园", "addr:housename:en": "Jinsha Garden", "addr:housename:zh": "金沙花园", "building": "apartments", "building:levels": "8", "name": "3栋", "name:en": "Block 3", "name:zh": "3栋"}, "heightStatus": "levels_only_unverified", "source": "OpenStreetMap", "license": "ODbL-1.0"}, "geometry": {"type": "MultiPolygon", "coordinates": [[[[114.0340178, 22.5276494], [114.0341761, 22.5275637], [114.0342204, 22.5276335], [114.0341869, 22.5276516], [114.0342015, 22.5276746], [114.0343021, 22.5276201], [114.0342875, 22.5275971], [114.034254, 22.5276153], [114.0342097, 22.5275455], [114.034368, 22.5274598], [114.0344123, 22.5275295], [114.0343787, 22.5275477], [114.0343933, 22.5275707], [114.0344437, 22.5275435], [114.0344783, 22.5275981], [114.0340946, 22.5278059], [114.03406, 22.5277513], [114.0341103, 22.527724], [114.0340957, 22.527701], [114.0340621, 22.5277192], [114.0340178, 22.5276494]]]]}}, {"type": "Feature", "id": "way/1431604069", "properties": {"tags": {"addr:housename": "金沙花园", "addr:housename:en": "Jinsha Garden", "addr:housename:zh": "金沙花园", "building": "apartments", "building:levels": "8", "name": "1栋", "name:en": "Block 1", "name:zh": "1栋"}, "heightStatus": "levels_only_unverified", "source": "OpenStreetMap", "license": "ODbL-1.0"}, "geometry": {"type": "MultiPolygon", "coordinates": [[[[114.0341653, 22.5279174], [114.0345529, 22.5277075], [114.0346306, 22.5278298], [114.034243, 22.5280398], [114.0341653, 22.5279174]]]]}}, {"type": "Feature", "id": "way/1431604070", "properties": {"tags": {"addr:housename": "金沙花园", "addr:housename:en": "Jinsha Garden", "addr:housename:zh": "金沙花园", "building": "apartments", "building:levels": "8", "name": "5栋", "name:en": "Block 5", "name:zh": "5栋"}, "heightStatus": "levels_only_unverified", "source": "OpenStreetMap", "license": "ODbL-1.0"}, "geometry": {"type": "MultiPolygon", "coordinates": [[[[114.0343064, 22.5271904], [114.034694, 22.5269805], [114.0347716, 22.5271029], [114.034384, 22.5273128], [114.0343064, 22.5271904]]]]}}, {"type": "Feature", "id": "way/1431604072", "properties": {"tags": {"addr:housename": "金沙花园", "addr:housename:en": "Jinsha Garden", "addr:housename:zh": "金沙花园", "building": "apartments", "building:levels": "8", "name": "6栋", "name:en": "Block 6", "name:zh": "6栋"}, "heightStatus": "levels_only_unverified", "source": "OpenStreetMap", "license": "ODbL-1.0"}, "geometry": {"type": "MultiPolygon", "coordinates": [[[[114.0336834, 22.5271955], [114.0340711, 22.5269856], [114.0341487, 22.5271079], [114.0337611, 22.5273179], [114.0336834, 22.5271955]]]]}}, {"type": "Feature", "id": "way/1431605026", "properties": {"tags": {"building": "commercial"}, "heightStatus": "unknown", "source": "OpenStreetMap", "license": "ODbL-1.0"}, "geometry": {"type": "MultiPolygon", "coordinates": [[[[114.0343067, 22.5285875], [114.0343248, 22.5284314], [114.0344215, 22.528441], [114.0344306, 22.5283631], [114.0345169, 22.5283717], [114.0345078, 22.5284496], [114.0346045, 22.5284591], [114.0345864, 22.5286152], [114.0344897, 22.5286056], [114.0344816, 22.5286754], [114.0343953, 22.5286668], [114.0344034, 22.5285971], [114.0343067, 22.5285875]]]]}}, {"type": "Feature", "id": "way/1431605027", "properties": {"tags": {"building": "office"}, "heightStatus": "unknown", "source": "OpenStreetMap", "license": "ODbL-1.0"}, "geometry": {"type": "MultiPolygon", "coordinates": [[[[114.0344898, 22.5296574], [114.0345126, 22.529461], [114.0345504, 22.5291356], [114.0345734, 22.5289373], [114.0346315, 22.5289431], [114.0346368, 22.5288966], [114.0348839, 22.5289211], [114.0348785, 22.5289675], [114.0349365, 22.5289733], [114.0349135, 22.5291716], [114.0348757, 22.529497], [114.0348528, 22.5296934], [114.0344898, 22.5296574]]]]}}, {"type": "Feature", "id": "way/1431605028", "properties": {"tags": {"building": "office", "layer": "1"}, "heightStatus": "unknown", "source": "OpenStreetMap", "license": "ODbL-1.0"}, "geometry": {"type": "MultiPolygon", "coordinates": [[[[114.0345126, 22.529461], [114.0345504, 22.5291356], [114.0349135, 22.5291716], [114.0348757, 22.529497], [114.0345126, 22.529461]]]]}}]}