{"type": "FeatureCollection", "features": [{"type": "Feature", "id": "way/345411597", "properties": {"tags": {"building": "residential"}, "heightStatus": "unknown", "source": "OpenStreetMap", "license": "ODbL-1.0"}, "geometry": {"type": "MultiPolygon", "coordinates": [[[[114.0344518, 22.5503602], [114.0344759, 22.5502561], [114.0345616, 22.550273], [114.0345483, 22.5503304], [114.0345416, 22.5503591], [114.0344855, 22.5503479], [114.0344813, 22.550366], [114.0344518, 22.5503602]]]]}}, {"type": "Feature", "id": "way/345411598", "properties": {"tags": {"building": "residential"}, "heightStatus": "unknown", "source": "OpenStreetMap", "license": "ODbL-1.0"}, "geometry": {"type": "MultiPolygon", "coordinates": [[[[114.034534, 22.5503903], [114.0345416, 22.5503591], [114.0345483, 22.5503304], [114.0345816, 22.5503372], [114.0345878, 22.5503108], [114.0346502, 22.5503235], [114.0346297, 22.5504097], [114.034534, 22.5503903]]]]}}, {"type": "Feature", "id": "way/700812188", "properties": {"tags": {"building": "yes", "name": "规划大厦"}, "heightStatus": "unknown", "source": "OpenStreetMap", "license": "ODbL-1.0"}, "geometry": {"type": "MultiPolygon", "coordinates": [[[[114.030597, 22.5463947], [114.0306592, 22.5461869], [114.0313373, 22.5463947], [114.0315505, 22.5464303], [114.0318406, 22.5464685], [114.0321515, 22.546474], [114.0320361, 22.5468186], [114.030597, 22.5463947]]]]}}, {"type": "Feature", "id": "way/700812189", "properties": {"tags": {"building": "yes"}, "heightStatus": "unknown", "source": "OpenStreetMap", "license": "ODbL-1.0"}, "geometry": {"type": "MultiPolygon", "coordinates": [[[[114.0298094, 22.5462197], [114.0299515, 22.5458314], [114.0305763, 22.5459954], [114.030526, 22.5461322], [114.0300256, 22.5460009], [114.0300107, 22.5460583], [114.0304016, 22.5461787], [114.0303513, 22.546299], [114.0299574, 22.5461869], [114.0299367, 22.5462552], [114.0298094, 22.5462197]]]]}}, {"type": "Feature", "id": "way/1243990497", "properties": {"tags": {"building": "yes"}, "heightStatus": "unknown", "source": "OpenStreetMap", "license": "ODbL-1.0"}, "geometry": {"type": "MultiPolygon", "coordinates": [[[[114.0278656, 22.5510495], [114.0279825, 22.5508433], [114.028163, 22.5509306], [114.0281323, 22.5509848], [114.02823, 22.5510156], [114.0283263, 22.5510499], [114.0284211, 22.5510877], [114.0284913, 22.5509495], [114.0285785, 22.5509872], [114.0285429, 22.5510574], [114.0288608, 22.5512088], [114.0289229, 22.5511218], [114.0289717, 22.5511514], [114.0290459, 22.5510476], [114.0291132, 22.5510886], [114.029039, 22.5511925], [114.0290877, 22.5512222], [114.028965, 22.5513942], [114.0290724, 22.5514769], [114.0291749, 22.5515649], [114.0292721, 22.5516577], [114.029364, 22.5517551], [114.0294501, 22.5518569], [114.0293134, 22.5519564], [114.0292221, 22.5518495], [114.0291241, 22.5517477], [114.0290198, 22.5516515], [114.0289095, 22.5515611], [114.0287936, 22.551477], [114.0286725, 22.5513993], [114.0285466, 22.5513283], [114.0284164, 22.5512644], [114.0282824, 22.5512077], [114.0281449, 22.5511584], [114.0280045, 22.5511167], [114.0278656, 22.5510495]]]]}}, {"type": "Feature", "id": "way/1243990498", "properties": {"tags": {"building": "yes"}, "heightStatus": "unknown", "source": "OpenStreetMap", "license": "ODbL-1.0"}, "geometry": {"type": "MultiPolygon", "coordinates": [[[[114.0267308, 22.5538116], [114.0268337, 22.5536639], [114.027193, 22.5538551], [114.0275823, 22.5540054], [114.0279514, 22.5540989], [114.027927, 22.5541749], [114.0274869, 22.5540613], [114.0274371, 22.554189], [114.0275865, 22.554128], [114.0276323, 22.5541355], [114.027613, 22.5541805], [114.0274666, 22.5542359], [114.0272918, 22.5541805], [114.0273375, 22.5540745], [114.0271353, 22.5540106], [114.0267308, 22.5538116]]]]}}, {"type": "Feature", "id": "way/1291235263", "properties": {"tags": {"building": "commercial", "name": "深圳土地房产交易大厦"}, "heightStatus": "unknown", "source": "OpenStreetMap", "license": "ODbL-1.0"}, "geometry": {"type": "MultiPolygon", "coordinates": [[[[114.032606, 22.5465434], [114.0326481, 22.5462716], [114.0336521, 22.5464614], [114.033484, 22.5473154], [114.033073, 22.5471601], [114.0331711, 22.5466339], [114.032606, 22.5465434]]]]}}, {"type": "Feature", "id": "way/1309409396", "properties": {"tags": {"building": "train_station", "building:levels": "0", "building:levels:underground": "2", "layer": "-1", "location": "underground", "name": "香梅站", "name:en": "Xiangmei Station", "name:zh": "香梅站", "public_transport": "station", "start_date": "2016-10-28", "wikidata": "Q27825819", "wikimedia_commons": "Category:Xiangmei Station", "wikipedia": "zh:香梅站"}, "heightStatus": "levels_only_unverified", "source": "OpenStreetMap", "license": "ODbL-1.0"}, "geometry": {"type": "MultiPolygon", "coordinates": [[[[114.0325642, 22.5478751], [114.0326392, 22.547654], [114.0329416, 22.5477415], [114.0329286, 22.5477799], [114.0340926, 22.548136], [114.0342213, 22.5476981], [114.0339545, 22.5476192], [114.0339669, 22.5475827], [114.0342371, 22.5476652], [114.0342986, 22.5473711], [114.0343561, 22.5473795], [114.0342732, 22.5477565], [114.0341611, 22.5481554], [114.0348018, 22.5483476], [114.0349554, 22.5478949], [114.0353427, 22.548007], [114.0353175, 22.5480811], [114.0349964, 22.5479882], [114.0348639, 22.5483788], [114.0353312, 22.5485141], [114.0352667, 22.5487043], [114.0355239, 22.5487787], [114.0355091, 22.5488222], [114.0348026, 22.5486177], [114.0348092, 22.5485981], [114.0347271, 22.5485743], [114.0347469, 22.5485158], [114.0341701, 22.5483401], [114.0340735, 22.5487962], [114.0340049, 22.5487878], [114.034081, 22.5484078], [114.034048, 22.5484023], [114.034056, 22.5483558], [114.0338279, 22.5482875], [114.033846, 22.5482341], [114.0334936, 22.5481321], [114.0334541, 22.5482483], [114.0332274, 22.5481827], [114.0332712, 22.5480538], [114.0330792, 22.5479983], [114.033032, 22.5481374], [114.0329904, 22.5481254], [114.0329971, 22.5481057], [114.0328238, 22.5480556], [114.0328563, 22.5479596], [114.0325642, 22.5478751]]]]}}, {"type": "Feature", "id": "way/1429704682", "properties": {"tags": {"building": "house"}, "heightStatus": "unknown", "source": "OpenStreetMap", "license": "ODbL-1.0"}, "geometry": {"type": "MultiPolygon", "coordinates": [[[[114.0324914, 22.5497101], [114.0324969, 22.5496788], [114.0325243, 22.5495228], [114.0326765, 22.5495456], [114.0326436, 22.549733], [114.0324914, 22.5497101]]]]}}, {"type": "Feature", "id": "way/1429704683", "properties": {"tags": {"building": "house"}, "heightStatus": "unknown", "source": "OpenStreetMap", "license": "ODbL-1.0"}, "geometry": {"type": "MultiPolygon", "coordinates": [[[[114.032344, 22.5496559], [114.0323502, 22.5496209], [114.032377, 22.5494686], [114.0325298, 22.5494915], [114.0325243, 22.5495228], [114.0324969, 22.5496788], [114.032344, 22.5496559]]]]}}, {"type": "Feature", "id": "way/1429704684", "properties": {"tags": {"building": "house"}, "heightStatus": "unknown", "source": "OpenStreetMap", "license": "ODbL-1.0"}, "geometry": {"type": "MultiPolygon", "coordinates": [[[[114.0321987, 22.5495982], [114.0322111, 22.549528], [114.0322317, 22.5494109], [114.0323832, 22.5494336], [114.032377, 22.5494686], [114.0323502, 22.5496209], [114.0321987, 22.5495982]]]]}}, {"type": "Feature", "id": "way/1429704685", "properties": {"tags": {"building": "house"}, "heightStatus": "unknown", "source": "OpenStreetMap", "license": "ODbL-1.0"}, "geometry": {"type": "MultiPolygon", "coordinates": [[[[114.0320595, 22.5495053], [114.0320648, 22.5494756], [114.0320925, 22.549318], [114.032244, 22.5493407], [114.0322317, 22.5494109], [114.0322111, 22.549528], [114.0320595, 22.5495053]]]]}}, {"type": "Feature", "id": "way/1429704686", "properties": {"tags": {"building": "house"}, "heightStatus": "unknown", "source": "OpenStreetMap", "license": "ODbL-1.0"}, "geometry": {"type": "MultiPolygon", "coordinates": [[[[114.0319132, 22.5494528], [114.0319461, 22.5492655], [114.0320977, 22.5492882], [114.0320925, 22.549318], [114.0320648, 22.5494756], [114.0319132, 22.5494528]]]]}}, {"type": "Feature", "id": "way/1429704687", "properties": {"tags": {"building": "house"}, "heightStatus": "unknown", "source": "OpenStreetMap", "license": "ODbL-1.0"}, "geometry": {"type": "MultiPolygon", "coordinates": [[[[114.0321508, 22.5500615], [114.032156, 22.5500316], [114.0321787, 22.5499025], [114.0323565, 22.5499292], [114.0323512, 22.5499595], [114.0323286, 22.5500882], [114.0321508, 22.5500615]]]]}}, {"type": "Feature", "id": "way/1429704688", "properties": {"tags": {"building": "house"}, "heightStatus": "unknown", "source": "OpenStreetMap", "license": "ODbL-1.0"}, "geometry": {"type": "MultiPolygon", "coordinates": [[[[114.0323232, 22.5501185], [114.0323286, 22.5500882], [114.0323512, 22.5499595], [114.0325281, 22.549986], [114.0325153, 22.5500589], [114.0325002, 22.550145], [114.0323232, 22.5501185]]]]}}, {"type": "Feature", "id": "way/1429704689", "properties": {"tags": {"building": "house"}, "heightStatus": "unknown", "source": "OpenStreetMap", "license": "ODbL-1.0"}, "geometry": {"type": "MultiPolygon", "coordinates": [[[[114.0318066, 22.5499481], [114.0318194, 22.5498756], [114.0318346, 22.5497891], [114.0320115, 22.5498156], [114.0320062, 22.5498459], [114.0319835, 22.5499746], [114.0318066, 22.5499481]]]]}}, {"type": "Feature", "id": "way/1429704690", "properties": {"tags": {"building": "house"}, "heightStatus": "unknown", "source": "OpenStreetMap", "license": "ODbL-1.0"}, "geometry": {"type": "MultiPolygon", "coordinates": [[[[114.0319782, 22.5500049], [114.0319835, 22.5499746], [114.0320062, 22.5498459], [114.032184, 22.5498726], [114.0321787, 22.5499025], [114.032156, 22.5500316], [114.0319782, 22.5500049]]]]}}, {"type": "Feature", "id": "way/1429704694", "properties": {"tags": {"building": "yes"}, "heightStatus": "unknown", "source": "OpenStreetMap", "license": "ODbL-1.0"}, "geometry": {"type": "MultiPolygon", "coordinates": [[[[114.0327367, 22.5505311], [114.0327405, 22.5504467], [114.0328437, 22.5504628], [114.0328691, 22.5503239], [114.0327985, 22.5503129], [114.0328379, 22.5500978], [114.033068, 22.5501337], [114.0330409, 22.550282], [114.0331127, 22.5502932], [114.0331004, 22.55036], [114.0330285, 22.5503488], [114.0329968, 22.5505219], [114.0330591, 22.5505316], [114.0329573, 22.5510882], [114.032815, 22.5510659], [114.0328636, 22.5508001], [114.0327572, 22.5507835], [114.0327451, 22.5506998], [114.0327382, 22.5506155], [114.0327367, 22.5505311]]]]}}, {"type": "Feature", "id": "way/1429704695", "properties": {"tags": {"building": "yes"}, "heightStatus": "unknown", "source": "OpenStreetMap", "license": "ODbL-1.0"}, "geometry": {"type": "MultiPolygon", "coordinates": [[[[114.0331556, 22.5507719], [114.0331957, 22.550553], [114.0335442, 22.5506075], [114.0334924, 22.5508897], [114.0331853, 22.5508417], [114.0331969, 22.5507784], [114.0331556, 22.5507719]]]]}}, {"type": "Feature", "id": "way/1429704696", "properties": {"tags": {"building": "yes"}, "heightStatus": "unknown", "source": "OpenStreetMap", "license": "ODbL-1.0"}, "geometry": {"type": "MultiPolygon", "coordinates": [[[[114.0332275, 22.5503798], [114.0332677, 22.5501602], [114.0333091, 22.5501666], [114.0333207, 22.5501034], [114.0336278, 22.5501513], [114.033576, 22.5504342], [114.0332275, 22.5503798]]]]}}, {"type": "Feature", "id": "way/1429704704", "properties": {"tags": {"building": "house"}, "heightStatus": "unknown", "source": "OpenStreetMap", "license": "ODbL-1.0"}, "geometry": {"type": "MultiPolygon", "coordinates": [[[[114.0310781, 22.5512879], [114.0310816, 22.5511225], [114.0312156, 22.5511249], [114.0312132, 22.5512385], [114.0312121, 22.5512903], [114.0310781, 22.5512879]]]]}}, {"type": "Feature", "id": "way/1429704705", "properties": {"tags": {"building": "house"}, "heightStatus": "unknown", "source": "OpenStreetMap", "license": "ODbL-1.0"}, "geometry": {"type": "MultiPolygon", "coordinates": [[[[114.0312132, 22.5512385], [114.0312156, 22.5511249], [114.0312166, 22.5510775], [114.0313954, 22.5510807], [114.0313936, 22.5511679], [114.031392, 22.5512417], [114.0312132, 22.5512385]]]]}}, {"type": "Feature", "id": "way/1429704706", "properties": {"tags": {"building": "house"}, "heightStatus": "unknown", "source": "OpenStreetMap", "license": "ODbL-1.0"}, "geometry": {"type": "MultiPolygon", "coordinates": [[[[114.0313936, 22.5511679], [114.0313954, 22.5510807], [114.031397, 22.5510069], [114.0315758, 22.5510101], [114.0315739, 22.5510977], [114.0315724, 22.5511711], [114.0313936, 22.5511679]]]]}}, {"type": "Feature", "id": "way/1429704707", "properties": {"tags": {"building": "house"}, "heightStatus": "unknown", "source": "OpenStreetMap", "license": "ODbL-1.0"}, "geometry": {"type": "MultiPolygon", "coordinates": [[[[114.0315739, 22.5510977], [114.0315758, 22.5510101], [114.0315773, 22.5509363], [114.0317555, 22.5509395], [114.0317537, 22.551027], [114.0317521, 22.5511005], [114.0315739, 22.5510977]]]]}}, {"type": "Feature", "id": "way/1429704708", "properties": {"tags": {"building": "house"}, "heightStatus": "unknown", "source": "OpenStreetMap", "license": "ODbL-1.0"}, "geometry": {"type": "MultiPolygon", "coordinates": [[[[114.0317537, 22.551027], [114.0317555, 22.5509395], [114.0317571, 22.5508659], [114.0319352, 22.5508691], [114.0319334, 22.5509567], [114.0319318, 22.5510302], [114.0317537, 22.551027]]]]}}, {"type": "Feature", "id": "way/1429704709", "properties": {"tags": {"building": "house"}, "heightStatus": "unknown", "source": "OpenStreetMap", "license": "ODbL-1.0"}, "geometry": {"type": "MultiPolygon", "coordinates": [[[[114.0324164, 22.5508348], [114.0324192, 22.5507013], [114.0324427, 22.5507017], [114.0324444, 22.5506207], [114.0325175, 22.550622], [114.032513, 22.5508365], [114.0324164, 22.5508348]]]]}}, {"type": "Feature", "id": "way/1429704710", "properties": {"tags": {"building": "house"}, "heightStatus": "unknown", "source": "OpenStreetMap", "license": "ODbL-1.0"}, "geometry": {"type": "MultiPolygon", "coordinates": [[[[114.032223, 22.5508941], [114.0322258, 22.5507606], [114.0322493, 22.550761], [114.032251, 22.55068], [114.0323236, 22.5506813], [114.0323204, 22.550833], [114.0323191, 22.5508958], [114.032223, 22.5508941]]]]}}, {"type": "Feature", "id": "way/1429704711", "properties": {"tags": {"building": "house"}, "heightStatus": "unknown", "source": "OpenStreetMap", "license": "ODbL-1.0"}, "geometry": {"type": "MultiPolygon", "coordinates": [[[[114.0321272, 22.5508923], [114.0321303, 22.5507457], [114.0321317, 22.5506777], [114.0322043, 22.550679], [114.0322026, 22.5507602], [114.0322258, 22.5507606], [114.032223, 22.5508941], [114.0321272, 22.5508923]]]]}}, {"type": "Feature", "id": "way/1429704712", "properties": {"tags": {"building": "house"}, "heightStatus": "unknown", "source": "OpenStreetMap", "license": "ODbL-1.0"}, "geometry": {"type": "MultiPolygon", "coordinates": [[[[114.0320299, 22.5509585], [114.0320327, 22.550825], [114.0320562, 22.5508254], [114.0320579, 22.5507444], [114.0321303, 22.5507457], [114.0321272, 22.5508923], [114.0321258, 22.5509602], [114.0320299, 22.5509585]]]]}}, {"type": "Feature", "id": "way/1429704713", "properties": {"tags": {"building": "house"}, "heightStatus": "unknown", "source": "OpenStreetMap", "license": "ODbL-1.0"}, "geometry": {"type": "MultiPolygon", "coordinates": [[[[114.0323204, 22.550833], [114.0323236, 22.5506813], [114.0323249, 22.5506184], [114.0323977, 22.5506197], [114.032396, 22.5507009], [114.0324192, 22.5507013], [114.0324164, 22.5508348], [114.0323204, 22.550833]]]]}}, {"type": "Feature", "id": "way/1429704714", "properties": {"tags": {"building": "house"}, "heightStatus": "unknown", "source": "OpenStreetMap", "license": "ODbL-1.0"}, "geometry": {"type": "MultiPolygon", "coordinates": [[[[114.0319334, 22.5509567], [114.0319352, 22.5508691], [114.0319379, 22.5507421], [114.0320112, 22.5507434], [114.0320095, 22.5508246], [114.0320327, 22.550825], [114.0320299, 22.5509585], [114.0319334, 22.5509567]]]]}}, {"type": "Feature", "id": "way/1429704721", "properties": {"tags": {"building": "apartments", "name": "倚湖居5栋", "name:zh": "倚湖居5栋"}, "heightStatus": "unknown", "source": "OpenStreetMap", "license": "ODbL-1.0"}, "geometry": {"type": "MultiPolygon", "coordinates": [[[[114.0332074, 22.5498328], [114.0332308, 22.5497272], [114.0333529, 22.5497503], [114.033346, 22.5497816], [114.0334633, 22.5498038], [114.0334806, 22.5497257], [114.0336156, 22.5497512], [114.0335846, 22.5498907], [114.0334764, 22.5498702], [114.0334515, 22.5499821], [114.0333328, 22.5499597], [114.033345, 22.5499047], [114.0332583, 22.5498883], [114.0332681, 22.5498443], [114.0332074, 22.5498328]]]]}}, {"type": "Feature", "id": "way/1429704722", "properties": {"tags": {"building": "apartments", "name": "倚湖居3栋", "name:zh": "倚湖居3栋"}, "heightStatus": "unknown", "source": "OpenStreetMap", "license": "ODbL-1.0"}, "geometry": {"type": "MultiPolygon", "coordinates": [[[[114.0328527, 22.5493756], [114.0328761, 22.54927], [114.0329983, 22.5492931], [114.0329913, 22.5493244], [114.0331087, 22.5493466], [114.033126, 22.5492685], [114.0332609, 22.5492941], [114.03323, 22.5494335], [114.0331217, 22.5494131], [114.0330969, 22.549525], [114.0329781, 22.5495025], [114.0329903, 22.5494475], [114.0329037, 22.5494311], [114.0329134, 22.5493871], [114.0328527, 22.5493756]]]]}}, {"type": "Feature", "id": "way/1429704723", "properties": {"tags": {"building": "apartments", "name": "倚湖居1栋", "name:zh": "倚湖居1栋"}, "heightStatus": "unknown", "source": "OpenStreetMap", "license": "ODbL-1.0"}, "geometry": {"type": "MultiPolygon", "coordinates": [[[[114.0321138, 22.5487099], [114.0321372, 22.5486043], [114.0322594, 22.5486274], [114.0322524, 22.5486587], [114.0323698, 22.5486809], [114.0323871, 22.5486028], [114.032522, 22.5486283], [114.0324911, 22.5487678], [114.0323828, 22.5487473], [114.032358, 22.5488592], [114.0322392, 22.5488368], [114.0322514, 22.5487818], [114.0321648, 22.5487654], [114.0321745, 22.5487214], [114.0321138, 22.5487099]]]]}}, {"type": "Feature", "id": "way/1429704724", "properties": {"tags": {"building": "apartments", "name": "倚湖居2栋", "name:zh": "倚湖居2栋"}, "heightStatus": "unknown", "source": "OpenStreetMap", "license": "ODbL-1.0"}, "geometry": {"type": "MultiPolygon", "coordinates": [[[[114.0325066, 22.5490039], [114.03253, 22.5488983], [114.0326522, 22.5489214], [114.0326452, 22.5489526], [114.0327626, 22.5489748], [114.0327799, 22.5488968], [114.0329148, 22.5489223], [114.0328839, 22.5490618], [114.0327756, 22.5490413], [114.0327508, 22.5491532], [114.032632, 22.5491307], [114.0326442, 22.5490757], [114.0325576, 22.5490593], [114.0325673, 22.5490153], [114.0325066, 22.5490039]]]]}}, {"type": "Feature", "id": "way/1429704725", "properties": {"tags": {"building": "house"}, "heightStatus": "unknown", "source": "OpenStreetMap", "license": "ODbL-1.0"}, "geometry": {"type": "MultiPolygon", "coordinates": [[[[114.0314631, 22.5515178], [114.0316108, 22.5515174], [114.031611, 22.5515977], [114.0316113, 22.551668], [114.0314636, 22.5516684], [114.0314631, 22.5515178]]]]}}, {"type": "Feature", "id": "way/1429704726", "properties": {"tags": {"building": "house"}, "heightStatus": "unknown", "source": "OpenStreetMap", "license": "ODbL-1.0"}, "geometry": {"type": "MultiPolygon", "coordinates": [[[[114.0316105, 22.5514471], [114.0317582, 22.5514467], [114.0317584, 22.5515164], [114.0317587, 22.5515973], [114.031611, 22.5515977], [114.0316108, 22.5515174], [114.0316105, 22.5514471]]]]}}, {"type": "Feature", "id": "way/1429704727", "properties": {"tags": {"building": "house"}, "heightStatus": "unknown", "source": "OpenStreetMap", "license": "ODbL-1.0"}, "geometry": {"type": "MultiPolygon", "coordinates": [[[[114.0317579, 22.5513654], [114.0319036, 22.551365], [114.0319039, 22.5514412], [114.0319042, 22.551516], [114.0317584, 22.5515164], [114.0317582, 22.5514467], [114.0317579, 22.5513654]]]]}}, {"type": "Feature", "id": "way/1429704728", "properties": {"tags": {"building": "house"}, "heightStatus": "unknown", "source": "OpenStreetMap", "license": "ODbL-1.0"}, "geometry": {"type": "MultiPolygon", "coordinates": [[[[114.0319034, 22.5512906], [114.0320498, 22.5512902], [114.0320502, 22.5514044], [114.0320503, 22.5514407], [114.0319039, 22.5514412], [114.0319036, 22.551365], [114.0319034, 22.5512906]]]]}}, {"type": "Feature", "id": "way/1429704729", "properties": {"tags": {"building": "house"}, "heightStatus": "unknown", "source": "OpenStreetMap", "license": "ODbL-1.0"}, "geometry": {"type": "MultiPolygon", "coordinates": [[[[114.0320497, 22.5512538], [114.0321972, 22.5512533], [114.0321976, 22.5513658], [114.0321977, 22.5514039], [114.0320502, 22.5514044], [114.0320498, 22.5512902], [114.0320497, 22.5512538]]]]}}, {"type": "Feature", "id": "way/1429704730", "properties": {"tags": {"building": "house"}, "heightStatus": "unknown", "source": "OpenStreetMap", "license": "ODbL-1.0"}, "geometry": {"type": "MultiPolygon", "coordinates": [[[[114.0321971, 22.5512148], [114.0323439, 22.5512144], [114.0323443, 22.5513286], [114.0323444, 22.5513653], [114.0321976, 22.5513658], [114.0321972, 22.5512533], [114.0321971, 22.5512148]]]]}}, {"type": "Feature", "id": "way/1429704731", "properties": {"tags": {"building": "house"}, "heightStatus": "unknown", "source": "OpenStreetMap", "license": "ODbL-1.0"}, "geometry": {"type": "MultiPolygon", "coordinates": [[[[114.0324911, 22.5511398], [114.0326385, 22.5511394], [114.032639, 22.5512899], [114.0324916, 22.5512904], [114.0324912, 22.5511775], [114.0324911, 22.5511398]]]]}}, {"type": "Feature", "id": "way/1429704732", "properties": {"tags": {"building": "house"}, "heightStatus": "unknown", "source": "OpenStreetMap", "license": "ODbL-1.0"}, "geometry": {"type": "MultiPolygon", "coordinates": [[[[114.0323438, 22.551178], [114.0324912, 22.5511775], [114.0324916, 22.5512904], [114.0324918, 22.5513281], [114.0323443, 22.5513286], [114.0323439, 22.5512144], [114.0323438, 22.551178]]]]}}, {"type": "Feature", "id": "way/1429704733", "properties": {"tags": {"building": "yes"}, "heightStatus": "unknown", "source": "OpenStreetMap", "license": "ODbL-1.0"}, "geometry": {"type": "MultiPolygon", "coordinates": [[[[114.0327154, 22.5527318], [114.0328675, 22.5526137], [114.0328994, 22.5523114], [114.0331915, 22.5523377], [114.0331499, 22.5527323], [114.0328956, 22.5529297], [114.0327154, 22.5527318]]]]}}, {"type": "Feature", "id": "way/1429704734", "properties": {"tags": {"building": "apartments", "name": "鸣翠居6栋", "name:zh": "鸣翠居6栋"}, "heightStatus": "unknown", "source": "OpenStreetMap", "license": "ODbL-1.0"}, "geometry": {"type": "MultiPolygon", "coordinates": [[[[114.0315717, 22.5536064], [114.0317451, 22.5535835], [114.0317373, 22.5535332], [114.0318715, 22.5535154], [114.0318793, 22.5535657], [114.0320528, 22.5535428], [114.0320696, 22.5536526], [114.0319749, 22.5536651], [114.0319795, 22.5536945], [114.0316794, 22.5537342], [114.0316749, 22.5537048], [114.0315888, 22.5537162], [114.0315717, 22.5536064]]]]}}, {"type": "Feature", "id": "way/1429704735", "properties": {"tags": {"building": "apartments", "name": "鸣翠居8栋", "name:zh": "鸣翠居8栋"}, "heightStatus": "unknown", "source": "OpenStreetMap", "license": "ODbL-1.0"}, "geometry": {"type": "MultiPolygon", "coordinates": [[[[114.0320528, 22.5535428], [114.032111, 22.5534951], [114.0320972, 22.5534807], [114.03217, 22.5534211], [114.032161, 22.5534118], [114.0322951, 22.5533021], [114.032304, 22.5533114], [114.0323768, 22.5532518], [114.0323906, 22.5532662], [114.0324488, 22.5532185], [114.0325285, 22.5533015], [114.0324529, 22.5533634], [114.0324883, 22.5534002], [114.0324237, 22.5534531], [114.0323884, 22.5534162], [114.0322726, 22.553511], [114.0323079, 22.5535478], [114.0322434, 22.5536007], [114.032208, 22.5535639], [114.0321324, 22.5536258], [114.0320528, 22.5535428]]]]}}, {"type": "Feature", "id": "way/1429704736", "properties": {"tags": {"building": "apartments", "name": "鸣翠居5栋", "name:zh": "鸣翠居5栋"}, "heightStatus": "unknown", "source": "OpenStreetMap", "license": "ODbL-1.0"}, "geometry": {"type": "MultiPolygon", "coordinates": [[[[114.0310039, 22.553047], [114.0310898, 22.5529695], [114.0312122, 22.5530851], [114.0312515, 22.5530496], [114.0313463, 22.5531391], [114.0313069, 22.5531746], [114.0314293, 22.5532903], [114.0313434, 22.5533678], [114.0312766, 22.5533046], [114.0312536, 22.5533254], [114.0310418, 22.5531252], [114.0310647, 22.5531044], [114.0310039, 22.553047]]]]}}, {"type": "Feature", "id": "way/1429704737", "properties": {"tags": {"building": "apartments", "name": "鸣翠居3栋", "name:zh": "鸣翠居3栋"}, "heightStatus": "unknown", "source": "OpenStreetMap", "license": "ODbL-1.0"}, "geometry": {"type": "MultiPolygon", "coordinates": [[[[114.0305594, 22.5527828], [114.0306241, 22.5526894], [114.0306897, 22.5527281], [114.0307009, 22.5527119], [114.0307828, 22.5527603], [114.0307901, 22.5527498], [114.030941, 22.5528389], [114.0309337, 22.5528494], [114.0310157, 22.5528977], [114.0310045, 22.5529139], [114.0310701, 22.5529526], [114.0310039, 22.553047], [114.0309203, 22.5529958], [114.0308916, 22.5530373], [114.0308189, 22.5529944], [114.0308476, 22.5529529], [114.0307172, 22.552876], [114.0306885, 22.5529174], [114.0306158, 22.5528745], [114.0306445, 22.552833], [114.0305594, 22.5527828]]]]}}, {"type": "Feature", "id": "way/1429704738", "properties": {"tags": {"building": "apartments", "name": "鸣翠居1栋", "name:zh": "鸣翠居1栋"}, "heightStatus": "unknown", "source": "OpenStreetMap", "license": "ODbL-1.0"}, "geometry": {"type": "MultiPolygon", "coordinates": [[[[114.0294709, 22.5524886], [114.0295027, 22.5523816], [114.0295965, 22.5524054], [114.029603, 22.5523837], [114.0298363, 22.552443], [114.0298298, 22.5524647], [114.0299236, 22.5524885], [114.0298918, 22.5525955], [114.0297417, 22.5525573], [114.0297262, 22.5526093], [114.0296055, 22.5525787], [114.0296209, 22.5525267], [114.0294709, 22.5524886]]]]}}, {"type": "Feature", "id": "way/1429704739", "properties": {"tags": {"building": "apartments", "name": "鸣翠居2栋", "name:zh": "鸣翠居2栋"}, "heightStatus": "unknown", "source": "OpenStreetMap", "license": "ODbL-1.0"}, "geometry": {"type": "MultiPolygon", "coordinates": [[[[114.0298918, 22.5525955], [114.0299236, 22.5524885], [114.0299987, 22.5525076], [114.0300042, 22.552489], [114.030098, 22.5525129], [114.0301015, 22.5525009], [114.0302743, 22.5525447], [114.0302707, 22.5525567], [114.0303645, 22.5525806], [114.0303589, 22.5525991], [114.030434, 22.5526181], [114.0304021, 22.5527251], [114.0303048, 22.5527003], [114.0302906, 22.5527478], [114.0302074, 22.5527267], [114.0302215, 22.5526792], [114.0300724, 22.5526413], [114.0300582, 22.5526888], [114.029975, 22.5526676], [114.0299892, 22.5526202], [114.0298918, 22.5525955]]]]}}, {"type": "Feature", "id": "way/1429704741", "properties": {"tags": {"building": "apartments", "name": "润雨居5栋", "name:zh": "润雨居5栋"}, "heightStatus": "unknown", "source": "OpenStreetMap", "license": "ODbL-1.0"}, "geometry": {"type": "MultiPolygon", "coordinates": [[[[114.0310805, 22.5520469], [114.031098, 22.5518859], [114.0312122, 22.5518926], [114.0313266, 22.5518917], [114.0314414, 22.5518832], [114.0314555, 22.5520444], [114.0313344, 22.5520534], [114.0312073, 22.5520543], [114.0310805, 22.5520469]]]]}}, {"type": "Feature", "id": "way/1429704742", "properties": {"tags": {"building": "apartments", "name": "润雨居2栋", "name:zh": "润雨居2栋"}, "heightStatus": "unknown", "source": "OpenStreetMap", "license": "ODbL-1.0"}, "geometry": {"type": "MultiPolygon", "coordinates": [[[[114.0303612, 22.5518301], [114.03045, 22.5516906], [114.0305507, 22.5517409], [114.030655, 22.5517843], [114.0307625, 22.5518207], [114.0307082, 22.5519745], [114.0305889, 22.5519341], [114.030473, 22.5518859], [114.0303612, 22.5518301]]]]}}, {"type": "Feature", "id": "way/1429704743", "properties": {"tags": {"building": "apartments", "name": "润雨居1栋", "name:zh": "润雨居1栋"}, "heightStatus": "unknown", "source": "OpenStreetMap", "license": "ODbL-1.0"}, "geometry": {"type": "MultiPolygon", "coordinates": [[[[114.03006, 22.5516239], [114.0301743, 22.5515014], [114.0302616, 22.5515708], [114.0303534, 22.5516338], [114.03045, 22.5516906], [114.0303612, 22.5518301], [114.0302541, 22.5517671], [114.0301521, 22.5516971], [114.03006, 22.5516239]]]]}}, {"type": "Feature", "id": "way/1429704744", "properties": {"tags": {"building": "apartments", "name": "润雨居3栋", "name:zh": "润雨居3栋"}, "heightStatus": "unknown", "source": "OpenStreetMap", "license": "ODbL-1.0"}, "geometry": {"type": "MultiPolygon", "coordinates": [[[[114.0307082, 22.5519745], [114.0307625, 22.5518207], [114.0308725, 22.5518498], [114.0309845, 22.5518716], [114.031098, 22.5518859], [114.0310805, 22.5520469], [114.0309546, 22.552031], [114.0308303, 22.5520068], [114.0307082, 22.5519745]]]]}}, {"type": "Feature", "id": "way/1429704747", "properties": {"tags": {"building": "apartments", "name": "听水居1栋", "name:zh": "听水居1栋"}, "heightStatus": "unknown", "source": "OpenStreetMap", "license": "ODbL-1.0"}, "geometry": {"type": "MultiPolygon", "coordinates": [[[[114.0315702, 22.5524712], [114.0315743, 22.5523337], [114.0316294, 22.5523351], [114.0316305, 22.5522957], [114.0317168, 22.5522978], [114.0317186, 22.5522372], [114.0318284, 22.5522399], [114.0318248, 22.5523633], [114.0319425, 22.5523662], [114.0319381, 22.5525161], [114.0318204, 22.5525132], [114.0318214, 22.5524775], [114.0315702, 22.5524712]]]]}}, {"type": "Feature", "id": "way/1429704748", "properties": {"tags": {"building": "apartments", "name": "听水居2栋", "name:zh": "听水居2栋"}, "heightStatus": "unknown", "source": "OpenStreetMap", "license": "ODbL-1.0"}, "geometry": {"type": "MultiPolygon", "coordinates": [[[[114.0320599, 22.5522178], [114.0320639, 22.5520804], [114.032119, 22.5520817], [114.0321201, 22.5520424], [114.0322064, 22.5520445], [114.0322082, 22.5519839], [114.032318, 22.5519866], [114.0323144, 22.5521099], [114.0324321, 22.5521129], [114.0324278, 22.5522628], [114.03231, 22.5522599], [114.032311, 22.5522241], [114.0320599, 22.5522178]]]]}}, {"type": "Feature", "id": "way/1429704749", "properties": {"tags": {"building": "apartments", "name": "听水居5栋", "name:zh": "听水居5栋"}, "heightStatus": "unknown", "source": "OpenStreetMap", "license": "ODbL-1.0"}, "geometry": {"type": "MultiPolygon", "coordinates": [[[[114.0329227, 22.5516832], [114.0329267, 22.5515457], [114.0329818, 22.5515471], [114.0329829, 22.5515077], [114.0330692, 22.5515098], [114.033071, 22.5514492], [114.0331808, 22.5514519], [114.0331772, 22.5515753], [114.033295, 22.5515782], [114.0332906, 22.5517281], [114.0331728, 22.5517252], [114.0331739, 22.5516895], [114.0329227, 22.5516832]]]]}}, {"type": "Feature", "id": "way/1429704750", "properties": {"tags": {"building": "apartments", "name": "听水居3栋", "name:zh": "听水居3栋"}, "heightStatus": "unknown", "source": "OpenStreetMap", "license": "ODbL-1.0"}, "geometry": {"type": "MultiPolygon", "coordinates": [[[[114.0324841, 22.5519647], [114.0324882, 22.5518272], [114.0325433, 22.5518286], [114.0325444, 22.5517892], [114.0326307, 22.5517913], [114.0326325, 22.5517307], [114.0327423, 22.5517334], [114.0327387, 22.5518568], [114.0328564, 22.5518597], [114.032852, 22.5520096], [114.0327343, 22.5520067], [114.0327353, 22.5519709], [114.0324841, 22.5519647]]]]}}, {"type": "Feature", "id": "way/1429704752", "properties": {"tags": {"building": "terrace"}, "heightStatus": "unknown", "source": "OpenStreetMap", "license": "ODbL-1.0"}, "geometry": {"type": "MultiPolygon", "coordinates": [[[[114.0298171, 22.5536047], [114.030416, 22.5531626], [114.0305336, 22.5532985], [114.0299347, 22.5537406], [114.0298171, 22.5536047]]]]}}, {"type": "Feature", "id": "way/1429704756", "properties": {"tags": {"building": "terrace"}, "heightStatus": "unknown", "source": "OpenStreetMap", "license": "ODbL-1.0"}, "geometry": {"type": "MultiPolygon", "coordinates": [[[[114.02909, 22.554091], [114.0296491, 22.5536782], [114.0297667, 22.5538141], [114.0292076, 22.5542269], [114.02909, 22.554091]]]]}}, {"type": "Feature", "id": "way/1429704760", "properties": {"tags": {"building": "terrace"}, "heightStatus": "unknown", "source": "OpenStreetMap", "license": "ODbL-1.0"}, "geometry": {"type": "MultiPolygon", "coordinates": [[[[114.0292186, 22.5530635], [114.0295345, 22.5528437], [114.0296584, 22.5529956], [114.0293425, 22.5532154], [114.0292186, 22.5530635]]]]}}, {"type": "Feature", "id": "way/1429704761", "properties": {"tags": {"building": "terrace"}, "heightStatus": "unknown", "source": "OpenStreetMap", "license": "ODbL-1.0"}, "geometry": {"type": "MultiPolygon", "coordinates": [[[[114.0295164, 22.5533375], [114.0300194, 22.5529875], [114.0301433, 22.5531394], [114.0296403, 22.5534894], [114.0295164, 22.5533375]]]]}}, {"type": "Feature", "id": "way/1429704762", "properties": {"tags": {"building": "yes"}, "heightStatus": "unknown", "source": "OpenStreetMap", "license": "ODbL-1.0"}, "geometry": {"type": "MultiPolygon", "coordinates": [[[[114.0301412, 22.5539203], [114.0301533, 22.553799], [114.03045, 22.5538241], [114.0304455, 22.5538688], [114.0307437, 22.5536536], [114.0305704, 22.5534488], [114.0306827, 22.5533678], [114.0309345, 22.5536654], [114.0306985, 22.5538357], [114.0307655, 22.553915], [114.0307001, 22.5539623], [114.030633, 22.553883], [114.0305469, 22.5539451], [114.0305253, 22.55392], [114.0305007, 22.5539432], [114.0304657, 22.5539439], [114.0304401, 22.5539218], [114.0304379, 22.5539455], [114.0301412, 22.5539203]]]]}}, {"type": "Feature", "id": "way/1429704764", "properties": {"tags": {"building": "house"}, "heightStatus": "unknown", "source": "OpenStreetMap", "license": "ODbL-1.0"}, "geometry": {"type": "MultiPolygon", "coordinates": [[[[114.0288422, 22.5537587], [114.0289534, 22.5536734], [114.0289853, 22.5537089], [114.0290143, 22.5536867], [114.0291084, 22.5537913], [114.0289406, 22.5539201], [114.0288602, 22.5538308], [114.0288879, 22.5538095], [114.0288422, 22.5537587]]]]}}, {"type": "Feature", "id": "way/1429704765", "properties": {"tags": {"building": "house"}, "heightStatus": "unknown", "source": "OpenStreetMap", "license": "ODbL-1.0"}, "geometry": {"type": "MultiPolygon", "coordinates": [[[[114.029047, 22.5535993], [114.0291582, 22.553514], [114.0291902, 22.5535496], [114.0292192, 22.5535273], [114.0293133, 22.5536319], [114.0291454, 22.5537607], [114.0290651, 22.5536714], [114.0290928, 22.5536501], [114.029047, 22.5535993]]]]}}, {"type": "Feature", "id": "way/1429704766", "properties": {"tags": {"building": "house"}, "heightStatus": "unknown", "source": "OpenStreetMap", "license": "ODbL-1.0"}, "geometry": {"type": "MultiPolygon", "coordinates": [[[[114.0292629, 22.5534333], [114.029374, 22.553348], [114.029406, 22.5533836], [114.029435, 22.5533613], [114.0295291, 22.5534659], [114.0293613, 22.5535947], [114.0292809, 22.5535054], [114.0293086, 22.5534842], [114.0292629, 22.5534333]]]]}}, {"type": "Feature", "id": "way/1429863097", "properties": {"tags": {"addr:housename": "景发花园", "addr:housename:zh": "景发花园", "building": "apartments", "building:levels": "29", "name": "湖景阁", "name:zh": "湖景阁"}, "heightStatus": "levels_only_unverified", "source": "OpenStreetMap", "license": "ODbL-1.0"}, "geometry": {"type": "MultiPolygon", "coordinates": [[[[114.0339074, 22.5533491], [114.0339263, 22.5532203], [114.0339747, 22.5532264], [114.0339768, 22.553212], [114.0340154, 22.5532168], [114.0340211, 22.5531781], [114.0341638, 22.5531961], [114.0341581, 22.5532348], [114.0341966, 22.5532396], [114.034193, 22.5532638], [114.0342199, 22.5532671], [114.0342146, 22.5533027], [114.0341995, 22.5533008], [114.0342107, 22.553311], [114.0341021, 22.5534127], [114.0341253, 22.5534339], [114.0340665, 22.553489], [114.0340156, 22.5535366], [114.0339109, 22.5534412], [114.0339972, 22.5533604], [114.0339074, 22.5533491]]]]}}, {"type": "Feature", "id": "way/1429863098", "properties": {"tags": {"addr:housename": "景发花园", "addr:housename:zh": "景发花园", "building": "apartments", "building:levels": "29", "name": "怡景阁", "name:zh": "怡景阁"}, "heightStatus": "levels_only_unverified", "source": "OpenStreetMap", "license": "ODbL-1.0"}, "geometry": {"type": "MultiPolygon", "coordinates": [[[[114.0340665, 22.553489], [114.0341253, 22.5534339], [114.0341949, 22.5534972], [114.0342955, 22.553403], [114.0343917, 22.5534907], [114.0343644, 22.5535163], [114.0343824, 22.5535326], [114.0343551, 22.5535582], [114.0344009, 22.5535999], [114.0342986, 22.5536957], [114.0342528, 22.553654], [114.0342255, 22.5536796], [114.0342075, 22.5536632], [114.0341802, 22.5536888], [114.0340839, 22.5536011], [114.0341361, 22.5535523], [114.0340665, 22.553489]]]]}}, {"type": "Feature", "id": "way/1429863110", "properties": {"tags": {"addr:housename": "设计院宿舍", "addr:housename:zh": "设计院宿舍", "building": "apartments", "building:levels": "7", "name": "2栋", "name:zh": "2栋"}, "heightStatus": "levels_only_unverified", "source": "OpenStreetMap", "license": "ODbL-1.0"}, "geometry": {"type": "MultiPolygon", "coordinates": [[[[114.0339841, 22.5527164], [114.034004, 22.5526094], [114.0344961, 22.5526876], [114.0344761, 22.5527946], [114.0339841, 22.5527164]]]]}}, {"type": "Feature", "id": "way/1429863111", "properties": {"tags": {"addr:housename": "设计院宿舍", "addr:housename:zh": "设计院宿舍", "building": "apartments", "building:levels": "7", "name": "1栋", "name:zh": "1栋"}, "heightStatus": "levels_only_unverified", "source": "OpenStreetMap", "license": "ODbL-1.0"}, "geometry": {"type": "MultiPolygon", "coordinates": [[[[114.0339367, 22.5529958], [114.0339566, 22.5528888], [114.0344981, 22.5529748], [114.0344781, 22.5530818], [114.0339367, 22.5529958]]]]}}, {"type": "Feature", "id": "way/1429863114", "properties": {"tags": {"addr:housename": "机场小区", "addr:housename:zh": "机场小区", "building": "apartments", "building:levels": "7", "name": "5栋", "name:zh": "5栋"}, "heightStatus": "levels_only_unverified", "source": "OpenStreetMap", "license": "ODbL-1.0"}, "geometry": {"type": "MultiPolygon", "coordinates": [[[[114.0340474, 22.5523851], [114.0340616, 22.5523089], [114.0340999, 22.552315], [114.0341021, 22.5523037], [114.0342233, 22.5523229], [114.0342212, 22.5523342], [114.0342988, 22.5523454], [114.0343016, 22.5523303], [114.0343669, 22.5523407], [114.0343641, 22.5523557], [114.0344408, 22.5523679], [114.0344436, 22.5523529], [114.034509, 22.5523633], [114.0345062, 22.5523783], [114.0345445, 22.5523844], [114.0345387, 22.552416], [114.034577, 22.5524221], [114.0345791, 22.5524108], [114.0347003, 22.55243], [114.0346982, 22.5524413], [114.0347365, 22.5524474], [114.0347224, 22.5525236], [114.0345245, 22.5524922], [114.0345277, 22.5524749], [114.0342436, 22.5524297], [114.034246, 22.5524166], [114.0340474, 22.5523851]]]]}}, {"type": "Feature", "id": "way/1429863117", "properties": {"tags": {"addr:housename": "龙塘小区", "addr:housename:zh": "龙塘小区", "building": "apartments", "building:levels": "7", "name": "1栋", "name:zh": "1栋"}, "heightStatus": "levels_only_unverified", "source": "OpenStreetMap", "license": "ODbL-1.0"}, "geometry": {"type": "MultiPolygon", "coordinates": [[[[114.0342639, 22.5513398], [114.0342785, 22.5512629], [114.0343518, 22.5512747], [114.0343562, 22.5512514], [114.0343034, 22.5512429], [114.0343165, 22.5511738], [114.0345024, 22.5512039], [114.0344893, 22.5512729], [114.0344366, 22.5512644], [114.0344322, 22.5512877], [114.0345054, 22.5512995], [114.0344909, 22.5513765], [114.034436, 22.5513676], [114.0344401, 22.5513459], [114.0343229, 22.5513269], [114.0343188, 22.5513487], [114.0342639, 22.5513398]]]]}}, {"type": "Feature", "id": "way/1429863118", "properties": {"tags": {"addr:housename": "龙塘小区", "addr:housename:zh": "龙塘小区", "building": "apartments", "building:levels": "7", "name": "2栋", "name:zh": "2栋"}, "heightStatus": "levels_only_unverified", "source": "OpenStreetMap", "license": "ODbL-1.0"}, "geometry": {"type": "MultiPolygon", "coordinates": [[[[114.0342088, 22.5516646], [114.0342234, 22.5515876], [114.0342967, 22.5515995], [114.0343011, 22.5515761], [114.0342484, 22.5515676], [114.0342614, 22.5514986], [114.0344473, 22.5515286], [114.0344342, 22.5515976], [114.0343815, 22.5515891], [114.0343771, 22.5516124], [114.0344504, 22.5516243], [114.0344358, 22.5517012], [114.0343809, 22.5516924], [114.034385, 22.5516706], [114.0342679, 22.5516517], [114.0342637, 22.5516735], [114.0342088, 22.5516646]]]]}}, {"type": "Feature", "id": "way/1429863119", "properties": {"tags": {"addr:housename": "机场小区", "addr:housename:zh": "机场小区", "building": "apartments", "building:levels": "7", "name": "7栋", "name:zh": "7栋"}, "heightStatus": "levels_only_unverified", "source": "OpenStreetMap", "license": "ODbL-1.0"}, "geometry": {"type": "MultiPolygon", "coordinates": [[[[114.0345857, 22.5528147], [114.0345999, 22.5527397], [114.0346338, 22.5527452], [114.0346358, 22.5527349], [114.0346813, 22.5527422], [114.034684, 22.5527279], [114.0346566, 22.5527235], [114.0346627, 22.552691], [114.0346435, 22.5526879], [114.0346552, 22.5526263], [114.0348116, 22.5526516], [114.0347999, 22.5527132], [114.0347808, 22.5527101], [114.0347746, 22.5527425], [114.0347472, 22.5527381], [114.0347445, 22.5527524], [114.03479, 22.5527598], [114.034788, 22.5527701], [114.034822, 22.5527756], [114.0348078, 22.5528506], [114.034745, 22.5528405], [114.0347312, 22.5528383], [114.034735, 22.552818], [114.0346661, 22.5528069], [114.0346622, 22.5528271], [114.0345857, 22.5528147]]]]}}, {"type": "Feature", "id": "way/1429863123", "properties": {"tags": {"addr:housename": "机场小区", "addr:housename:zh": "机场小区", "building": "apartments", "building:levels": "7", "name": "3栋", "name:zh": "3栋"}, "heightStatus": "levels_only_unverified", "source": "OpenStreetMap", "license": "ODbL-1.0"}, "geometry": {"type": "MultiPolygon", "coordinates": [[[[114.0341065, 22.5521325], [114.0341191, 22.5520655], [114.0341575, 22.5520717], [114.0341604, 22.5520561], [114.0342704, 22.5520739], [114.0342675, 22.5520895], [114.0343441, 22.5521018], [114.0343471, 22.5520862], [114.0344571, 22.552104], [114.0344541, 22.5521196], [114.0344924, 22.5521258], [114.034487, 22.5521548], [114.0345253, 22.5521609], [114.0345281, 22.5521459], [114.0345935, 22.5521565], [114.0345906, 22.5521715], [114.0346289, 22.5521777], [114.0346118, 22.5522681], [114.0344698, 22.5522452], [114.0344798, 22.5521928], [114.0341065, 22.5521325]]]]}}, {"type": "Feature", "id": "way/1429863126", "properties": {"tags": {"addr:housename": "龙塘小区", "addr:housename:zh": "龙塘小区", "building": "apartments", "building:levels": "7", "name": "3栋", "name:zh": "3栋"}, "heightStatus": "levels_only_unverified", "source": "OpenStreetMap", "license": "ODbL-1.0"}, "geometry": {"type": "MultiPolygon", "coordinates": [[[[114.0341653, 22.5519079], [114.0341821, 22.5518175], [114.0342204, 22.5518236], [114.0342232, 22.5518085], [114.0342886, 22.5518189], [114.0342858, 22.5518339], [114.0343625, 22.5518461], [114.0343653, 22.5518311], [114.0344307, 22.5518415], [114.0344279, 22.5518565], [114.0344662, 22.5518626], [114.0344493, 22.5519531], [114.0341653, 22.5519079]]]]}}, {"type": "Feature", "id": "way/1445336362", "properties": {"tags": {"building": "apartments"}, "heightStatus": "unknown", "source": "OpenStreetMap", "license": "ODbL-1.0"}, "geometry": {"type": "MultiPolygon", "coordinates": [[[[114.0343006, 22.5453325], [114.0343196, 22.5452332], [114.0346294, 22.5452835], [114.0346647, 22.5450985], [114.0343619, 22.5450493], [114.0343841, 22.5449329], [114.0346952, 22.5449835], [114.0347287, 22.5448076], [114.0344223, 22.5447578], [114.0344388, 22.5446712], [114.03482, 22.5447333], [114.0346934, 22.5453965], [114.0343006, 22.5453325]]]]}}, {"type": "Feature", "id": "way/1445336381", "properties": {"tags": {"addr:housename": "中投国际商务中心", "addr:housename:zh": "中投国际商务中心", "building": "office", "building:levels": "22", "building:material": "glass", "height": "100", "name": "A座", "name:en": "Block A", "name:zh": "A座"}, "heightStatus": "height_tag_unverified", "source": "OpenStreetMap", "license": "ODbL-1.0"}, "geometry": {"type": "MultiPolygon", "coordinates": [[[[114.0337669, 22.5473552], [114.0338153, 22.5471019], [114.0342105, 22.5471663], [114.0341621, 22.5474196], [114.0337669, 22.5473552]]]]}}, {"type": "Feature", "id": "way/1445336382", "properties": {"tags": {"building": "office", "building:levels": "4", "height": "18"}, "heightStatus": "height_tag_unverified", "source": "OpenStreetMap", "license": "ODbL-1.0"}, "geometry": {"type": "MultiPolygon", "coordinates": [[[[114.0338673, 22.5469315], [114.0339598, 22.5464401], [114.0343254, 22.5465046], [114.0342175, 22.5470349], [114.0338673, 22.5469315]]]]}}, {"type": "Feature", "id": "way/1445336383", "properties": {"tags": {"addr:housename": "中投国际商务中心", "addr:housename:zh": "中投国际商务中心", "building": "office", "building:levels": "12", "building:material": "glass", "height": "54", "layer": "1", "name": "B座", "name:en": "Block B", "name:zh": "B座"}, "heightStatus": "height_tag_unverified", "source": "OpenStreetMap", "license": "ODbL-1.0"}, "geometry": {"type": "MultiPolygon", "coordinates": [[[[114.0338914, 22.5469034], [114.0339668, 22.5464671], [114.0341121, 22.5464886], [114.0340366, 22.5469248], [114.0338914, 22.5469034]]]]}}]}