{"type": "FeatureCollection", "features": [{"type": "Feature", "id": "way/246568338", "properties": {"tags": {"building": "roof", "layer": "1"}, "heightStatus": "unknown", "source": "OpenStreetMap", "license": "ODbL-1.0"}, "geometry": {"type": "MultiPolygon", "coordinates": [[[[114.0297544, 22.5625853], [114.0297869, 22.5624024], [114.0299581, 22.5624283], [114.0299255, 22.5626112], [114.0297544, 22.5625853]]]]}}, {"type": "Feature", "id": "way/270684529", "properties": {"tags": {"building": "yes"}, "heightStatus": "unknown", "source": "OpenStreetMap", "license": "ODbL-1.0"}, "geometry": {"type": "MultiPolygon", "coordinates": [[[[114.0258212, 22.5576011], [114.0258775, 22.5573429], [114.0263439, 22.5574297], [114.0263223, 22.5575289], [114.0264574, 22.557554], [114.0264227, 22.557713], [114.0258212, 22.5576011]]]]}}, {"type": "Feature", "id": "way/270684533", "properties": {"tags": {"addr:city": "深圳市", "addr:district": "福田区", "addr:housenumber": "2001", "addr:province": "广东省", "addr:street": "香梅北路", "branch": "香蜜湖店", "brand": "沃尔玛", "brand:en": "Walmart", "brand:wikidata": "Q483551", "brand:zh": "沃尔玛", "building": "yes", "check_date": "2024-09-28", "currency:CNY": "yes", "loc_name": "景田沃尔玛", "name": "沃尔玛", "name:en": "Walmart", "name:zh": "沃尔玛", "note": "中国第一家山姆会员商店原址，后迁至农林路", "official_name": "沃尔玛购物广场", "old_name": "山姆会员店", "opening_hours": "08:00-22:30", "payment:cash": "yes", "payment:credit_cards": "yes", "payment:debit_cards": "yes", "shop": "supermarket", "source": "local knowledge", "toilets": "yes", "wheelchair": "yes"}, "heightStatus": "unknown", "source": "OpenStreetMap", "license": "ODbL-1.0"}, "geometry": {"type": "MultiPolygon", "coordinates": [[[[114.0258775, 22.5573429], [114.0260694, 22.5564636], [114.0270447, 22.5566451], [114.0269635, 22.5570173], [114.0268482, 22.5569958], [114.0267375, 22.557503], [114.0263439, 22.5574297], [114.0258775, 22.5573429]]]]}}, {"type": "Feature", "id": "way/296009122", "properties": {"tags": {"addr:city": "深圳市", "addr:district": "福田区", "addr:housenumber": "7043", "addr:province": "广东省", "addr:street": "北环大道", "building": "commercial", "name": "青海大厦"}, "heightStatus": "unknown", "source": "OpenStreetMap", "license": "ODbL-1.0"}, "geometry": {"type": "MultiPolygon", "coordinates": [[[[114.0278556, 22.5605642], [114.0279067, 22.5603227], [114.0282849, 22.5603896], [114.0282393, 22.5606249], [114.0278556, 22.5605642]]]]}}, {"type": "Feature", "id": "way/296009867", "properties": {"tags": {"addr:city": "深圳市", "addr:district": "福田区", "addr:housenumber": "7039", "addr:province": "广东省", "addr:street": "北环大道", "building": "commercial", "name": "民华大厦"}, "heightStatus": "unknown", "source": "OpenStreetMap", "license": "ODbL-1.0"}, "geometry": {"type": "MultiPolygon", "coordinates": [[[[114.0290197, 22.5609605], [114.0291057, 22.5605184], [114.0294061, 22.5605704], [114.0293255, 22.5610101], [114.0290197, 22.5609605]]]]}}, {"type": "Feature", "id": "way/296225529", "properties": {"tags": {"building": "residential"}, "heightStatus": "unknown", "source": "OpenStreetMap", "license": "ODbL-1.0"}, "geometry": {"type": "MultiPolygon", "coordinates": [[[[114.0283417, 22.5607917], [114.028378, 22.5606071], [114.0287141, 22.5606617], [114.0287005, 22.5607246], [114.0288913, 22.5607498], [114.0288731, 22.5608714], [114.0283417, 22.5607917]]]]}}, {"type": "Feature", "id": "way/296471451", "properties": {"tags": {"addr:city": "深圳市", "addr:district": "福田区", "addr:housenumber": "48", "addr:province": "广东省", "addr:street": "景田北街", "building": "yes", "name": "景田银座", "shop": "mall"}, "heightStatus": "unknown", "source": "OpenStreetMap", "license": "ODbL-1.0"}, "geometry": {"type": "MultiPolygon", "coordinates": [[[[114.0309033, 22.5590116], [114.0311695, 22.5587912], [114.0315513, 22.5591846], [114.0312851, 22.559405], [114.0309033, 22.5590116]]]]}}, {"type": "Feature", "id": "way/296483759", "properties": {"tags": {"addr:city": "深圳市", "addr:district": "福田区", "addr:housenumber": "7003", "addr:province": "广东省", "addr:street": "北环大道", "building": "yes", "name": "中审大厦", "office": "government"}, "heightStatus": "unknown", "source": "OpenStreetMap", "license": "ODbL-1.0"}, "geometry": {"type": "MultiPolygon", "coordinates": [[[[114.0318622, 22.5613597], [114.0319215, 22.5610749], [114.0322735, 22.561126], [114.03223, 22.5614145], [114.0318622, 22.5613597]]]]}}, {"type": "Feature", "id": "way/296483760", "properties": {"tags": {"addr:city": "深圳市", "addr:district": "福田区", "addr:housenumber": "7001", "addr:province": "广东省", "addr:street": "北环大道", "building": "yes", "name": "中国石化大厦", "name:en": "Sinopec Building", "name:zh": "中国石化大厦", "office": "yes"}, "heightStatus": "unknown", "source": "OpenStreetMap", "license": "ODbL-1.0"}, "geometry": {"type": "MultiPolygon", "coordinates": [[[[114.032326, 22.5614979], [114.0323664, 22.5612652], [114.0324039, 22.5610348], [114.0327753, 22.5610844], [114.0327633, 22.5611537], [114.0330503, 22.5611983], [114.0330182, 22.5614014], [114.0329967, 22.5614039], [114.0329913, 22.5614435], [114.0329591, 22.561441], [114.0329538, 22.5614856], [114.0328492, 22.5615599], [114.0326963, 22.5615401], [114.032326, 22.5614979]]]]}}, {"type": "Feature", "id": "way/296483765", "properties": {"tags": {"addr:city": "深圳市", "addr:district": "福田区", "addr:housenumber": "2008", "addr:province": "广东省", "addr:street": "香梅路", "building": "residential", "name": "天明居"}, "heightStatus": "unknown", "source": "OpenStreetMap", "license": "ODbL-1.0"}, "geometry": {"type": "MultiPolygon", "coordinates": [[[[114.0298179, 22.5568067], [114.0301815, 22.5565087], [114.0303166, 22.5566494], [114.0300768, 22.556846], [114.0301894, 22.5569632], [114.0300657, 22.5570646], [114.0298179, 22.5568067]]]]}}, {"type": "Feature", "id": "way/296483768", "properties": {"tags": {"addr:city": "深圳市", "addr:district": "福田区", "addr:housenumber": "21", "addr:province": "广东省", "addr:street": "景田北街", "building": "commercial", "name": "名进投资大厦"}, "heightStatus": "unknown", "source": "OpenStreetMap", "license": "ODbL-1.0"}, "geometry": {"type": "MultiPolygon", "coordinates": [[[[114.0309833, 22.5579339], [114.0310655, 22.5578637], [114.0311494, 22.5579476], [114.0311709, 22.5579292], [114.0313967, 22.5581548], [114.0312931, 22.5582433], [114.0309833, 22.5579339]]]]}}, {"type": "Feature", "id": "way/296487084", "properties": {"tags": {"amenity": "parking", "building": "parking", "parking": "multi-storey", "supervised": "yes"}, "heightStatus": "unknown", "source": "OpenStreetMap", "license": "ODbL-1.0"}, "geometry": {"type": "MultiPolygon", "coordinates": [[[[114.0294385, 22.5610155], [114.0295186, 22.5605795], [114.029876, 22.5606343], [114.0297959, 22.5610724], [114.0294385, 22.5610155]]]]}}, {"type": "Feature", "id": "way/364716846", "properties": {"tags": {"addr:city": "广东省深圳市", "addr:housenumber": "7045", "addr:street": "北环大道 Beihuan Boulevard", "building": "residential", "name": "哈尔滨大厦"}, "heightStatus": "unknown", "source": "OpenStreetMap", "license": "ODbL-1.0"}, "geometry": {"type": "MultiPolygon", "coordinates": [[[[114.0272683, 22.5606447], [114.0273059, 22.5605035], [114.0273971, 22.5605184], [114.0274212, 22.5604119], [114.0273247, 22.560392], [114.0273622, 22.5602434], [114.0277726, 22.5603202], [114.027735, 22.5604738], [114.0276251, 22.5604564], [114.0275956, 22.560563], [114.0277082, 22.5605828], [114.027676, 22.560719], [114.0272683, 22.5606447]]]]}}, {"type": "Feature", "id": "way/364716850", "properties": {"tags": {"addr:city": "广东省深圳市", "addr:housenumber": "7057", "addr:street": "北环大道 Beihuan Boulevard", "building": "residential", "name": "武警大厦"}, "heightStatus": "unknown", "source": "OpenStreetMap", "license": "ODbL-1.0"}, "geometry": {"type": "MultiPolygon", "coordinates": [[[[114.0264681, 22.5604477], [114.0265267, 22.5602543], [114.0269856, 22.5603586], [114.0269347, 22.5605543], [114.0264681, 22.5604477]]]]}}, {"type": "Feature", "id": "way/364719371", "properties": {"tags": {"addr:housename": "景秀年华家园", "addr:housename:en": "Jingxiu Nianhua Garden", "addr:housename:zh": "景秀年华家园", "building": "apartments", "name": "C栋", "name:en": "Block C", "name:zh": "C栋"}, "heightStatus": "unknown", "source": "OpenStreetMap", "license": "ODbL-1.0"}, "geometry": {"type": "MultiPolygon", "coordinates": [[[[114.02601, 22.5602797], [114.0260379, 22.5601587], [114.0262875, 22.5602077], [114.02624, 22.560414], [114.0260679, 22.5603802], [114.0260875, 22.5602949], [114.02601, 22.5602797]]]]}}, {"type": "Feature", "id": "way/364719372", "properties": {"tags": {"addr:housename": "景秀年华家园", "addr:housename:en": "Jingxiu Nianhua Garden", "addr:housename:zh": "景秀年华家园", "building": "apartments", "name": "D栋", "name:en": "Block D", "name:zh": "D栋"}, "heightStatus": "unknown", "source": "OpenStreetMap", "license": "ODbL-1.0"}, "geometry": {"type": "MultiPolygon", "coordinates": [[[[114.0257761, 22.5603173], [114.0258223, 22.5601164], [114.0260379, 22.5601587], [114.02601, 22.5602797], [114.0259383, 22.5602656], [114.0259199, 22.5603455], [114.0257761, 22.5603173]]]]}}, {"type": "Feature", "id": "way/364719373", "properties": {"tags": {"addr:housename": "景秀年华家园", "addr:housename:en": "Jingxiu Nianhua Garden", "addr:housename:zh": "景秀年华家园", "building": "apartments", "name": "A栋", "name:en": "Block A", "name:zh": "A栋"}, "heightStatus": "unknown", "source": "OpenStreetMap", "license": "ODbL-1.0"}, "geometry": {"type": "MultiPolygon", "coordinates": [[[[114.0259316, 22.5597963], [114.0261193, 22.5595659], [114.0261435, 22.5595857], [114.0261917, 22.5595486], [114.0262776, 22.5596402], [114.0261461, 22.5597566], [114.0261059, 22.5597145], [114.026004, 22.5598384], [114.0259316, 22.5597963]]]]}}, {"type": "Feature", "id": "way/364719374", "properties": {"tags": {"addr:housename": "景秀年华家园", "addr:housename:en": "Jingxiu Nianhua Garden", "addr:housename:zh": "景秀年华家园", "building": "apartments", "name": "B栋", "name:en": "Block B", "name:zh": "B栋"}, "heightStatus": "unknown", "source": "OpenStreetMap", "license": "ODbL-1.0"}, "geometry": {"type": "MultiPolygon", "coordinates": [[[[114.0261461, 22.5597566], [114.0262776, 22.5596402], [114.0263956, 22.5597839], [114.026358, 22.5598185], [114.026401, 22.5598607], [114.0263473, 22.5600613], [114.0262159, 22.560034], [114.0262534, 22.5598582], [114.0261461, 22.5597566]]]]}}, {"type": "Feature", "id": "way/364719375", "properties": {"tags": {"building": "residential", "name": "景华苑"}, "heightStatus": "unknown", "source": "OpenStreetMap", "license": "ODbL-1.0"}, "geometry": {"type": "MultiPolygon", "coordinates": [[[[114.0264311, 22.5601917], [114.0264743, 22.560001], [114.0271213, 22.5601319], [114.0270658, 22.5603453], [114.0268717, 22.5602799], [114.0266869, 22.56024], [114.0264311, 22.5601917]]]]}}, {"type": "Feature", "id": "way/364721202", "properties": {"tags": {"building": "residential"}, "heightStatus": "unknown", "source": "OpenStreetMap", "license": "ODbL-1.0"}, "geometry": {"type": "MultiPolygon", "coordinates": [[[[114.0326725, 22.5604075], [114.032761, 22.5603332], [114.0332787, 22.5608558], [114.0331821, 22.5609301], [114.0326725, 22.5604075]]]]}}, {"type": "Feature", "id": "way/364721203", "properties": {"tags": {"building": "residential", "ref": "4"}, "heightStatus": "unknown", "source": "OpenStreetMap", "license": "ODbL-1.0"}, "geometry": {"type": "MultiPolygon", "coordinates": [[[[114.0315594, 22.5606601], [114.0315835, 22.5605289], [114.0320717, 22.5605957], [114.0320449, 22.5607245], [114.0315594, 22.5606601]]]]}}, {"type": "Feature", "id": "way/364721204", "properties": {"tags": {"building": "residential", "ref": "3"}, "heightStatus": "unknown", "source": "OpenStreetMap", "license": "ODbL-1.0"}, "geometry": {"type": "MultiPolygon", "coordinates": [[[[114.0320824, 22.5605066], [114.0322675, 22.5603679], [114.0323828, 22.5604967], [114.0321951, 22.5606453], [114.0320824, 22.5605066]]]]}}, {"type": "Feature", "id": "way/364721205", "properties": {"tags": {"building": "residential", "ref": "2"}, "heightStatus": "unknown", "source": "OpenStreetMap", "license": "ODbL-1.0"}, "geometry": {"type": "MultiPolygon", "coordinates": [[[[114.0321522, 22.5601226], [114.03223, 22.5600533], [114.0322809, 22.5601028], [114.0322541, 22.5601177], [114.0322916, 22.5601598], [114.032348, 22.5601127], [114.0324231, 22.5601895], [114.0322675, 22.5603183], [114.0321897, 22.5602366], [114.0322675, 22.5601722], [114.0322326, 22.56014], [114.0321924, 22.5601672], [114.0321522, 22.5601226]]]]}}, {"type": "Feature", "id": "way/364721206", "properties": {"tags": {"building": "residential", "ref": "5"}, "heightStatus": "unknown", "source": "OpenStreetMap", "license": "ODbL-1.0"}, "geometry": {"type": "MultiPolygon", "coordinates": [[[[114.0314035, 22.5603735], [114.0317923, 22.5600495], [114.031884, 22.5601326], [114.0314897, 22.5604669], [114.0314035, 22.5603735]]]]}}, {"type": "Feature", "id": "way/364721207", "properties": {"tags": {"building": "residential", "ref": "C;D"}, "heightStatus": "unknown", "source": "OpenStreetMap", "license": "ODbL-1.0"}, "geometry": {"type": "MultiPolygon", "coordinates": [[[[114.0310653, 22.5599942], [114.0310711, 22.559892], [114.0312096, 22.5598988], [114.0312164, 22.559779], [114.0313167, 22.5597839], [114.0313087, 22.5599233], [114.0314379, 22.5599296], [114.0314328, 22.5600181], [114.0313024, 22.5600116], [114.031295, 22.5601393], [114.0311875, 22.560134], [114.0311952, 22.5600006], [114.0310653, 22.5599942]]]]}}, {"type": "Feature", "id": "way/364721208", "properties": {"tags": {"building": "residential", "ref": "A;B"}, "heightStatus": "unknown", "source": "OpenStreetMap", "license": "ODbL-1.0"}, "geometry": {"type": "MultiPolygon", "coordinates": [[[[114.0313892, 22.5596278], [114.0313918, 22.559551], [114.0315046, 22.5595542], [114.0315083, 22.5594427], [114.0316025, 22.5594454], [114.0315987, 22.5595577], [114.0317744, 22.5595628], [114.0317777, 22.5594665], [114.0318688, 22.5594691], [114.0318656, 22.5595644], [114.0319743, 22.5595675], [114.0319716, 22.5596483], [114.0318668, 22.5596453], [114.0318636, 22.5597418], [114.0317489, 22.5597385], [114.0317521, 22.5596439], [114.0315921, 22.5596393], [114.0315889, 22.5597357], [114.0314976, 22.5597331], [114.031501, 22.559631], [114.0313892, 22.5596278]]]]}}, {"type": "Feature", "id": "way/364729978", "properties": {"tags": {"building": "residential"}, "heightStatus": "unknown", "source": "OpenStreetMap", "license": "ODbL-1.0"}, "geometry": {"type": "MultiPolygon", "coordinates": [[[[114.0295429, 22.5583863], [114.0300122, 22.5580154], [114.0300589, 22.5580693], [114.0297063, 22.5583539], [114.0297951, 22.5584423], [114.0296853, 22.558535], [114.0295429, 22.5583863]]]]}}, {"type": "Feature", "id": "way/364729979", "properties": {"tags": {"building": "residential"}, "heightStatus": "unknown", "source": "OpenStreetMap", "license": "ODbL-1.0"}, "geometry": {"type": "MultiPolygon", "coordinates": [[[[114.029732, 22.558589], [114.0302737, 22.5581577], [114.0303741, 22.558259], [114.0298348, 22.5586946], [114.029732, 22.558589]]]]}}, {"type": "Feature", "id": "way/364729980", "properties": {"tags": {"building": "residential"}, "heightStatus": "unknown", "source": "OpenStreetMap", "license": "ODbL-1.0"}, "geometry": {"type": "MultiPolygon", "coordinates": [[[[114.0300939, 22.5579464], [114.0302924, 22.5577868], [114.030568, 22.5580908], [114.0305306, 22.5581189], [114.0305516, 22.5581383], [114.0304862, 22.55819], [114.0304652, 22.5581685], [114.0304419, 22.55819], [114.0303882, 22.5581361], [114.0304068, 22.558121], [114.0302177, 22.5579313], [114.0301383, 22.557996], [114.0300939, 22.5579464]]]]}}, {"type": "Feature", "id": "way/364729981", "properties": {"tags": {"building": "residential"}, "heightStatus": "unknown", "source": "OpenStreetMap", "license": "ODbL-1.0"}, "geometry": {"type": "MultiPolygon", "coordinates": [[[[114.0302308, 22.5570996], [114.0304319, 22.5569551], [114.0305665, 22.5571149], [114.0303654, 22.5572594], [114.0302308, 22.5570996]]]]}}, {"type": "Feature", "id": "way/364729982", "properties": {"tags": {"building": "residential"}, "heightStatus": "unknown", "source": "OpenStreetMap", "license": "ODbL-1.0"}, "geometry": {"type": "MultiPolygon", "coordinates": [[[[114.030395, 22.5573028], [114.03058, 22.5571493], [114.0307141, 22.5572261], [114.0307946, 22.557236], [114.0310333, 22.5571939], [114.031095, 22.5573524], [114.0309743, 22.5574168], [114.0307892, 22.5574316], [114.0305988, 22.5574019], [114.030395, 22.5573028]]]]}}, {"type": "Feature", "id": "way/364729983", "properties": {"tags": {"building": "residential"}, "heightStatus": "unknown", "source": "OpenStreetMap", "license": "ODbL-1.0"}, "geometry": {"type": "MultiPolygon", "coordinates": [[[[114.0310119, 22.557013], [114.0312667, 22.5568074], [114.0314732, 22.5570229], [114.0312211, 22.5572261], [114.0310119, 22.557013]]]]}}, {"type": "Feature", "id": "way/364729984", "properties": {"tags": {"building": "residential"}, "heightStatus": "unknown", "source": "OpenStreetMap", "license": "ODbL-1.0"}, "geometry": {"type": "MultiPolygon", "coordinates": [[[[114.0313311, 22.5567604], [114.0315832, 22.5565474], [114.0317924, 22.5567529], [114.0315269, 22.556961], [114.0313311, 22.5567604]]]]}}, {"type": "Feature", "id": "way/364729985", "properties": {"tags": {"building": "residential"}, "heightStatus": "unknown", "source": "OpenStreetMap", "license": "ODbL-1.0"}, "geometry": {"type": "MultiPolygon", "coordinates": [[[[114.0316851, 22.5564904], [114.0319211, 22.5562947], [114.0320982, 22.5564854], [114.0318487, 22.5566811], [114.0316851, 22.5564904]]]]}}, {"type": "Feature", "id": "way/364729986", "properties": {"tags": {"building": "yes", "shop": "department_store"}, "heightStatus": "unknown", "source": "OpenStreetMap", "license": "ODbL-1.0"}, "geometry": {"type": "MultiPolygon", "coordinates": [[[[114.0306122, 22.5561486], [114.0310253, 22.5558018], [114.0310923, 22.5558389], [114.0311755, 22.5558414], [114.0312506, 22.5558439], [114.0313606, 22.5557621], [114.0314249, 22.555834], [114.0308107, 22.5563566], [114.0306122, 22.5561486]]]]}}, {"type": "Feature", "id": "way/364729989", "properties": {"tags": {"building": "school"}, "heightStatus": "unknown", "source": "OpenStreetMap", "license": "ODbL-1.0"}, "geometry": {"type": "MultiPolygon", "coordinates": [[[[114.0299507, 22.5599675], [114.0299815, 22.5599333], [114.0299877, 22.559885], [114.0300062, 22.559848], [114.0300339, 22.5598025], [114.0300801, 22.5597655], [114.0300863, 22.5597285], [114.0305022, 22.5597342], [114.0306409, 22.5598651], [114.03057, 22.559922], [114.0304776, 22.5598224], [114.0301448, 22.5598167], [114.0300647, 22.559939], [114.0300801, 22.5599817], [114.0303235, 22.5599874], [114.0303328, 22.5599618], [114.0304991, 22.5599675], [114.0305022, 22.5599931], [114.0304344, 22.5600528], [114.0303944, 22.5600528], [114.0303975, 22.5600927], [114.0300678, 22.560087], [114.0299507, 22.5599675]]]]}}, {"type": "Feature", "id": "way/364729991", "properties": {"tags": {"building": "kindergarten", "name": "红蜻蜓幼儿园"}, "heightStatus": "unknown", "source": "OpenStreetMap", "license": "ODbL-1.0"}, "geometry": {"type": "MultiPolygon", "coordinates": [[[[114.034221, 22.5576514], [114.0342673, 22.557603], [114.0342241, 22.5575632], [114.034409, 22.5573953], [114.0345076, 22.5574921], [114.0346154, 22.5573982], [114.034828, 22.5575974], [114.0345569, 22.5578307], [114.0345292, 22.5578022], [114.0344614, 22.5578563], [114.034221, 22.5576514]]]]}}, {"type": "Feature", "id": "way/506868154", "properties": {"tags": {"building": "residential"}, "heightStatus": "unknown", "source": "OpenStreetMap", "license": "ODbL-1.0"}, "geometry": {"type": "MultiPolygon", "coordinates": [[[[114.0278367, 22.559811], [114.027999, 22.559676], [114.0280614, 22.5597361], [114.0280922, 22.5597658], [114.0279386, 22.5599064], [114.0279246, 22.5598933], [114.0278494, 22.5598229], [114.0278367, 22.559811]]]]}}, {"type": "Feature", "id": "way/506868157", "properties": {"tags": {"building": "residential"}, "heightStatus": "unknown", "source": "OpenStreetMap", "license": "ODbL-1.0"}, "geometry": {"type": "MultiPolygon", "coordinates": [[[[114.0276583, 22.5599448], [114.0277428, 22.5598704], [114.0277643, 22.5598927], [114.0278494, 22.5598229], [114.0279246, 22.5598933], [114.0278783, 22.5599361], [114.0278058, 22.5599547], [114.0278166, 22.5599881], [114.027893, 22.5599658], [114.0279024, 22.5599893], [114.0279708, 22.5599992], [114.0279575, 22.5600803], [114.0278372, 22.5600599], [114.0278434, 22.5600277], [114.0277521, 22.5600454], [114.0277281, 22.559972], [114.0276758, 22.5599955], [114.0276583, 22.5599448]]]]}}, {"type": "Feature", "id": "way/506868159", "properties": {"tags": {"building": "residential"}, "heightStatus": "unknown", "source": "OpenStreetMap", "license": "ODbL-1.0"}, "geometry": {"type": "MultiPolygon", "coordinates": [[[[114.0280614, 22.5597361], [114.0281398, 22.5596698], [114.0282055, 22.5597355], [114.0281291, 22.5597999], [114.0280922, 22.5597658], [114.0280614, 22.5597361]]]]}}, {"type": "Feature", "id": "way/506868161", "properties": {"tags": {"building": "residential"}, "heightStatus": "unknown", "source": "OpenStreetMap", "license": "ODbL-1.0"}, "geometry": {"type": "MultiPolygon", "coordinates": [[[[114.0287393, 22.5595831], [114.0289109, 22.5594506], [114.0289887, 22.5595447], [114.0288197, 22.5596785], [114.0287393, 22.5595831]]]]}}, {"type": "Feature", "id": "way/506868163", "properties": {"tags": {"building": "residential"}, "heightStatus": "unknown", "source": "OpenStreetMap", "license": "ODbL-1.0"}, "geometry": {"type": "MultiPolygon", "coordinates": [[[[114.0286279, 22.5594246], [114.0287433, 22.559328], [114.0288586, 22.5594617], [114.0287393, 22.5595522], [114.0286279, 22.5594246]]]]}}, {"type": "Feature", "id": "way/506868165", "properties": {"tags": {"building": "residential"}, "heightStatus": "unknown", "source": "OpenStreetMap", "license": "ODbL-1.0"}, "geometry": {"type": "MultiPolygon", "coordinates": [[[[114.0282873, 22.5594395], [114.0284254, 22.559328], [114.0285113, 22.5594209], [114.0283745, 22.5595261], [114.0282873, 22.5594395]]]]}}, {"type": "Feature", "id": "way/506868167", "properties": {"tags": {"building": "residential"}, "heightStatus": "unknown", "source": "OpenStreetMap", "license": "ODbL-1.0"}, "geometry": {"type": "MultiPolygon", "coordinates": [[[[114.028184, 22.5595237], [114.0282873, 22.5594395], [114.028408, 22.5595608], [114.0283007, 22.55965], [114.028184, 22.5595237]]]]}}, {"type": "Feature", "id": "way/506868169", "properties": {"tags": {"building": "residential"}, "heightStatus": "unknown", "source": "OpenStreetMap", "license": "ODbL-1.0"}, "geometry": {"type": "MultiPolygon", "coordinates": [[[[114.0284254, 22.559328], [114.0284992, 22.5592772], [114.0285716, 22.5592562], [114.0286467, 22.5592611], [114.0287097, 22.5592834], [114.0287433, 22.559328], [114.0286279, 22.5594246], [114.0286011, 22.5594159], [114.0285515, 22.559411], [114.0285113, 22.5594209], [114.0284254, 22.559328]]]]}}, {"type": "Feature", "id": "way/506868171", "properties": {"tags": {"building": "residential"}, "heightStatus": "unknown", "source": "OpenStreetMap", "license": "ODbL-1.0"}, "geometry": {"type": "MultiPolygon", "coordinates": [[[[114.0288975, 22.559728], [114.0290383, 22.559624], [114.0291148, 22.5597156], [114.0290157, 22.5597844], [114.0289686, 22.5598172], [114.0288975, 22.559728]]]]}}, {"type": "Feature", "id": "way/506868173", "properties": {"tags": {"building": "residential"}, "heightStatus": "unknown", "source": "OpenStreetMap", "license": "ODbL-1.0"}, "geometry": {"type": "MultiPolygon", "coordinates": [[[[114.0290157, 22.5597844], [114.0291148, 22.5597156], [114.0292422, 22.5598543], [114.0291429, 22.5599262], [114.0290157, 22.5597844]]]]}}, {"type": "Feature", "id": "way/506868175", "properties": {"tags": {"building": "residential"}, "heightStatus": "unknown", "source": "OpenStreetMap", "license": "ODbL-1.0"}, "geometry": {"type": "MultiPolygon", "coordinates": [[[[114.0290827, 22.5602711], [114.0291183, 22.560067], [114.0292643, 22.5600894], [114.0292221, 22.5602948], [114.0290827, 22.5602711]]]]}}, {"type": "Feature", "id": "way/506868177", "properties": {"tags": {"building": "residential"}, "heightStatus": "unknown", "source": "OpenStreetMap", "license": "ODbL-1.0"}, "geometry": {"type": "MultiPolygon", "coordinates": [[[[114.0280419, 22.5600785], [114.0280553, 22.5599992], [114.0281049, 22.5600079], [114.0281143, 22.5599695], [114.0282135, 22.5599844], [114.0282082, 22.5600141], [114.028294, 22.5600277], [114.0283021, 22.5599906], [114.0284107, 22.5600104], [114.0284013, 22.5600488], [114.0284885, 22.5600624], [114.0284979, 22.5600228], [114.0286105, 22.5600389], [114.0286025, 22.5600773], [114.0286802, 22.5600884], [114.0286869, 22.5600463], [114.0287849, 22.5600624], [114.0287741, 22.560102], [114.0288707, 22.5601157], [114.0288787, 22.5600748], [114.0289753, 22.5600909], [114.0289672, 22.560128], [114.0290276, 22.5601367], [114.0290075, 22.5602358], [114.0280419, 22.5600785]]]]}}, {"type": "Feature", "id": "way/506868183", "properties": {"tags": {"building": "residential"}, "heightStatus": "unknown", "source": "OpenStreetMap", "license": "ODbL-1.0"}, "geometry": {"type": "MultiPolygon", "coordinates": [[[[114.0268041, 22.5590611], [114.0272591, 22.5587257], [114.0274716, 22.5589715], [114.0273803, 22.5590387], [114.0272407, 22.5588772], [114.0269682, 22.5590781], [114.0271389, 22.5592757], [114.0270477, 22.5593429], [114.0268041, 22.5590611]]]]}}, {"type": "Feature", "id": "way/506868186", "properties": {"tags": {"building": "residential"}, "heightStatus": "unknown", "source": "OpenStreetMap", "license": "ODbL-1.0"}, "geometry": {"type": "MultiPolygon", "coordinates": [[[[114.0273258, 22.559079], [114.0273803, 22.5590387], [114.0274716, 22.5589715], [114.0275201, 22.5590276], [114.0274487, 22.5590803], [114.0275262, 22.55917], [114.0275976, 22.5591173], [114.0276462, 22.5591735], [114.027555, 22.5592407], [114.0275004, 22.559281], [114.0273258, 22.559079]]]]}}, {"type": "Feature", "id": "way/506868188", "properties": {"tags": {"building": "residential"}, "heightStatus": "unknown", "source": "OpenStreetMap", "license": "ODbL-1.0"}, "geometry": {"type": "MultiPolygon", "coordinates": [[[[114.0271912, 22.5595089], [114.0272824, 22.5594417], [114.0274532, 22.5596392], [114.0277257, 22.5594383], [114.027555, 22.5592407], [114.0276462, 22.5591735], [114.0278898, 22.5594553], [114.0274348, 22.5597907], [114.0271912, 22.5595089]]]]}}, {"type": "Feature", "id": "way/506868192", "properties": {"tags": {"building": "residential"}, "heightStatus": "unknown", "source": "OpenStreetMap", "license": "ODbL-1.0"}, "geometry": {"type": "MultiPolygon", "coordinates": [[[[114.0266235, 22.5593917], [114.0266309, 22.559331], [114.0266469, 22.5592718], [114.0266711, 22.559215], [114.0267032, 22.5591616], [114.0268053, 22.5592139], [114.0267769, 22.5592611], [114.0267583, 22.5593047], [114.0267461, 22.5593503], [114.0267403, 22.5593969], [114.0267412, 22.5594438], [114.0267487, 22.5594901], [114.0267627, 22.5595352], [114.0267829, 22.5595783], [114.0268091, 22.5596185], [114.0268407, 22.5596552], [114.0268772, 22.5596878], [114.026918, 22.5597157], [114.0269624, 22.5597384], [114.0270097, 22.5597557], [114.0270589, 22.559767], [114.0271094, 22.5597724], [114.0271602, 22.5597716], [114.0272104, 22.5597647], [114.0272666, 22.5597498], [114.0272987, 22.5598535], [114.0272352, 22.5598703], [114.0271698, 22.5598792], [114.0271037, 22.5598803], [114.0270381, 22.5598733], [114.026974, 22.5598585], [114.0269125, 22.5598361], [114.0268547, 22.5598065], [114.0268016, 22.5597702], [114.0267541, 22.5597278], [114.0267129, 22.55968], [114.0266789, 22.5596277], [114.0266526, 22.5595717], [114.0266344, 22.559513], [114.0266246, 22.5594527], [114.0266235, 22.5593917]]]]}}, {"type": "Feature", "id": "way/506868196", "properties": {"tags": {"building": "residential"}, "heightStatus": "unknown", "source": "OpenStreetMap", "license": "ODbL-1.0"}, "geometry": {"type": "MultiPolygon", "coordinates": [[[[114.0274075, 22.5586155], [114.0278625, 22.55828], [114.0280749, 22.5585258], [114.0279837, 22.558593], [114.0278441, 22.5584315], [114.0275715, 22.5586324], [114.0277111, 22.558794], [114.0276199, 22.5588612], [114.0274075, 22.5586155]]]]}}, {"type": "Feature", "id": "way/506868199", "properties": {"tags": {"building": "residential"}, "heightStatus": "unknown", "source": "OpenStreetMap", "license": "ODbL-1.0"}, "geometry": {"type": "MultiPolygon", "coordinates": [[[[114.0279291, 22.5586333], [114.0279837, 22.558593], [114.0280749, 22.5585258], [114.0281235, 22.5585819], [114.028052, 22.5586346], [114.0281295, 22.5587243], [114.028201, 22.5586716], [114.0282495, 22.5587278], [114.0281583, 22.558795], [114.0281037, 22.5588353], [114.0279291, 22.5586333]]]]}}, {"type": "Feature", "id": "way/506868201", "properties": {"tags": {"building": "residential"}, "heightStatus": "unknown", "source": "OpenStreetMap", "license": "ODbL-1.0"}, "geometry": {"type": "MultiPolygon", "coordinates": [[[[114.0276199, 22.5588612], [114.0277111, 22.558794], [114.0277657, 22.5587537], [114.0279403, 22.5589557], [114.0278858, 22.558996], [114.0277945, 22.5590632], [114.027746, 22.5590071], [114.0278175, 22.5589544], [114.0277399, 22.5588647], [114.0276685, 22.5589174], [114.0276199, 22.5588612]]]]}}, {"type": "Feature", "id": "way/506868203", "properties": {"tags": {"building": "residential"}, "heightStatus": "unknown", "source": "OpenStreetMap", "license": "ODbL-1.0"}, "geometry": {"type": "MultiPolygon", "coordinates": [[[[114.0277945, 22.5590632], [114.0278858, 22.558996], [114.0280565, 22.5591935], [114.0283291, 22.5589926], [114.0281583, 22.558795], [114.0282495, 22.5587278], [114.0284931, 22.5590096], [114.0280381, 22.559345], [114.0277945, 22.5590632]]]]}}, {"type": "Feature", "id": "way/506868207", "properties": {"tags": {"building": "residential"}, "heightStatus": "unknown", "source": "OpenStreetMap", "license": "ODbL-1.0"}, "geometry": {"type": "MultiPolygon", "coordinates": [[[[114.0291183, 22.560067], [114.0291429, 22.5599262], [114.0292422, 22.5598543], [114.0292958, 22.5599088], [114.0292643, 22.5600894], [114.0291183, 22.560067]]]]}}, {"type": "Feature", "id": "way/545681193", "properties": {"tags": {"building": "roof", "layer": "1"}, "heightStatus": "unknown", "source": "OpenStreetMap", "license": "ODbL-1.0"}, "geometry": {"type": "MultiPolygon", "coordinates": [[[[114.025074, 22.5617047], [114.0251116, 22.5615165], [114.0253289, 22.5615536], [114.0252912, 22.5617418], [114.025074, 22.5617047]]]]}}, {"type": "Feature", "id": "way/753203088", "properties": {"tags": {"addr:housename": "康欣园", "addr:housename:zh": "康欣园", "building": "apartments", "name": "A栋", "name:zh": "A栋"}, "heightStatus": "unknown", "source": "OpenStreetMap", "license": "ODbL-1.0"}, "geometry": {"type": "MultiPolygon", "coordinates": [[[[114.0329883, 22.5564385], [114.0330262, 22.5564043], [114.0330126, 22.5563914], [114.0330544, 22.5563537], [114.0330272, 22.556328], [114.0331579, 22.5562101], [114.0331851, 22.5562358], [114.0332265, 22.5561985], [114.0332401, 22.5562113], [114.033278, 22.5561771], [114.0333956, 22.5562883], [114.0333576, 22.5563225], [114.0333712, 22.5563354], [114.0333296, 22.5563729], [114.0333568, 22.5563986], [114.0332261, 22.5565165], [114.0331989, 22.5564908], [114.0331573, 22.5565283], [114.0331437, 22.5565154], [114.0331058, 22.5565497], [114.0329883, 22.5564385]]]]}}, {"type": "Feature", "id": "way/753203412", "properties": {"tags": {"addr:housename": "康欣园", "addr:housename:zh": "康欣园", "building": "apartments", "name": "B栋", "name:zh": "B栋"}, "heightStatus": "unknown", "source": "OpenStreetMap", "license": "ODbL-1.0"}, "geometry": {"type": "MultiPolygon", "coordinates": [[[[114.0325881, 22.5560591], [114.032626, 22.5560249], [114.0326124, 22.556012], [114.032654, 22.5559745], [114.0326268, 22.5559488], [114.0327575, 22.5558309], [114.0327847, 22.5558566], [114.0328263, 22.5558191], [114.0328399, 22.555832], [114.0328779, 22.5557977], [114.0329954, 22.5559089], [114.0329575, 22.5559431], [114.0329711, 22.555956], [114.0329292, 22.5559937], [114.0329564, 22.5560194], [114.0328257, 22.5561373], [114.0327985, 22.5561116], [114.0327571, 22.5561489], [114.0327436, 22.5561361], [114.0327056, 22.5561703], [114.0325881, 22.5560591]]]]}}, {"type": "Feature", "id": "way/753203749", "properties": {"tags": {"amenity": "parking", "building": "yes", "parking": "multi-storey"}, "heightStatus": "unknown", "source": "OpenStreetMap", "license": "ODbL-1.0"}, "geometry": {"type": "MultiPolygon", "coordinates": [[[[114.0328832, 22.5557141], [114.0332338, 22.5554314], [114.0333902, 22.5554412], [114.0339012, 22.5559018], [114.0338681, 22.5559961], [114.0335194, 22.5563157], [114.0328832, 22.5557141]]]]}}, {"type": "Feature", "id": "way/755824652", "properties": {"tags": {"building": "yes"}, "heightStatus": "unknown", "source": "OpenStreetMap", "license": "ODbL-1.0"}, "geometry": {"type": "MultiPolygon", "coordinates": [[[[114.0320955, 22.5550337], [114.0323272, 22.5548642], [114.032511, 22.5550786], [114.0322793, 22.5552481], [114.0320955, 22.5550337]]]]}}, {"type": "Feature", "id": "way/755824653", "properties": {"tags": {"building": "yes"}, "heightStatus": "unknown", "source": "OpenStreetMap", "license": "ODbL-1.0"}, "geometry": {"type": "MultiPolygon", "coordinates": [[[[114.0325337, 22.5547038], [114.0327654, 22.5545343], [114.0329492, 22.5547487], [114.0327176, 22.5549181], [114.0325337, 22.5547038]]]]}}, {"type": "Feature", "id": "way/755824654", "properties": {"tags": {"building": "yes"}, "heightStatus": "unknown", "source": "OpenStreetMap", "license": "ODbL-1.0"}, "geometry": {"type": "MultiPolygon", "coordinates": [[[[114.032995, 22.554357], [114.0332267, 22.5541875], [114.0334106, 22.5544019], [114.0331789, 22.5545713], [114.032995, 22.554357]]]]}}, {"type": "Feature", "id": "way/1243990464", "properties": {"tags": {"addr:housename": "通业大厦", "addr:housename:en": "Tongye Building", "addr:housename:zh": "通业大厦", "building": "apartments", "building:levels": "30", "name": "南座", "name:en": "South Block", "name:zh": "南座"}, "heightStatus": "levels_only_unverified", "source": "OpenStreetMap", "license": "ODbL-1.0"}, "geometry": {"type": "MultiPolygon", "coordinates": [[[[114.0311072, 22.5628275], [114.0311222, 22.5627438], [114.0311606, 22.5627497], [114.0311688, 22.5627043], [114.0311304, 22.5626984], [114.0311455, 22.5626148], [114.0314751, 22.5626654], [114.03146, 22.562749], [114.0314216, 22.5627431], [114.0314134, 22.5627885], [114.0314518, 22.5627944], [114.0314368, 22.5628781], [114.0311072, 22.5628275]]]]}}, {"type": "Feature", "id": "way/1243990471", "properties": {"tags": {"building": "yes"}, "heightStatus": "unknown", "source": "OpenStreetMap", "license": "ODbL-1.0"}, "geometry": {"type": "MultiPolygon", "coordinates": [[[[114.0255601, 22.5624606], [114.025595, 22.5623068], [114.026015, 22.5623882], [114.0259801, 22.5625418], [114.0255601, 22.5624606]]]]}}, {"type": "Feature", "id": "way/1243990472", "properties": {"tags": {"building": "apartments"}, "heightStatus": "unknown", "source": "OpenStreetMap", "license": "ODbL-1.0"}, "geometry": {"type": "MultiPolygon", "coordinates": [[[[114.0284602, 22.5626681], [114.0285276, 22.5622994], [114.0290072, 22.5623742], [114.0289845, 22.5624981], [114.0288842, 22.5624824], [114.0288898, 22.5624515], [114.0285971, 22.5624059], [114.0285614, 22.5626013], [114.0288676, 22.5626489], [114.0288727, 22.562621], [114.0289527, 22.5626335], [114.0289329, 22.5627418], [114.0284602, 22.5626681]]]]}}, {"type": "Feature", "id": "way/1243990473", "properties": {"tags": {"building": "apartments"}, "heightStatus": "unknown", "source": "OpenStreetMap", "license": "ODbL-1.0"}, "geometry": {"type": "MultiPolygon", "coordinates": [[[[114.0290773, 22.5625093], [114.0291024, 22.5623526], [114.0295712, 22.5624168], [114.029546, 22.5625735], [114.0290773, 22.5625093]]]]}}, {"type": "Feature", "id": "way/1243990474", "properties": {"tags": {"building": "apartments"}, "heightStatus": "unknown", "source": "OpenStreetMap", "license": "ODbL-1.0"}, "geometry": {"type": "MultiPolygon", "coordinates": [[[[114.0283972, 22.5628879], [114.0284141, 22.5628213], [114.0284561, 22.5628303], [114.0284619, 22.5628073], [114.0285197, 22.5628197], [114.0285152, 22.5628374], [114.0285806, 22.5628515], [114.0285855, 22.5628321], [114.0286533, 22.5628467], [114.0286496, 22.5628611], [114.0287089, 22.5628739], [114.0287182, 22.5628575], [114.028778, 22.5628703], [114.0287738, 22.5628868], [114.0288672, 22.5629066], [114.0288716, 22.562889], [114.028937, 22.5629029], [114.028933, 22.5629188], [114.0289695, 22.5629266], [114.0289515, 22.5629984], [114.0288984, 22.562987], [114.028907, 22.5629528], [114.028873, 22.5629455], [114.0288638, 22.562982], [114.0287453, 22.5629566], [114.028754, 22.5629219], [114.0287122, 22.562913], [114.0287038, 22.5629464], [114.0286226, 22.562929], [114.028632, 22.5628918], [114.028583, 22.5628812], [114.0285728, 22.5629215], [114.0284899, 22.5629036], [114.028498, 22.5628713], [114.0284566, 22.5628624], [114.0284475, 22.5628987], [114.0283972, 22.5628879]]]]}}, {"type": "Feature", "id": "way/1243990476", "properties": {"tags": {"building": "yes"}, "heightStatus": "unknown", "source": "OpenStreetMap", "license": "ODbL-1.0"}, "geometry": {"type": "MultiPolygon", "coordinates": [[[[114.0280196, 22.5630788], [114.02809, 22.562764], [114.0282551, 22.5627955], [114.0281848, 22.5631103], [114.0280196, 22.5630788]]]]}}, {"type": "Feature", "id": "way/1243990477", "properties": {"tags": {"building": "yes"}, "heightStatus": "unknown", "source": "OpenStreetMap", "license": "ODbL-1.0"}, "geometry": {"type": "MultiPolygon", "coordinates": [[[[114.0276387, 22.562738], [114.0276537, 22.5626716], [114.0280468, 22.5627474], [114.0280318, 22.5628138], [114.0276387, 22.562738]]]]}}, {"type": "Feature", "id": "way/1243990483", "properties": {"tags": {"building": "apartments", "name": "运发梅林综合楼"}, "heightStatus": "unknown", "source": "OpenStreetMap", "license": "ODbL-1.0"}, "geometry": {"type": "MultiPolygon", "coordinates": [[[[114.0248925, 22.5623817], [114.024911, 22.5622727], [114.025218, 22.562317], [114.0252101, 22.5623636], [114.0252493, 22.5623692], [114.0252387, 22.5624317], [114.0248925, 22.5623817]]]]}}, {"type": "Feature", "id": "way/1243990485", "properties": {"tags": {"building": "yes", "name": "蓝书坊x UABB 城市驿站", "name:zh": "蓝书坊x UABB 城市驿站"}, "heightStatus": "unknown", "source": "OpenStreetMap", "license": "ODbL-1.0"}, "geometry": {"type": "MultiPolygon", "coordinates": [[[[114.0341645, 22.5596373], [114.0342808, 22.5596373], [114.0342759, 22.5594949], [114.0344006, 22.5594911], [114.0344045, 22.5596021], [114.034492, 22.5595588], [114.0345409, 22.5596432], [114.0344103, 22.5597077], [114.0344499, 22.5597761], [114.0343446, 22.5598281], [114.0342979, 22.5597475], [114.0341645, 22.5597475], [114.0341645, 22.5596373]]]]}}, {"type": "Feature", "id": "way/1243990486", "properties": {"tags": {"building": "yes"}, "heightStatus": "unknown", "source": "OpenStreetMap", "license": "ODbL-1.0"}, "geometry": {"type": "MultiPolygon", "coordinates": [[[[114.0333695, 22.5603103], [114.0334066, 22.5601452], [114.0334721, 22.5601354], [114.0336172, 22.5602155], [114.0336261, 22.5603348], [114.0334385, 22.5603903], [114.0333695, 22.5603103]]]]}}, {"type": "Feature", "id": "relation/17834452", "properties": {"tags": {"building": "apartments", "building:levels": "12"}, "heightStatus": "levels_only_unverified", "source": "OpenStreetMap", "license": "ODbL-1.0"}, "geometry": {"type": "MultiPolygon", "coordinates": [[[[114.0334145, 22.5614823], [114.0337767, 22.5609883], [114.0341385, 22.5612145], [114.0338426, 22.561618], [114.0337787, 22.5615781], [114.0337589, 22.5616051], [114.0336963, 22.561566], [114.0336829, 22.5615843], [114.0336308, 22.5615517], [114.0336136, 22.5615752], [114.0335587, 22.5615409], [114.0335428, 22.5615625], [114.0334145, 22.5614823]], [[114.0335281, 22.5614631], [114.0335827, 22.561499], [114.0336002, 22.5614763], [114.0336451, 22.5615058], [114.0336653, 22.5614795], [114.0337176, 22.5615139], [114.0337354, 22.5614908], [114.0337826, 22.5615219], [114.0338033, 22.5615188], [114.0339925, 22.5612632], [114.0339992, 22.5612274], [114.0339788, 22.561214], [114.0339478, 22.5612543], [114.0339083, 22.5612284], [114.0339017, 22.5612369], [114.0338534, 22.5612052], [114.0338604, 22.5611961], [114.0338241, 22.5611723], [114.033851, 22.5611375], [114.0338033, 22.5611061], [114.0335281, 22.5614631]]]]}}, {"type": "Feature", "id": "way/1309409397", "properties": {"tags": {"building": "train_station", "building:levels": "0", "building:levels:underground": "2", "layer": "-1", "location": "underground", "name": "香梅北站", "name:en": "Xiangmei North Station", "name:zh": "香梅北站", "public_transport": "station", "start_date": "2011-06-28", "wikidata": "Q5940882", "wikipedia": "zh:香梅北站"}, "heightStatus": "levels_only_unverified", "source": "OpenStreetMap", "license": "ODbL-1.0"}, "geometry": {"type": "MultiPolygon", "coordinates": [[[[114.0267975, 22.5564947], [114.0268109, 22.556426], [114.0274137, 22.5565389], [114.02742, 22.5565261], [114.0270326, 22.5564554], [114.0269403, 22.5564057], [114.0269954, 22.5563114], [114.0269802, 22.5563019], [114.0270106, 22.5562521], [114.0270277, 22.5562604], [114.0270617, 22.5562056], [114.0270433, 22.5561965], [114.0270776, 22.5561446], [114.0270908, 22.5561516], [114.0270973, 22.5561421], [114.0272305, 22.5562089], [114.0272171, 22.5562254], [114.0274956, 22.5563669], [114.0275333, 22.5563119], [114.0276013, 22.5563454], [114.0275633, 22.5564012], [114.028145, 22.556699], [114.0281777, 22.5566386], [114.0281159, 22.5566278], [114.0281221, 22.5565989], [114.0278651, 22.5565497], [114.0278729, 22.5564994], [114.028252, 22.5565697], [114.0283752, 22.5559653], [114.0287769, 22.5560319], [114.0287607, 22.5560889], [114.0284213, 22.5560261], [114.0283067, 22.5565774], [114.028394, 22.5566216], [114.028377, 22.556646], [114.0290621, 22.557], [114.0292841, 22.5568362], [114.0293251, 22.5568848], [114.0287702, 22.5573011], [114.0287298, 22.5572507], [114.0290191, 22.5570352], [114.028613, 22.5568272], [114.0285615, 22.5569074], [114.0285749, 22.5569148], [114.0285447, 22.5569686], [114.028529, 22.5569614], [114.0284956, 22.5570166], [114.0285093, 22.5570244], [114.0284771, 22.5570732], [114.0284625, 22.557066], [114.0284388, 22.557115], [114.0282838, 22.5572366], [114.0279721, 22.5570761], [114.0280962, 22.5568756], [114.0274889, 22.5565583], [114.0274782, 22.5565699], [114.0275525, 22.5566063], [114.0275198, 22.5566667], [114.0274204, 22.5566142], [114.0274132, 22.556646], [114.0273617, 22.5566386], [114.0273682, 22.5566047], [114.0267975, 22.5564947]]]]}}, {"type": "Feature", "id": "way/1429704757", "properties": {"tags": {"building": "terrace"}, "heightStatus": "unknown", "source": "OpenStreetMap", "license": "ODbL-1.0"}, "geometry": {"type": "MultiPolygon", "coordinates": [[[[114.0293235, 22.5543536], [114.0298712, 22.5539481], [114.029988, 22.5540827], [114.0294404, 22.5544882], [114.0293235, 22.5543536]]]]}}, {"type": "Feature", "id": "way/1429704758", "properties": {"tags": {"building": "terrace"}, "heightStatus": "unknown", "source": "OpenStreetMap", "license": "ODbL-1.0"}, "geometry": {"type": "MultiPolygon", "coordinates": [[[[114.0284855, 22.5545336], [114.0289962, 22.5541566], [114.0291157, 22.5542947], [114.028605, 22.5546717], [114.0284855, 22.5545336]]]]}}, {"type": "Feature", "id": "way/1429704759", "properties": {"tags": {"building": "terrace"}, "heightStatus": "unknown", "source": "OpenStreetMap", "license": "ODbL-1.0"}, "geometry": {"type": "MultiPolygon", "coordinates": [[[[114.0286415, 22.5548564], [114.0292275, 22.5544239], [114.029348, 22.5545631], [114.028762, 22.5549956], [114.0286415, 22.5548564]]]]}}, {"type": "Feature", "id": "way/1429704767", "properties": {"tags": {"building": "house"}, "heightStatus": "unknown", "source": "OpenStreetMap", "license": "ODbL-1.0"}, "geometry": {"type": "MultiPolygon", "coordinates": [[[[114.0285858, 22.5539544], [114.028697, 22.5538691], [114.0287428, 22.5539199], [114.0287705, 22.5538986], [114.0288508, 22.5539879], [114.028683, 22.5541168], [114.0285889, 22.5540122], [114.0286178, 22.5539899], [114.0285858, 22.5539544]]]]}}, {"type": "Feature", "id": "way/1429704768", "properties": {"tags": {"building": "house"}, "heightStatus": "unknown", "source": "OpenStreetMap", "license": "ODbL-1.0"}, "geometry": {"type": "MultiPolygon", "coordinates": [[[[114.0281354, 22.5542495], [114.0282466, 22.5541642], [114.0282923, 22.554215], [114.02832, 22.5541938], [114.0284004, 22.5542831], [114.0282325, 22.5544119], [114.0281384, 22.5543073], [114.0281674, 22.5542851], [114.0281354, 22.5542495]]]]}}, {"type": "Feature", "id": "way/1429704769", "properties": {"tags": {"building": "house"}, "heightStatus": "unknown", "source": "OpenStreetMap", "license": "ODbL-1.0"}, "geometry": {"type": "MultiPolygon", "coordinates": [[[[114.0283667, 22.5541057], [114.0284779, 22.5540204], [114.0285236, 22.5540712], [114.0285513, 22.5540499], [114.0286317, 22.5541392], [114.0284638, 22.554268], [114.0283697, 22.5541635], [114.0283987, 22.5541412], [114.0283667, 22.5541057]]]]}}, {"type": "Feature", "id": "way/1429704771", "properties": {"tags": {"building": "terrace"}, "heightStatus": "unknown", "source": "OpenStreetMap", "license": "ODbL-1.0"}, "geometry": {"type": "MultiPolygon", "coordinates": [[[[114.0280421, 22.5547321], [114.0280441, 22.5545439], [114.0284312, 22.5545474], [114.0284292, 22.5547356], [114.0280421, 22.5547321]]]]}}, {"type": "Feature", "id": "way/1429704772", "properties": {"tags": {"building": "terrace"}, "heightStatus": "unknown", "source": "OpenStreetMap", "license": "ODbL-1.0"}, "geometry": {"type": "MultiPolygon", "coordinates": [[[[114.0277837, 22.5547316], [114.0277857, 22.5545434], [114.0279904, 22.5545452], [114.0279885, 22.5547334], [114.0277837, 22.5547316]]]]}}, {"type": "Feature", "id": "way/1429704773", "properties": {"tags": {"building": "terrace"}, "heightStatus": "unknown", "source": "OpenStreetMap", "license": "ODbL-1.0"}, "geometry": {"type": "MultiPolygon", "coordinates": [[[[114.0280351, 22.5550119], [114.0280371, 22.5548237], [114.0285433, 22.5548283], [114.0285413, 22.5550165], [114.0280351, 22.5550119]]]]}}, {"type": "Feature", "id": "way/1429704774", "properties": {"tags": {"building": "terrace"}, "heightStatus": "unknown", "source": "OpenStreetMap", "license": "ODbL-1.0"}, "geometry": {"type": "MultiPolygon", "coordinates": [[[[114.0275984, 22.5550098], [114.0276004, 22.5548216], [114.0279834, 22.554825], [114.0279814, 22.5550132], [114.0275984, 22.5550098]]]]}}, {"type": "Feature", "id": "way/1429704775", "properties": {"tags": {"building": "terrace"}, "heightStatus": "unknown", "source": "OpenStreetMap", "license": "ODbL-1.0"}, "geometry": {"type": "MultiPolygon", "coordinates": [[[[114.0274629, 22.5553619], [114.0274649, 22.5551737], [114.0279911, 22.5551784], [114.0279891, 22.5553666], [114.0274629, 22.5553619]]]]}}, {"type": "Feature", "id": "way/1429704776", "properties": {"tags": {"building": "terrace"}, "heightStatus": "unknown", "source": "OpenStreetMap", "license": "ODbL-1.0"}, "geometry": {"type": "MultiPolygon", "coordinates": [[[[114.0280428, 22.5553653], [114.0280448, 22.5551771], [114.0286986, 22.555183], [114.0286967, 22.5553712], [114.0280428, 22.5553653]]]]}}, {"type": "Feature", "id": "way/1429704778", "properties": {"tags": {"building": "terrace"}, "heightStatus": "unknown", "source": "OpenStreetMap", "license": "ODbL-1.0"}, "geometry": {"type": "MultiPolygon", "coordinates": [[[[114.0288211, 22.5552086], [114.0293973, 22.5547466], [114.0295117, 22.5548683], [114.0289355, 22.5553303], [114.0288211, 22.5552086]]]]}}, {"type": "Feature", "id": "way/1429704779", "properties": {"tags": {"building": "terrace"}, "heightStatus": "unknown", "source": "OpenStreetMap", "license": "ODbL-1.0"}, "geometry": {"type": "MultiPolygon", "coordinates": [[[[114.0295533, 22.5546182], [114.0301505, 22.554176], [114.0302693, 22.5543128], [114.029672, 22.554755], [114.0295533, 22.5546182]]]]}}, {"type": "Feature", "id": "way/1429704780", "properties": {"tags": {"building": "apartments"}, "heightStatus": "unknown", "source": "OpenStreetMap", "license": "ODbL-1.0"}, "geometry": {"type": "MultiPolygon", "coordinates": [[[[114.0299791, 22.5549722], [114.0304256, 22.5546444], [114.030536, 22.5547727], [114.0300895, 22.5551005], [114.0299791, 22.5549722]]]]}}, {"type": "Feature", "id": "way/1429704781", "properties": {"tags": {"building": "apartments"}, "heightStatus": "unknown", "source": "OpenStreetMap", "license": "ODbL-1.0"}, "geometry": {"type": "MultiPolygon", "coordinates": [[[[114.0306168, 22.5545111], [114.0308403, 22.554347], [114.0309375, 22.55446], [114.030714, 22.554624], [114.0306168, 22.5545111]]]]}}, {"type": "Feature", "id": "way/1429704782", "properties": {"tags": {"building": "apartments"}, "heightStatus": "unknown", "source": "OpenStreetMap", "license": "ODbL-1.0"}, "geometry": {"type": "MultiPolygon", "coordinates": [[[[114.0290955, 22.5556414], [114.0291869, 22.5555743], [114.029163, 22.5555466], [114.0293127, 22.5554368], [114.0293365, 22.5554645], [114.0294279, 22.5553974], [114.0295117, 22.5554948], [114.0294203, 22.5555619], [114.029443, 22.5555882], [114.0292934, 22.555698], [114.0292707, 22.5556717], [114.0291793, 22.5557388], [114.0291605, 22.5557169], [114.0291483, 22.5557259], [114.0291124, 22.5556842], [114.0291246, 22.5556752], [114.0290955, 22.5556414]]]]}}, {"type": "Feature", "id": "way/1429704783", "properties": {"tags": {"building": "apartments"}, "heightStatus": "unknown", "source": "OpenStreetMap", "license": "ODbL-1.0"}, "geometry": {"type": "MultiPolygon", "coordinates": [[[[114.0294279, 22.5553974], [114.0295192, 22.5553303], [114.0294954, 22.5553026], [114.029645, 22.5551928], [114.0296688, 22.5552205], [114.0297602, 22.5551534], [114.0297893, 22.5551873], [114.0298016, 22.5551783], [114.0298375, 22.55522], [114.0298252, 22.555229], [114.0298441, 22.5552509], [114.0297527, 22.5553179], [114.0297753, 22.5553442], [114.0296257, 22.555454], [114.0296031, 22.5554277], [114.0295117, 22.5554948], [114.0294279, 22.5553974]]]]}}, {"type": "Feature", "id": "way/1429704784", "properties": {"tags": {"building": "apartments"}, "heightStatus": "unknown", "source": "OpenStreetMap", "license": "ODbL-1.0"}, "geometry": {"type": "MultiPolygon", "coordinates": [[[[114.0274262, 22.5556199], [114.0274275, 22.5555666], [114.0274431, 22.555567], [114.0274441, 22.5555237], [114.0275608, 22.5555261], [114.0275617, 22.5554908], [114.0278055, 22.5554958], [114.0278046, 22.5555311], [114.0279213, 22.5555335], [114.0279203, 22.5555767], [114.0279359, 22.555577], [114.0279347, 22.5556303], [114.027919, 22.55563], [114.0279183, 22.5556579], [114.0278016, 22.5556555], [114.0278008, 22.5556891], [114.027557, 22.5556841], [114.0275579, 22.5556506], [114.0274412, 22.5556482], [114.0274418, 22.5556202], [114.0274262, 22.5556199]]]]}}, {"type": "Feature", "id": "way/1429704785", "properties": {"tags": {"building": "apartments"}, "heightStatus": "unknown", "source": "OpenStreetMap", "license": "ODbL-1.0"}, "geometry": {"type": "MultiPolygon", "coordinates": [[[[114.0284813, 22.5557849], [114.0284843, 22.5556605], [114.028601, 22.5556628], [114.0286018, 22.5556275], [114.0287929, 22.5556314], [114.0287921, 22.5556667], [114.0289088, 22.5556691], [114.0289077, 22.5557123], [114.0289234, 22.5557127], [114.0289221, 22.5557659], [114.0289064, 22.5557656], [114.0289058, 22.5557936], [114.0287891, 22.5557912], [114.0287883, 22.5558248], [114.0285972, 22.5558208], [114.028598, 22.5557873], [114.0284813, 22.5557849]]]]}}, {"type": "Feature", "id": "way/1429704786", "properties": {"tags": {"building": "apartments"}, "heightStatus": "unknown", "source": "OpenStreetMap", "license": "ODbL-1.0"}, "geometry": {"type": "MultiPolygon", "coordinates": [[[[114.0280419, 22.5557479], [114.0280432, 22.5556947], [114.0280588, 22.555695], [114.0280598, 22.5556518], [114.0281765, 22.5556542], [114.0281774, 22.5556188], [114.0283684, 22.5556227], [114.0283676, 22.5556581], [114.0284843, 22.5556605], [114.0284813, 22.5557849], [114.0283646, 22.5557825], [114.0283638, 22.5558161], [114.0281728, 22.5558122], [114.0281736, 22.5557786], [114.0280569, 22.5557762], [114.0280575, 22.5557483], [114.0280419, 22.5557479]]]]}}, {"type": "Feature", "id": "way/1429863059", "properties": {"tags": {"building": "hospital", "building:levels": "7"}, "heightStatus": "levels_only_unverified", "source": "OpenStreetMap", "license": "ODbL-1.0"}, "geometry": {"type": "MultiPolygon", "coordinates": [[[[114.0304583, 22.5593225], [114.0307117, 22.5591174], [114.0311139, 22.5595415], [114.0308605, 22.5597465], [114.0304583, 22.5593225]]]]}}, {"type": "Feature", "id": "relation/19603062", "properties": {"tags": {"building": "school"}, "heightStatus": "unknown", "source": "OpenStreetMap", "license": "ODbL-1.0"}, "geometry": {"type": "MultiPolygon", "coordinates": [[[[114.0280115, 22.5580749], [114.0288276, 22.5574523], [114.0288204, 22.5575227], [114.0289691, 22.5575358], [114.0289905, 22.557328], [114.0290636, 22.5572723], [114.0289364, 22.5585058], [114.0288634, 22.5585616], [114.0288808, 22.558392], [114.0287321, 22.5583789], [114.0287004, 22.5586859], [114.0286158, 22.5587504], [114.0280115, 22.5580749]], [[114.0281733, 22.5581146], [114.0282815, 22.5582356], [114.0286482, 22.5582679], [114.0286665, 22.5580909], [114.0286226, 22.558087], [114.0286347, 22.55797], [114.0287009, 22.5579758], [114.0287149, 22.5578406], [114.0285513, 22.5578262], [114.0281733, 22.5581146]], [[114.0283872, 22.5583537], [114.0286359, 22.5586318], [114.0286552, 22.5584451], [114.0285692, 22.5584375], [114.0285736, 22.5583947], [114.0286346, 22.5584001], [114.0286371, 22.5583757], [114.0283872, 22.5583537]], [[114.028773, 22.5579822], [114.0289217, 22.5579952], [114.0289339, 22.5578772], [114.0287852, 22.5578641], [114.028773, 22.5579822]]]]}}, {"type": "Feature", "id": "way/1429863100", "properties": {"tags": {"building": "yes"}, "heightStatus": "unknown", "source": "OpenStreetMap", "license": "ODbL-1.0"}, "geometry": {"type": "MultiPolygon", "coordinates": [[[[114.03439, 22.5539399], [114.034495, 22.5538416], [114.0345649, 22.5537761], [114.0346342, 22.5538391], [114.0347262, 22.5539229], [114.0349844, 22.5541557], [114.0350764, 22.5542395], [114.0351457, 22.5543025], [114.0350757, 22.5543681], [114.0349708, 22.5544664], [114.0347403, 22.5542565], [114.0346205, 22.5541498], [114.03439, 22.5539399]]]]}}, {"type": "Feature", "id": "way/1429863102", "properties": {"tags": {"building": "apartments", "building:levels": "32", "layer": "1", "name": "丽梅阁", "name:zh": "丽梅阁"}, "heightStatus": "levels_only_unverified", "source": "OpenStreetMap", "license": "ODbL-1.0"}, "geometry": {"type": "MultiPolygon", "coordinates": [[[[114.03439, 22.5539399], [114.034495, 22.5538416], [114.0345642, 22.5539046], [114.0346342, 22.5538391], [114.0347262, 22.5539229], [114.0346562, 22.5539884], [114.0347255, 22.5540515], [114.0346205, 22.5541498], [114.03439, 22.5539399]]]]}}, {"type": "Feature", "id": "way/1429868731", "properties": {"tags": {"addr:housename": "景蜜村北区", "addr:housename:en": "Jingmi Estate (North)", "addr:housename:zh": "景蜜村北区", "building": "apartments", "building:levels": "8", "name": "17栋", "name:zh": "17栋"}, "heightStatus": "levels_only_unverified", "source": "OpenStreetMap", "license": "ODbL-1.0"}, "geometry": {"type": "MultiPolygon", "coordinates": [[[[114.0319727, 22.5589439], [114.0320031, 22.5588641], [114.0320968, 22.5588946], [114.0320805, 22.5589373], [114.032155, 22.5589615], [114.0321401, 22.5590006], [114.0322165, 22.5590254], [114.0322002, 22.5590682], [114.0322747, 22.5590924], [114.0322598, 22.5591315], [114.0323374, 22.5591567], [114.0323211, 22.5591995], [114.0323956, 22.5592237], [114.0323652, 22.5593035], [114.0322716, 22.5592731], [114.0322878, 22.5592303], [114.0322133, 22.5592061], [114.0322282, 22.559167], [114.0321506, 22.5591418], [114.0321669, 22.559099], [114.0320924, 22.5590748], [114.0321073, 22.5590357], [114.0320309, 22.5590109], [114.0320472, 22.5589681], [114.0319727, 22.5589439]]]]}}, {"type": "Feature", "id": "way/1429868732", "properties": {"tags": {"addr:housename": "景蜜村北区", "addr:housename:en": "Jingmi Estate (North)", "addr:housename:zh": "景蜜村北区", "building": "apartments", "building:levels": "8", "name": "14栋", "name:zh": "14栋"}, "heightStatus": "levels_only_unverified", "source": "OpenStreetMap", "license": "ODbL-1.0"}, "geometry": {"type": "MultiPolygon", "coordinates": [[[[114.0317474, 22.5583284], [114.0317778, 22.5582486], [114.0318715, 22.558279], [114.0318552, 22.5583218], [114.0319297, 22.558346], [114.0319148, 22.5583851], [114.0319912, 22.5584099], [114.0319749, 22.5584527], [114.0320494, 22.5584769], [114.0320345, 22.558516], [114.0321121, 22.5585412], [114.0320958, 22.558584], [114.0321703, 22.5586082], [114.0321399, 22.558688], [114.0320463, 22.5586575], [114.0320625, 22.5586148], [114.031988, 22.5585906], [114.0320029, 22.5585515], [114.0319253, 22.5585263], [114.0319416, 22.5584835], [114.0318671, 22.5584593], [114.031882, 22.5584202], [114.0318056, 22.5583954], [114.0318219, 22.5583526], [114.0317474, 22.5583284]]]]}}, {"type": "Feature", "id": "way/1429868733", "properties": {"tags": {"addr:housename": "景蜜村北区", "addr:housename:en": "Jingmi Estate (North)", "addr:housename:zh": "景蜜村北区", "building": "apartments", "building:levels": "8", "name": "16栋", "name:zh": "16栋"}, "heightStatus": "levels_only_unverified", "source": "OpenStreetMap", "license": "ODbL-1.0"}, "geometry": {"type": "MultiPolygon", "coordinates": [[[[114.0315468, 22.558507], [114.0315772, 22.5584271], [114.0316708, 22.5584576], [114.0316545, 22.5585003], [114.031729, 22.5585245], [114.0317141, 22.5585636], [114.0317905, 22.5585885], [114.0317742, 22.5586312], [114.0318487, 22.5586554], [114.0318338, 22.5586945], [114.0319114, 22.5587197], [114.0318952, 22.5587625], [114.0319697, 22.5587867], [114.0319393, 22.5588665], [114.0318456, 22.5588361], [114.0318619, 22.5587933], [114.0317874, 22.5587691], [114.0318023, 22.55873], [114.0317247, 22.5587048], [114.0317409, 22.558662], [114.0316664, 22.5586378], [114.0316813, 22.5585987], [114.031605, 22.5585739], [114.0316213, 22.5585312], [114.0315468, 22.558507]]]]}}, {"type": "Feature", "id": "way/1429868734", "properties": {"tags": {"addr:housename": "景蜜村北区", "addr:housename:en": "Jingmi Estate (North)", "addr:housename:zh": "景蜜村北区", "building": "apartments", "building:levels": "8", "name": "15栋", "name:zh": "15栋"}, "heightStatus": "levels_only_unverified", "source": "OpenStreetMap", "license": "ODbL-1.0"}, "geometry": {"type": "MultiPolygon", "coordinates": [[[[114.0323035, 22.5589021], [114.0323317, 22.5588216], [114.0324262, 22.5588498], [114.0324111, 22.5588929], [114.0324863, 22.5589153], [114.0324725, 22.5589548], [114.0325507, 22.5589781], [114.0325356, 22.5590213], [114.0326108, 22.5590437], [114.0325826, 22.5591242], [114.0324881, 22.559096], [114.0325032, 22.5590529], [114.0324281, 22.5590304], [114.0324419, 22.558991], [114.0323636, 22.5589676], [114.0323787, 22.5589245], [114.0323035, 22.5589021]]]]}}, {"type": "Feature", "id": "way/1429868736", "properties": {"tags": {"addr:housename": "景蜜村北区", "addr:housename:en": "Jingmi Estate (North)", "addr:housename:zh": "景蜜村北区", "building": "apartments", "building:levels": "8", "name": "13栋", "name:zh": "13栋"}, "heightStatus": "levels_only_unverified", "source": "OpenStreetMap", "license": "ODbL-1.0"}, "geometry": {"type": "MultiPolygon", "coordinates": [[[[114.0324508, 22.558694], [114.0324575, 22.5586634], [114.0324685, 22.5586655], [114.0324752, 22.558635], [114.0325115, 22.5586418], [114.0325196, 22.5586048], [114.0324833, 22.558598], [114.03249, 22.5585675], [114.0324789, 22.5585655], [114.0324856, 22.5585349], [114.0327039, 22.5585758], [114.0326972, 22.5586062], [114.0326862, 22.5586042], [114.0326795, 22.5586347], [114.0326431, 22.5586279], [114.032635, 22.5586649], [114.0326714, 22.5586717], [114.0326647, 22.5587022], [114.032894, 22.5587451], [114.0328873, 22.5587758], [114.0328763, 22.5587737], [114.0328696, 22.5588042], [114.0328332, 22.5587974], [114.0328251, 22.5588344], [114.0328615, 22.5588412], [114.0328548, 22.5588717], [114.0328658, 22.5588738], [114.0328591, 22.5589043], [114.0326409, 22.5588635], [114.0326476, 22.558833], [114.0326586, 22.5588351], [114.0326653, 22.5588046], [114.0327016, 22.5588114], [114.0327097, 22.5587744], [114.0326734, 22.5587676], [114.0326801, 22.5587369], [114.0324508, 22.558694]]]]}}, {"type": "Feature", "id": "way/1429868737", "properties": {"tags": {"addr:housename": "景蜜村北区", "addr:housename:en": "Jingmi Estate (North)", "addr:housename:zh": "景蜜村北区", "building": "apartments", "building:levels": "8", "name": "12栋", "name:zh": "12栋"}, "heightStatus": "levels_only_unverified", "source": "OpenStreetMap", "license": "ODbL-1.0"}, "geometry": {"type": "MultiPolygon", "coordinates": [[[[114.0319319, 22.5581793], [114.0319386, 22.5581487], [114.0319496, 22.5581508], [114.0319563, 22.5581203], [114.0319927, 22.5581271], [114.0320008, 22.5580901], [114.0319644, 22.5580833], [114.0319711, 22.5580528], [114.0319601, 22.5580508], [114.0319668, 22.5580202], [114.032185, 22.5580611], [114.0321783, 22.5580915], [114.0321673, 22.5580895], [114.0321606, 22.55812], [114.0321243, 22.5581132], [114.0321161, 22.5581502], [114.0321525, 22.558157], [114.0321458, 22.5581875], [114.0323751, 22.5582304], [114.0323684, 22.5582611], [114.0323574, 22.558259], [114.0323507, 22.5582895], [114.0323144, 22.5582827], [114.0323062, 22.5583197], [114.0323426, 22.5583265], [114.0323359, 22.558357], [114.0323469, 22.5583591], [114.0323402, 22.5583896], [114.032122, 22.5583488], [114.0321287, 22.5583183], [114.0321397, 22.5583204], [114.0321464, 22.5582899], [114.0321827, 22.5582967], [114.0321909, 22.5582597], [114.0321545, 22.5582529], [114.0321612, 22.5582222], [114.0319319, 22.5581793]]]]}}, {"type": "Feature", "id": "way/1429868739", "properties": {"tags": {"addr:housename": "景蜜村南区", "addr:housename:en": "Jingmi Estate (South)", "addr:housename:zh": "景蜜村南区", "building": "apartments", "building:levels": "8", "name": "2栋", "name:zh": "2栋"}, "heightStatus": "levels_only_unverified", "source": "OpenStreetMap", "license": "ODbL-1.0"}, "geometry": {"type": "MultiPolygon", "coordinates": [[[[114.0342311, 22.5583296], [114.0342378, 22.5582991], [114.0342488, 22.5583012], [114.0342555, 22.5582707], [114.0342918, 22.5582775], [114.0342999, 22.5582405], [114.0342636, 22.5582337], [114.0342702, 22.5582032], [114.0342592, 22.5582011], [114.0342659, 22.5581706], [114.0344841, 22.5582114], [114.0344774, 22.5582419], [114.0344664, 22.5582398], [114.0344597, 22.5582703], [114.0344234, 22.5582635], [114.0344153, 22.5583005], [114.0344516, 22.5583073], [114.0344449, 22.5583379], [114.0346743, 22.5583808], [114.0346675, 22.5584114], [114.0346565, 22.5584094], [114.0346498, 22.5584399], [114.0346135, 22.5584331], [114.0346054, 22.5584701], [114.0346417, 22.5584769], [114.034635, 22.5585074], [114.0348645, 22.5585507], [114.0348577, 22.5585813], [114.0348467, 22.5585792], [114.03484, 22.5586097], [114.0348037, 22.5586029], [114.0347956, 22.5586399], [114.0348319, 22.5586467], [114.0348252, 22.5586772], [114.0348363, 22.5586793], [114.0348296, 22.5587098], [114.0346114, 22.558669], [114.0346181, 22.5586385], [114.0346291, 22.5586406], [114.0346358, 22.5586101], [114.0346721, 22.5586169], [114.0346802, 22.5585799], [114.0346439, 22.5585731], [114.0346506, 22.5585424], [114.0344212, 22.5584991], [114.0344279, 22.5584686], [114.0344389, 22.5584707], [114.0344456, 22.5584402], [114.0344819, 22.558447], [114.03449, 22.55841], [114.0344537, 22.5584032], [114.0344604, 22.5583726], [114.0342311, 22.5583296]]]]}}, {"type": "Feature", "id": "way/1429868740", "properties": {"tags": {"addr:housename": "景蜜村南区", "addr:housename:en": "Jingmi Estate (South)", "addr:housename:zh": "景蜜村南区", "building": "apartments", "building:levels": "8", "name": "6栋", "name:zh": "6栋"}, "heightStatus": "levels_only_unverified", "source": "OpenStreetMap", "license": "ODbL-1.0"}, "geometry": {"type": "MultiPolygon", "coordinates": [[[[114.0330177, 22.5571858], [114.0330244, 22.5571552], [114.0330355, 22.5571573], [114.0330421, 22.5571268], [114.0330785, 22.5571336], [114.0330866, 22.5570966], [114.0330502, 22.5570898], [114.0330569, 22.5570593], [114.0330459, 22.5570572], [114.0330526, 22.5570267], [114.0332708, 22.5570675], [114.0332641, 22.557098], [114.0332531, 22.5570959], [114.0332464, 22.5571264], [114.0332101, 22.5571196], [114.033202, 22.5571566], [114.0332383, 22.5571634], [114.0332316, 22.557194], [114.0334609, 22.5572369], [114.0334542, 22.5572675], [114.0334432, 22.5572655], [114.0334365, 22.557296], [114.0334002, 22.5572892], [114.0333921, 22.5573262], [114.0334284, 22.557333], [114.0334217, 22.5573635], [114.0334328, 22.5573655], [114.0334261, 22.5573961], [114.0332079, 22.5573552], [114.0332145, 22.5573248], [114.0332256, 22.5573268], [114.0332322, 22.5572963], [114.0332686, 22.5573031], [114.0332767, 22.5572661], [114.0332403, 22.5572593], [114.0332471, 22.5572287], [114.0330177, 22.5571858]]]]}}, {"type": "Feature", "id": "way/1429868741", "properties": {"tags": {"addr:housename": "景蜜村南区", "addr:housename:en": "Jingmi Estate (South)", "addr:housename:zh": "景蜜村南区", "building": "apartments", "building:levels": "8", "name": "8栋", "name:zh": "8栋"}, "heightStatus": "levels_only_unverified", "source": "OpenStreetMap", "license": "ODbL-1.0"}, "geometry": {"type": "MultiPolygon", "coordinates": [[[[114.0327332, 22.5574468], [114.0327399, 22.5574162], [114.032751, 22.5574183], [114.0327576, 22.5573878], [114.032794, 22.5573946], [114.0328021, 22.5573576], [114.0327657, 22.5573508], [114.0327724, 22.5573203], [114.0327614, 22.5573182], [114.0327681, 22.5572877], [114.0329863, 22.5573285], [114.0329796, 22.557359], [114.0329686, 22.5573569], [114.0329619, 22.5573874], [114.0329256, 22.5573806], [114.0329175, 22.5574176], [114.0329538, 22.5574244], [114.0329471, 22.557455], [114.0331764, 22.5574979], [114.0331697, 22.5575285], [114.0331587, 22.5575265], [114.033152, 22.557557], [114.0331157, 22.5575502], [114.0331076, 22.5575872], [114.0331439, 22.557594], [114.0331372, 22.5576245], [114.0331483, 22.5576265], [114.0331416, 22.5576571], [114.0329234, 22.5576162], [114.03293, 22.5575858], [114.0329411, 22.5575878], [114.0329477, 22.5575573], [114.0329841, 22.5575641], [114.0329922, 22.5575271], [114.0329558, 22.5575203], [114.0329626, 22.5574897], [114.0327332, 22.5574468]]]]}}, {"type": "Feature", "id": "way/1429868742", "properties": {"tags": {"addr:housename": "景蜜村南区", "addr:housename:en": "Jingmi Estate (South)", "addr:housename:zh": "景蜜村南区", "building": "apartments", "building:levels": "8", "name": "7栋", "name:zh": "7栋"}, "heightStatus": "levels_only_unverified", "source": "OpenStreetMap", "license": "ODbL-1.0"}, "geometry": {"type": "MultiPolygon", "coordinates": [[[[114.033238, 22.5576452], [114.0332564, 22.5575613], [114.0339354, 22.5576881], [114.033917, 22.557772], [114.033238, 22.5576452]]]]}}, {"type": "Feature", "id": "way/1429868743", "properties": {"tags": {"addr:housename": "景蜜村南区", "addr:housename:en": "Jingmi Estate (South)", "addr:housename:zh": "景蜜村南区", "building": "apartments", "building:levels": "8", "name": "1栋", "name:zh": "1栋"}, "heightStatus": "levels_only_unverified", "source": "OpenStreetMap", "license": "ODbL-1.0"}, "geometry": {"type": "MultiPolygon", "coordinates": [[[[114.0339163, 22.5580419], [114.0339347, 22.5579579], [114.0342705, 22.5580207], [114.0342521, 22.5581046], [114.0339163, 22.5580419]]]]}}, {"type": "Feature", "id": "way/1429868744", "properties": {"tags": {"addr:housename": "景蜜村南区", "addr:housename:en": "Jingmi Estate (South)", "addr:housename:zh": "景蜜村南区", "building": "apartments", "building:levels": "8", "name": "3栋", "name:zh": "3栋"}, "heightStatus": "levels_only_unverified", "source": "OpenStreetMap", "license": "ODbL-1.0"}, "geometry": {"type": "MultiPolygon", "coordinates": [[[[114.0338696, 22.5583], [114.033888, 22.5582161], [114.0342238, 22.5582788], [114.0342054, 22.5583627], [114.0338696, 22.5583]]]]}}, {"type": "Feature", "id": "way/1429868745", "properties": {"tags": {"addr:housename": "景蜜村南区", "addr:housename:en": "Jingmi Estate (South)", "addr:housename:zh": "景蜜村南区", "building": "apartments", "building:levels": "8", "name": "9栋", "name:zh": "9栋"}, "heightStatus": "levels_only_unverified", "source": "OpenStreetMap", "license": "ODbL-1.0"}, "geometry": {"type": "MultiPolygon", "coordinates": [[[[114.033066, 22.5578857], [114.0330844, 22.5578018], [114.0338728, 22.5579491], [114.0338544, 22.558033], [114.033066, 22.5578857]]]]}}, {"type": "Feature", "id": "way/1429868746", "properties": {"tags": {"addr:housename": "景蜜村南区", "addr:housename:en": "Jingmi Estate (South)", "addr:housename:zh": "景蜜村南区", "building": "apartments", "building:levels": "8", "name": "4栋", "name:zh": "4栋"}, "heightStatus": "levels_only_unverified", "source": "OpenStreetMap", "license": "ODbL-1.0"}, "geometry": {"type": "MultiPolygon", "coordinates": [[[[114.0337922, 22.5585615], [114.0338106, 22.5584776], [114.034327, 22.5585741], [114.0343086, 22.558658], [114.0337922, 22.5585615]]]]}}, {"type": "Feature", "id": "way/1429868747", "properties": {"tags": {"addr:housename": "景蜜村南区", "addr:housename:en": "Jingmi Estate (South)", "addr:housename:zh": "景蜜村南区", "building": "apartments", "building:levels": "8", "name": "5栋", "name:zh": "5栋"}, "heightStatus": "levels_only_unverified", "source": "OpenStreetMap", "license": "ODbL-1.0"}, "geometry": {"type": "MultiPolygon", "coordinates": [[[[114.0338569, 22.558842], [114.0338753, 22.5587581], [114.034548, 22.5588838], [114.0345296, 22.5589677], [114.0338569, 22.558842]]]]}}, {"type": "Feature", "id": "way/1429868748", "properties": {"tags": {"addr:housename": "景蜜村南区", "addr:housename:en": "Jingmi Estate (South)", "addr:housename:zh": "景蜜村南区", "building": "apartments", "building:levels": "8", "name": "11栋", "name:zh": "11栋"}, "heightStatus": "levels_only_unverified", "source": "OpenStreetMap", "license": "ODbL-1.0"}, "geometry": {"type": "MultiPolygon", "coordinates": [[[[114.0331172, 22.5586984], [114.0331356, 22.5586145], [114.0337905, 22.5587369], [114.0337721, 22.5588208], [114.0331172, 22.5586984]]]]}}, {"type": "Feature", "id": "way/1429868749", "properties": {"tags": {"addr:housename": "景蜜村南区", "addr:housename:en": "Jingmi Estate (South)", "addr:housename:zh": "景蜜村南区", "building": "apartments", "building:levels": "8", "name": "10栋", "name:zh": "10栋"}, "heightStatus": "levels_only_unverified", "source": "OpenStreetMap", "license": "ODbL-1.0"}, "geometry": {"type": "MultiPolygon", "coordinates": [[[[114.0329446, 22.5584042], [114.032963, 22.5583203], [114.0337514, 22.5584676], [114.033733, 22.5585515], [114.0329446, 22.5584042]]]]}}, {"type": "Feature", "id": "way/1429868810", "properties": {"tags": {"addr:housename": "赛格景苑", "addr:housename:zh": "赛格景苑", "building": "apartments", "building:levels": "25", "name": "B栋", "name:zh": "B栋"}, "heightStatus": "levels_only_unverified", "source": "OpenStreetMap", "license": "ODbL-1.0"}, "geometry": {"type": "MultiPolygon", "coordinates": [[[[114.032172, 22.5569112], [114.0322708, 22.5568235], [114.0323365, 22.5568867], [114.0323786, 22.5568493], [114.0325053, 22.556971], [114.0324632, 22.5570083], [114.032529, 22.5570715], [114.0324302, 22.5571592], [114.0323644, 22.557096], [114.0323223, 22.5571334], [114.0321957, 22.5570118], [114.0322377, 22.5569744], [114.032172, 22.5569112]]]]}}, {"type": "Feature", "id": "way/1429868811", "properties": {"tags": {"addr:housename": "赛格景苑", "addr:housename:zh": "赛格景苑", "building": "apartments", "building:levels": "25", "name": "A栋", "name:zh": "A栋"}, "heightStatus": "levels_only_unverified", "source": "OpenStreetMap", "license": "ODbL-1.0"}, "geometry": {"type": "MultiPolygon", "coordinates": [[[[114.0324758, 22.5566301], [114.0325746, 22.5565424], [114.0326403, 22.5566056], [114.0326824, 22.5565682], [114.0328091, 22.5566899], [114.032767, 22.5567272], [114.0328328, 22.5567904], [114.032734, 22.5568781], [114.0326682, 22.5568149], [114.0326261, 22.5568523], [114.0324995, 22.5567306], [114.0325416, 22.5566933], [114.0324758, 22.5566301]]]]}}, {"type": "Feature", "id": "way/1431872787", "properties": {"tags": {"addr:housename": "景田西小区", "addr:housename:en": "Jingtian West Community", "addr:housename:zh": "景田西小区", "building": "apartments", "name": "17栋", "name:en": "Block 17", "name:zh": "17栋"}, "heightStatus": "unknown", "source": "OpenStreetMap", "license": "ODbL-1.0"}, "geometry": {"type": "MultiPolygon", "coordinates": [[[[114.0339133, 22.5607959], [114.0339371, 22.5607616], [114.0339648, 22.560778], [114.0339841, 22.5607502], [114.0339981, 22.5607585], [114.0340118, 22.5607389], [114.0339977, 22.5607306], [114.0340412, 22.5606679], [114.0341655, 22.5607416], [114.0341221, 22.5608042], [114.034108, 22.5607959], [114.0340944, 22.5608155], [114.0341084, 22.5608238], [114.0340891, 22.5608516], [114.0341445, 22.5608844], [114.0341638, 22.5608566], [114.0341778, 22.5608649], [114.0341915, 22.5608453], [114.0341774, 22.560837], [114.0342209, 22.5607743], [114.0343452, 22.560848], [114.0343018, 22.5609106], [114.0342877, 22.5609023], [114.0342741, 22.5609219], [114.0342881, 22.5609302], [114.0342688, 22.560958], [114.0342965, 22.5609744], [114.0342727, 22.5610087], [114.0339133, 22.5607959]]]]}}, {"type": "Feature", "id": "way/1431872788", "properties": {"tags": {"addr:housename": "景田西小区", "addr:housename:en": "Jingtian West Community", "addr:housename:zh": "景田西小区", "building": "apartments", "name": "15栋", "name:en": "Block 15", "name:zh": "15栋"}, "heightStatus": "unknown", "source": "OpenStreetMap", "license": "ODbL-1.0"}, "geometry": {"type": "MultiPolygon", "coordinates": [[[[114.0345378, 22.5602145], [114.0345894, 22.5601779], [114.0346255, 22.5602214], [114.0346412, 22.5602102], [114.0346238, 22.5601892], [114.0346958, 22.5601382], [114.0347304, 22.5601798], [114.0347096, 22.5601945], [114.0347376, 22.5602281], [114.0347584, 22.5602134], [114.0347929, 22.560255], [114.0347208, 22.5603061], [114.0347034, 22.5602851], [114.0346877, 22.5602962], [114.0347238, 22.5603397], [114.0346722, 22.5603762], [114.03461, 22.5603014], [114.0346408, 22.5602796], [114.0346308, 22.5602675], [114.0346, 22.5602893], [114.0345378, 22.5602145]]]]}}, {"type": "Feature", "id": "way/1431872789", "properties": {"tags": {"addr:housename": "景田西小区", "addr:housename:en": "Jingtian West Community", "addr:housename:zh": "景田西小区", "building": "apartments", "name": "16栋", "name:en": "Block 16", "name:zh": "16栋"}, "heightStatus": "unknown", "source": "OpenStreetMap", "license": "ODbL-1.0"}, "geometry": {"type": "MultiPolygon", "coordinates": [[[[114.034308, 22.5603837], [114.0343595, 22.5603472], [114.0343956, 22.5603906], [114.0344114, 22.5603795], [114.0343939, 22.5603585], [114.034466, 22.5603074], [114.0345006, 22.560349], [114.0344798, 22.5603638], [114.0345077, 22.5603974], [114.0345285, 22.5603826], [114.0345631, 22.5604242], [114.034491, 22.5604753], [114.0344736, 22.5604544], [114.0344578, 22.5604655], [114.034494, 22.560509], [114.0344424, 22.5605455], [114.0343802, 22.5604706], [114.034411, 22.5604488], [114.0344009, 22.5604368], [114.0343702, 22.5604586], [114.034308, 22.5603837]]]]}}, {"type": "Feature", "id": "way/1432192902", "properties": {"tags": {"addr:housename": "特发小区", "addr:housename:en": "Tefa Estate", "addr:housename:zh": "特发小区", "building": "apartments", "building:levels": "7", "name": "19栋", "name:en": "Block 19", "name:zh": "19栋"}, "heightStatus": "levels_only_unverified", "source": "OpenStreetMap", "license": "ODbL-1.0"}, "geometry": {"type": "MultiPolygon", "coordinates": [[[[114.0254972, 22.556388], [114.0255193, 22.5562925], [114.0258979, 22.5563671], [114.0258758, 22.5564626], [114.0254972, 22.556388]]]]}}, {"type": "Feature", "id": "way/1432192903", "properties": {"tags": {"addr:housename": "特发小区", "addr:housename:en": "Tefa Estate", "addr:housename:zh": "特发小区", "building": "apartments", "building:levels": "7", "name": "20栋", "name:en": "Block 20", "name:zh": "20栋"}, "heightStatus": "levels_only_unverified", "source": "OpenStreetMap", "license": "ODbL-1.0"}, "geometry": {"type": "MultiPolygon", "coordinates": [[[[114.025034, 22.5562966], [114.0250561, 22.556201], [114.0254347, 22.5562756], [114.0254126, 22.5563712], [114.025034, 22.5562966]]]]}}, {"type": "Feature", "id": "way/1432192904", "properties": {"tags": {"addr:housename": "特发小区", "addr:housename:en": "Tefa Estate", "addr:housename:zh": "特发小区", "building": "apartments", "building:levels": "7", "name": "15栋", "name:en": "Block 15", "name:zh": "15栋"}, "heightStatus": "levels_only_unverified", "source": "OpenStreetMap", "license": "ODbL-1.0"}, "geometry": {"type": "MultiPolygon", "coordinates": [[[[114.0254271, 22.5569482], [114.0254492, 22.5568526], [114.0256824, 22.5568986], [114.0257001, 22.5568219], [114.0258021, 22.556842], [114.0257623, 22.5570142], [114.0254271, 22.5569482]]]]}}, {"type": "Feature", "id": "way/1432192905", "properties": {"tags": {"addr:housename": "特发小区", "addr:housename:en": "Tefa Estate", "addr:housename:zh": "特发小区", "building": "apartments", "building:levels": "7", "name": "17栋", "name:en": "Block 17", "name:zh": "17栋"}, "heightStatus": "levels_only_unverified", "source": "OpenStreetMap", "license": "ODbL-1.0"}, "geometry": {"type": "MultiPolygon", "coordinates": [[[[114.0254822, 22.556678], [114.0255043, 22.5565825], [114.0257375, 22.5566284], [114.0257552, 22.5565518], [114.0258572, 22.5565719], [114.0258174, 22.5567441], [114.0254822, 22.556678]]]]}}, {"type": "Feature", "id": "way/1432192906", "properties": {"tags": {"addr:housename": "特发小区", "addr:housename:en": "Tefa Estate", "addr:housename:zh": "特发小区", "building": "apartments", "building:levels": "7", "name": "18栋", "name:en": "Block 18", "name:zh": "18栋"}, "heightStatus": "levels_only_unverified", "source": "OpenStreetMap", "license": "ODbL-1.0"}, "geometry": {"type": "MultiPolygon", "coordinates": [[[[114.0249623, 22.5565484], [114.0249843, 22.5564528], [114.0253196, 22.5565189], [114.0252975, 22.5566145], [114.0249623, 22.5565484]]]]}}, {"type": "Feature", "id": "way/1432192907", "properties": {"tags": {"addr:housename": "特发小区", "addr:housename:en": "Tefa Estate", "addr:housename:zh": "特发小区", "building": "apartments", "building:levels": "7", "name": "16栋", "name:en": "Block 16", "name:zh": "16栋"}, "heightStatus": "levels_only_unverified", "source": "OpenStreetMap", "license": "ODbL-1.0"}, "geometry": {"type": "MultiPolygon", "coordinates": [[[[114.0249064, 22.5567959], [114.0249285, 22.5567003], [114.0252638, 22.5567663], [114.0252417, 22.5568619], [114.0249064, 22.5567959]]]]}}, {"type": "Feature", "id": "way/1432192908", "properties": {"tags": {"addr:housename": "特发小区", "addr:housename:en": "Tefa Estate", "addr:housename:zh": "特发小区", "building": "apartments", "building:levels": "7", "name": "14栋", "name:en": "Block 14", "name:zh": "14栋"}, "heightStatus": "levels_only_unverified", "source": "OpenStreetMap", "license": "ODbL-1.0"}, "geometry": {"type": "MultiPolygon", "coordinates": [[[[114.0248578, 22.5570502], [114.0248799, 22.5569546], [114.0252151, 22.5570207], [114.0251931, 22.5571162], [114.0248578, 22.5570502]]]]}}, {"type": "Feature", "id": "way/1432192909", "properties": {"tags": {"addr:housename": "特发小区", "addr:housename:en": "Tefa Estate", "addr:housename:zh": "特发小区", "building": "apartments", "building:levels": "7", "name": "13栋", "name:en": "Block 13", "name:zh": "13栋"}, "heightStatus": "levels_only_unverified", "source": "OpenStreetMap", "license": "ODbL-1.0"}, "geometry": {"type": "MultiPolygon", "coordinates": [[[[114.025389, 22.5571964], [114.0254111, 22.5571008], [114.0257064, 22.557159], [114.0256843, 22.5572546], [114.025389, 22.5571964]]]]}}, {"type": "Feature", "id": "way/1432192910", "properties": {"tags": {"addr:housename": "特发小区", "addr:housename:en": "Tefa Estate", "addr:housename:zh": "特发小区", "building": "apartments", "building:levels": "7", "name": "12栋", "name:en": "Block 12", "name:zh": "12栋"}, "heightStatus": "levels_only_unverified", "source": "OpenStreetMap", "license": "ODbL-1.0"}, "geometry": {"type": "MultiPolygon", "coordinates": [[[[114.0253284, 22.557432], [114.0253505, 22.5573364], [114.0257317, 22.5574116], [114.0257096, 22.5575071], [114.0253284, 22.557432]]]]}}, {"type": "Feature", "id": "way/1432192911", "properties": {"tags": {"addr:housename": "特发小区", "addr:housename:en": "Tefa Estate", "addr:housename:zh": "特发小区", "building": "apartments", "building:levels": "7", "name": "11栋", "name:en": "Block 11", "name:zh": "11栋"}, "heightStatus": "levels_only_unverified", "source": "OpenStreetMap", "license": "ODbL-1.0"}, "geometry": {"type": "MultiPolygon", "coordinates": [[[[114.0252738, 22.557684], [114.0252959, 22.5575884], [114.025677, 22.5576636], [114.025655, 22.5577591], [114.0252738, 22.557684]]]]}}, {"type": "Feature", "id": "way/1432192912", "properties": {"tags": {"addr:housename": "特发小区", "addr:housename:en": "Tefa Estate", "addr:housename:zh": "特发小区", "building": "apartments", "building:levels": "7", "name": "2栋", "name:en": "Block 2", "name:zh": "2栋"}, "heightStatus": "levels_only_unverified", "source": "OpenStreetMap", "license": "ODbL-1.0"}, "geometry": {"type": "MultiPolygon", "coordinates": [[[[114.0247925, 22.5589415], [114.0248571, 22.5588611], [114.0252514, 22.5591315], [114.0251868, 22.5592119], [114.0247925, 22.5589415]]]]}}, {"type": "Feature", "id": "way/1432192915", "properties": {"tags": {"addr:housename": "特发小区", "addr:housename:en": "Tefa Estate", "addr:housename:zh": "特发小区", "building": "apartments", "building:levels": "7", "name": "1栋", "name:en": "Block 1", "name:zh": "1栋"}, "heightStatus": "levels_only_unverified", "source": "OpenStreetMap", "license": "ODbL-1.0"}, "geometry": {"type": "MultiPolygon", "coordinates": [[[[114.0249861, 22.5586798], [114.0250508, 22.5585994], [114.0253932, 22.5588343], [114.0253286, 22.5589147], [114.0249861, 22.5586798]]]]}}, {"type": "Feature", "id": "way/1432192920", "properties": {"tags": {"addr:housename": "嘉隆星苑", "addr:housename:en": "Jialong Xingyuan", "addr:housename:zh": "嘉隆星苑", "building": "apartments", "name": "A栋", "name:en": "Block A", "name:zh": "A栋"}, "heightStatus": "unknown", "source": "OpenStreetMap", "license": "ODbL-1.0"}, "geometry": {"type": "MultiPolygon", "coordinates": [[[[114.0255526, 22.5587382], [114.0257033, 22.5586236], [114.0257464, 22.558672], [114.0257313, 22.5586834], [114.025745, 22.5586987], [114.025715, 22.5587216], [114.0257521, 22.5587632], [114.0257811, 22.5587411], [114.0257564, 22.5587133], [114.0258073, 22.5586747], [114.0258904, 22.5587679], [114.0258395, 22.5588066], [114.0258148, 22.5587788], [114.0257857, 22.5588009], [114.0258228, 22.5588425], [114.0258529, 22.5588197], [114.0258665, 22.558835], [114.0258815, 22.5588236], [114.0259246, 22.5588719], [114.0257739, 22.5589865], [114.0257309, 22.5589382], [114.0257459, 22.5589267], [114.0257322, 22.5589114], [114.0257622, 22.5588886], [114.0257251, 22.558847], [114.0256961, 22.558869], [114.0257208, 22.5588968], [114.02567, 22.5589355], [114.0255868, 22.5588422], [114.0256377, 22.5588036], [114.0256625, 22.5588313], [114.0256915, 22.5588092], [114.0256544, 22.5587676], [114.0256244, 22.5587905], [114.0256107, 22.5587751], [114.0255957, 22.5587865], [114.0255526, 22.5587382]]]]}}, {"type": "Feature", "id": "way/1432192921", "properties": {"tags": {"addr:housename": "嘉隆星苑", "addr:housename:en": "Jialong Xingyuan", "addr:housename:zh": "嘉隆星苑", "building": "apartments", "name": "B栋", "name:en": "Block B", "name:zh": "B栋"}, "heightStatus": "unknown", "source": "OpenStreetMap", "license": "ODbL-1.0"}, "geometry": {"type": "MultiPolygon", "coordinates": [[[[114.0259281, 22.5584558], [114.0260788, 22.5583413], [114.0261219, 22.5583896], [114.0261069, 22.558401], [114.0261205, 22.5584163], [114.0260905, 22.5584392], [114.0261276, 22.5584808], [114.0261566, 22.5584587], [114.0261319, 22.558431], [114.0261828, 22.5583923], [114.0262659, 22.5584855], [114.026215, 22.5585242], [114.0261903, 22.5584964], [114.0261612, 22.5585185], [114.0261983, 22.5585601], [114.0262284, 22.5585373], [114.026242, 22.5585526], [114.026257, 22.5585412], [114.0263001, 22.5585895], [114.0261495, 22.5587041], [114.0261064, 22.5586558], [114.0261214, 22.5586444], [114.0261077, 22.558629], [114.0261378, 22.5586062], [114.0261007, 22.5585646], [114.0260716, 22.5585867], [114.0260963, 22.5586144], [114.0260455, 22.5586531], [114.0259624, 22.5585599], [114.0260132, 22.5585212], [114.026038, 22.5585489], [114.026067, 22.5585268], [114.0260299, 22.5584852], [114.0259999, 22.5585081], [114.0259862, 22.5584927], [114.0259712, 22.5585042], [114.0259281, 22.5584558]]]]}}, {"type": "Feature", "id": "way/1432192922", "properties": {"tags": {"addr:housename": "嘉隆星苑", "addr:housename:en": "Jialong Xingyuan", "addr:housename:zh": "嘉隆星苑", "building": "apartments", "name": "C栋", "name:en": "Block C", "name:zh": "C栋"}, "heightStatus": "unknown", "source": "OpenStreetMap", "license": "ODbL-1.0"}, "geometry": {"type": "MultiPolygon", "coordinates": [[[[114.0263111, 22.5581634], [114.0264618, 22.5580488], [114.0265049, 22.5580971], [114.0264899, 22.5581086], [114.0265035, 22.5581239], [114.0264735, 22.5581467], [114.0265106, 22.5581883], [114.0265396, 22.5581663], [114.0265149, 22.5581385], [114.0265658, 22.5580998], [114.0266489, 22.5581931], [114.026598, 22.5582317], [114.0265733, 22.558204], [114.0265442, 22.5582261], [114.0265813, 22.5582677], [114.0266114, 22.5582449], [114.026625, 22.5582602], [114.02664, 22.5582488], [114.0266831, 22.5582971], [114.0265325, 22.5584117], [114.0264894, 22.5583633], [114.0265044, 22.5583519], [114.0264907, 22.5583366], [114.0265208, 22.5583138], [114.0264837, 22.5582721], [114.0264546, 22.5582942], [114.0264793, 22.558322], [114.0264285, 22.5583607], [114.0263454, 22.5582674], [114.0263962, 22.5582287], [114.026421, 22.5582565], [114.02645, 22.5582344], [114.0264129, 22.5581928], [114.0263829, 22.5582156], [114.0263692, 22.5582003], [114.0263542, 22.5582117], [114.0263111, 22.5581634]]]]}}, {"type": "Feature", "id": "way/1432678398", "properties": {"tags": {"addr:housename": "碧云天", "addr:housename:en": "Biyuntian", "addr:housename:zh": "碧云天", "building": "apartments", "name": "碧字楼", "name:en": "Bizi Building", "name:zh": "碧字楼"}, "heightStatus": "unknown", "source": "OpenStreetMap", "license": "ODbL-1.0"}, "geometry": {"type": "MultiPolygon", "coordinates": [[[[114.0315396, 22.5629099], [114.0315561, 22.5628214], [114.0315997, 22.5628283], [114.0316262, 22.5626856], [114.0317782, 22.5627097], [114.0317518, 22.5628524], [114.0319861, 22.5628895], [114.0320126, 22.5627468], [114.0321561, 22.5627695], [114.0321407, 22.5628524], [114.0322091, 22.5628632], [114.0322245, 22.5627803], [114.0323597, 22.5628018], [114.0323423, 22.5628957], [114.0322654, 22.5628835], [114.0323031, 22.5629186], [114.0323227, 22.5629006], [114.0323762, 22.5629503], [114.0323566, 22.5629683], [114.0323242, 22.5629979], [114.0322505, 22.5629293], [114.0322426, 22.5629718], [114.0321348, 22.5629547], [114.0321259, 22.5630027], [114.0319389, 22.5629731], [114.03192, 22.5630749], [114.0317077, 22.5630412], [114.0317266, 22.5629395], [114.0315396, 22.5629099]]]]}}]}