{"type": "FeatureCollection", "features": [{"type": "Feature", "id": "way/166998733", "properties": {"tags": {"building": "yes"}, "heightStatus": "unknown", "source": "OpenStreetMap", "license": "ODbL-1.0"}, "geometry": {"type": "MultiPolygon", "coordinates": [[[[114.0350234, 22.5141804], [114.0350257, 22.5140437], [114.0354222, 22.5140494], [114.0354199, 22.514186], [114.0350234, 22.5141804]]]]}}, {"type": "Feature", "id": "way/334624726", "properties": {"tags": {"addr:housename": "平安银行信息科技中心", "building": "office", "building:levels": "6", "name": "福田区信息科技中心"}, "heightStatus": "levels_only_unverified", "source": "OpenStreetMap", "license": "ODbL-1.0"}, "geometry": {"type": "MultiPolygon", "coordinates": [[[[114.0400717, 22.5106842], [114.0410504, 22.510467], [114.0411496, 22.5108481], [114.0401709, 22.5110653], [114.0400717, 22.5106842]]]]}}, {"type": "Feature", "id": "way/334624755", "properties": {"tags": {"building": "warehouse", "name": "正佳物流"}, "heightStatus": "unknown", "source": "OpenStreetMap", "license": "ODbL-1.0"}, "geometry": {"type": "MultiPolygon", "coordinates": [[[[114.0387851, 22.5111089], [114.038817, 22.5111016], [114.0387999, 22.5110371], [114.0389963, 22.5109925], [114.0389844, 22.5109479], [114.0394889, 22.5108333], [114.0394987, 22.5108702], [114.0396601, 22.5108336], [114.0396822, 22.5109167], [114.0397196, 22.5109082], [114.0397705, 22.5110995], [114.0397348, 22.5111076], [114.0397681, 22.5112326], [114.0395696, 22.5112777], [114.0395782, 22.5113102], [114.0390784, 22.5114237], [114.0390701, 22.5113925], [114.038902, 22.5114307], [114.0388737, 22.5113245], [114.0388442, 22.5113312], [114.0387851, 22.5111089]]]]}}, {"type": "Feature", "id": "way/334624771", "properties": {"tags": {"building": "office", "name": "卡西欧"}, "heightStatus": "unknown", "source": "OpenStreetMap", "license": "ODbL-1.0"}, "geometry": {"type": "MultiPolygon", "coordinates": [[[[114.0381037, 22.5113091], [114.0384595, 22.5112211], [114.0385251, 22.5114474], [114.0381693, 22.5115355], [114.0381037, 22.5113091]]]]}}, {"type": "Feature", "id": "way/334624981", "properties": {"tags": {"building": "warehouse", "name": "卡西欧"}, "heightStatus": "unknown", "source": "OpenStreetMap", "license": "ODbL-1.0"}, "geometry": {"type": "MultiPolygon", "coordinates": [[[[114.0372316, 22.5112672], [114.0372477, 22.5112152], [114.0377332, 22.5110888], [114.0379155, 22.5117058], [114.0375266, 22.5117925], [114.0372665, 22.511349], [114.0372316, 22.5112672]]]]}}, {"type": "Feature", "id": "way/334625242", "properties": {"tags": {"building": "manufacture", "name": "深圳综合信兴物流有限公司"}, "heightStatus": "unknown", "source": "OpenStreetMap", "license": "ODbL-1.0"}, "geometry": {"type": "MultiPolygon", "coordinates": [[[[114.0385323, 22.5094232], [114.0391405, 22.5092945], [114.0393821, 22.5102688], [114.0387738, 22.5103975], [114.0385323, 22.5094232]]]]}}, {"type": "Feature", "id": "way/334625291", "properties": {"tags": {"building": "office", "name": "菲利普"}, "heightStatus": "unknown", "source": "OpenStreetMap", "license": "ODbL-1.0"}, "geometry": {"type": "MultiPolygon", "coordinates": [[[[114.0430144, 22.5101175], [114.0431378, 22.5100333], [114.0432826, 22.5099788], [114.0434972, 22.5098945], [114.0436313, 22.5098499], [114.0437547, 22.5098499], [114.0438996, 22.5098549], [114.0440337, 22.5098697], [114.0441034, 22.5098846], [114.0441195, 22.5099986], [114.0440272, 22.510014], [114.0440927, 22.5104198], [114.0433953, 22.5105189], [114.0433296, 22.5100789], [114.0430144, 22.5101175]]]]}}, {"type": "Feature", "id": "way/334633231", "properties": {"tags": {"building": "office", "name": "利保义生物工程大厦"}, "heightStatus": "unknown", "source": "OpenStreetMap", "license": "ODbL-1.0"}, "geometry": {"type": "MultiPolygon", "coordinates": [[[[114.0368036, 22.5103288], [114.0373355, 22.5101824], [114.0373935, 22.5100712], [114.0372844, 22.5097042], [114.0378915, 22.5095526], [114.0380631, 22.5101002], [114.0377144, 22.510182], [114.0376527, 22.5101968], [114.0375964, 22.5102266], [114.0375669, 22.5102513], [114.0375374, 22.5102984], [114.0375186, 22.5103455], [114.0375132, 22.5103851], [114.0376151, 22.5107271], [114.036966, 22.5108906], [114.0368036, 22.5103288]]]]}}, {"type": "Feature", "id": "way/334633260", "properties": {"tags": {"building": "warehouse"}, "heightStatus": "unknown", "source": "OpenStreetMap", "license": "ODbL-1.0"}, "geometry": {"type": "MultiPolygon", "coordinates": [[[[114.0363674, 22.5090637], [114.0374023, 22.5087438], [114.0374238, 22.5088082], [114.0375418, 22.508776], [114.0375901, 22.5089098], [114.0376303, 22.5088974], [114.0377564, 22.5092542], [114.0375847, 22.5093063], [114.0375069, 22.5090907], [114.0366567, 22.5093533], [114.0367291, 22.5095417], [114.0365601, 22.5095962], [114.0363674, 22.5090637]]]]}}, {"type": "Feature", "id": "way/334633300", "properties": {"tags": {"building": "office", "name": "港安大厦"}, "heightStatus": "unknown", "source": "OpenStreetMap", "license": "ODbL-1.0"}, "geometry": {"type": "MultiPolygon", "coordinates": [[[[114.0403704, 22.5096056], [114.0409261, 22.5094862], [114.040972, 22.509669], [114.0406217, 22.5097442], [114.0406849, 22.5099954], [114.0404796, 22.5100395], [114.0403704, 22.5096056]]]]}}, {"type": "Feature", "id": "way/334633306", "properties": {"tags": {"building": "yes"}, "heightStatus": "unknown", "source": "OpenStreetMap", "license": "ODbL-1.0"}, "geometry": {"type": "MultiPolygon", "coordinates": [[[[114.0402828, 22.5091439], [114.0408267, 22.5090256], [114.040901, 22.5093172], [114.0403572, 22.5094356], [114.0402828, 22.5091439]]]]}}, {"type": "Feature", "id": "way/334633311", "properties": {"tags": {"building": "office", "name": "富林物流"}, "heightStatus": "unknown", "source": "OpenStreetMap", "license": "ODbL-1.0"}, "geometry": {"type": "MultiPolygon", "coordinates": [[[[114.0397525, 22.5091248], [114.0401136, 22.5090467], [114.0402888, 22.5097379], [114.0400371, 22.5097924], [114.0400561, 22.5098674], [114.0400776, 22.5098627], [114.0400976, 22.5099417], [114.0398118, 22.5100035], [114.039771, 22.5098425], [114.0399259, 22.509809], [114.0397525, 22.5091248]]]]}}, {"type": "Feature", "id": "way/334633314", "properties": {"tags": {"building": "industrial", "name": "深福保科技工业园"}, "heightStatus": "unknown", "source": "OpenStreetMap", "license": "ODbL-1.0"}, "geometry": {"type": "MultiPolygon", "coordinates": [[[[114.0412778, 22.5094284], [114.0414894, 22.5093817], [114.0413458, 22.5088274], [114.042129, 22.5086543], [114.0422093, 22.5089645], [114.0419021, 22.5090324], [114.0420718, 22.5096876], [114.0413843, 22.5098396], [114.0412778, 22.5094284]]]]}}, {"type": "Feature", "id": "way/334633341", "properties": {"tags": {"building": "office", "name": "深福保盈福大厦"}, "heightStatus": "unknown", "source": "OpenStreetMap", "license": "ODbL-1.0"}, "geometry": {"type": "MultiPolygon", "coordinates": [[[[114.04143, 22.5102849], [114.0417481, 22.5102162], [114.0418004, 22.510423], [114.0418326, 22.5104181], [114.0418648, 22.5104057], [114.0418943, 22.5103735], [114.0419533, 22.5103363], [114.0420069, 22.5103165], [114.0420713, 22.5103239], [114.0421222, 22.5103363], [114.0421544, 22.5103561], [114.0421786, 22.5103834], [114.0422, 22.5104131], [114.0422108, 22.5104428], [114.0426445, 22.5103489], [114.0427111, 22.5106115], [114.0425771, 22.5106405], [114.0425837, 22.5106664], [114.0415812, 22.5108828], [114.04143, 22.5102849]]]]}}, {"type": "Feature", "id": "way/334633408", "properties": {"tags": {"building": "power_substation"}, "heightStatus": "unknown", "source": "OpenStreetMap", "license": "ODbL-1.0"}, "geometry": {"type": "MultiPolygon", "coordinates": [[[[114.0384753, 22.5128421], [114.0388985, 22.5127517], [114.0391033, 22.5135698], [114.0389537, 22.5136018], [114.038776, 22.512892], [114.0385024, 22.5129504], [114.0384753, 22.5128421]]]]}}, {"type": "Feature", "id": "way/334641369", "properties": {"tags": {"building": "yes"}, "heightStatus": "unknown", "source": "OpenStreetMap", "license": "ODbL-1.0"}, "geometry": {"type": "MultiPolygon", "coordinates": [[[[114.0402007, 22.5114349], [114.042773, 22.5108683], [114.0427905, 22.5109563], [114.0402182, 22.5115186], [114.0402007, 22.5114349]]]]}}, {"type": "Feature", "id": "way/334641370", "properties": {"tags": {"building": "yes"}, "heightStatus": "unknown", "source": "OpenStreetMap", "license": "ODbL-1.0"}, "geometry": {"type": "MultiPolygon", "coordinates": [[[[114.0428824, 22.5108577], [114.0429543, 22.5108465], [114.042969, 22.5109275], [114.0428971, 22.5109387], [114.0428824, 22.5108577]]]]}}, {"type": "Feature", "id": "way/334641374", "properties": {"tags": {"building": "yes"}, "heightStatus": "unknown", "source": "OpenStreetMap", "license": "ODbL-1.0"}, "geometry": {"type": "MultiPolygon", "coordinates": [[[[114.0431609, 22.5107945], [114.043768, 22.5107093], [114.0437817, 22.5107926], [114.0431746, 22.5108778], [114.0431609, 22.5107945]]]]}}, {"type": "Feature", "id": "way/334641376", "properties": {"tags": {"building": "yes"}, "heightStatus": "unknown", "source": "OpenStreetMap", "license": "ODbL-1.0"}, "geometry": {"type": "MultiPolygon", "coordinates": [[[[114.0439735, 22.5107017], [114.0442641, 22.510671], [114.0442737, 22.5107482], [114.0439831, 22.5107789], [114.0439735, 22.5107017]]]]}}, {"type": "Feature", "id": "way/359904035", "properties": {"tags": {"building": "yes", "office": "government"}, "heightStatus": "unknown", "source": "OpenStreetMap", "license": "ODbL-1.0"}, "geometry": {"type": "MultiPolygon", "coordinates": [[[[114.0392344, 22.5164516], [114.0394395, 22.5163644], [114.0395421, 22.5166126], [114.03935, 22.5166938], [114.0392344, 22.5164516]]]]}}, {"type": "Feature", "id": "way/359904036", "properties": {"tags": {"building": "yes", "office": "government"}, "heightStatus": "unknown", "source": "OpenStreetMap", "license": "ODbL-1.0"}, "geometry": {"type": "MultiPolygon", "coordinates": [[[[114.0391204, 22.5163208], [114.0393044, 22.516226], [114.0393614, 22.5163328], [114.039179, 22.5164321], [114.0391204, 22.5163208]]]]}}, {"type": "Feature", "id": "way/359904037", "properties": {"tags": {"building": "yes", "office": "government"}, "heightStatus": "unknown", "source": "OpenStreetMap", "license": "ODbL-1.0"}, "geometry": {"type": "MultiPolygon", "coordinates": [[[[114.0389478, 22.5160756], [114.0391415, 22.5159627], [114.0392751, 22.5161733], [114.0390748, 22.5162786], [114.0389478, 22.5160756]]]]}}, {"type": "Feature", "id": "way/483459730", "properties": {"tags": {"addr:city": "Shenzhen", "addr:housename": "益田村", "addr:housename:zh": "益田村", "addr:housenumber": "益田村44栋", "addr:street": "福荣路 Furong Road", "building": "apartments", "building:levels": "7", "name": "44栋", "name:zh": "44栋"}, "heightStatus": "levels_only_unverified", "source": "OpenStreetMap", "license": "ODbL-1.0"}, "geometry": {"type": "MultiPolygon", "coordinates": [[[[114.0441715, 22.5151663], [114.0441739, 22.5151009], [114.0442369, 22.5151029], [114.0442383, 22.5150662], [114.0442109, 22.5150654], [114.0442119, 22.5150375], [114.0441913, 22.5150369], [114.0441926, 22.5150006], [114.0442495, 22.5150024], [114.0442499, 22.5149913], [114.0443326, 22.5149939], [114.0443322, 22.515004], [114.0443869, 22.5150057], [114.0443856, 22.5150415], [114.0443656, 22.5150409], [114.0443645, 22.5150711], [114.0443362, 22.5150702], [114.0443346, 22.5151144], [114.0443935, 22.5151162], [114.0443914, 22.5151724], [114.0443352, 22.5151706], [114.0443347, 22.5151858], [114.0442326, 22.5151826], [114.0442331, 22.5151682], [114.0441715, 22.5151663]]]]}}, {"type": "Feature", "id": "way/662697491", "properties": {"tags": {"building": "yes", "name": "阳基商业广场"}, "heightStatus": "unknown", "source": "OpenStreetMap", "license": "ODbL-1.0"}, "geometry": {"type": "MultiPolygon", "coordinates": [[[[114.0403235, 22.5170476], [114.0403852, 22.516946], [114.0404603, 22.5168642], [114.040581, 22.5168419], [114.0406937, 22.5168618], [114.0408627, 22.5169584], [114.0412596, 22.5177315], [114.0407688, 22.5179693], [114.0403423, 22.5172012], [114.0403235, 22.5170476]]]]}}, {"type": "Feature", "id": "way/662697504", "properties": {"tags": {"building": "yes"}, "heightStatus": "unknown", "source": "OpenStreetMap", "license": "ODbL-1.0"}, "geometry": {"type": "MultiPolygon", "coordinates": [[[[114.0363068, 22.5141175], [114.0363133, 22.5140395], [114.0363194, 22.513965], [114.0363817, 22.5139689], [114.0364507, 22.5139658], [114.036513, 22.5139565], [114.0365991, 22.5139368], [114.0366635, 22.5139077], [114.0366897, 22.5138902], [114.0367195, 22.5138703], [114.0367687, 22.5138237], [114.036805, 22.5137736], [114.0368303, 22.5137239], [114.0368441, 22.5136761], [114.0368546, 22.5135997], [114.0370056, 22.5136259], [114.0371186, 22.5136934], [114.0372202, 22.5137896], [114.0372501, 22.5138315], [114.0372918, 22.5138898], [114.0371502, 22.513888], [114.0370565, 22.5138984], [114.0370039, 22.513909], [114.0369487, 22.5139304], [114.0369024, 22.513963], [114.0368703, 22.5139968], [114.0368599, 22.5140078], [114.036816, 22.5140639], [114.0367743, 22.5141323], [114.0367663, 22.5141627], [114.0367666, 22.5141968], [114.0367803, 22.5142503], [114.0368014, 22.5143158], [114.0367307, 22.5143366], [114.0366283, 22.5143669], [114.0366155, 22.514301], [114.0366049, 22.5142431], [114.036593, 22.5142101], [114.036575, 22.5141868], [114.0365499, 22.5141656], [114.0365173, 22.5141472], [114.0364822, 22.5141346], [114.0364421, 22.5141261], [114.0363951, 22.5141215], [114.0363068, 22.5141175]]]]}}, {"type": "Feature", "id": "way/910437385", "properties": {"tags": {"building": "roof", "layer": "1"}, "heightStatus": "unknown", "source": "OpenStreetMap", "license": "ODbL-1.0"}, "geometry": {"type": "MultiPolygon", "coordinates": [[[[114.038752, 22.511776], [114.0389568, 22.511729], [114.0389649, 22.5117591], [114.0389728, 22.5117886], [114.038768, 22.5118356], [114.0387597, 22.5118046], [114.038752, 22.511776]]]]}}, {"type": "Feature", "id": "way/1044172920", "properties": {"tags": {"building": "yes"}, "heightStatus": "unknown", "source": "OpenStreetMap", "license": "ODbL-1.0"}, "geometry": {"type": "MultiPolygon", "coordinates": [[[[114.034665, 22.5132], [114.0346652, 22.5131088], [114.0348727, 22.5131092], [114.0348725, 22.5132004], [114.034665, 22.5132]]]]}}, {"type": "Feature", "id": "way/1047410324", "properties": {"tags": {"addr:housename": "金地海景花园", "addr:housename:en": "Gemdale Seaview Garden", "addr:housename:zh": "金地海景花园", "building": "apartments", "building:levels": "28", "name": "35栋", "name:en": "Block 35", "name:zh": "35栋"}, "heightStatus": "levels_only_unverified", "source": "OpenStreetMap", "license": "ODbL-1.0"}, "geometry": {"type": "MultiPolygon", "coordinates": [[[[114.0378784, 22.5166279], [114.0379006, 22.5165641], [114.0379057, 22.5165445], [114.0379065, 22.5165193], [114.0379116, 22.5164933], [114.037944, 22.516406], [114.0379602, 22.5163958], [114.0379898, 22.5163972], [114.0379975, 22.5163812], [114.0380172, 22.5163706], [114.038156, 22.5163879], [114.0381799, 22.5164013], [114.0381943, 22.5164115], [114.0382241, 22.5164155], [114.0382565, 22.5164218], [114.0382386, 22.5164894], [114.038219, 22.5164902], [114.0382012, 22.5165547], [114.0381441, 22.5165405], [114.0380513, 22.5165649], [114.0380164, 22.5166428], [114.037961, 22.516631], [114.0379542, 22.516646], [114.0378784, 22.5166279]]]]}}, {"type": "Feature", "id": "way/1047410325", "properties": {"tags": {"addr:housename": "金地海景花园", "addr:housename:en": "Gemdale Seaview Garden", "addr:housename:zh": "金地海景花园", "building": "apartments", "building:levels": "30", "name": "36栋", "name:en": "Block 36", "name:zh": "36栋"}, "heightStatus": "levels_only_unverified", "source": "OpenStreetMap", "license": "ODbL-1.0"}, "geometry": {"type": "MultiPolygon", "coordinates": [[[[114.0380275, 22.5169062], [114.0380496, 22.5168425], [114.0380548, 22.5168228], [114.0380556, 22.5167977], [114.0380607, 22.5167717], [114.0380931, 22.5166844], [114.0381093, 22.5166742], [114.0381389, 22.5166756], [114.0381465, 22.5166596], [114.0381663, 22.516649], [114.0383051, 22.5166663], [114.038329, 22.5166797], [114.0383434, 22.5166899], [114.0383732, 22.5166938], [114.0384056, 22.5167001], [114.0383877, 22.5167678], [114.0383681, 22.5167686], [114.0383502, 22.5168331], [114.0382932, 22.5168189], [114.0382004, 22.5168433], [114.0381655, 22.5169212], [114.0381101, 22.5169094], [114.0381033, 22.5169243], [114.0380275, 22.5169062]]]]}}, {"type": "Feature", "id": "way/1047410326", "properties": {"tags": {"addr:housename": "金地海景花园", "addr:housename:en": "Gemdale Seaview Garden", "addr:housename:zh": "金地海景花园", "building": "apartments", "building:levels": "32", "name": "37栋", "name:en": "Block 37", "name:zh": "37栋"}, "heightStatus": "levels_only_unverified", "source": "OpenStreetMap", "license": "ODbL-1.0"}, "geometry": {"type": "MultiPolygon", "coordinates": [[[[114.0381742, 22.5171391], [114.0381963, 22.5170754], [114.0382014, 22.5170557], [114.0382023, 22.5170306], [114.0382074, 22.5170046], [114.0382397, 22.5169173], [114.0382559, 22.516907], [114.0382856, 22.5169084], [114.0382932, 22.5168924], [114.038313, 22.5168819], [114.0384518, 22.5168992], [114.0384756, 22.5169126], [114.0384901, 22.5169228], [114.0385199, 22.5169267], [114.0385523, 22.516933], [114.0385344, 22.5170007], [114.0385148, 22.5170014], [114.0384969, 22.5170659], [114.0384399, 22.5170518], [114.038347, 22.5170762], [114.0383121, 22.5171541], [114.0382568, 22.5171423], [114.03825, 22.5171572], [114.0381742, 22.5171391]]]]}}, {"type": "Feature", "id": "way/1047410327", "properties": {"tags": {"addr:housename": "金地海景花园", "addr:housename:en": "Gemdale Seaview Garden", "addr:housename:zh": "金地海景花园", "building": "apartments", "building:levels": "30", "name": "38栋", "name:en": "Block 38", "name:zh": "38栋"}, "heightStatus": "levels_only_unverified", "source": "OpenStreetMap", "license": "ODbL-1.0"}, "geometry": {"type": "MultiPolygon", "coordinates": [[[[114.0384158, 22.517457], [114.0384379, 22.5173933], [114.038443, 22.5173736], [114.0384439, 22.5173484], [114.038449, 22.5173225], [114.0384814, 22.5172351], [114.0384975, 22.5172249], [114.0385272, 22.5172263], [114.0385348, 22.5172103], [114.0385546, 22.5171997], [114.0386934, 22.517217], [114.0387172, 22.5172304], [114.0387317, 22.5172406], [114.0387615, 22.5172446], [114.0387939, 22.5172509], [114.038776, 22.5173185], [114.0387564, 22.5173193], [114.0387385, 22.5173838], [114.0386815, 22.5173697], [114.0385887, 22.517394], [114.0385537, 22.5174719], [114.0384984, 22.5174601], [114.0384916, 22.5174751], [114.0384158, 22.517457]]]]}}, {"type": "Feature", "id": "way/1047410328", "properties": {"tags": {"addr:housename": "金地海景花园", "addr:housename:en": "Gemdale Seaview Garden", "addr:housename:zh": "金地海景花园", "building": "apartments", "building:levels": "31", "name": "39栋", "name:en": "Block 39", "name:zh": "39栋"}, "heightStatus": "levels_only_unverified", "source": "OpenStreetMap", "license": "ODbL-1.0"}, "geometry": {"type": "MultiPolygon", "coordinates": [[[[114.0385781, 22.5177331], [114.0386003, 22.5176694], [114.0386054, 22.5176497], [114.0386062, 22.5176245], [114.0386114, 22.5175986], [114.0386437, 22.5175113], [114.0386599, 22.517501], [114.0386895, 22.5175024], [114.0386972, 22.5174864], [114.038717, 22.5174759], [114.0388558, 22.5174932], [114.0388796, 22.5175065], [114.0388941, 22.5175168], [114.0389239, 22.5175207], [114.0389562, 22.517527], [114.0389384, 22.5175946], [114.0389188, 22.5175954], [114.0389009, 22.5176599], [114.0388438, 22.5176458], [114.038751, 22.5176702], [114.0387161, 22.517748], [114.0386607, 22.5177362], [114.0386539, 22.5177512], [114.0385781, 22.5177331]]]]}}, {"type": "Feature", "id": "way/1047410329", "properties": {"tags": {"addr:housename": "金地海景花园", "addr:housename:en": "Gemdale Seaview Garden", "addr:housename:zh": "金地海景花园", "building": "apartments", "building:levels": "32", "name": "40栋", "name:en": "Block 40", "name:zh": "40栋"}, "heightStatus": "levels_only_unverified", "source": "OpenStreetMap", "license": "ODbL-1.0"}, "geometry": {"type": "MultiPolygon", "coordinates": [[[[114.0387117, 22.5179433], [114.0387338, 22.5178796], [114.0387389, 22.5178599], [114.0387398, 22.5178348], [114.0387449, 22.5178088], [114.0387772, 22.5177215], [114.0387934, 22.5177113], [114.0388231, 22.5177127], [114.0388307, 22.5176967], [114.0388505, 22.5176861], [114.0389893, 22.5177034], [114.0390131, 22.5177168], [114.0390276, 22.517727], [114.0390574, 22.5177309], [114.0390898, 22.5177372], [114.0390719, 22.5178049], [114.0390523, 22.5178057], [114.0390344, 22.5178702], [114.0389774, 22.517856], [114.0388845, 22.5178804], [114.0388496, 22.5179583], [114.0387943, 22.5179465], [114.0387875, 22.5179614], [114.0387117, 22.5179433]]]]}}, {"type": "Feature", "id": "way/1047410334", "properties": {"tags": {"addr:housename": "金地海景花园", "addr:housename:en": "Gemdale Seaview Garden", "addr:housename:zh": "金地海景花园", "building": "apartments", "name": "11栋", "name:en": "Block 11", "name:zh": "11栋"}, "heightStatus": "unknown", "source": "OpenStreetMap", "license": "ODbL-1.0"}, "geometry": {"type": "MultiPolygon", "coordinates": [[[[114.0368599, 22.5180623], [114.0369104, 22.5180352], [114.0369059, 22.5180281], [114.0369641, 22.5179969], [114.0369686, 22.5180041], [114.0370696, 22.51795], [114.0370651, 22.5179429], [114.0371232, 22.5179117], [114.0371278, 22.5179189], [114.0371782, 22.5178919], [114.0372052, 22.5179349], [114.0371884, 22.5179439], [114.0372016, 22.517965], [114.037168, 22.517983], [114.0371783, 22.5179994], [114.0371201, 22.5180306], [114.0371098, 22.5180141], [114.0370761, 22.5180321], [114.0370629, 22.5180111], [114.0370293, 22.5180291], [114.0370425, 22.5180502], [114.0370088, 22.5180682], [114.0370191, 22.5180846], [114.0369609, 22.5181158], [114.0369506, 22.5180993], [114.036917, 22.5181173], [114.0369038, 22.5180963], [114.0368869, 22.5181053], [114.0368599, 22.5180623]]]]}}, {"type": "Feature", "id": "way/1047410335", "properties": {"tags": {"addr:housename": "金地海景花园", "addr:housename:en": "Gemdale Seaview Garden", "addr:housename:zh": "金地海景花园", "building": "apartments", "name": "10栋", "name:en": "Block 10", "name:zh": "10栋"}, "heightStatus": "unknown", "source": "OpenStreetMap", "license": "ODbL-1.0"}, "geometry": {"type": "MultiPolygon", "coordinates": [[[[114.0367325, 22.517855], [114.036783, 22.5178279], [114.0367785, 22.5178208], [114.0368367, 22.5177896], [114.0368412, 22.5177968], [114.0369421, 22.5177427], [114.0369376, 22.5177356], [114.0369958, 22.5177044], [114.0370003, 22.5177116], [114.0370508, 22.5176846], [114.0370778, 22.5177276], [114.037061, 22.5177366], [114.0370742, 22.5177577], [114.0370405, 22.5177757], [114.0370508, 22.5177921], [114.0369926, 22.5178232], [114.0369823, 22.5178068], [114.0369487, 22.5178248], [114.0369355, 22.5178038], [114.0369018, 22.5178218], [114.036915, 22.5178429], [114.0368814, 22.5178609], [114.0368917, 22.5178773], [114.0368335, 22.5179084], [114.0368232, 22.517892], [114.0367895, 22.51791], [114.0367763, 22.517889], [114.0367595, 22.517898], [114.0367325, 22.517855]]]]}}, {"type": "Feature", "id": "way/1047410336", "properties": {"tags": {"addr:housename": "金地海景花园", "addr:housename:en": "Gemdale Seaview Garden", "addr:housename:zh": "金地海景花园", "building": "apartments", "name": "9栋", "name:en": "Block 9", "name:zh": "9栋"}, "heightStatus": "unknown", "source": "OpenStreetMap", "license": "ODbL-1.0"}, "geometry": {"type": "MultiPolygon", "coordinates": [[[[114.0365983, 22.5176456], [114.0366488, 22.5176185], [114.0366443, 22.5176114], [114.0367025, 22.5175802], [114.036707, 22.5175874], [114.0368079, 22.5175333], [114.0368034, 22.5175262], [114.0368616, 22.517495], [114.0368661, 22.5175022], [114.0369166, 22.5174752], [114.0369436, 22.5175182], [114.0369268, 22.5175272], [114.03694, 22.5175483], [114.0369063, 22.5175663], [114.0369166, 22.5175827], [114.0368584, 22.5176139], [114.0368481, 22.5175974], [114.0368145, 22.5176154], [114.0368013, 22.5175944], [114.0367676, 22.5176124], [114.0367808, 22.5176335], [114.0367472, 22.5176515], [114.0367575, 22.5176679], [114.0366993, 22.5176991], [114.036689, 22.5176826], [114.0366553, 22.5177006], [114.0366421, 22.5176796], [114.0366253, 22.5176886], [114.0365983, 22.5176456]]]]}}, {"type": "Feature", "id": "way/1047410340", "properties": {"tags": {"addr:housename": "金地海景花园", "addr:housename:en": "Gemdale Seaview Garden", "addr:housename:zh": "金地海景花园", "building": "apartments", "name": "7栋", "name:en": "Block 7", "name:zh": "7栋"}, "heightStatus": "unknown", "source": "OpenStreetMap", "license": "ODbL-1.0"}, "geometry": {"type": "MultiPolygon", "coordinates": [[[[114.0371557, 22.5174141], [114.0375676, 22.5171935], [114.0376158, 22.5172703], [114.0372039, 22.5174909], [114.0371557, 22.5174141]]]]}}, {"type": "Feature", "id": "way/1047410341", "properties": {"tags": {"addr:housename": "金地海景花园", "addr:housename:en": "Gemdale Seaview Garden", "addr:housename:zh": "金地海景花园", "building": "apartments", "name": "8栋", "name:en": "Block 8", "name:zh": "8栋"}, "heightStatus": "unknown", "source": "OpenStreetMap", "license": "ODbL-1.0"}, "geometry": {"type": "MultiPolygon", "coordinates": [[[[114.0372886, 22.5176228], [114.0376772, 22.5174147], [114.0377449, 22.5175226], [114.0373563, 22.5177307], [114.0372886, 22.5176228]]]]}}, {"type": "Feature", "id": "way/1047410342", "properties": {"tags": {"addr:housename": "金地海景花园", "addr:housename:en": "Gemdale Seaview Garden", "addr:housename:zh": "金地海景花园", "building": "apartments", "name": "3栋", "name:en": "Block 3", "name:zh": "3栋"}, "heightStatus": "unknown", "source": "OpenStreetMap", "license": "ODbL-1.0"}, "geometry": {"type": "MultiPolygon", "coordinates": [[[[114.0377284, 22.5173857], [114.0381171, 22.5171777], [114.0381848, 22.5172856], [114.0377961, 22.5174937], [114.0377284, 22.5173857]]]]}}, {"type": "Feature", "id": "way/1047410343", "properties": {"tags": {"addr:housename": "金地海景花园", "addr:housename:en": "Gemdale Seaview Garden", "addr:housename:zh": "金地海景花园", "building": "apartments", "name": "4栋", "name:en": "Block 4", "name:zh": "4栋"}, "heightStatus": "unknown", "source": "OpenStreetMap", "license": "ODbL-1.0"}, "geometry": {"type": "MultiPolygon", "coordinates": [[[[114.0376344, 22.5171547], [114.0380464, 22.5169342], [114.0380946, 22.517011], [114.0376826, 22.5172316], [114.0376344, 22.5171547]]]]}}, {"type": "Feature", "id": "way/1047410344", "properties": {"tags": {"addr:housename": "金地海景花园", "addr:housename:en": "Gemdale Seaview Garden", "addr:housename:zh": "金地海景花园", "building": "apartments", "name": "6栋", "name:en": "Block 6", "name:zh": "6栋"}, "heightStatus": "unknown", "source": "OpenStreetMap", "license": "ODbL-1.0"}, "geometry": {"type": "MultiPolygon", "coordinates": [[[[114.0374806, 22.5178466], [114.0376819, 22.517733], [114.0377393, 22.5178198], [114.037538, 22.5179335], [114.0374806, 22.5178466]]]]}}, {"type": "Feature", "id": "way/1047410346", "properties": {"tags": {"addr:housename": "金地海景花园", "addr:housename:en": "Gemdale Seaview Garden", "addr:housename:zh": "金地海景花园", "building": "apartments", "building:levels": "8", "name": "31栋", "name:en": "Block 31", "name:zh": "31栋"}, "heightStatus": "levels_only_unverified", "source": "OpenStreetMap", "license": "ODbL-1.0"}, "geometry": {"type": "MultiPolygon", "coordinates": [[[[114.0368975, 22.5170126], [114.0370915, 22.5169087], [114.0371742, 22.5170405], [114.0369802, 22.5171444], [114.0368975, 22.5170126]]]]}}, {"type": "Feature", "id": "way/1047410347", "properties": {"tags": {"addr:housename": "金地海景花园", "addr:housename:en": "Gemdale Seaview Garden", "addr:housename:zh": "金地海景花园", "building": "apartments", "building:levels": "11", "name": "27栋", "name:en": "Block 27", "name:zh": "27栋"}, "heightStatus": "levels_only_unverified", "source": "OpenStreetMap", "license": "ODbL-1.0"}, "geometry": {"type": "MultiPolygon", "coordinates": [[[[114.0358858, 22.5175282], [114.0360798, 22.5174243], [114.0361625, 22.5175561], [114.0359684, 22.51766], [114.0358858, 22.5175282]]]]}}, {"type": "Feature", "id": "way/1047410348", "properties": {"tags": {"addr:housename": "金地海景花园", "addr:housename:en": "Gemdale Seaview Garden", "addr:housename:zh": "金地海景花园", "building": "apartments", "building:levels": "31", "name": "26栋", "name:en": "Block 26", "name:zh": "26栋"}, "heightStatus": "levels_only_unverified", "source": "OpenStreetMap", "license": "ODbL-1.0"}, "geometry": {"type": "MultiPolygon", "coordinates": [[[[114.0355303, 22.5178196], [114.035535, 22.5178], [114.0355431, 22.5177814], [114.0355545, 22.5177642], [114.0355687, 22.517749], [114.0355696, 22.5177239], [114.0355739, 22.5176992], [114.0355816, 22.5176751], [114.0355924, 22.5176521], [114.035601, 22.5176403], [114.0356138, 22.5176324], [114.0356289, 22.5176295], [114.0356416, 22.5176317], [114.0356477, 22.5176212], [114.0356596, 22.5176121], [114.0356743, 22.5176078], [114.0356896, 22.517609], [114.0357158, 22.5176156], [114.0357409, 22.5176251], [114.0357646, 22.5176375], [114.0357863, 22.5176525], [114.0358081, 22.5176517], [114.0358296, 22.5176543], [114.0358505, 22.5176601], [114.03587, 22.517669], [114.0358461, 22.5177318], [114.0358849, 22.5177444], [114.0358606, 22.5178082], [114.0358064, 22.5177906], [114.0358132, 22.5177727], [114.0357705, 22.5177588], [114.0357439, 22.5178287], [114.0357645, 22.5178354], [114.0357495, 22.5178747], [114.035729, 22.517868], [114.0357099, 22.5179181], [114.0356474, 22.5178979], [114.0356611, 22.517862], [114.0355303, 22.5178196]]]]}}, {"type": "Feature", "id": "way/1049242655", "properties": {"tags": {"building": "yes"}, "heightStatus": "unknown", "source": "OpenStreetMap", "license": "ODbL-1.0"}, "geometry": {"type": "MultiPolygon", "coordinates": [[[[114.0400565, 22.5164138], [114.0402666, 22.5163286], [114.0404441, 22.5167384], [114.04017, 22.5168782], [114.0400565, 22.5164138]]]]}}, {"type": "Feature", "id": "way/1049242656", "properties": {"tags": {"building": "yes"}, "heightStatus": "unknown", "source": "OpenStreetMap", "license": "ODbL-1.0"}, "geometry": {"type": "MultiPolygon", "coordinates": [[[[114.0405136, 22.5163106], [114.0409245, 22.5161381], [114.0410646, 22.5164401], [114.0408626, 22.5165328], [114.040977, 22.5167259], [114.041186, 22.5166223], [114.0414569, 22.5171023], [114.0411347, 22.5172737], [114.0407074, 22.5164573], [114.0409105, 22.5163872], [114.0408778, 22.5162869], [114.0405509, 22.5164163], [114.0405136, 22.5163106]]]]}}, {"type": "Feature", "id": "way/1049242657", "properties": {"tags": {"building": "yes"}, "heightStatus": "unknown", "source": "OpenStreetMap", "license": "ODbL-1.0"}, "geometry": {"type": "MultiPolygon", "coordinates": [[[[114.040436, 22.5166102], [114.0406012, 22.5165475], [114.040646, 22.5166374], [114.040477, 22.5167202], [114.040436, 22.5166102]]]]}}, {"type": "Feature", "id": "way/1049242659", "properties": {"tags": {"building": "yes"}, "heightStatus": "unknown", "source": "OpenStreetMap", "license": "ODbL-1.0"}, "geometry": {"type": "MultiPolygon", "coordinates": [[[[114.0411709, 22.5173521], [114.0414791, 22.5172084], [114.0417209, 22.5176467], [114.0414159, 22.5177975], [114.0411709, 22.5173521]]]]}}, {"type": "Feature", "id": "way/1049242664", "properties": {"tags": {"building": "yes"}, "heightStatus": "unknown", "source": "OpenStreetMap", "license": "ODbL-1.0"}, "geometry": {"type": "MultiPolygon", "coordinates": [[[[114.039932, 22.516183], [114.0399904, 22.5161603], [114.0399332, 22.5160298], [114.0399915, 22.5160039], [114.0400312, 22.5160999], [114.040155, 22.5160568], [114.0401655, 22.5160881], [114.0402869, 22.5160395], [114.0403255, 22.5161258], [114.0399635, 22.5162671], [114.039932, 22.516183]]]]}}, {"type": "Feature", "id": "way/1050284446", "properties": {"tags": {"building": "apartments"}, "heightStatus": "unknown", "source": "OpenStreetMap", "license": "ODbL-1.0"}, "geometry": {"type": "MultiPolygon", "coordinates": [[[[114.043842, 22.5121629], [114.0438962, 22.5121561], [114.043887, 22.5120934], [114.0440403, 22.5120741], [114.0440506, 22.5121445], [114.0441553, 22.5121313], [114.0441442, 22.5120565], [114.0443039, 22.5120364], [114.0443146, 22.5121092], [114.0443753, 22.5121016], [114.0443863, 22.5121765], [114.0438539, 22.5122433], [114.043842, 22.5121629]]]]}}, {"type": "Feature", "id": "way/1050284448", "properties": {"tags": {"building": "apartments"}, "heightStatus": "unknown", "source": "OpenStreetMap", "license": "ODbL-1.0"}, "geometry": {"type": "MultiPolygon", "coordinates": [[[[114.042516, 22.5113631], [114.042683, 22.5112802], [114.0427506, 22.5113964], [114.0427894, 22.5113772], [114.0428196, 22.5114292], [114.0425711, 22.5115525], [114.0425335, 22.511488], [114.0425763, 22.5114667], [114.042516, 22.5113631]]]]}}, {"type": "Feature", "id": "way/1050284451", "properties": {"tags": {"building": "apartments"}, "heightStatus": "unknown", "source": "OpenStreetMap", "license": "ODbL-1.0"}, "geometry": {"type": "MultiPolygon", "coordinates": [[[[114.0436154, 22.5112258], [114.0436607, 22.5112184], [114.0436366, 22.5110931], [114.0438275, 22.5110617], [114.0438514, 22.5111855], [114.0439016, 22.5111773], [114.0439135, 22.5112389], [114.043627, 22.5112861], [114.0436154, 22.5112258]]]]}}, {"type": "Feature", "id": "way/1050284459", "properties": {"tags": {"addr:housename": "益田村", "addr:housename:zh": "益田村", "building": "apartments", "name": "61栋", "name:zh": "61栋"}, "heightStatus": "unknown", "source": "OpenStreetMap", "license": "ODbL-1.0"}, "geometry": {"type": "MultiPolygon", "coordinates": [[[[114.042978, 22.5166006], [114.0429796, 22.5165508], [114.0430508, 22.5165528], [114.0430526, 22.516498], [114.0430219, 22.5164972], [114.0430227, 22.5164738], [114.0429985, 22.5164731], [114.0429992, 22.5164511], [114.0430551, 22.5164527], [114.0430558, 22.5164313], [114.0431241, 22.5164332], [114.0431235, 22.5164508], [114.0431792, 22.5164524], [114.043178, 22.5164905], [114.0431624, 22.5164901], [114.0431614, 22.5165189], [114.0431336, 22.5165181], [114.0431328, 22.5165451], [114.0431952, 22.5165468], [114.043193, 22.5166149], [114.0431321, 22.5166133], [114.0431316, 22.5166288], [114.0430266, 22.516626], [114.0430274, 22.516602], [114.042978, 22.5166006]]]]}}, {"type": "Feature", "id": "way/1050452861", "properties": {"tags": {"building": "apartments"}, "heightStatus": "unknown", "source": "OpenStreetMap", "license": "ODbL-1.0"}, "geometry": {"type": "MultiPolygon", "coordinates": [[[[114.0403862, 22.5118956], [114.0404456, 22.5118819], [114.0404232, 22.5117989], [114.0405443, 22.5117709], [114.0405652, 22.511848], [114.0406686, 22.5118241], [114.0406496, 22.5117541], [114.040798, 22.5117198], [114.0408159, 22.511786], [114.0408727, 22.5117728], [114.0408918, 22.511843], [114.0408124, 22.5118614], [114.0408155, 22.5118725], [114.0407359, 22.5118909], [114.0407295, 22.5118673], [114.040528, 22.511914], [114.0405343, 22.5119371], [114.0404792, 22.5119499], [114.0404724, 22.5119248], [114.0403987, 22.5119419], [114.0403862, 22.5118956]]]]}}, {"type": "Feature", "id": "way/1050452868", "properties": {"tags": {"building": "apartments"}, "heightStatus": "unknown", "source": "OpenStreetMap", "license": "ODbL-1.0"}, "geometry": {"type": "MultiPolygon", "coordinates": [[[[114.042008, 22.5125068], [114.0420659, 22.5124956], [114.0420504, 22.5124277], [114.0421862, 22.5124012], [114.0422009, 22.5124659], [114.0423205, 22.5124426], [114.042304, 22.5123701], [114.0424571, 22.5123403], [114.0424718, 22.5124049], [114.0425195, 22.5123956], [114.0425359, 22.5124676], [114.042022, 22.5125678], [114.042008, 22.5125068]]]]}}, {"type": "Feature", "id": "way/1050452869", "properties": {"tags": {"building": "apartments"}, "heightStatus": "unknown", "source": "OpenStreetMap", "license": "ODbL-1.0"}, "geometry": {"type": "MultiPolygon", "coordinates": [[[[114.042558, 22.5123771], [114.0426124, 22.5123673], [114.0425972, 22.5122956], [114.0427589, 22.5122665], [114.0427758, 22.5123464], [114.0428822, 22.5123272], [114.0428674, 22.5122575], [114.0430008, 22.5122334], [114.043013, 22.5122911], [114.0430798, 22.512279], [114.0430964, 22.512358], [114.0425738, 22.5124521], [114.042558, 22.5123771]]]]}}, {"type": "Feature", "id": "way/1050452870", "properties": {"tags": {"building": "apartments"}, "heightStatus": "unknown", "source": "OpenStreetMap", "license": "ODbL-1.0"}, "geometry": {"type": "MultiPolygon", "coordinates": [[[[114.043262, 22.5122506], [114.0433363, 22.5122407], [114.0433256, 22.5121725], [114.0434852, 22.5121511], [114.043497, 22.5122264], [114.0435858, 22.5122145], [114.0435745, 22.5121428], [114.0437194, 22.5121234], [114.0437312, 22.5121987], [114.0437928, 22.5121904], [114.0438039, 22.5122612], [114.0432748, 22.5123319], [114.043262, 22.5122506]]]]}}, {"type": "Feature", "id": "way/1050452872", "properties": {"tags": {"building": "apartments"}, "heightStatus": "unknown", "source": "OpenStreetMap", "license": "ODbL-1.0"}, "geometry": {"type": "MultiPolygon", "coordinates": [[[[114.0418744, 22.511999], [114.0419728, 22.5119811], [114.0419621, 22.5119308], [114.0421074, 22.5119044], [114.0421195, 22.5119612], [114.0422515, 22.5119372], [114.0422399, 22.5118827], [114.0423862, 22.5118561], [114.0423988, 22.5119155], [114.0424567, 22.511905], [114.0424694, 22.5119646], [114.0423807, 22.5119807], [114.0423862, 22.5120067], [114.0423223, 22.5120183], [114.0423148, 22.5119833], [114.0420887, 22.5120243], [114.0420967, 22.512062], [114.0420227, 22.5120754], [114.0420172, 22.5120497], [114.0418901, 22.5120728], [114.0418744, 22.511999]]]]}}, {"type": "Feature", "id": "way/1050452874", "properties": {"tags": {"building": "apartments"}, "heightStatus": "unknown", "source": "OpenStreetMap", "license": "ODbL-1.0"}, "geometry": {"type": "MultiPolygon", "coordinates": [[[[114.0428248, 22.5113605], [114.0428701, 22.5113531], [114.042846, 22.5112278], [114.0430369, 22.5111964], [114.0430608, 22.5113202], [114.043111, 22.511312], [114.0431229, 22.5113736], [114.0428364, 22.5114208], [114.0428248, 22.5113605]]]]}}, {"type": "Feature", "id": "way/1050452875", "properties": {"tags": {"building": "apartments"}, "heightStatus": "unknown", "source": "OpenStreetMap", "license": "ODbL-1.0"}, "geometry": {"type": "MultiPolygon", "coordinates": [[[[114.0431947, 22.5112943], [114.04324, 22.5112869], [114.0432159, 22.5111616], [114.0434068, 22.5111302], [114.0434307, 22.511254], [114.0434809, 22.5112457], [114.0434928, 22.5113074], [114.0432063, 22.5113545], [114.0431947, 22.5112943]]]]}}, {"type": "Feature", "id": "way/1050452877", "properties": {"tags": {"building": "apartments"}, "heightStatus": "unknown", "source": "OpenStreetMap", "license": "ODbL-1.0"}, "geometry": {"type": "MultiPolygon", "coordinates": [[[[114.0440027, 22.5112364], [114.0440069, 22.5111754], [114.0440529, 22.5111781], [114.0440617, 22.5110511], [114.0442552, 22.5110625], [114.0442465, 22.511188], [114.0442974, 22.5111911], [114.0442931, 22.5112535], [114.0440027, 22.5112364]]]]}}, {"type": "Feature", "id": "way/1050452885", "properties": {"tags": {"addr:housename": "益田村", "addr:housename:zh": "益田村", "building": "apartments", "name": "59栋", "name:zh": "59栋"}, "heightStatus": "unknown", "source": "OpenStreetMap", "license": "ODbL-1.0"}, "geometry": {"type": "MultiPolygon", "coordinates": [[[[114.042701, 22.516254], [114.042767, 22.5162537], [114.0427668, 22.5162178], [114.0427401, 22.516218], [114.04274, 22.5161952], [114.0427204, 22.5161954], [114.0427201, 22.5161531], [114.0427735, 22.5161527], [114.0427734, 22.5161446], [114.0428474, 22.5161441], [114.0428439, 22.516158], [114.0428998, 22.5161579], [114.0428998, 22.5161917], [114.042884, 22.5161918], [114.0428841, 22.5162187], [114.0428617, 22.5162188], [114.0428618, 22.5162568], [114.0429232, 22.5162566], [114.0429235, 22.5163255], [114.042867, 22.5163257], [114.0428671, 22.5163405], [114.0427514, 22.5163409], [114.0427513, 22.5163236], [114.0427014, 22.5163239], [114.042701, 22.516254]]]]}}, {"type": "Feature", "id": "way/1050452886", "properties": {"tags": {"addr:housename": "益田村", "addr:housename:zh": "益田村", "building": "apartments", "name": "57栋", "name:zh": "57栋"}, "heightStatus": "unknown", "source": "OpenStreetMap", "license": "ODbL-1.0"}, "geometry": {"type": "MultiPolygon", "coordinates": [[[[114.0425582, 22.5158972], [114.0426242, 22.5158968], [114.042624, 22.515861], [114.0425973, 22.5158611], [114.0425971, 22.5158384], [114.0425775, 22.5158385], [114.0425772, 22.5157962], [114.0426307, 22.5157959], [114.0426306, 22.5157878], [114.0427046, 22.5157873], [114.0427011, 22.5158012], [114.0427569, 22.5158011], [114.042757, 22.5158349], [114.0427412, 22.5158349], [114.0427412, 22.5158619], [114.0427189, 22.5158619], [114.042719, 22.5158999], [114.0427804, 22.5158997], [114.0427806, 22.5159687], [114.0427242, 22.5159689], [114.0427243, 22.5159836], [114.0426086, 22.5159841], [114.0426085, 22.5159668], [114.0425586, 22.515967], [114.0425582, 22.5158972]]]]}}, {"type": "Feature", "id": "way/1050452887", "properties": {"tags": {"addr:housename": "益田村", "addr:housename:zh": "益田村", "building": "apartments", "name": "46栋", "name:zh": "46栋"}, "heightStatus": "unknown", "source": "OpenStreetMap", "license": "ODbL-1.0"}, "geometry": {"type": "MultiPolygon", "coordinates": [[[[114.0437166, 22.51552], [114.0437827, 22.5155197], [114.0437824, 22.5154838], [114.0437558, 22.515484], [114.0437556, 22.5154613], [114.043736, 22.5154614], [114.0437357, 22.5154191], [114.0437891, 22.5154188], [114.0437891, 22.5154106], [114.0438631, 22.5154102], [114.0438595, 22.5154241], [114.0439154, 22.5154239], [114.0439155, 22.5154578], [114.0438996, 22.5154578], [114.0438997, 22.5154847], [114.0438773, 22.5154848], [114.0438775, 22.5155228], [114.0439388, 22.5155226], [114.0439391, 22.5155916], [114.0438827, 22.5155917], [114.0438827, 22.5156065], [114.0437671, 22.515607], [114.043767, 22.5155896], [114.043717, 22.5155899], [114.0437166, 22.51552]]]]}}, {"type": "Feature", "id": "way/1050452888", "properties": {"tags": {"addr:housename": "益田村", "addr:housename:zh": "益田村", "building": "apartments", "name": "45栋", "name:zh": "45栋"}, "heightStatus": "unknown", "source": "OpenStreetMap", "license": "ODbL-1.0"}, "geometry": {"type": "MultiPolygon", "coordinates": [[[[114.0439508, 22.5152667], [114.0440168, 22.5152664], [114.0440166, 22.5152305], [114.0439899, 22.5152307], [114.0439898, 22.515208], [114.0439702, 22.5152081], [114.0439699, 22.5151658], [114.0440233, 22.5151654], [114.0440232, 22.5151573], [114.0440972, 22.5151569], [114.0440937, 22.5151707], [114.0441495, 22.5151706], [114.0441496, 22.5152045], [114.0441338, 22.5152045], [114.0441339, 22.5152314], [114.0441115, 22.5152315], [114.0441116, 22.5152695], [114.044173, 22.5152693], [114.0441732, 22.5153383], [114.0441168, 22.5153384], [114.0441169, 22.5153532], [114.0440012, 22.5153536], [114.0440011, 22.5153363], [114.0439512, 22.5153366], [114.0439508, 22.5152667]]]]}}, {"type": "Feature", "id": "way/1050452889", "properties": {"tags": {"addr:housename": "益田村", "addr:housename:zh": "益田村", "building": "apartments", "name": "47栋", "name:zh": "47栋"}, "heightStatus": "unknown", "source": "OpenStreetMap", "license": "ODbL-1.0"}, "geometry": {"type": "MultiPolygon", "coordinates": [[[[114.0436165, 22.5158744], [114.0436825, 22.5158741], [114.0436823, 22.5158382], [114.0436556, 22.5158383], [114.0436555, 22.5158156], [114.0436359, 22.5158157], [114.0436356, 22.5157734], [114.043689, 22.5157731], [114.0436889, 22.515765], [114.0437629, 22.5157645], [114.0437594, 22.5157784], [114.0438152, 22.5157783], [114.0438153, 22.5158121], [114.0437995, 22.5158122], [114.0437996, 22.5158391], [114.0437772, 22.5158391], [114.0437773, 22.5158771], [114.0438387, 22.5158769], [114.043839, 22.5159459], [114.0437825, 22.5159461], [114.0437826, 22.5159608], [114.0436669, 22.5159613], [114.0436668, 22.515944], [114.0436169, 22.5159442], [114.0436165, 22.5158744]]]]}}, {"type": "Feature", "id": "way/1050452890", "properties": {"tags": {"addr:housename": "益田村", "addr:housename:zh": "益田村", "building": "apartments", "name": "48栋", "name:zh": "48栋"}, "heightStatus": "unknown", "source": "OpenStreetMap", "license": "ODbL-1.0"}, "geometry": {"type": "MultiPolygon", "coordinates": [[[[114.0436242, 22.5161946], [114.0436902, 22.5161943], [114.04369, 22.5161584], [114.0436633, 22.5161585], [114.0436632, 22.5161358], [114.0436436, 22.5161359], [114.0436433, 22.5160936], [114.0436967, 22.5160933], [114.0436966, 22.5160852], [114.0437706, 22.5160847], [114.0437671, 22.5160986], [114.043823, 22.5160985], [114.043823, 22.5161323], [114.0438072, 22.5161324], [114.0438073, 22.5161593], [114.0437849, 22.5161593], [114.043785, 22.5161973], [114.0438464, 22.5161971], [114.0438467, 22.5162661], [114.0437902, 22.5162663], [114.0437903, 22.516281], [114.0436746, 22.5162815], [114.0436745, 22.5162642], [114.0436246, 22.5162644], [114.0436242, 22.5161946]]]]}}, {"type": "Feature", "id": "way/1050452896", "properties": {"tags": {"addr:housename": "益田村", "addr:housename:zh": "益田村", "building": "apartments", "name": "71栋", "name:zh": "71栋"}, "heightStatus": "unknown", "source": "OpenStreetMap", "license": "ODbL-1.0"}, "geometry": {"type": "MultiPolygon", "coordinates": [[[[114.043289, 22.5176783], [114.0433411, 22.5176583], [114.043335, 22.5176447], [114.0434417, 22.5176036], [114.0434489, 22.5176196], [114.043495, 22.5176019], [114.0435242, 22.5176663], [114.0434632, 22.5176898], [114.0434782, 22.5177229], [114.0435028, 22.5177134], [114.0435123, 22.5177343], [114.0435304, 22.5177273], [114.0435481, 22.5177664], [114.0434988, 22.5177854], [114.0435022, 22.5177929], [114.043434, 22.5178194], [114.0434315, 22.5178053], [114.0433799, 22.517825], [114.0433659, 22.5177938], [114.0433805, 22.5177882], [114.0433694, 22.5177633], [114.0433901, 22.5177554], [114.0433743, 22.5177203], [114.0433176, 22.517742], [114.043289, 22.5176783]]]]}}, {"type": "Feature", "id": "way/1050452897", "properties": {"tags": {"addr:housename": "益田村", "addr:housename:zh": "益田村", "building": "apartments", "name": "72栋", "name:zh": "72栋"}, "heightStatus": "unknown", "source": "OpenStreetMap", "license": "ODbL-1.0"}, "geometry": {"type": "MultiPolygon", "coordinates": [[[[114.0429984, 22.5177996], [114.0430505, 22.5177796], [114.0430444, 22.517766], [114.0431511, 22.5177249], [114.0431584, 22.5177409], [114.0432044, 22.5177231], [114.0432336, 22.5177876], [114.0431727, 22.5178111], [114.0431876, 22.5178442], [114.0432122, 22.5178347], [114.0432217, 22.5178556], [114.0432398, 22.5178486], [114.0432575, 22.5178877], [114.0432082, 22.5179067], [114.0432116, 22.5179142], [114.0431434, 22.5179407], [114.0431409, 22.5179266], [114.0430893, 22.5179463], [114.0430753, 22.517915], [114.04309, 22.5179095], [114.0430788, 22.5178846], [114.0430995, 22.5178767], [114.0430837, 22.5178416], [114.043027, 22.5178633], [114.0429984, 22.5177996]]]]}}, {"type": "Feature", "id": "way/1050452898", "properties": {"tags": {"addr:housename": "益田村", "addr:housename:zh": "益田村", "building": "apartments", "name": "73栋", "name:zh": "73栋"}, "heightStatus": "unknown", "source": "OpenStreetMap", "license": "ODbL-1.0"}, "geometry": {"type": "MultiPolygon", "coordinates": [[[[114.0427509, 22.5179149], [114.042803, 22.517895], [114.0427969, 22.5178813], [114.0429037, 22.5178403], [114.0429109, 22.5178562], [114.042957, 22.5178385], [114.0429861, 22.5179029], [114.0429252, 22.5179264], [114.0429401, 22.5179595], [114.0429648, 22.51795], [114.0429742, 22.517971], [114.0429923, 22.517964], [114.04301, 22.518003], [114.0429608, 22.5180221], [114.0429641, 22.5180295], [114.0428959, 22.518056], [114.0428935, 22.5180419], [114.0428419, 22.5180616], [114.0428278, 22.5180304], [114.0428425, 22.5180248], [114.0428313, 22.5179999], [114.042852, 22.517992], [114.0428362, 22.5179569], [114.0427795, 22.5179786], [114.0427509, 22.5179149]]]]}}, {"type": "Feature", "id": "way/1050452931", "properties": {"tags": {"addr:housename": "金地海景花园", "addr:housename:en": "Gemdale Seaview Garden", "addr:housename:zh": "金地海景花园", "building": "apartments", "name": "2栋", "name:en": "Block 2", "name:zh": "2栋"}, "heightStatus": "unknown", "source": "OpenStreetMap", "license": "ODbL-1.0"}, "geometry": {"type": "MultiPolygon", "coordinates": [[[[114.0381308, 22.5177456], [114.03818, 22.5177193], [114.0381341, 22.5176461], [114.0382723, 22.5175721], [114.0383182, 22.5176453], [114.0383674, 22.5176189], [114.0383996, 22.5176703], [114.0383835, 22.5176789], [114.0384032, 22.5177102], [114.0381988, 22.5178196], [114.0381792, 22.5177884], [114.038163, 22.517797], [114.0381308, 22.5177456]]]]}}, {"type": "Feature", "id": "way/1050452935", "properties": {"tags": {"addr:housename": "益田村", "addr:housename:zh": "益田村", "building": "apartments", "name": "54栋", "name:zh": "54栋"}, "heightStatus": "unknown", "source": "OpenStreetMap", "license": "ODbL-1.0"}, "geometry": {"type": "MultiPolygon", "coordinates": [[[[114.0428224, 22.5154619], [114.0428229, 22.5153643], [114.0429935, 22.5153652], [114.0429936, 22.5153473], [114.0431558, 22.5153481], [114.0431559, 22.5153199], [114.0432868, 22.5153206], [114.0432867, 22.5153453], [114.043316, 22.5153454], [114.0433156, 22.515411], [114.043161, 22.5154102], [114.0431609, 22.5154316], [114.0429997, 22.5154308], [114.0429995, 22.5154627], [114.0428224, 22.5154619]]]]}}, {"type": "Feature", "id": "way/1050452936", "properties": {"tags": {"addr:housename": "益田村", "addr:housename:zh": "益田村", "building": "apartments", "name": "56栋", "name:zh": "56栋"}, "heightStatus": "unknown", "source": "OpenStreetMap", "license": "ODbL-1.0"}, "geometry": {"type": "MultiPolygon", "coordinates": [[[[114.0429523, 22.5157612], [114.0429528, 22.5156636], [114.0431234, 22.5156645], [114.0431235, 22.5156466], [114.0432857, 22.5156474], [114.0432858, 22.5156192], [114.0434167, 22.5156199], [114.0434166, 22.5156446], [114.0434459, 22.5156447], [114.0434455, 22.5157103], [114.0432909, 22.5157095], [114.0432908, 22.5157309], [114.0431296, 22.5157301], [114.0431294, 22.515762], [114.0429523, 22.5157612]]]]}}, {"type": "Feature", "id": "way/1050452937", "properties": {"tags": {"addr:housename": "益田村", "addr:housename:zh": "益田村", "building": "apartments", "name": "52栋", "name:zh": "52栋"}, "heightStatus": "unknown", "source": "OpenStreetMap", "license": "ODbL-1.0"}, "geometry": {"type": "MultiPolygon", "coordinates": [[[[114.0428443, 22.5151367], [114.0428449, 22.5150392], [114.0430154, 22.51504], [114.0430156, 22.5150221], [114.0431777, 22.515023], [114.0431779, 22.5149948], [114.0433088, 22.5149955], [114.0433086, 22.5150201], [114.0433379, 22.5150203], [114.0433376, 22.5150858], [114.043183, 22.515085], [114.0431828, 22.5151065], [114.0430217, 22.5151057], [114.0430215, 22.5151376], [114.0428443, 22.5151367]]]]}}, {"type": "Feature", "id": "way/1050452938", "properties": {"tags": {"addr:housename": "益田村", "addr:housename:zh": "益田村", "building": "apartments", "name": "50栋", "name:zh": "50栋"}, "heightStatus": "unknown", "source": "OpenStreetMap", "license": "ODbL-1.0"}, "geometry": {"type": "MultiPolygon", "coordinates": [[[[114.0427275, 22.514867], [114.0427281, 22.5147695], [114.0428987, 22.5147703], [114.0428988, 22.5147524], [114.0430609, 22.5147532], [114.0430611, 22.5147251], [114.043192, 22.5147257], [114.0431918, 22.5147504], [114.0432212, 22.5147505], [114.0432208, 22.5148161], [114.0430662, 22.5148153], [114.043066, 22.5148367], [114.0429049, 22.5148359], [114.0429047, 22.5148679], [114.0427275, 22.514867]]]]}}, {"type": "Feature", "id": "way/1050452943", "properties": {"tags": {"addr:housename": "益田村", "addr:housename:zh": "益田村", "building": "apartments", "name": "49栋", "name:zh": "49栋"}, "heightStatus": "unknown", "source": "OpenStreetMap", "license": "ODbL-1.0"}, "geometry": {"type": "MultiPolygon", "coordinates": [[[[114.0433907, 22.5146512], [114.0434431, 22.5146419], [114.0434415, 22.5146339], [114.0435141, 22.514621], [114.0435134, 22.5146353], [114.0435683, 22.5146258], [114.0435751, 22.514659], [114.0435595, 22.5146617], [114.0435649, 22.5146882], [114.0435429, 22.514692], [114.0435505, 22.5147293], [114.0436108, 22.5147188], [114.0436247, 22.5147866], [114.0435692, 22.5147963], [114.0435722, 22.5148108], [114.0434585, 22.5148307], [114.043455, 22.5148137], [114.043406, 22.5148223], [114.0433918, 22.5147537], [114.0434567, 22.5147423], [114.0434494, 22.514707], [114.0434232, 22.5147117], [114.0434186, 22.5146894], [114.0433993, 22.5146928], [114.0433907, 22.5146512]]]]}}, {"type": "Feature", "id": "way/1050517753", "properties": {"tags": {"addr:housename": "益田村", "addr:housename:zh": "益田村", "building": "apartments", "name": "82栋", "name:zh": "82栋"}, "heightStatus": "unknown", "source": "OpenStreetMap", "license": "ODbL-1.0"}, "geometry": {"type": "MultiPolygon", "coordinates": [[[[114.0436934, 22.5146637], [114.044246, 22.5145746], [114.044267, 22.514686], [114.0437145, 22.5147752], [114.0436934, 22.5146637]]]]}}, {"type": "Feature", "id": "way/1050517785", "properties": {"tags": {"addr:housename": "益田村", "addr:housename:zh": "益田村", "building": "apartments", "name": "70栋", "name:zh": "70栋"}, "heightStatus": "unknown", "source": "OpenStreetMap", "license": "ODbL-1.0"}, "geometry": {"type": "MultiPolygon", "coordinates": [[[[114.0436585, 22.5175569], [114.0441366, 22.5173547], [114.0441618, 22.5174054], [114.0441721, 22.5174011], [114.0441958, 22.5174489], [114.0436898, 22.5176628], [114.0436647, 22.5176122], [114.0436822, 22.5176048], [114.0436585, 22.5175569]]]]}}, {"type": "Feature", "id": "way/1050517787", "properties": {"tags": {"addr:housename": "益田村", "addr:housename:zh": "益田村", "building": "apartments", "name": "75栋", "name:zh": "75栋"}, "heightStatus": "unknown", "source": "OpenStreetMap", "license": "ODbL-1.0"}, "geometry": {"type": "MultiPolygon", "coordinates": [[[[114.043947, 22.5177779], [114.0442569, 22.5176542], [114.0442742, 22.5176912], [114.0442937, 22.5176835], [114.044319, 22.5177375], [114.0439734, 22.5178755], [114.0439512, 22.5178281], [114.0439675, 22.5178216], [114.043947, 22.5177779]]]]}}, {"type": "Feature", "id": "way/1050517795", "properties": {"tags": {"addr:housename": "益田村", "addr:housename:zh": "益田村", "building": "apartments", "name": "53栋", "name:zh": "53栋"}, "heightStatus": "unknown", "source": "OpenStreetMap", "license": "ODbL-1.0"}, "geometry": {"type": "MultiPolygon", "coordinates": [[[[114.0418012, 22.5152377], [114.0421177, 22.5152321], [114.0421173, 22.5152146], [114.0424261, 22.5152092], [114.0424282, 22.5153114], [114.042125, 22.5153167], [114.0421255, 22.5153392], [114.0418035, 22.5153449], [114.0418012, 22.5152377]]]]}}, {"type": "Feature", "id": "way/1050517796", "properties": {"tags": {"addr:housename": "益田村", "addr:housename:zh": "益田村", "building": "apartments", "name": "55栋", "name:zh": "55栋"}, "heightStatus": "unknown", "source": "OpenStreetMap", "license": "ODbL-1.0"}, "geometry": {"type": "MultiPolygon", "coordinates": [[[[114.0419654, 22.5155493], [114.0422818, 22.5155437], [114.0422814, 22.5155263], [114.0425902, 22.5155208], [114.0425923, 22.5156231], [114.0422892, 22.5156284], [114.0422896, 22.5156509], [114.0419676, 22.5156566], [114.0419654, 22.5155493]]]]}}, {"type": "Feature", "id": "way/1050517797", "properties": {"tags": {"addr:housename": "益田村", "addr:housename:zh": "益田村", "building": "apartments", "name": "51栋", "name:zh": "51栋"}, "heightStatus": "unknown", "source": "OpenStreetMap", "license": "ODbL-1.0"}, "geometry": {"type": "MultiPolygon", "coordinates": [[[[114.0416579, 22.5149749], [114.0419743, 22.5149693], [114.0419739, 22.5149518], [114.0422827, 22.5149464], [114.0422848, 22.5150487], [114.0419817, 22.515054], [114.0419821, 22.5150765], [114.0416601, 22.5150822], [114.0416579, 22.5149749]]]]}}, {"type": "Feature", "id": "way/1050517800", "properties": {"tags": {"amenity": "bus_station", "building": "yes", "bus": "yes", "public_transport": "station"}, "heightStatus": "unknown", "source": "OpenStreetMap", "license": "ODbL-1.0"}, "geometry": {"type": "MultiPolygon", "coordinates": [[[[114.0408363, 22.5153492], [114.0408505, 22.5153457], [114.040839, 22.5153055], [114.0409726, 22.515273], [114.0409867, 22.5153224], [114.0410284, 22.5153123], [114.0410164, 22.5152699], [114.041136, 22.5152408], [114.041147, 22.5152798], [114.0411938, 22.5152685], [114.0411825, 22.5152287], [114.0412964, 22.5152012], [114.0413071, 22.5152389], [114.0413451, 22.5152297], [114.0413318, 22.5151824], [114.0414605, 22.5151513], [114.04147, 22.515185], [114.0414835, 22.5151817], [114.0414947, 22.5152216], [114.041484, 22.5152242], [114.0414943, 22.5152609], [114.0414327, 22.5152757], [114.0414212, 22.5152346], [114.0414068, 22.5152381], [114.0414195, 22.5152833], [114.0413531, 22.5152992], [114.0413432, 22.5152639], [114.0413238, 22.5152686], [114.04133, 22.5152906], [114.0412896, 22.5153004], [114.0412766, 22.5152544], [114.0412353, 22.5152643], [114.0412491, 22.5153132], [114.0411965, 22.5153258], [114.0411865, 22.5152904], [114.0411574, 22.5152974], [114.0411694, 22.5153401], [114.0411165, 22.5153528], [114.0411045, 22.5153101], [114.0410805, 22.5153159], [114.0410919, 22.5153567], [114.0410374, 22.5153697], [114.0410286, 22.5153382], [114.0410004, 22.5153449], [114.041011, 22.515383], [114.0409622, 22.5153946], [114.0409498, 22.5153503], [114.0409201, 22.5153574], [114.0409336, 22.5154055], [114.0408709, 22.5154204], [114.0408606, 22.5153816], [114.0408465, 22.5153849], [114.0408363, 22.5153492]]]]}}, {"type": "Feature", "id": "way/1052197164", "properties": {"tags": {"building": "school", "leisure": "pitch", "sport": "basketball"}, "heightStatus": "unknown", "source": "OpenStreetMap", "license": "ODbL-1.0"}, "geometry": {"type": "MultiPolygon", "coordinates": [[[[114.0417153, 22.5162129], [114.0417958, 22.5159728], [114.0419306, 22.5160114], [114.0418501, 22.5162515], [114.0417153, 22.5162129]]]]}}, {"type": "Feature", "id": "way/1052197165", "properties": {"tags": {"building": "school"}, "heightStatus": "unknown", "source": "OpenStreetMap", "license": "ODbL-1.0"}, "geometry": {"type": "MultiPolygon", "coordinates": [[[[114.0417245, 22.5170997], [114.0419081, 22.5170157], [114.0420787, 22.517334], [114.0424044, 22.517185], [114.042463, 22.5172944], [114.0419537, 22.5175274], [114.0417245, 22.5170997]]]]}}, {"type": "Feature", "id": "way/1055055367", "properties": {"tags": {"addr:housename": "益田村", "addr:housename:zh": "益田村", "building": "apartments", "name": "65栋", "name:zh": "65栋"}, "heightStatus": "unknown", "source": "OpenStreetMap", "license": "ODbL-1.0"}, "geometry": {"type": "MultiPolygon", "coordinates": [[[[114.0436942, 22.5168207], [114.0439849, 22.5167142], [114.0440284, 22.5168183], [114.0437377, 22.5169224], [114.0436942, 22.5168207]]]]}}, {"type": "Feature", "id": "way/1055055368", "properties": {"tags": {"addr:housename": "益田村", "addr:housename:zh": "益田村", "building": "apartments", "name": "63栋", "name:zh": "63栋"}, "heightStatus": "unknown", "source": "OpenStreetMap", "license": "ODbL-1.0"}, "geometry": {"type": "MultiPolygon", "coordinates": [[[[114.0436014, 22.5165545], [114.043892, 22.516448], [114.0439356, 22.5165521], [114.0436449, 22.5166562], [114.0436014, 22.5165545]]]]}}, {"type": "Feature", "id": "way/1055055369", "properties": {"tags": {"addr:housename": "益田村", "addr:housename:zh": "益田村", "building": "apartments", "name": "67栋", "name:zh": "67栋"}, "heightStatus": "unknown", "source": "OpenStreetMap", "license": "ODbL-1.0"}, "geometry": {"type": "MultiPolygon", "coordinates": [[[[114.0437781, 22.517088], [114.0440688, 22.5169815], [114.0441123, 22.5170856], [114.0438216, 22.5171897], [114.0437781, 22.517088]]]]}}, {"type": "Feature", "id": "way/1055657930", "properties": {"tags": {"addr:housename": "益田村", "addr:housename:zh": "益田村", "building": "apartments", "name": "69栋", "name:zh": "69栋"}, "heightStatus": "unknown", "source": "OpenStreetMap", "license": "ODbL-1.0"}, "geometry": {"type": "MultiPolygon", "coordinates": [[[[114.0428798, 22.5174408], [114.0432845, 22.5172813], [114.0432992, 22.5173132], [114.0433414, 22.5172966], [114.0433666, 22.5173509], [114.0429197, 22.5175271], [114.0428798, 22.5174408]]]]}}, {"type": "Feature", "id": "way/1055657931", "properties": {"tags": {"addr:housename": "益田村", "addr:housename:zh": "益田村", "building": "apartments", "name": "66栋", "name:zh": "66栋"}, "heightStatus": "unknown", "source": "OpenStreetMap", "license": "ODbL-1.0"}, "geometry": {"type": "MultiPolygon", "coordinates": [[[[114.0427439, 22.5171901], [114.0431486, 22.5170306], [114.0431634, 22.5170625], [114.0432056, 22.5170459], [114.0432307, 22.5171002], [114.0427838, 22.5172764], [114.0427439, 22.5171901]]]]}}, {"type": "Feature", "id": "way/1055657932", "properties": {"tags": {"addr:housename": "益田村", "addr:housename:zh": "益田村", "building": "apartments", "name": "68栋", "name:zh": "68栋"}, "heightStatus": "unknown", "source": "OpenStreetMap", "license": "ODbL-1.0"}, "geometry": {"type": "MultiPolygon", "coordinates": [[[[114.0434292, 22.5172655], [114.0437147, 22.5171527], [114.0437578, 22.5172457], [114.0434723, 22.5173586], [114.0434292, 22.5172655]]]]}}, {"type": "Feature", "id": "way/1055657933", "properties": {"tags": {"addr:housename": "益田村", "addr:housename:zh": "益田村", "building": "apartments", "name": "64栋", "name:zh": "64栋"}, "heightStatus": "unknown", "source": "OpenStreetMap", "license": "ODbL-1.0"}, "geometry": {"type": "MultiPolygon", "coordinates": [[[[114.0431829, 22.5167838], [114.0434685, 22.5166709], [114.0435116, 22.5167639], [114.0432261, 22.5168768], [114.0431829, 22.5167838]]]]}}, {"type": "Feature", "id": "way/1055657934", "properties": {"tags": {"addr:housename": "益田村", "addr:housename:zh": "益田村", "building": "apartments", "name": "62栋", "name:zh": "62栋"}, "heightStatus": "unknown", "source": "OpenStreetMap", "license": "ODbL-1.0"}, "geometry": {"type": "MultiPolygon", "coordinates": [[[[114.0425294, 22.516701], [114.0426857, 22.5166992], [114.0426852, 22.5166676], [114.0428236, 22.516666], [114.0428241, 22.5167072], [114.0428699, 22.5167066], [114.0428706, 22.5167568], [114.0426761, 22.5167589], [114.0426764, 22.5167846], [114.0425305, 22.5167862], [114.0425294, 22.516701]]]]}}, {"type": "Feature", "id": "way/1055657935", "properties": {"tags": {"addr:housename": "益田村", "addr:housename:zh": "益田村", "building": "apartments", "name": "60栋", "name:zh": "60栋"}, "heightStatus": "unknown", "source": "OpenStreetMap", "license": "ODbL-1.0"}, "geometry": {"type": "MultiPolygon", "coordinates": [[[[114.0423797, 22.5164209], [114.0425359, 22.5164191], [114.0425355, 22.5163874], [114.0426739, 22.5163859], [114.0426744, 22.516427], [114.0427202, 22.5164265], [114.0427208, 22.5164766], [114.0425263, 22.5164788], [114.0425267, 22.5165045], [114.0423808, 22.5165061], [114.0423797, 22.5164209]]]]}}, {"type": "Feature", "id": "way/1055657936", "properties": {"tags": {"addr:housename": "益田村", "addr:housename:zh": "益田村", "building": "apartments", "name": "58栋", "name:zh": "58栋"}, "heightStatus": "unknown", "source": "OpenStreetMap", "license": "ODbL-1.0"}, "geometry": {"type": "MultiPolygon", "coordinates": [[[[114.0422361, 22.5161258], [114.0423924, 22.516124], [114.0423919, 22.5160923], [114.0425303, 22.5160908], [114.0425308, 22.5161319], [114.0425766, 22.5161314], [114.0425772, 22.5161815], [114.0423827, 22.5161837], [114.0423831, 22.5162094], [114.0422372, 22.516211], [114.0422361, 22.5161258]]]]}}, {"type": "Feature", "id": "way/1063576669", "properties": {"tags": {"building": "school"}, "heightStatus": "unknown", "source": "OpenStreetMap", "license": "ODbL-1.0"}, "geometry": {"type": "MultiPolygon", "coordinates": [[[[114.0413508, 22.5164409], [114.0414159, 22.5164111], [114.0414464, 22.516468], [114.0414762, 22.5163789], [114.0415671, 22.5164049], [114.041544, 22.5164737], [114.0418225, 22.5169933], [114.0416814, 22.5170578], [114.0413508, 22.5164409]]]]}}, {"type": "Feature", "id": "way/1272521143", "properties": {"tags": {"addr:housename": "益荣居", "addr:housename:zh": "益荣居", "building": "apartments", "name": "3栋", "name:zh": "3栋"}, "heightStatus": "unknown", "source": "OpenStreetMap", "license": "ODbL-1.0"}, "geometry": {"type": "MultiPolygon", "coordinates": [[[[114.0441826, 22.5155518], [114.0443602, 22.5153912], [114.0444203, 22.515448], [114.0444481, 22.5154228], [114.0444973, 22.5154693], [114.0444417, 22.5155196], [114.0445098, 22.5155838], [114.0443877, 22.5156941], [114.0443197, 22.5156299], [114.0442641, 22.5156801], [114.0442149, 22.5156337], [114.0442427, 22.5156086], [114.0441826, 22.5155518]]]]}}, {"type": "Feature", "id": "way/1272521144", "properties": {"tags": {"addr:housename": "益荣居", "addr:housename:zh": "益荣居", "building": "apartments", "name": "4栋", "name:zh": "4栋"}, "heightStatus": "unknown", "source": "OpenStreetMap", "license": "ODbL-1.0"}, "geometry": {"type": "MultiPolygon", "coordinates": [[[[114.0440187, 22.5160616], [114.0440381, 22.5158327], [114.0441238, 22.5158389], [114.0441268, 22.5158031], [114.044197, 22.5158082], [114.0441909, 22.5158798], [114.0442879, 22.5158868], [114.0442746, 22.5160441], [114.0441776, 22.5160371], [114.0441715, 22.5161087], [114.0441013, 22.5161036], [114.0441044, 22.5160678], [114.0440187, 22.5160616]]]]}}, {"type": "Feature", "id": "way/1430132927", "properties": {"tags": {"building": "kindergarten"}, "heightStatus": "unknown", "source": "OpenStreetMap", "license": "ODbL-1.0"}, "geometry": {"type": "MultiPolygon", "coordinates": [[[[114.0421412, 22.5176296], [114.0421887, 22.517606], [114.0421843, 22.5175927], [114.0421872, 22.517579], [114.0421967, 22.5175681], [114.0422105, 22.5175627], [114.0422256, 22.5175639], [114.0422382, 22.5175715], [114.0422455, 22.5175836], [114.0422458, 22.5175976], [114.0423779, 22.5175311], [114.0423671, 22.5175238], [114.0423606, 22.5175129], [114.0423597, 22.5175005], [114.0423646, 22.517489], [114.0423743, 22.5174804], [114.042387, 22.5174764], [114.0424004, 22.5174778], [114.0424118, 22.5174843], [114.0424192, 22.5174946], [114.0425162, 22.5174451], [114.042512, 22.51743], [114.0425168, 22.517415], [114.0425293, 22.5174045], [114.0425458, 22.5174015], [114.0425617, 22.5174069], [114.0425722, 22.5174191], [114.0425744, 22.5174345], [114.0426441, 22.5173998], [114.0426886, 22.517477], [114.0427026, 22.5175055], [114.0427118, 22.5175356], [114.0427159, 22.5175667], [114.042715, 22.517598], [114.0427091, 22.5176288], [114.0426982, 22.5176584], [114.0427316, 22.5176785], [114.0427113, 22.5177072], [114.0426856, 22.5177319], [114.0426555, 22.5177518], [114.0426219, 22.5177663], [114.042586, 22.5177748], [114.042549, 22.5177771], [114.0425122, 22.5177731], [114.0424768, 22.5177629], [114.0425057, 22.517677], [114.0425468, 22.5176868], [114.0425888, 22.5176812], [114.0426252, 22.5176609], [114.0426502, 22.5176292], [114.0426565, 22.5176039], [114.0426579, 22.5175781], [114.0426543, 22.5175523], [114.0426459, 22.5175276], [114.042633, 22.5175046], [114.0421948, 22.5177219], [114.0421412, 22.5176296]]]]}}, {"type": "Feature", "id": "relation/19607200", "properties": {"tags": {"building": "school"}, "heightStatus": "unknown", "source": "OpenStreetMap", "license": "ODbL-1.0"}, "geometry": {"type": "MultiPolygon", "coordinates": [[[[114.0408976, 22.5155688], [114.0410556, 22.5154968], [114.0410698, 22.5155234], [114.0412228, 22.5154537], [114.0412353, 22.515477], [114.0415988, 22.5153114], [114.0416665, 22.515438], [114.0414628, 22.5155308], [114.0416259, 22.5158362], [114.0417536, 22.515778], [114.0418094, 22.5158826], [114.0413137, 22.5161084], [114.0414356, 22.5163367], [114.0413339, 22.5163831], [114.041146, 22.5160311], [114.0412338, 22.5159911], [114.0411706, 22.5158727], [114.0410964, 22.5159065], [114.0410583, 22.5158351], [114.0410434, 22.5158419], [114.0408976, 22.5155688]], [[114.0409932, 22.5156225], [114.0410883, 22.5158005], [114.0413244, 22.5156929], [114.0413343, 22.5157115], [114.0414557, 22.5156562], [114.0413757, 22.5155064], [114.0412543, 22.5155617], [114.0412438, 22.5155421], [114.041083, 22.5156154], [114.0410685, 22.5155882], [114.0409932, 22.5156225]], [[114.0411955, 22.5158613], [114.0412692, 22.5159993], [114.0415214, 22.5158844], [114.0414928, 22.5158308], [114.0415123, 22.5158219], [114.0414753, 22.5157525], [114.0413616, 22.5158043], [114.0413536, 22.5157893], [114.0411955, 22.5158613]]]]}}, {"type": "Feature", "id": "way/1431613791", "properties": {"tags": {"addr:housename": "金地海景花园", "addr:housename:en": "Gemdale Seaview Garden", "addr:housename:zh": "金地海景花园", "building": "apartments", "building:levels": "11", "name": "33栋", "name:en": "Block 33", "name:zh": "33栋"}, "heightStatus": "levels_only_unverified", "source": "OpenStreetMap", "license": "ODbL-1.0"}, "geometry": {"type": "MultiPolygon", "coordinates": [[[[114.0372855, 22.5168049], [114.0374796, 22.516701], [114.0375622, 22.5168328], [114.0373682, 22.5169367], [114.0372855, 22.5168049]]]]}}, {"type": "Feature", "id": "way/1431613792", "properties": {"tags": {"addr:housename": "金地海景花园", "addr:housename:en": "Gemdale Seaview Garden", "addr:housename:zh": "金地海景花园", "building": "apartments", "building:levels": "8", "name": "32栋", "name:en": "Block 32", "name:zh": "32栋"}, "heightStatus": "levels_only_unverified", "source": "OpenStreetMap", "license": "ODbL-1.0"}, "geometry": {"type": "MultiPolygon", "coordinates": [[[[114.0370915, 22.5169087], [114.0372855, 22.5168049], [114.0373682, 22.5169367], [114.0371742, 22.5170405], [114.0370915, 22.5169087]]]]}}, {"type": "Feature", "id": "way/1431613793", "properties": {"tags": {"addr:housename": "金地海景花园", "addr:housename:en": "Gemdale Seaview Garden", "addr:housename:zh": "金地海景花园", "building": "apartments", "building:levels": "11", "name": "34栋", "name:en": "Block 34", "name:zh": "34栋"}, "heightStatus": "levels_only_unverified", "source": "OpenStreetMap", "license": "ODbL-1.0"}, "geometry": {"type": "MultiPolygon", "coordinates": [[[[114.0374796, 22.516701], [114.0376736, 22.5165971], [114.0377563, 22.5167289], [114.0375622, 22.5168328], [114.0374796, 22.516701]]]]}}, {"type": "Feature", "id": "way/1431613794", "properties": {"tags": {"addr:housename": "金地海景花园", "addr:housename:en": "Gemdale Seaview Garden", "addr:housename:zh": "金地海景花园", "building": "apartments", "building:levels": "8", "name": "29栋", "name:en": "Block 29", "name:zh": "29栋"}, "heightStatus": "levels_only_unverified", "source": "OpenStreetMap", "license": "ODbL-1.0"}, "geometry": {"type": "MultiPolygon", "coordinates": [[[[114.0362738, 22.5173205], [114.0364679, 22.5172166], [114.0365505, 22.5173484], [114.0363565, 22.5174523], [114.0362738, 22.5173205]]]]}}, {"type": "Feature", "id": "way/1431613795", "properties": {"tags": {"addr:housename": "金地海景花园", "addr:housename:en": "Gemdale Seaview Garden", "addr:housename:zh": "金地海景花园", "building": "apartments", "building:levels": "8", "name": "30栋", "name:en": "Block 30", "name:zh": "30栋"}, "heightStatus": "levels_only_unverified", "source": "OpenStreetMap", "license": "ODbL-1.0"}, "geometry": {"type": "MultiPolygon", "coordinates": [[[[114.0364679, 22.5172166], [114.0366619, 22.5171127], [114.0367446, 22.5172445], [114.0365505, 22.5173484], [114.0364679, 22.5172166]]]]}}, {"type": "Feature", "id": "way/1431613796", "properties": {"tags": {"addr:housename": "金地海景花园", "addr:housename:en": "Gemdale Seaview Garden", "addr:housename:zh": "金地海景花园", "building": "apartments", "building:levels": "11", "name": "28栋", "name:en": "Block 28", "name:zh": "28栋"}, "heightStatus": "levels_only_unverified", "source": "OpenStreetMap", "license": "ODbL-1.0"}, "geometry": {"type": "MultiPolygon", "coordinates": [[[[114.0360798, 22.5174243], [114.0362738, 22.5173205], [114.0363565, 22.5174523], [114.0361625, 22.5175561], [114.0360798, 22.5174243]]]]}}, {"type": "Feature", "id": "way/1537581562", "properties": {"tags": {"building": "yes", "name": "红树驿站", "name:en": "Mangrove Hut", "name:zh-Hans": "红树驿站"}, "heightStatus": "unknown", "source": "OpenStreetMap", "license": "ODbL-1.0"}, "geometry": {"type": "MultiPolygon", "coordinates": [[[[114.0377942, 22.5141471], [114.0378056, 22.5139978], [114.0378714, 22.5140034], [114.0378968, 22.5140833], [114.0378754, 22.5141204], [114.0378787, 22.5141496], [114.0377942, 22.5141471]]]]}}]}