{"type": "FeatureCollection", "features": [{"type": "Feature", "id": "way/783018320", "properties": {"tags": {"building": "yes"}, "heightStatus": "unknown", "source": "OpenStreetMap", "license": "ODbL-1.0"}, "geometry": {"type": "MultiPolygon", "coordinates": [[[[114.0442024, 22.5749242], [114.0443175, 22.5747276], [114.0443836, 22.5747606], [114.0443033, 22.5748978], [114.0445084, 22.5750001], [114.0444816, 22.5750458], [114.0444736, 22.5750596], [114.0442024, 22.5749242]]]]}}, {"type": "Feature", "id": "way/783018324", "properties": {"tags": {"building": "manufacture"}, "heightStatus": "unknown", "source": "OpenStreetMap", "license": "ODbL-1.0"}, "geometry": {"type": "MultiPolygon", "coordinates": [[[[114.0443497, 22.5746952], [114.0443757, 22.5746707], [114.0444285, 22.5746375], [114.0444622, 22.5746595], [114.0444069, 22.5747323], [114.0443497, 22.5746952]]]]}}, {"type": "Feature", "id": "way/784555069", "properties": {"tags": {"building": "yes"}, "heightStatus": "unknown", "source": "OpenStreetMap", "license": "ODbL-1.0"}, "geometry": {"type": "MultiPolygon", "coordinates": [[[[114.0443291, 22.5751725], [114.0443832, 22.5751142], [114.0443975, 22.5751254], [114.0443433, 22.5751838], [114.0443291, 22.5751725]]]]}}, {"type": "Feature", "id": "way/1243207401", "properties": {"tags": {"building": "apartments"}, "heightStatus": "unknown", "source": "OpenStreetMap", "license": "ODbL-1.0"}, "geometry": {"type": "MultiPolygon", "coordinates": [[[[114.0375614, 22.5750184], [114.0375672, 22.5748814], [114.0376723, 22.57464], [114.0378684, 22.57464], [114.0378649, 22.5747208], [114.037733, 22.5747154], [114.0376594, 22.5749127], [114.0376548, 22.5750184], [114.0375614, 22.5750184]]]]}}, {"type": "Feature", "id": "way/1243207402", "properties": {"tags": {"building": "industrial"}, "heightStatus": "unknown", "source": "OpenStreetMap", "license": "ODbL-1.0"}, "geometry": {"type": "MultiPolygon", "coordinates": [[[[114.0382724, 22.5752563], [114.0382747, 22.5746452], [114.0383973, 22.5746456], [114.0383957, 22.575099], [114.0389878, 22.5751009], [114.0389872, 22.5752586], [114.0382724, 22.5752563]]]]}}, {"type": "Feature", "id": "way/1243207403", "properties": {"tags": {"building": "college", "name": "中国深圳小白鸽少儿艺术教育集团"}, "heightStatus": "unknown", "source": "OpenStreetMap", "license": "ODbL-1.0"}, "geometry": {"type": "MultiPolygon", "coordinates": [[[[114.0375699, 22.5751177], [114.0381654, 22.5751151], [114.0381585, 22.5753007], [114.0375709, 22.5753036], [114.0375699, 22.5751177]]]]}}, {"type": "Feature", "id": "way/1243990423", "properties": {"tags": {"addr:housename": "润裕山景豪苑", "addr:housename:en": "Runyu Shanjing Haoyuan", "addr:housename:zh": "润裕山景豪苑", "building": "apartments", "building:levels": "25", "name": "宝翠居", "name:en": "Diecui Ju", "name:zh": "宝翠居"}, "heightStatus": "levels_only_unverified", "source": "OpenStreetMap", "license": "ODbL-1.0"}, "geometry": {"type": "MultiPolygon", "coordinates": [[[[114.0358076, 22.5721748], [114.0358765, 22.5721565], [114.0359048, 22.5722254], [114.0359354, 22.5722171], [114.0359256, 22.5721878], [114.0359689, 22.5721777], [114.0360026, 22.5722578], [114.036054, 22.5722902], [114.0361077, 22.5722783], [114.0361252, 22.5723435], [114.0361602, 22.5723365], [114.0361795, 22.5723802], [114.0359705, 22.5724249], [114.0359454, 22.5723474], [114.035899, 22.5723585], [114.0358892, 22.5723306], [114.0358713, 22.5723365], [114.0358076, 22.5721748]]]]}}, {"type": "Feature", "id": "way/1243990424", "properties": {"tags": {"addr:housename": "润裕山景豪苑", "addr:housename:en": "Runyu Shanjing Haoyuan", "addr:housename:zh": "润裕山景豪苑", "building": "apartments", "building:levels": "25", "name": "叠翠居", "name:en": "Diecui Ju", "name:zh": "叠翠居"}, "heightStatus": "levels_only_unverified", "source": "OpenStreetMap", "license": "ODbL-1.0"}, "geometry": {"type": "MultiPolygon", "coordinates": [[[[114.0362095, 22.5722551], [114.0362308, 22.5722483], [114.0362212, 22.5722228], [114.0362806, 22.5722036], [114.0362755, 22.5721901], [114.0363613, 22.5721623], [114.0363679, 22.5721797], [114.036404, 22.572168], [114.0364137, 22.5721933], [114.0364421, 22.5721841], [114.036434, 22.5721631], [114.0364731, 22.5721503], [114.0364685, 22.5721383], [114.0365441, 22.5721136], [114.0365514, 22.5721327], [114.0365791, 22.5721236], [114.0366096, 22.5722033], [114.0366584, 22.5721874], [114.0366749, 22.5722305], [114.0366506, 22.5722384], [114.0366601, 22.5722633], [114.0366072, 22.5722806], [114.0366129, 22.5722956], [114.0365167, 22.5723269], [114.0365089, 22.5723065], [114.0364394, 22.572329], [114.036444, 22.572341], [114.0363423, 22.5723739], [114.0363383, 22.5723633], [114.0362734, 22.5723843], [114.0362612, 22.5723522], [114.0362478, 22.5723565], [114.0362095, 22.5722551]]]]}}, {"type": "Feature", "id": "way/1243990427", "properties": {"tags": {"addr:housename": "文伟阁", "addr:housename:en": "Wenwei Tower", "addr:housename:zh": "文伟阁", "building": "apartments", "building:levels": "25", "name": "A栋", "name:en": "Block A", "name:zh": "A栋"}, "heightStatus": "levels_only_unverified", "source": "OpenStreetMap", "license": "ODbL-1.0"}, "geometry": {"type": "MultiPolygon", "coordinates": [[[[114.0375868, 22.5718519], [114.0376535, 22.5718073], [114.037685, 22.5718475], [114.0377038, 22.5718349], [114.037732, 22.571871], [114.0377038, 22.5718898], [114.0377799, 22.571987], [114.0378183, 22.5719614], [114.037916, 22.5720861], [114.0378603, 22.5721233], [114.0377998, 22.572046], [114.0377665, 22.5720683], [114.0377015, 22.5719853], [114.0377213, 22.571972], [114.0376937, 22.5719368], [114.0376672, 22.5719544], [114.0375868, 22.5718519]]]]}}, {"type": "Feature", "id": "way/1243990430", "properties": {"tags": {"addr:housename": "鸿浩阁", "addr:housename:en": "Honghao Tower", "addr:housename:zh": "鸿浩阁", "building": "apartments", "building:levels": "25", "name": "C栋", "name:en": "Block C", "name:zh": "C栋"}, "heightStatus": "levels_only_unverified", "source": "OpenStreetMap", "license": "ODbL-1.0"}, "geometry": {"type": "MultiPolygon", "coordinates": [[[[114.0365918, 22.5718686], [114.0366594, 22.5718201], [114.0368737, 22.5720752], [114.0368061, 22.5721236], [114.0365918, 22.5718686]]]]}}, {"type": "Feature", "id": "way/1243990431", "properties": {"tags": {"addr:housename": "鸿浩阁", "addr:housename:en": "Honghao Tower", "addr:housename:zh": "鸿浩阁", "building": "apartments", "building:levels": "25", "name": "D栋", "name:en": "Block D", "name:zh": "D栋"}, "heightStatus": "levels_only_unverified", "source": "OpenStreetMap", "license": "ODbL-1.0"}, "geometry": {"type": "MultiPolygon", "coordinates": [[[[114.0369138, 22.572253], [114.0369663, 22.5722162], [114.0370581, 22.5723278], [114.0373921, 22.5720936], [114.0374523, 22.5721668], [114.0373302, 22.5722524], [114.0373503, 22.5722768], [114.0373335, 22.5722885], [114.0373135, 22.5722641], [114.0371208, 22.5723991], [114.0371351, 22.5724165], [114.0371071, 22.5724361], [114.037085, 22.5724093], [114.0370751, 22.5724162], [114.037098, 22.5724441], [114.0370657, 22.5724667], [114.0370494, 22.5724468], [114.0370276, 22.5724621], [114.0369227, 22.5723344], [114.0369498, 22.5723154], [114.0369275, 22.5722882], [114.0369372, 22.5722814], [114.0369138, 22.572253]]]]}}, {"type": "Feature", "id": "way/1429664312", "properties": {"tags": {"addr:housename": "新世界四季山水二期", "addr:housename:zh": "新世界四季山水二期", "building": "apartments", "building:levels": "32", "name": "5栋", "name:zh": "5栋"}, "heightStatus": "levels_only_unverified", "source": "OpenStreetMap", "license": "ODbL-1.0"}, "geometry": {"type": "MultiPolygon", "coordinates": [[[[114.039682, 22.5728028], [114.0396854, 22.572675], [114.0397572, 22.5726766], [114.0397564, 22.5727053], [114.0398274, 22.5727069], [114.0398265, 22.5727412], [114.0398983, 22.5727428], [114.0398976, 22.5727715], [114.0400393, 22.5727751], [114.0400385, 22.5728038], [114.0401096, 22.5728054], [114.0401047, 22.5729896], [114.040033, 22.572988], [114.0400345, 22.57293], [114.0398928, 22.5729265], [114.0398935, 22.5728988], [114.0398225, 22.5728972], [114.0398241, 22.5728348], [114.0397523, 22.5728332], [114.0397531, 22.5728044], [114.039682, 22.5728028]]]]}}, {"type": "Feature", "id": "way/1429664313", "properties": {"tags": {"addr:housename": "新世界四季山水二期", "addr:housename:zh": "新世界四季山水二期", "building": "apartments", "building:levels": "32", "name": "4栋", "name:zh": "4栋"}, "heightStatus": "levels_only_unverified", "source": "OpenStreetMap", "license": "ODbL-1.0"}, "geometry": {"type": "MultiPolygon", "coordinates": [[[[114.0399795, 22.57245], [114.0399825, 22.5723353], [114.0400892, 22.5723377], [114.04009, 22.572305], [114.0400511, 22.5723041], [114.0400527, 22.5722449], [114.0402278, 22.5722489], [114.0402262, 22.572308], [114.0401873, 22.5723071], [114.0401858, 22.5723639], [114.0404074, 22.5723689], [114.0404091, 22.5723047], [114.0403702, 22.5723039], [114.0403718, 22.5722447], [114.0405469, 22.5722486], [114.0405453, 22.5723078], [114.0405064, 22.5723069], [114.0405047, 22.5723711], [114.0406439, 22.5723742], [114.0406416, 22.5724647], [114.0405809, 22.5724634], [114.0405801, 22.5724924], [114.0403583, 22.5724874], [114.0403591, 22.5724584], [114.0402244, 22.5724554], [114.0402238, 22.5724775], [114.0401328, 22.5724754], [114.0401333, 22.5724534], [114.0399795, 22.57245]]]]}}, {"type": "Feature", "id": "way/1429664314", "properties": {"tags": {"addr:housename": "新世界四季山水二期", "addr:housename:zh": "新世界四季山水二期", "building": "apartments", "building:levels": "32", "name": "3栋", "name:zh": "3栋"}, "heightStatus": "levels_only_unverified", "source": "OpenStreetMap", "license": "ODbL-1.0"}, "geometry": {"type": "MultiPolygon", "coordinates": [[[[114.0407276, 22.572433], [114.0407308, 22.5723123], [114.0409559, 22.5723173], [114.0409719, 22.5723328], [114.0409961, 22.5723115], [114.0410837, 22.5723964], [114.0409977, 22.5724721], [114.040923, 22.5723996], [114.040922, 22.5724374], [114.0407276, 22.572433]]]]}}, {"type": "Feature", "id": "way/1429664315", "properties": {"tags": {"addr:housename": "新世界四季山水二期", "addr:housename:zh": "新世界四季山水二期", "building": "apartments", "building:levels": "32", "name": "2栋", "name:zh": "2栋"}, "heightStatus": "levels_only_unverified", "source": "OpenStreetMap", "license": "ODbL-1.0"}, "geometry": {"type": "MultiPolygon", "coordinates": [[[[114.0408531, 22.5726838], [114.0408986, 22.5726421], [114.0409123, 22.5726549], [114.0409723, 22.5725999], [114.0410134, 22.5726381], [114.0410381, 22.5726155], [114.0411581, 22.572727], [114.0411334, 22.5727497], [114.0411745, 22.5727879], [114.0411146, 22.5728429], [114.0411283, 22.5728557], [114.0410828, 22.5728974], [114.0410005, 22.5728209], [114.0409609, 22.5728572], [114.0408958, 22.5727966], [114.0409354, 22.5727603], [114.0408531, 22.5726838]]]]}}, {"type": "Feature", "id": "way/1429664316", "properties": {"tags": {"addr:housename": "新世界四季山水二期", "addr:housename:zh": "新世界四季山水二期", "building": "apartments", "building:levels": "32", "name": "1栋", "name:zh": "1栋"}, "heightStatus": "levels_only_unverified", "source": "OpenStreetMap", "license": "ODbL-1.0"}, "geometry": {"type": "MultiPolygon", "coordinates": [[[[114.0409532, 22.5730977], [114.0409987, 22.5730559], [114.0410124, 22.5730687], [114.0410724, 22.5730137], [114.0411135, 22.5730519], [114.0411382, 22.5730293], [114.0412582, 22.5731408], [114.0412335, 22.5731635], [114.0412746, 22.5732017], [114.0412146, 22.5732567], [114.0412284, 22.5732695], [114.0411829, 22.5733112], [114.0411006, 22.5732347], [114.041061, 22.573271], [114.0409959, 22.5732105], [114.0410355, 22.5731741], [114.0409532, 22.5730977]]]]}}, {"type": "Feature", "id": "way/1429664317", "properties": {"tags": {"addr:housename": "新世界四季山水一期", "addr:housename:zh": "新世界四季山水一期", "building": "apartments", "building:levels": "30", "name": "3栋", "name:zh": "3栋"}, "heightStatus": "levels_only_unverified", "source": "OpenStreetMap", "license": "ODbL-1.0"}, "geometry": {"type": "MultiPolygon", "coordinates": [[[[114.0398979, 22.573805], [114.0399005, 22.5737019], [114.0400024, 22.573704], [114.0400043, 22.5736272], [114.0403575, 22.5736348], [114.0403556, 22.5737116], [114.0404575, 22.5737138], [114.0404549, 22.573817], [114.0402783, 22.5738132], [114.0402803, 22.5737364], [114.0400764, 22.573732], [114.0400745, 22.5738088], [114.0398979, 22.573805]]]]}}, {"type": "Feature", "id": "way/1429664318", "properties": {"tags": {"addr:housename": "新世界四季山水一期", "addr:housename:zh": "新世界四季山水一期", "building": "apartments", "building:levels": "30", "name": "5栋", "name:zh": "5栋"}, "heightStatus": "levels_only_unverified", "source": "OpenStreetMap", "license": "ODbL-1.0"}, "geometry": {"type": "MultiPolygon", "coordinates": [[[[114.0409488, 22.5736902], [114.0409907, 22.5735945], [114.0411545, 22.5736557], [114.0411232, 22.573727], [114.0412177, 22.5737623], [114.0411758, 22.573858], [114.0410121, 22.5737968], [114.0410433, 22.5737255], [114.0409488, 22.5736902]]]]}}, {"type": "Feature", "id": "way/1429664319", "properties": {"tags": {"addr:housename": "新世界四季山水一期", "addr:housename:zh": "新世界四季山水一期", "building": "apartments", "building:levels": "30", "name": "4栋", "name:zh": "4栋"}, "heightStatus": "levels_only_unverified", "source": "OpenStreetMap", "license": "ODbL-1.0"}, "geometry": {"type": "MultiPolygon", "coordinates": [[[[114.0406397, 22.5742911], [114.0406423, 22.5741879], [114.0408189, 22.5741917], [114.040817, 22.5742685], [114.0410208, 22.5742729], [114.0410227, 22.5741961], [114.0411993, 22.5741999], [114.0411967, 22.5743031], [114.0410948, 22.5743009], [114.0410929, 22.5743777], [114.0407397, 22.5743701], [114.0407416, 22.5742933], [114.0406397, 22.5742911]]]]}}, {"type": "Feature", "id": "way/1429664320", "properties": {"tags": {"addr:housename": "新世界四季山水一期", "addr:housename:zh": "新世界四季山水一期", "building": "apartments", "building:levels": "30", "name": "1栋", "name:zh": "1栋"}, "heightStatus": "levels_only_unverified", "source": "OpenStreetMap", "license": "ODbL-1.0"}, "geometry": {"type": "MultiPolygon", "coordinates": [[[[114.0393012, 22.5739729], [114.0393038, 22.5738697], [114.0394804, 22.5738735], [114.0394785, 22.5739503], [114.0395804, 22.5739525], [114.0395778, 22.5740557], [114.0394012, 22.5740519], [114.0394031, 22.573975], [114.0393012, 22.5739729]]]]}}, {"type": "Feature", "id": "way/1429664321", "properties": {"tags": {"addr:housename": "新世界四季山水一期", "addr:housename:zh": "新世界四季山水一期", "building": "apartments", "building:levels": "30", "name": "2栋", "name:zh": "2栋"}, "heightStatus": "levels_only_unverified", "source": "OpenStreetMap", "license": "ODbL-1.0"}, "geometry": {"type": "MultiPolygon", "coordinates": [[[[114.0395151, 22.5736035], [114.0395177, 22.5735003], [114.0396943, 22.5735041], [114.0396924, 22.5735809], [114.0397943, 22.5735831], [114.0397917, 22.5736863], [114.0396151, 22.5736825], [114.039617, 22.5736057], [114.0395151, 22.5736035]]]]}}, {"type": "Feature", "id": "way/1432455805", "properties": {"tags": {"building": "kindergarten"}, "heightStatus": "unknown", "source": "OpenStreetMap", "license": "ODbL-1.0"}, "geometry": {"type": "MultiPolygon", "coordinates": [[[[114.0417585, 22.5737087], [114.0419566, 22.5737087], [114.0419566, 22.5738147], [114.0418713, 22.5738147], [114.0418713, 22.5739119], [114.0419566, 22.5739119], [114.0419566, 22.5740257], [114.0418571, 22.5740257], [114.0418571, 22.5739732], [114.041803, 22.5739732], [114.041803, 22.5738909], [114.0417585, 22.5738909], [114.0417585, 22.5737087]]]]}}, {"type": "Feature", "id": "way/1432455807", "properties": {"tags": {"addr:housename": "嘉鑫阳光雅居", "addr:housename:en": "Jiaxin Sunshine Residences", "addr:housename:zh": "嘉鑫阳光雅居", "building": "apartments", "building:levels": "26", "name": "B栋", "name:en": "Block B", "name:zh": "B栋"}, "heightStatus": "levels_only_unverified", "source": "OpenStreetMap", "license": "ODbL-1.0"}, "geometry": {"type": "MultiPolygon", "coordinates": [[[[114.0414602, 22.5741144], [114.0415251, 22.5740837], [114.0415134, 22.5740626], [114.0415928, 22.574025], [114.0416176, 22.5740696], [114.0416928, 22.574092], [114.0417411, 22.5740691], [114.0417819, 22.5741425], [114.0417589, 22.5741533], [114.0417922, 22.5742133], [114.0416456, 22.5742826], [114.0416082, 22.5742153], [114.0415353, 22.5742498], [114.0414602, 22.5741144]]]]}}, {"type": "Feature", "id": "way/1432455808", "properties": {"tags": {"addr:housename": "嘉鑫阳光雅居", "addr:housename:en": "Jiaxin Sunshine Residences", "addr:housename:zh": "嘉鑫阳光雅居", "building": "apartments", "building:levels": "26", "name": "A栋", "name:en": "Block A", "name:zh": "A栋"}, "heightStatus": "levels_only_unverified", "source": "OpenStreetMap", "license": "ODbL-1.0"}, "geometry": {"type": "MultiPolygon", "coordinates": [[[[114.0413896, 22.5746485], [114.0414354, 22.5746268], [114.0414017, 22.574566], [114.0414868, 22.5745257], [114.0414751, 22.5745046], [114.0415545, 22.574467], [114.0416021, 22.5745526], [114.0416165, 22.5745458], [114.0416318, 22.5745735], [114.0417375, 22.5746049], [114.0417675, 22.5745907], [114.0417749, 22.5746041], [114.0418676, 22.5745602], [114.0419083, 22.5746336], [114.0418854, 22.5746444], [114.041929, 22.574723], [114.0418632, 22.5747541], [114.0418867, 22.5747965], [114.0418097, 22.5748329], [114.0417777, 22.5747753], [114.0417487, 22.5747891], [114.0416885, 22.5746806], [114.0416238, 22.5746613], [114.0415062, 22.5747169], [114.0414914, 22.5746901], [114.041429, 22.5747196], [114.0413896, 22.5746485]]]]}}, {"type": "Feature", "id": "way/1432455809", "properties": {"tags": {"building": "industrial"}, "heightStatus": "unknown", "source": "OpenStreetMap", "license": "ODbL-1.0"}, "geometry": {"type": "MultiPolygon", "coordinates": [[[[114.0398276, 22.5741823], [114.0398327, 22.5740051], [114.0403824, 22.5740186], [114.0403773, 22.5741958], [114.0398276, 22.5741823]]]]}}, {"type": "Feature", "id": "way/1432455810", "properties": {"tags": {"building": "industrial"}, "heightStatus": "unknown", "source": "OpenStreetMap", "license": "ODbL-1.0"}, "geometry": {"type": "MultiPolygon", "coordinates": [[[[114.0398312, 22.5744809], [114.039835, 22.5743487], [114.0403846, 22.5743623], [114.0403808, 22.5744945], [114.0398312, 22.5744809]]]]}}, {"type": "Feature", "id": "way/1432455815", "properties": {"tags": {"building": "commercial"}, "heightStatus": "unknown", "source": "OpenStreetMap", "license": "ODbL-1.0"}, "geometry": {"type": "MultiPolygon", "coordinates": [[[[114.0378626, 22.5744057], [114.0378654, 22.5743086], [114.0384575, 22.5743232], [114.0384547, 22.5744203], [114.0378626, 22.5744057]]]]}}, {"type": "Feature", "id": "way/1432455816", "properties": {"tags": {"building": "commercial"}, "heightStatus": "unknown", "source": "OpenStreetMap", "license": "ODbL-1.0"}, "geometry": {"type": "MultiPolygon", "coordinates": [[[[114.0379838, 22.5741465], [114.0379887, 22.5739767], [114.038424, 22.5739875], [114.0384174, 22.5742163], [114.0382421, 22.5742119], [114.0382438, 22.5741529], [114.0379838, 22.5741465]]]]}}, {"type": "Feature", "id": "way/1432455817", "properties": {"tags": {"building": "apartments", "building:levels": "10"}, "heightStatus": "levels_only_unverified", "source": "OpenStreetMap", "license": "ODbL-1.0"}, "geometry": {"type": "MultiPolygon", "coordinates": [[[[114.0385365, 22.5740942], [114.0385387, 22.5740179], [114.0385582, 22.5740184], [114.0385596, 22.5739712], [114.038579, 22.5739717], [114.0385799, 22.5739399], [114.038711, 22.5739431], [114.0387101, 22.5739749], [114.0387296, 22.5739754], [114.0387282, 22.5740226], [114.0387671, 22.5740236], [114.0387685, 22.5739764], [114.0387879, 22.5739768], [114.0387888, 22.573945], [114.03892, 22.5739483], [114.0389191, 22.5739801], [114.0389385, 22.5739806], [114.0389371, 22.5740278], [114.0389566, 22.5740282], [114.0389544, 22.5741045], [114.0385365, 22.5740942]]]]}}, {"type": "Feature", "id": "way/1432455818", "properties": {"tags": {"building": "apartments", "building:levels": "10"}, "heightStatus": "levels_only_unverified", "source": "OpenStreetMap", "license": "ODbL-1.0"}, "geometry": {"type": "MultiPolygon", "coordinates": [[[[114.0380616, 22.5737421], [114.0382074, 22.573403], [114.0382707, 22.5734262], [114.0383327, 22.5734087], [114.0383823, 22.5733535], [114.0388404, 22.5737045], [114.0387854, 22.5737658], [114.0387707, 22.5737545], [114.0387164, 22.573815], [114.0385937, 22.573721], [114.038648, 22.5736605], [114.0386187, 22.5736381], [114.0385644, 22.5736985], [114.0384417, 22.5736045], [114.038496, 22.5735441], [114.0384292, 22.5734928], [114.0384421, 22.573532], [114.0383938, 22.5735457], [114.0383813, 22.573508], [114.0383018, 22.5735304], [114.0383143, 22.5735681], [114.038266, 22.5735818], [114.0382473, 22.5735256], [114.0382075, 22.5736183], [114.0382865, 22.5736472], [114.0382277, 22.5737841], [114.0381487, 22.5737551], [114.0381416, 22.5737715], [114.0380616, 22.5737421]]]]}}, {"type": "Feature", "id": "way/1432455819", "properties": {"tags": {"addr:housename": "阳光天下花园", "addr:housename:en": "Yangguang Tianxia Garden", "addr:housename:zh": "阳光天下花园", "building": "apartments", "name": "A栋", "name:en": "Block A", "name:zh": "A栋"}, "heightStatus": "unknown", "source": "OpenStreetMap", "license": "ODbL-1.0"}, "geometry": {"type": "MultiPolygon", "coordinates": [[[[114.0387841, 22.5726119], [114.0387914, 22.5725819], [114.0388084, 22.5725554], [114.0388334, 22.5725351], [114.0388641, 22.5725229], [114.0388972, 22.57252], [114.0389298, 22.5725268], [114.0389584, 22.5725425], [114.0389804, 22.5725656], [114.0389936, 22.5725939], [114.0389967, 22.5726245], [114.0389894, 22.5726545], [114.0389724, 22.572681], [114.0389474, 22.5727013], [114.0389167, 22.5727135], [114.0388836, 22.5727164], [114.038851, 22.5727096], [114.0388224, 22.5726939], [114.0388004, 22.5726708], [114.0387872, 22.5726425], [114.0387841, 22.5726119]]]]}}, {"type": "Feature", "id": "way/1432455820", "properties": {"tags": {"addr:housename": "阳光天下花园", "addr:housename:en": "Yangguang Tianxia Garden", "addr:housename:zh": "阳光天下花园", "building": "apartments", "name": "B栋", "name:en": "Block B", "name:zh": "B栋"}, "heightStatus": "unknown", "source": "OpenStreetMap", "license": "ODbL-1.0"}, "geometry": {"type": "MultiPolygon", "coordinates": [[[[114.0383901, 22.5730746], [114.0386818, 22.57275], [114.0387873, 22.5728309], [114.0384957, 22.5731554], [114.0383901, 22.5730746]]]]}}, {"type": "Feature", "id": "way/1432455821", "properties": {"tags": {"addr:housename": "阳光天下花园", "addr:housename:en": "Yangguang Tianxia Garden", "addr:housename:zh": "阳光天下花园", "building": "apartments", "name": "C栋", "name:en": "Block C", "name:zh": "C栋"}, "heightStatus": "unknown", "source": "OpenStreetMap", "license": "ODbL-1.0"}, "geometry": {"type": "MultiPolygon", "coordinates": [[[[114.0386641, 22.5732019], [114.0387129, 22.5731476], [114.0391283, 22.5734657], [114.0390412, 22.5735626], [114.038676, 22.5732828], [114.0387142, 22.5732403], [114.0386641, 22.5732019]]]]}}, {"type": "Feature", "id": "way/1432455822", "properties": {"tags": {"addr:housename": "阳光天下花园", "addr:housename:en": "Yangguang Tianxia Garden", "addr:housename:zh": "阳光天下花园", "building": "apartments", "name": "D栋", "name:en": "Block D", "name:zh": "D栋"}, "heightStatus": "unknown", "source": "OpenStreetMap", "license": "ODbL-1.0"}, "geometry": {"type": "MultiPolygon", "coordinates": [[[[114.039119, 22.5728427], [114.0392061, 22.5727458], [114.0395713, 22.5730256], [114.0394842, 22.5731225], [114.039119, 22.5728427]]]]}}, {"type": "Feature", "id": "way/1432455825", "properties": {"tags": {"addr:housename": "福兴花园", "addr:housename:en": "Fuxing Garden", "addr:housename:zh": "福兴花园", "building": "apartments", "name": "A栋", "name:en": "Block A", "name:zh": "A栋"}, "heightStatus": "unknown", "source": "OpenStreetMap", "license": "ODbL-1.0"}, "geometry": {"type": "MultiPolygon", "coordinates": [[[[114.0390527, 22.5723028], [114.0393167, 22.571989], [114.0393465, 22.5720104], [114.0393593, 22.5719952], [114.0393883, 22.572016], [114.0393483, 22.5720636], [114.0393783, 22.572085], [114.0394182, 22.5720375], [114.0394725, 22.5720764], [114.0394325, 22.572124], [114.0394603, 22.572144], [114.0394255, 22.5721854], [114.0393137, 22.5721053], [114.0392182, 22.5722189], [114.039247, 22.5722395], [114.0392824, 22.5721974], [114.0393123, 22.5722189], [114.0392909, 22.5722444], [114.0393168, 22.572263], [114.0391966, 22.5724059], [114.0390527, 22.5723028]]]]}}]}