{"type": "FeatureCollection", "features": [{"type": "Feature", "id": "way/237818416", "properties": {"tags": {"addr:city": "深圳市", "addr:district": "福田区", "addr:housenumber": "138号", "addr:postcode": "518048", "addr:province": "广东省", "addr:street": "福华三路", "brand": "Four Seasons", "brand:wikidata": "Q1424786", "brand:wikipedia": "en:Four Seasons Hotels and Resorts", "brand:zh": "四季酒店", "building": "yes", "building:levels": "25", "building:material": "mirror", "internet_access": "yes", "name": "深圳四季酒店", "name:en": "Four Seasons Hotel Shenzhen", "name:zh": "深圳四季酒店", "rooms": "266", "stars": "5", "tourism": "hotel"}, "heightStatus": "levels_only_unverified", "source": "OpenStreetMap", "license": "ODbL-1.0"}, "geometry": {"type": "MultiPolygon", "coordinates": [[[[114.0527096, 22.5362752], [114.052719, 22.535662], [114.0530079, 22.5356658], [114.0529428, 22.5362778], [114.0527096, 22.5362752]]]]}}, {"type": "Feature", "id": "way/237818421", "properties": {"tags": {"building:levels": "58", "building:material": "mirror", "building:part": "yes", "height": "216"}, "heightStatus": "height_tag_unverified", "source": "OpenStreetMap", "license": "ODbL-1.0"}, "geometry": {"type": "MultiPolygon", "coordinates": [[[[114.0516657, 22.5360361], [114.0516724, 22.5356388], [114.0521, 22.535645], [114.0520932, 22.5360423], [114.0516657, 22.5360361]]]]}}, {"type": "Feature", "id": "way/241116488", "properties": {"tags": {"building": "apartments", "building:levels": "12", "name": "华景轩3座", "name:zh": "华景轩3座"}, "heightStatus": "levels_only_unverified", "source": "OpenStreetMap", "license": "ODbL-1.0"}, "geometry": {"type": "MultiPolygon", "coordinates": [[[[114.0473702, 22.5357967], [114.0474307, 22.5357447], [114.0474791, 22.5357929], [114.0474949, 22.5357793], [114.0475955, 22.5358794], [114.0476497, 22.5360978], [114.0475845, 22.5361043], [114.0475602, 22.5360063], [114.0474998, 22.5360191], [114.0474692, 22.5360103], [114.0474855, 22.5359613], [114.0475459, 22.5359485], [114.0475376, 22.535915], [114.0475239, 22.5359179], [114.04752, 22.5359023], [114.0474934, 22.5359079], [114.0474597, 22.5358744], [114.0474536, 22.5358797], [114.0473702, 22.5357967]]]]}}, {"type": "Feature", "id": "way/241116489", "properties": {"tags": {"building": "apartments", "building:levels": "12", "name": "华景轩2座", "name:zh": "华景轩2座"}, "heightStatus": "levels_only_unverified", "source": "OpenStreetMap", "license": "ODbL-1.0"}, "geometry": {"type": "MultiPolygon", "coordinates": [[[[114.0468798, 22.5355919], [114.0468806, 22.5355317], [114.0471249, 22.5355345], [114.047252, 22.5356043], [114.0472411, 22.5356214], [114.0473022, 22.535655], [114.04726, 22.5357206], [114.0471546, 22.5356627], [114.0471588, 22.5356561], [114.0471163, 22.5356328], [114.0471167, 22.5356076], [114.0470993, 22.5356074], [114.0470994, 22.5355944], [114.0470623, 22.535594], [114.0470615, 22.5356512], [114.047013, 22.5356763], [114.0469973, 22.5356504], [114.0469981, 22.5355932], [114.0468798, 22.5355919]]]]}}, {"type": "Feature", "id": "way/241491633", "properties": {"tags": {"addr:city": "深圳市", "addr:district": "福田区", "addr:housenumber": "168", "addr:postcode": "518048", "addr:province": "广东省", "addr:street": "福华三路", "building": "commercial", "building:levels": "4", "building:material": "mirror", "name": "荣超国际商会中心", "name:en": "Shenzhen International Chamber of Commerce", "name:zh": "荣超国际商会中心"}, "heightStatus": "levels_only_unverified", "source": "OpenStreetMap", "license": "ODbL-1.0"}, "geometry": {"type": "MultiPolygon", "coordinates": [[[[114.051663, 22.5362226], [114.0516657, 22.5360361], [114.0516724, 22.5356388], [114.0521, 22.535645], [114.0525245, 22.5356505], [114.0525181, 22.5360481], [114.0520932, 22.5360423], [114.0520901, 22.5362285], [114.051663, 22.5362226]]]]}}, {"type": "Feature", "id": "way/282866325", "properties": {"tags": {"building": "yes"}, "heightStatus": "unknown", "source": "OpenStreetMap", "license": "ODbL-1.0"}, "geometry": {"type": "MultiPolygon", "coordinates": [[[[114.048104, 22.5348423], [114.048121, 22.5338216], [114.0482335, 22.5337208], [114.0482359, 22.5335781], [114.0486802, 22.5335844], [114.0486993, 22.5336095], [114.0487372, 22.5335847], [114.0487749, 22.5336161], [114.0488167, 22.5336428], [114.0488619, 22.5336641], [114.0489097, 22.5336799], [114.0489419, 22.5336677], [114.0489758, 22.5336605], [114.0490106, 22.5336584], [114.0490452, 22.5336615], [114.0490789, 22.5336697], [114.0491107, 22.5336828], [114.0491591, 22.5336685], [114.049205, 22.5336484], [114.0492477, 22.5336231], [114.0492865, 22.5335927], [114.0493233, 22.5336183], [114.0493433, 22.5335938], [114.0497876, 22.5336001], [114.0497852, 22.5337428], [114.0498943, 22.5338467], [114.0498773, 22.5348674], [114.0497763, 22.5349579], [114.0496684, 22.5349812], [114.0494815, 22.53502], [114.0493442, 22.5350407], [114.0492059, 22.5350537], [114.0490669, 22.5350591], [114.0489873, 22.5350578], [114.0489077, 22.5350569], [114.048769, 22.5350475], [114.0486311, 22.5350306], [114.0484946, 22.535006], [114.0483091, 22.5349619], [114.048202, 22.5349356], [114.048104, 22.5348423]]]]}}, {"type": "Feature", "id": "way/345409907", "properties": {"tags": {"addr:housename": "城中雅苑", "addr:housename:zh": "城中雅苑", "building": "apartments", "building:levels": "17", "name": "3栋", "name:zh": "3栋"}, "heightStatus": "levels_only_unverified", "source": "OpenStreetMap", "license": "ODbL-1.0"}, "geometry": {"type": "MultiPolygon", "coordinates": [[[[114.0469646, 22.5341119], [114.0469656, 22.5340288], [114.0470629, 22.5340298], [114.0470633, 22.533994], [114.0470439, 22.5339938], [114.0470445, 22.5339421], [114.047064, 22.5339423], [114.0470649, 22.5338691], [114.0472032, 22.5338705], [114.0472023, 22.5339437], [114.0472218, 22.5339439], [114.0472211, 22.5339957], [114.0472017, 22.5339955], [114.0472012, 22.5340313], [114.0472985, 22.5340323], [114.0472975, 22.5341154], [114.0469646, 22.5341119]]]]}}, {"type": "Feature", "id": "way/359876562", "properties": {"tags": {"building": "school"}, "heightStatus": "unknown", "source": "OpenStreetMap", "license": "ODbL-1.0"}, "geometry": {"type": "MultiPolygon", "coordinates": [[[[114.0460304, 22.5274586], [114.0460311, 22.527357], [114.0461526, 22.5273578], [114.0461529, 22.5273224], [114.0462307, 22.5273229], [114.0462304, 22.527357], [114.0463526, 22.5273578], [114.0463518, 22.5274606], [114.0460304, 22.5274586]]]]}}, {"type": "Feature", "id": "way/539435437", "properties": {"tags": {"building:part": "retail"}, "heightStatus": "unknown", "source": "OpenStreetMap", "license": "ODbL-1.0"}, "geometry": {"type": "MultiPolygon", "coordinates": [[[[114.0491013, 22.5359318], [114.0491103, 22.5358562], [114.0491393, 22.535785], [114.0491865, 22.5357227], [114.0492488, 22.535673], [114.0492922, 22.5356506], [114.0493628, 22.5356288], [114.0494301, 22.5356221], [114.0495016, 22.535629], [114.0495965, 22.5356629], [114.049655, 22.5357025], [114.0496981, 22.5357469], [114.0497303, 22.535797], [114.0497501, 22.5358465], [114.0497617, 22.5359179], [114.0497556, 22.5359864], [114.0497315, 22.5360549], [114.0496911, 22.5361159], [114.0496288, 22.5361719], [114.0495685, 22.5362048], [114.0494951, 22.5362266], [114.0494129, 22.5362318], [114.049332, 22.5362181], [114.0492572, 22.5361863], [114.0491932, 22.5361384], [114.0491441, 22.5360774], [114.0491128, 22.5360071], [114.0491013, 22.5359318]]]]}}, {"type": "Feature", "id": "way/686891194", "properties": {"tags": {"building": "yes"}, "heightStatus": "unknown", "source": "OpenStreetMap", "license": "ODbL-1.0"}, "geometry": {"type": "MultiPolygon", "coordinates": [[[[114.0473784, 22.530884], [114.0473814, 22.5306162], [114.0479456, 22.5306217], [114.0479425, 22.5308894], [114.0473784, 22.530884]]]]}}, {"type": "Feature", "id": "way/686891196", "properties": {"tags": {"addr:housename": "信托花园", "addr:housename:zh": "信托花园", "building": "apartments", "name": "2栋", "name:zh": "2栋"}, "heightStatus": "unknown", "source": "OpenStreetMap", "license": "ODbL-1.0"}, "geometry": {"type": "MultiPolygon", "coordinates": [[[[114.0477911, 22.5304358], [114.0477923, 22.5303102], [114.047823, 22.5303105], [114.0478233, 22.5302859], [114.0479815, 22.5302872], [114.0479812, 22.5303118], [114.048012, 22.5303121], [114.0480108, 22.5304376], [114.0479543, 22.5304372], [114.0479544, 22.5304251], [114.0478476, 22.5304242], [114.0478475, 22.5304363], [114.0477911, 22.5304358]]]]}}, {"type": "Feature", "id": "way/686891198", "properties": {"tags": {"addr:housename": "信托花园", "addr:housename:zh": "信托花园", "building": "apartments", "name": "4栋", "name:zh": "4栋"}, "heightStatus": "unknown", "source": "OpenStreetMap", "license": "ODbL-1.0"}, "geometry": {"type": "MultiPolygon", "coordinates": [[[[114.0477973, 22.5301221], [114.0477985, 22.5299966], [114.0478292, 22.5299968], [114.0478295, 22.5299722], [114.0479877, 22.5299735], [114.0479875, 22.5299981], [114.0480182, 22.5299984], [114.048017, 22.5301239], [114.0479605, 22.5301235], [114.0479607, 22.5301114], [114.0478539, 22.5301105], [114.0478537, 22.5301226], [114.0477973, 22.5301221]]]]}}, {"type": "Feature", "id": "way/686891200", "properties": {"tags": {"addr:housename": "信托花园", "addr:housename:zh": "信托花园", "building": "apartments", "name": "5栋", "name:zh": "5栋"}, "heightStatus": "unknown", "source": "OpenStreetMap", "license": "ODbL-1.0"}, "geometry": {"type": "MultiPolygon", "coordinates": [[[[114.0478044, 22.5298041], [114.0478056, 22.5296785], [114.0478363, 22.5296787], [114.0478366, 22.5296542], [114.0479948, 22.5296555], [114.0479946, 22.52968], [114.0480253, 22.5296803], [114.0480241, 22.5298059], [114.0479676, 22.5298054], [114.0479678, 22.5297933], [114.047861, 22.5297925], [114.0478608, 22.5298045], [114.0478044, 22.5298041]]]]}}, {"type": "Feature", "id": "way/686891202", "properties": {"tags": {"addr:housename": "信托花园", "addr:housename:zh": "信托花园", "building": "apartments", "name": "7栋", "name:zh": "7栋"}, "heightStatus": "unknown", "source": "OpenStreetMap", "license": "ODbL-1.0"}, "geometry": {"type": "MultiPolygon", "coordinates": [[[[114.0475904, 22.5294904], [114.0475916, 22.5293648], [114.0476223, 22.5293651], [114.0476225, 22.5293405], [114.0477808, 22.5293418], [114.0477805, 22.5293664], [114.047842, 22.5293669], [114.0478423, 22.5293423], [114.0480005, 22.5293436], [114.0480003, 22.5293682], [114.048031, 22.5293685], [114.0480298, 22.529494], [114.0479733, 22.5294936], [114.0479734, 22.5294815], [114.0478666, 22.5294806], [114.0478665, 22.5294927], [114.0477536, 22.5294918], [114.0477537, 22.5294797], [114.0476469, 22.5294788], [114.0476468, 22.5294909], [114.0475904, 22.5294904]]]]}}, {"type": "Feature", "id": "way/686891203", "properties": {"tags": {"addr:housename": "信托花园", "addr:housename:zh": "信托花园", "building": "apartments", "name": "3栋", "name:zh": "3栋"}, "heightStatus": "unknown", "source": "OpenStreetMap", "license": "ODbL-1.0"}, "geometry": {"type": "MultiPolygon", "coordinates": [[[[114.0473869, 22.5304293], [114.0473881, 22.5303038], [114.0474189, 22.530304], [114.0474191, 22.5302795], [114.0475773, 22.5302808], [114.0475771, 22.5303053], [114.0476078, 22.5303056], [114.0476066, 22.5304312], [114.0475502, 22.5304307], [114.0475503, 22.5304186], [114.0474435, 22.5304178], [114.0474434, 22.5304298], [114.0473869, 22.5304293]]]]}}, {"type": "Feature", "id": "way/686891204", "properties": {"tags": {"building": "yes", "name": "葵花公寓"}, "heightStatus": "unknown", "source": "OpenStreetMap", "license": "ODbL-1.0"}, "geometry": {"type": "MultiPolygon", "coordinates": [[[[114.0468768, 22.5308496], [114.046881, 22.5302829], [114.0472765, 22.5302853], [114.0472724, 22.5308521], [114.0468768, 22.5308496]]]]}}, {"type": "Feature", "id": "way/686891205", "properties": {"tags": {"building": "apartments"}, "heightStatus": "unknown", "source": "OpenStreetMap", "license": "ODbL-1.0"}, "geometry": {"type": "MultiPolygon", "coordinates": [[[[114.0468409, 22.5302304], [114.0468447, 22.530029], [114.0472583, 22.5300358], [114.0472544, 22.5302372], [114.0468409, 22.5302304]]]]}}, {"type": "Feature", "id": "way/686891206", "properties": {"tags": {"addr:housename": "信托花园", "addr:housename:zh": "信托花园", "building": "apartments", "name": "8栋", "name:zh": "8栋"}, "heightStatus": "unknown", "source": "OpenStreetMap", "license": "ODbL-1.0"}, "geometry": {"type": "MultiPolygon", "coordinates": [[[[114.0468961, 22.5294721], [114.0468973, 22.5293465], [114.046928, 22.5293467], [114.0469282, 22.5293222], [114.0470865, 22.5293235], [114.0470862, 22.529348], [114.0471477, 22.5293485], [114.0471479, 22.529324], [114.0473062, 22.5293253], [114.0473059, 22.5293498], [114.0473367, 22.5293501], [114.0473355, 22.5294757], [114.047279, 22.5294752], [114.0472791, 22.5294632], [114.0471723, 22.5294623], [114.0471722, 22.5294743], [114.0470593, 22.5294734], [114.0470594, 22.5294613], [114.0469526, 22.5294605], [114.0469525, 22.5294725], [114.0468961, 22.5294721]]]]}}, {"type": "Feature", "id": "way/686891207", "properties": {"tags": {"addr:housename": "信托花园", "addr:housename:zh": "信托花园", "building": "apartments", "name": "6栋", "name:zh": "6栋"}, "heightStatus": "unknown", "source": "OpenStreetMap", "license": "ODbL-1.0"}, "geometry": {"type": "MultiPolygon", "coordinates": [[[[114.0468809, 22.5297909], [114.0468821, 22.5296653], [114.0469128, 22.5296656], [114.0469131, 22.529641], [114.0470713, 22.5296423], [114.0470711, 22.5296669], [114.0471325, 22.5296674], [114.0471328, 22.5296428], [114.047291, 22.5296441], [114.0472908, 22.5296687], [114.0473215, 22.5296689], [114.0473203, 22.5297945], [114.0472638, 22.529794], [114.047264, 22.529782], [114.0471572, 22.5297811], [114.047157, 22.5297932], [114.0470441, 22.5297922], [114.0470443, 22.5297802], [114.0469375, 22.5297793], [114.0469373, 22.5297914], [114.0468809, 22.5297909]]]]}}, {"type": "Feature", "id": "way/686891208", "properties": {"tags": {"addr:housename": "信托花园", "addr:housename:zh": "信托花园", "building": "apartments", "name": "9栋", "name:zh": "9栋"}, "heightStatus": "unknown", "source": "OpenStreetMap", "license": "ODbL-1.0"}, "geometry": {"type": "MultiPolygon", "coordinates": [[[[114.0468737, 22.5291638], [114.0468746, 22.529072], [114.046894, 22.5290721], [114.0468944, 22.5290316], [114.0470481, 22.5290329], [114.0470477, 22.5290734], [114.0470866, 22.5290737], [114.047087, 22.5290332], [114.0472407, 22.5290345], [114.0472403, 22.529075], [114.0472792, 22.5290753], [114.0472796, 22.5290348], [114.0474332, 22.5290361], [114.0474328, 22.5290766], [114.0474717, 22.5290769], [114.0474721, 22.5290364], [114.0476258, 22.5290377], [114.0476254, 22.5290782], [114.0476643, 22.5290785], [114.0476647, 22.529038], [114.0478184, 22.5290393], [114.047818, 22.5290798], [114.0478569, 22.5290801], [114.0478573, 22.5290396], [114.0480109, 22.5290408], [114.0480105, 22.5290813], [114.04803, 22.5290815], [114.0480291, 22.5291733], [114.0468737, 22.5291638]]]]}}, {"type": "Feature", "id": "way/686891209", "properties": {"tags": {"addr:housename": "信托花园", "addr:housename:zh": "信托花园", "building": "apartments", "name": "10栋", "name:zh": "10栋"}, "heightStatus": "unknown", "source": "OpenStreetMap", "license": "ODbL-1.0"}, "geometry": {"type": "MultiPolygon", "coordinates": [[[[114.0469091, 22.5288318], [114.0469101, 22.5287255], [114.0469296, 22.5287256], [114.0469299, 22.5286909], [114.0470413, 22.5286919], [114.0470409, 22.5287266], [114.0470798, 22.5287269], [114.0470802, 22.5286922], [114.0471915, 22.5286931], [114.0471912, 22.5287278], [114.0472301, 22.5287281], [114.0472304, 22.5286934], [114.0473418, 22.5286943], [114.0473415, 22.528729], [114.0473804, 22.5287294], [114.0473807, 22.5286947], [114.047492, 22.5286956], [114.0474917, 22.5287303], [114.0475306, 22.5287306], [114.0475309, 22.5286959], [114.0476423, 22.5286968], [114.047642, 22.5287315], [114.0476809, 22.5287318], [114.0476812, 22.5286971], [114.0477375, 22.5286976], [114.047737, 22.5287503], [114.0477193, 22.5287501], [114.0477187, 22.5288205], [114.0477363, 22.5288206], [114.047736, 22.5288508], [114.0476797, 22.5288504], [114.0476798, 22.5288381], [114.0476409, 22.5288378], [114.0476408, 22.52885], [114.0475295, 22.5288491], [114.0475296, 22.5288369], [114.0474907, 22.5288366], [114.0474906, 22.5288488], [114.0473792, 22.5288479], [114.0473793, 22.5288356], [114.0473404, 22.5288353], [114.0473403, 22.5288476], [114.0472289, 22.5288466], [114.0472291, 22.5288344], [114.0471902, 22.5288341], [114.04719, 22.5288463], [114.0470787, 22.5288454], [114.0470788, 22.5288332], [114.0470399, 22.5288328], [114.0470398, 22.5288451], [114.0469284, 22.5288442], [114.0469285, 22.5288319], [114.0469091, 22.5288318]]]]}}, {"type": "Feature", "id": "way/686891210", "properties": {"tags": {"addr:housename": "信托花园", "addr:housename:zh": "信托花园", "building": "apartments", "name": "11栋", "name:zh": "11栋"}, "heightStatus": "unknown", "source": "OpenStreetMap", "license": "ODbL-1.0"}, "geometry": {"type": "MultiPolygon", "coordinates": [[[[114.0469093, 22.5285109], [114.0469103, 22.5284046], [114.0469297, 22.5284047], [114.0469301, 22.52837], [114.0470414, 22.5283709], [114.0470411, 22.5284057], [114.04708, 22.528406], [114.0470803, 22.5283713], [114.0471917, 22.5283722], [114.0471914, 22.5284069], [114.0472303, 22.5284072], [114.0472306, 22.5283725], [114.0473419, 22.5283734], [114.0473416, 22.5284081], [114.0473805, 22.5284085], [114.0473808, 22.5283737], [114.0474922, 22.5283747], [114.0474919, 22.5284094], [114.0475308, 22.5284097], [114.0475311, 22.528375], [114.0476425, 22.5283759], [114.0476421, 22.5284106], [114.047681, 22.5284109], [114.0476814, 22.5283762], [114.0477377, 22.5283767], [114.0477372, 22.5284294], [114.0477195, 22.5284292], [114.0477188, 22.5284996], [114.0477365, 22.5284997], [114.0477362, 22.5285299], [114.0476799, 22.5285295], [114.04768, 22.5285172], [114.0476411, 22.5285169], [114.047641, 22.5285291], [114.0475296, 22.5285282], [114.0475297, 22.528516], [114.0474908, 22.5285156], [114.0474907, 22.5285279], [114.0473794, 22.528527], [114.0473795, 22.5285147], [114.0473406, 22.5285144], [114.0473405, 22.5285267], [114.0472291, 22.5285257], [114.0472292, 22.5285135], [114.0471903, 22.5285132], [114.0471902, 22.5285254], [114.0470788, 22.5285245], [114.047079, 22.5285123], [114.0470401, 22.5285119], [114.0470399, 22.5285242], [114.0469286, 22.5285233], [114.0469287, 22.528511], [114.0469093, 22.5285109]]]]}}, {"type": "Feature", "id": "way/686891213", "properties": {"tags": {"building": "residential", "name": "4栋"}, "heightStatus": "unknown", "source": "OpenStreetMap", "license": "ODbL-1.0"}, "geometry": {"type": "MultiPolygon", "coordinates": [[[[114.0490741, 22.5283674], [114.0490817, 22.5282405], [114.0494024, 22.5282334], [114.0494151, 22.5282828], [114.049461, 22.5282992], [114.0494711, 22.5283721], [114.0490741, 22.5283674]]]]}}, {"type": "Feature", "id": "way/773719239", "properties": {"tags": {"building": "yes", "building:levels": "11", "height": "55", "name": "PAFC Mall", "name:en": "PAFC Mall", "name:zh": "平安金融中心商场", "shop": "mall"}, "heightStatus": "height_tag_unverified", "source": "OpenStreetMap", "license": "ODbL-1.0"}, "geometry": {"type": "MultiPolygon", "coordinates": [[[[114.0500857, 22.5361884], [114.0501563, 22.5359312], [114.0501766, 22.535822], [114.0501673, 22.5356343], [114.05035, 22.5356385], [114.0506162, 22.5356424], [114.0507978, 22.5354916], [114.0508328, 22.5355227], [114.0509109, 22.5355924], [114.0508999, 22.535968], [114.0505552, 22.5362603], [114.0505552, 22.5362982], [114.050154, 22.536298], [114.0500857, 22.5361884]]]]}}, {"type": "Feature", "id": "way/773719240", "properties": {"tags": {"addr:city": "深圳市", "addr:district": "福田区", "addr:housenumber": "5023", "addr:postcode": "518048", "addr:province": "广东省", "addr:street": "益田路", "building": "commercial", "building:colour": "grey", "building:levels": "51", "building:material": "mirror", "height": "286", "name": "平安金融中心南塔", "name:en": "Ping An Finance Center South Tower", "name:zh": "平安金融中心南塔", "start_date": "2017-05", "wikidata": "Q86661197"}, "heightStatus": "height_tag_unverified", "source": "OpenStreetMap", "license": "ODbL-1.0"}, "geometry": {"type": "MultiPolygon", "coordinates": [[[[114.0502745, 22.5347411], [114.0504443, 22.5345819], [114.0505939, 22.5344418], [114.0506184, 22.5344188], [114.0507902, 22.5345753], [114.0509573, 22.5347273], [114.0507832, 22.5348904], [114.0506133, 22.5350496], [114.0504463, 22.5348975], [114.0502745, 22.5347411]]]]}}, {"type": "Feature", "id": "way/773719241", "properties": {"tags": {"building": "retail", "building:levels": "11", "building:min_level": "3", "height": "55", "layer": "1", "min_height": "15"}, "heightStatus": "height_tag_unverified", "source": "OpenStreetMap", "license": "ODbL-1.0"}, "geometry": {"type": "MultiPolygon", "coordinates": [[[[114.0503484, 22.5350908], [114.0504438, 22.5351726], [114.0508411, 22.5351733], [114.0508328, 22.5355227], [114.0507978, 22.5354916], [114.0506162, 22.5356424], [114.05035, 22.5356385], [114.0503484, 22.5350908]]]]}}, {"type": "Feature", "id": "way/773719242", "properties": {"tags": {"building": "yes", "building:levels": "11", "height": "55", "shop": "mall"}, "heightStatus": "height_tag_unverified", "source": "OpenStreetMap", "license": "ODbL-1.0"}, "geometry": {"type": "MultiPolygon", "coordinates": [[[[114.0502054, 22.5349666], [114.0502072, 22.5346217], [114.0504372, 22.5344011], [114.0505939, 22.5344418], [114.0504443, 22.5345819], [114.0502745, 22.5347411], [114.0504463, 22.5348975], [114.0506133, 22.5350496], [114.0507832, 22.5348904], [114.0509573, 22.5347273], [114.0509494, 22.5350806], [114.0508411, 22.5351733], [114.0504438, 22.5351726], [114.0503484, 22.5350908], [114.0502054, 22.5349666]]]]}}, {"type": "Feature", "id": "way/775171563", "properties": {"tags": {"building:levels": "49", "building:material": "glass", "building:part": "yes", "height": "266", "roof:colour": "grey"}, "heightStatus": "height_tag_unverified", "source": "OpenStreetMap", "license": "ODbL-1.0"}, "geometry": {"type": "MultiPolygon", "coordinates": [[[[114.0506161, 22.5347384], [114.0507902, 22.5345753], [114.0509573, 22.5347273], [114.0507832, 22.5348904], [114.0506161, 22.5347384]]]]}}, {"type": "Feature", "id": "way/775171564", "properties": {"tags": {"building:levels": "35", "building:material": "glass", "building:part": "yes", "height": "196", "roof:colour": "grey"}, "heightStatus": "height_tag_unverified", "source": "OpenStreetMap", "license": "ODbL-1.0"}, "geometry": {"type": "MultiPolygon", "coordinates": [[[[114.0504463, 22.5348975], [114.0506161, 22.5347384], [114.0507832, 22.5348904], [114.0506133, 22.5350496], [114.0504463, 22.5348975]]]]}}, {"type": "Feature", "id": "way/775171565", "properties": {"tags": {"building:levels": "51", "building:material": "glass", "building:part": "yes", "height": "289", "roof:colour": "grey"}, "heightStatus": "height_tag_unverified", "source": "OpenStreetMap", "license": "ODbL-1.0"}, "geometry": {"type": "MultiPolygon", "coordinates": [[[[114.0504443, 22.5345819], [114.0505939, 22.5344418], [114.0506184, 22.5344188], [114.0507902, 22.5345753], [114.0506161, 22.5347384], [114.0504443, 22.5345819]]]]}}, {"type": "Feature", "id": "way/775171566", "properties": {"tags": {"building:levels": "49", "building:material": "glass", "building:part": "yes", "height": "266", "roof:colour": "grey"}, "heightStatus": "height_tag_unverified", "source": "OpenStreetMap", "license": "ODbL-1.0"}, "geometry": {"type": "MultiPolygon", "coordinates": [[[[114.0502745, 22.5347411], [114.0504443, 22.5345819], [114.0506161, 22.5347384], [114.0504463, 22.5348975], [114.0502745, 22.5347411]]]]}}, {"type": "Feature", "id": "way/781193993", "properties": {"tags": {"building": "roof", "layer": "1"}, "heightStatus": "unknown", "source": "OpenStreetMap", "license": "ODbL-1.0"}, "geometry": {"type": "MultiPolygon", "coordinates": [[[[114.0518937, 22.5336191], [114.0518943, 22.5335853], [114.0518951, 22.5335326], [114.0518964, 22.5334574], [114.0518975, 22.5334175], [114.0518985, 22.5333354], [114.051899, 22.5333086], [114.0519965, 22.53331], [114.0520979, 22.5333115], [114.0520925, 22.533622], [114.0519907, 22.5336205], [114.0518937, 22.5336191]]]]}}, {"type": "Feature", "id": "way/853206480", "properties": {"tags": {"addr:housename": "城中雅苑", "addr:housename:zh": "城中雅苑", "building": "apartments", "building:levels": "17", "name": "7栋", "name:zh": "7栋"}, "heightStatus": "levels_only_unverified", "source": "OpenStreetMap", "license": "ODbL-1.0"}, "geometry": {"type": "MultiPolygon", "coordinates": [[[[114.0465473, 22.5349703], [114.0465484, 22.5348872], [114.0466456, 22.5348882], [114.0466461, 22.5348524], [114.0466266, 22.5348522], [114.0466273, 22.5348004], [114.0466467, 22.5348006], [114.0466476, 22.5347275], [114.046786, 22.5347289], [114.0467851, 22.5348021], [114.0468045, 22.5348023], [114.0468039, 22.5348541], [114.0467844, 22.5348539], [114.046784, 22.5348897], [114.0468812, 22.5348907], [114.0468802, 22.5349738], [114.0465473, 22.5349703]]]]}}, {"type": "Feature", "id": "way/853206481", "properties": {"tags": {"addr:housename": "城中雅苑", "addr:housename:zh": "城中雅苑", "building": "apartments", "building:levels": "17", "name": "8栋", "name:zh": "8栋"}, "heightStatus": "levels_only_unverified", "source": "OpenStreetMap", "license": "ODbL-1.0"}, "geometry": {"type": "MultiPolygon", "coordinates": [[[[114.0470139, 22.5349773], [114.0470149, 22.5348942], [114.0471122, 22.5348952], [114.0471126, 22.5348594], [114.0470932, 22.5348592], [114.0470938, 22.5348074], [114.0471133, 22.5348077], [114.0471142, 22.5347345], [114.0472525, 22.5347359], [114.0472516, 22.5348091], [114.0472711, 22.5348093], [114.0472704, 22.5348611], [114.047251, 22.5348609], [114.0472505, 22.5348967], [114.0473478, 22.5348977], [114.0473468, 22.5349808], [114.0470139, 22.5349773]]]]}}, {"type": "Feature", "id": "way/853206482", "properties": {"tags": {"addr:housename": "城中雅苑", "addr:housename:zh": "城中雅苑", "building": "apartments", "building:levels": "17", "name": "1栋", "name:zh": "1栋"}, "heightStatus": "levels_only_unverified", "source": "OpenStreetMap", "license": "ODbL-1.0"}, "geometry": {"type": "MultiPolygon", "coordinates": [[[[114.0473838, 22.5344784], [114.0473848, 22.5343953], [114.0474821, 22.5343963], [114.0474825, 22.5343605], [114.0474631, 22.5343603], [114.0474637, 22.5343085], [114.0474831, 22.5343087], [114.0474841, 22.5342355], [114.0476224, 22.534237], [114.0476215, 22.5343102], [114.047641, 22.5343104], [114.0476403, 22.5343622], [114.0476209, 22.534362], [114.0476204, 22.5343978], [114.0477177, 22.5343988], [114.0477166, 22.5344819], [114.0473838, 22.5344784]]]]}}, {"type": "Feature", "id": "way/853206483", "properties": {"tags": {"addr:housename": "城中雅苑", "addr:housename:zh": "城中雅苑", "building": "apartments", "building:levels": "17", "name": "6栋", "name:zh": "6栋"}, "heightStatus": "levels_only_unverified", "source": "OpenStreetMap", "license": "ODbL-1.0"}, "geometry": {"type": "MultiPolygon", "coordinates": [[[[114.0461016, 22.5347478], [114.0461027, 22.5346647], [114.0461999, 22.5346657], [114.0462004, 22.53463], [114.0461809, 22.5346297], [114.0461816, 22.534578], [114.046201, 22.5345782], [114.0462019, 22.534505], [114.0463403, 22.5345064], [114.0463394, 22.5345796], [114.0463588, 22.5345798], [114.0463582, 22.5346316], [114.0463387, 22.5346314], [114.0463383, 22.5346672], [114.0464355, 22.5346682], [114.0464345, 22.5347513], [114.0461016, 22.5347478]]]]}}, {"type": "Feature", "id": "way/853206484", "properties": {"tags": {"addr:housename": "城中雅苑", "addr:housename:zh": "城中雅苑", "building": "apartments", "building:levels": "29", "name": "5栋", "name:zh": "5栋"}, "heightStatus": "levels_only_unverified", "source": "OpenStreetMap", "license": "ODbL-1.0"}, "geometry": {"type": "MultiPolygon", "coordinates": [[[[114.0461073, 22.5338859], [114.0461084, 22.5338028], [114.0462056, 22.5338039], [114.0462061, 22.5337681], [114.0461866, 22.5337679], [114.0461872, 22.5337161], [114.0462067, 22.5337163], [114.0462076, 22.5336431], [114.0463459, 22.5336445], [114.046345, 22.5337177], [114.0463645, 22.5337179], [114.0463639, 22.5337697], [114.0463444, 22.5337695], [114.046344, 22.5338053], [114.0464412, 22.5338063], [114.0464402, 22.5338894], [114.0461073, 22.5338859]]]]}}, {"type": "Feature", "id": "way/853206485", "properties": {"tags": {"addr:housename": "城中雅苑", "addr:housename:zh": "城中雅苑", "building": "apartments", "building:levels": "29", "name": "4栋", "name:zh": "4栋"}, "heightStatus": "levels_only_unverified", "source": "OpenStreetMap", "license": "ODbL-1.0"}, "geometry": {"type": "MultiPolygon", "coordinates": [[[[114.0464867, 22.5338877], [114.0464877, 22.5338046], [114.0465849, 22.5338056], [114.0465854, 22.5337698], [114.0465659, 22.5337696], [114.0465666, 22.5337178], [114.046586, 22.533718], [114.0465869, 22.5336448], [114.0467253, 22.5336463], [114.0467244, 22.5337195], [114.0467438, 22.5337197], [114.0467432, 22.5337715], [114.0467237, 22.5337713], [114.0467233, 22.5338071], [114.0468205, 22.5338081], [114.0468195, 22.5338912], [114.0464867, 22.5338877]]]]}}, {"type": "Feature", "id": "way/853206486", "properties": {"tags": {"addr:housename": "城中雅苑", "addr:housename:zh": "城中雅苑", "building": "apartments", "building:levels": "17", "name": "2栋", "name:zh": "2栋"}, "heightStatus": "levels_only_unverified", "source": "OpenStreetMap", "license": "ODbL-1.0"}, "geometry": {"type": "MultiPolygon", "coordinates": [[[[114.0473875, 22.5338999], [114.0473886, 22.5338168], [114.0474858, 22.5338179], [114.0474863, 22.5337821], [114.0474668, 22.5337819], [114.0474675, 22.5337301], [114.0474869, 22.5337303], [114.0474878, 22.5336571], [114.0476262, 22.5336586], [114.0476253, 22.5337318], [114.0476447, 22.533732], [114.0476441, 22.5337837], [114.0476246, 22.5337835], [114.0476242, 22.5338193], [114.0477214, 22.5338204], [114.0477204, 22.5339034], [114.0473875, 22.5338999]]]]}}, {"type": "Feature", "id": "relation/11699901", "properties": {"tags": {"building": "school"}, "heightStatus": "unknown", "source": "OpenStreetMap", "license": "ODbL-1.0"}, "geometry": {"type": "MultiPolygon", "coordinates": [[[[114.0461014, 22.527264], [114.046104, 22.5269054], [114.0466435, 22.5269087], [114.0467379, 22.5269093], [114.0467339, 22.527463], [114.0465694, 22.5274619], [114.0465701, 22.5273591], [114.0466442, 22.5273596], [114.0466449, 22.5272674], [114.0461014, 22.527264]], [[114.0461995, 22.5271751], [114.0466387, 22.5271771], [114.0466397, 22.5269983], [114.0462004, 22.5269963], [114.0461995, 22.5271751]]]]}}, {"type": "Feature", "id": "relation/12269873", "properties": {"tags": {"building": "kindergarten"}, "heightStatus": "unknown", "source": "OpenStreetMap", "license": "ODbL-1.0"}, "geometry": {"type": "MultiPolygon", "coordinates": [[[[114.0470197, 22.5280664], [114.0470203, 22.5279569], [114.0472206, 22.5279579], [114.0472207, 22.527933], [114.0471799, 22.5279328], [114.0471646, 22.5279231], [114.0471632, 22.5279067], [114.0471769, 22.5278942], [114.0472214, 22.5278948], [114.0472225, 22.5278294], [114.0471215, 22.527828], [114.0471227, 22.5277549], [114.0473165, 22.5277576], [114.0473657, 22.5277138], [114.0475052, 22.5277146], [114.0475049, 22.5277592], [114.0477074, 22.5277603], [114.0477073, 22.5277819], [114.047756, 22.5277822], [114.0477541, 22.5280626], [114.0476836, 22.5280623], [114.0476847, 22.5278892], [114.0475018, 22.5278882], [114.0475015, 22.5279293], [114.0474625, 22.5279291], [114.0474624, 22.5279475], [114.0475166, 22.5279478], [114.0475162, 22.5280098], [114.0476004, 22.5280103], [114.0476001, 22.5280693], [114.0470197, 22.5280664]], [[114.0472539, 22.5279588], [114.0474247, 22.527959], [114.047425, 22.5277901], [114.0474051, 22.5277901], [114.0473586, 22.5278322], [114.0472541, 22.527832], [114.0472539, 22.5279588]]]]}}, {"type": "Feature", "id": "way/914031702", "properties": {"tags": {"building": "school"}, "heightStatus": "unknown", "source": "OpenStreetMap", "license": "ODbL-1.0"}, "geometry": {"type": "MultiPolygon", "coordinates": [[[[114.0528505, 22.5298678], [114.0528513, 22.5297931], [114.0532905, 22.5297969], [114.0532922, 22.5296278], [114.0528531, 22.529624], [114.0528538, 22.5295494], [114.0530286, 22.529551], [114.0530289, 22.5295263], [114.0534235, 22.5295298], [114.0534225, 22.5296212], [114.0534309, 22.5296213], [114.0534308, 22.5296374], [114.0533319, 22.5296365], [114.0533302, 22.5297998], [114.053376, 22.5298002], [114.0533756, 22.5298419], [114.0533298, 22.5298415], [114.0533279, 22.5300273], [114.0533701, 22.5300327], [114.0534111, 22.5300437], [114.0534499, 22.53006], [114.0534857, 22.5300814], [114.0535178, 22.5301072], [114.0535456, 22.5301371], [114.0535684, 22.5301703], [114.0535858, 22.5302063], [114.0535976, 22.5302441], [114.0536074, 22.5303055], [114.0536105, 22.5303676], [114.0536067, 22.5304296], [114.0535963, 22.5304909], [114.0535756, 22.5305588], [114.0535542, 22.5306065], [114.0535278, 22.5306519], [114.0534968, 22.5306948], [114.0534707, 22.5307141], [114.0534399, 22.5307262], [114.0534068, 22.5307302], [114.0533737, 22.5307258], [114.0533431, 22.5307133], [114.0533173, 22.5306937], [114.0532869, 22.5306504], [114.0532612, 22.5306046], [114.0532405, 22.5305567], [114.0532207, 22.5304885], [114.053211, 22.5304186], [114.0532115, 22.530348], [114.0532223, 22.5302781], [114.0532431, 22.5302102], [114.0535036, 22.5302119], [114.0534882, 22.5301854], [114.0534686, 22.5301614], [114.0534454, 22.5301403], [114.0534191, 22.5301226], [114.0533901, 22.5301088], [114.0533593, 22.5300992], [114.0533272, 22.5300939], [114.0533269, 22.5301231], [114.0528875, 22.5301192], [114.0528882, 22.5300442], [114.0532879, 22.5300477], [114.0532897, 22.5298717], [114.0528505, 22.5298678]]]]}}, {"type": "Feature", "id": "way/916095683", "properties": {"tags": {"addr:housename": "皇庭世纪", "addr:housename:zh": "皇庭世纪", "building": "apartments", "building:levels": "33", "layer": "1", "name": "6栋", "name:zh": "6栋"}, "heightStatus": "levels_only_unverified", "source": "OpenStreetMap", "license": "ODbL-1.0"}, "geometry": {"type": "MultiPolygon", "coordinates": [[[[114.0518777, 22.5294661], [114.0518803, 22.5293323], [114.0519419, 22.5293333], [114.0519414, 22.5293591], [114.0519697, 22.5293596], [114.0519706, 22.5293166], [114.0519422, 22.5293161], [114.0519429, 22.5292825], [114.0520663, 22.5292845], [114.0520656, 22.5293182], [114.0520441, 22.5293179], [114.0520433, 22.5293606], [114.0521319, 22.529362], [114.0521304, 22.5294402], [114.0520416, 22.5294387], [114.0520408, 22.5294798], [114.0520622, 22.5294802], [114.0520617, 22.529505], [114.0519385, 22.529503], [114.051939, 22.5294781], [114.0519673, 22.5294786], [114.0519681, 22.5294377], [114.0519398, 22.5294373], [114.0519392, 22.5294671], [114.0518777, 22.5294661]]]]}}, {"type": "Feature", "id": "way/945000352", "properties": {"tags": {"addr:housename": "东山花园", "addr:housename:zh": "东山花园", "building": "apartments", "name": "8栋", "name:zh": "8栋"}, "heightStatus": "unknown", "source": "OpenStreetMap", "license": "ODbL-1.0"}, "geometry": {"type": "MultiPolygon", "coordinates": [[[[114.0482697, 22.532461], [114.0482712, 22.5323445], [114.0487686, 22.5323499], [114.0487672, 22.5324664], [114.0482697, 22.532461]]]]}}, {"type": "Feature", "id": "way/945000353", "properties": {"tags": {"addr:housename": "东山花园", "addr:housename:zh": "东山花园", "building": "apartments", "name": "9栋", "name:zh": "9栋"}, "heightStatus": "unknown", "source": "OpenStreetMap", "license": "ODbL-1.0"}, "geometry": {"type": "MultiPolygon", "coordinates": [[[[114.0482696, 22.5322203], [114.0482713, 22.5321039], [114.0487671, 22.5321098], [114.0487654, 22.5322263], [114.0482696, 22.5322203]]]]}}, {"type": "Feature", "id": "way/945000354", "properties": {"tags": {"addr:housename": "东山花园", "addr:housename:zh": "东山花园", "building": "apartments", "name": "10栋", "name:zh": "10栋"}, "heightStatus": "unknown", "source": "OpenStreetMap", "license": "ODbL-1.0"}, "geometry": {"type": "MultiPolygon", "coordinates": [[[[114.0482737, 22.5319762], [114.0482753, 22.5318598], [114.0487712, 22.5318657], [114.0487695, 22.5319823], [114.0482737, 22.5319762]]]]}}, {"type": "Feature", "id": "way/945000355", "properties": {"tags": {"addr:housename": "东山花园", "addr:housename:zh": "东山花园", "building": "apartments", "name": "11栋", "name:zh": "11栋"}, "heightStatus": "unknown", "source": "OpenStreetMap", "license": "ODbL-1.0"}, "geometry": {"type": "MultiPolygon", "coordinates": [[[[114.0482697, 22.5327201], [114.0482712, 22.5326036], [114.0487653, 22.5326089], [114.0487639, 22.5327254], [114.0482697, 22.5327201]]]]}}, {"type": "Feature", "id": "way/945000356", "properties": {"tags": {"building": "yes"}, "heightStatus": "unknown", "source": "OpenStreetMap", "license": "ODbL-1.0"}, "geometry": {"type": "MultiPolygon", "coordinates": [[[[114.0494071, 22.5330456], [114.0494118, 22.5329095], [114.0498575, 22.5329225], [114.0498492, 22.5331631], [114.0497309, 22.5331596], [114.0497345, 22.5330552], [114.0494071, 22.5330456]]]]}}, {"type": "Feature", "id": "way/945000357", "properties": {"tags": {"building": "yes"}, "heightStatus": "unknown", "source": "OpenStreetMap", "license": "ODbL-1.0"}, "geometry": {"type": "MultiPolygon", "coordinates": [[[[114.0493725, 22.5333922], [114.0493789, 22.5331368], [114.0494562, 22.5331384], [114.0494528, 22.5332728], [114.0498027, 22.5332804], [114.0497996, 22.5334015], [114.0493725, 22.5333922]]]]}}, {"type": "Feature", "id": "way/945000358", "properties": {"tags": {"building": "yes"}, "heightStatus": "unknown", "source": "OpenStreetMap", "license": "ODbL-1.0"}, "geometry": {"type": "MultiPolygon", "coordinates": [[[[114.0484038, 22.5332592], [114.0484049, 22.5331283], [114.0487761, 22.533131], [114.048775, 22.533262], [114.0484038, 22.5332592]]]]}}, {"type": "Feature", "id": "way/945000359", "properties": {"tags": {"building": "yes"}, "heightStatus": "unknown", "source": "OpenStreetMap", "license": "ODbL-1.0"}, "geometry": {"type": "MultiPolygon", "coordinates": [[[[114.0481921, 22.5332682], [114.0481945, 22.5331949], [114.0483649, 22.533197], [114.0483626, 22.5332714], [114.0481921, 22.5332682]]]]}}, {"type": "Feature", "id": "way/945000360", "properties": {"tags": {"building": "yes"}, "heightStatus": "unknown", "source": "OpenStreetMap", "license": "ODbL-1.0"}, "geometry": {"type": "MultiPolygon", "coordinates": [[[[114.0481933, 22.5331215], [114.0483264, 22.5331215], [114.0483264, 22.5331852], [114.0481945, 22.5331852], [114.0481933, 22.5331215]]]]}}, {"type": "Feature", "id": "way/945000361", "properties": {"tags": {"building": "yes"}, "heightStatus": "unknown", "source": "OpenStreetMap", "license": "ODbL-1.0"}, "geometry": {"type": "MultiPolygon", "coordinates": [[[[114.0482365, 22.533031], [114.0484968, 22.5330331], [114.0484992, 22.5330989], [114.0482365, 22.5330978], [114.0482365, 22.533031]]]]}}, {"type": "Feature", "id": "way/945000362", "properties": {"tags": {"building": "yes"}, "heightStatus": "unknown", "source": "OpenStreetMap", "license": "ODbL-1.0"}, "geometry": {"type": "MultiPolygon", "coordinates": [[[[114.0484709, 22.5330263], [114.0484715, 22.5328889], [114.0485478, 22.5328892], [114.0485479, 22.5328747], [114.0488405, 22.532876], [114.0488392, 22.5331251], [114.0485466, 22.5331239], [114.0485471, 22.5330266], [114.0484709, 22.5330263]]]]}}, {"type": "Feature", "id": "way/1051446514", "properties": {"tags": {"building": "apartments"}, "heightStatus": "unknown", "source": "OpenStreetMap", "license": "ODbL-1.0"}, "geometry": {"type": "MultiPolygon", "coordinates": [[[[114.0456179, 22.528096], [114.0456189, 22.5279536], [114.0457018, 22.5279541], [114.0457016, 22.5279785], [114.0457727, 22.5279288], [114.0457728, 22.5279205], [114.0457439, 22.5279203], [114.0457446, 22.5278571], [114.0457218, 22.5278569], [114.0457223, 22.5278071], [114.0459277, 22.5278088], [114.0459272, 22.5278557], [114.045888, 22.5278554], [114.0458874, 22.5279175], [114.0458562, 22.5279172], [114.045856, 22.5279395], [114.0459072, 22.5279915], [114.0459212, 22.5279915], [114.0459211, 22.5279512], [114.0460499, 22.5279508], [114.04605, 22.5279726], [114.0460634, 22.5279697], [114.0461025, 22.5279365], [114.0461174, 22.5279368], [114.0461178, 22.5279177], [114.0460932, 22.5279173], [114.0460946, 22.5278402], [114.0460669, 22.5278398], [114.0460676, 22.527802], [114.0462673, 22.5278049], [114.0462665, 22.5278517], [114.0462374, 22.5278513], [114.0462361, 22.5279244], [114.0462001, 22.5279239], [114.0461998, 22.5279436], [114.0462459, 22.5279933], [114.046283, 22.5279938], [114.0462836, 22.527959], [114.0463416, 22.5279598], [114.0463392, 22.5281032], [114.0462802, 22.5281023], [114.0462806, 22.5280789], [114.0462484, 22.5280785], [114.0462023, 22.5281175], [114.0462023, 22.5281394], [114.0462259, 22.5281395], [114.0462258, 22.5281901], [114.0460875, 22.5281898], [114.0460876, 22.5281381], [114.0461075, 22.5281382], [114.0461076, 22.5281116], [114.0460685, 22.5280743], [114.0460471, 22.528074], [114.0460464, 22.5281114], [114.0459165, 22.5281095], [114.0459172, 22.5280722], [114.0459001, 22.528072], [114.0458591, 22.5281059], [114.0458589, 22.5281357], [114.0458854, 22.5281359], [114.045885, 22.5281878], [114.0457337, 22.5281868], [114.0457341, 22.5281347], [114.0457629, 22.5281349], [114.0457631, 22.5281134], [114.0457189, 22.5280643], [114.0456951, 22.5280641], [114.0456949, 22.5280964], [114.0456179, 22.528096]]]]}}, {"type": "Feature", "id": "way/1055657947", "properties": {"tags": {"building": "apartments"}, "heightStatus": "unknown", "source": "OpenStreetMap", "license": "ODbL-1.0"}, "geometry": {"type": "MultiPolygon", "coordinates": [[[[114.0496687, 22.5272912], [114.0496705, 22.5271966], [114.0497155, 22.5271973], [114.0497152, 22.5272124], [114.0497413, 22.5272129], [114.0497423, 22.5271602], [114.0497222, 22.5271598], [114.049723, 22.5271173], [114.0498953, 22.5271201], [114.0498944, 22.5271647], [114.049866, 22.5271642], [114.0498653, 22.5272018], [114.0499225, 22.5272028], [114.0499207, 22.5272903], [114.0498634, 22.5272894], [114.0498636, 22.5272758], [114.049732, 22.5272736], [114.0497317, 22.5272922], [114.0496687, 22.5272912]]]]}}, {"type": "Feature", "id": "way/1055657948", "properties": {"tags": {"building": "apartments"}, "heightStatus": "unknown", "source": "OpenStreetMap", "license": "ODbL-1.0"}, "geometry": {"type": "MultiPolygon", "coordinates": [[[[114.0499207, 22.5272903], [114.0499225, 22.5272028], [114.0499702, 22.5272037], [114.0499682, 22.5272157], [114.0499944, 22.5272161], [114.0499954, 22.5271634], [114.0499752, 22.5271631], [114.0499761, 22.5271205], [114.0501484, 22.5271234], [114.0501475, 22.5271679], [114.0501191, 22.5271674], [114.0501183, 22.527205], [114.0501755, 22.527206], [114.0501738, 22.5272936], [114.0501164, 22.5272926], [114.0501167, 22.5272791], [114.0499851, 22.5272769], [114.0499839, 22.5272916], [114.0499207, 22.5272903]]]]}}, {"type": "Feature", "id": "way/1055657949", "properties": {"tags": {"building": "apartments"}, "heightStatus": "unknown", "source": "OpenStreetMap", "license": "ODbL-1.0"}, "geometry": {"type": "MultiPolygon", "coordinates": [[[[114.0501738, 22.5272936], [114.0501755, 22.527206], [114.0502228, 22.5272053], [114.0502217, 22.5272172], [114.0502478, 22.5272176], [114.0502488, 22.527165], [114.0502287, 22.5271646], [114.0502295, 22.5271221], [114.0504018, 22.5271249], [114.0504009, 22.5271694], [114.0503725, 22.527169], [114.0503718, 22.5272066], [114.050429, 22.5272075], [114.0504272, 22.5272951], [114.0503699, 22.5272942], [114.0503701, 22.5272806], [114.0502385, 22.5272784], [114.0502382, 22.5272947], [114.0501738, 22.5272936]]]]}}, {"type": "Feature", "id": "way/1055657953", "properties": {"tags": {"building": "apartments"}, "heightStatus": "unknown", "source": "OpenStreetMap", "license": "ODbL-1.0"}, "geometry": {"type": "MultiPolygon", "coordinates": [[[[114.0485948, 22.5274744], [114.0485964, 22.5273792], [114.0486556, 22.52738], [114.0486573, 22.5272796], [114.0487808, 22.5272813], [114.0487795, 22.527358], [114.0488836, 22.5273595], [114.0488849, 22.527286], [114.0490502, 22.5272884], [114.0490489, 22.5273631], [114.0491815, 22.527365], [114.0491828, 22.5272926], [114.049304, 22.5272944], [114.0493026, 22.5273761], [114.0493253, 22.5273764], [114.0493236, 22.5274764], [114.0491416, 22.5274737], [114.0491424, 22.5274266], [114.0490542, 22.5274253], [114.0490533, 22.5274792], [114.0488781, 22.5274766], [114.0488785, 22.527452], [114.0488583, 22.5274517], [114.0488586, 22.5274335], [114.0488083, 22.5274328], [114.0488079, 22.527454], [114.0487946, 22.5274538], [114.0487942, 22.5274772], [114.0485948, 22.5274744]]]]}}, {"type": "Feature", "id": "way/1060059798", "properties": {"tags": {"building": "apartments", "name": "呈元驿大厦"}, "heightStatus": "unknown", "source": "OpenStreetMap", "license": "ODbL-1.0"}, "geometry": {"type": "MultiPolygon", "coordinates": [[[[114.0455363, 22.5285404], [114.0456078, 22.5284793], [114.045674, 22.5285455], [114.0457057, 22.5285184], [114.0457468, 22.5285595], [114.045712, 22.5285892], [114.0457228, 22.5286], [114.0458045, 22.5285964], [114.0458171, 22.5285845], [114.0457871, 22.5285576], [114.045822, 22.5285243], [114.0458408, 22.5285411], [114.0458862, 22.5284978], [114.0459489, 22.5285539], [114.0458944, 22.5286058], [114.0459342, 22.5286414], [114.0459044, 22.5286698], [114.0458786, 22.5286468], [114.0458714, 22.5287474], [114.0459063, 22.5287171], [114.0459375, 22.5287478], [114.0459101, 22.5287716], [114.0459605, 22.528821], [114.0459494, 22.5288306], [114.045966, 22.5288469], [114.0459144, 22.5288918], [114.0458437, 22.5288225], [114.0458108, 22.5288511], [114.0457809, 22.5288217], [114.0458085, 22.5287976], [114.0457897, 22.5287792], [114.0457367, 22.5287801], [114.045716, 22.5287977], [114.0457363, 22.528818], [114.045702, 22.5288473], [114.0456742, 22.5288195], [114.0456389, 22.5288497], [114.0456298, 22.5288407], [114.0455925, 22.5288725], [114.0455564, 22.5288363], [114.0455874, 22.5288099], [114.0455776, 22.5288], [114.0456148, 22.5287683], [114.0455881, 22.5287415], [114.0456238, 22.5287111], [114.0456535, 22.5287408], [114.0456554, 22.5286441], [114.0456157, 22.528678], [114.0455759, 22.5286383], [114.0456074, 22.5286114], [114.0455363, 22.5285404]]]]}}, {"type": "Feature", "id": "way/1060059799", "properties": {"tags": {"building": "apartments"}, "heightStatus": "unknown", "source": "OpenStreetMap", "license": "ODbL-1.0"}, "geometry": {"type": "MultiPolygon", "coordinates": [[[[114.0486668, 22.5303708], [114.0487399, 22.5303072], [114.048712, 22.5302798], [114.0487439, 22.5302521], [114.0486952, 22.5302043], [114.0488283, 22.5300885], [114.0488693, 22.5301287], [114.0488918, 22.5301091], [114.0489317, 22.5301482], [114.0489691, 22.5301156], [114.0490549, 22.5301997], [114.0487569, 22.5304592], [114.0486668, 22.5303708]]]]}}, {"type": "Feature", "id": "relation/14138284", "properties": {"tags": {"building": "school"}, "heightStatus": "unknown", "source": "OpenStreetMap", "license": "ODbL-1.0"}, "geometry": {"type": "MultiPolygon", "coordinates": [[[[114.0469196, 22.526934], [114.0469277, 22.5269205], [114.0469338, 22.526906], [114.046939, 22.5268924], [114.0469447, 22.5268754], [114.046949, 22.5268583], [114.0469533, 22.5268399], [114.0469547, 22.5268241], [114.0469552, 22.5267974], [114.0476993, 22.5268103], [114.0476987, 22.526853], [114.0476998, 22.5268878], [114.047701, 22.5269178], [114.047705, 22.5269642], [114.0477113, 22.5270079], [114.0477221, 22.5270453], [114.047732, 22.5270778], [114.0477428, 22.5271094], [114.0477545, 22.5271329], [114.0477605, 22.5271477], [114.0477644, 22.5271581], [114.0477653, 22.5271693], [114.0477653, 22.5271968], [114.0475046, 22.5271964], [114.0475068, 22.5272783], [114.0475068, 22.527301], [114.0475081, 22.5273298], [114.0475102, 22.5273517], [114.0475141, 22.5273737], [114.0475189, 22.5273857], [114.0476494, 22.5273845], [114.047652, 22.5274108], [114.0476555, 22.5274304], [114.0476581, 22.5274524], [114.0476693, 22.5274815], [114.0476775, 22.5274967], [114.0476875, 22.5275059], [114.046993, 22.5274943], [114.0469916, 22.5274813], [114.04699, 22.5274725], [114.0469864, 22.5274627], [114.0469824, 22.5274556], [114.0469775, 22.5274501], [114.0469698, 22.5274441], [114.0469617, 22.5274365], [114.046948, 22.5274297], [114.0469269, 22.5274245], [114.046924, 22.5271757], [114.0469228, 22.5270723], [114.0469196, 22.526934]], [[114.0470275, 22.5269854], [114.0470515, 22.5269855], [114.0470512, 22.5270954], [114.0474125, 22.5270961], [114.0474128, 22.5269546], [114.0470276, 22.5269538], [114.0470275, 22.5269854]], [[114.0470744, 22.5274175], [114.0474286, 22.5274212], [114.0474269, 22.5271883], [114.0470767, 22.5271841], [114.0470744, 22.5274175]], [[114.0474981, 22.5271051], [114.0476341, 22.5271062], [114.0476317, 22.5270833], [114.0476309, 22.5270596], [114.0476305, 22.5270287], [114.0476317, 22.52696], [114.0474988, 22.52696], [114.0474981, 22.5271051]]]]}}, {"type": "Feature", "id": "way/1060059823", "properties": {"tags": {"building": "apartments", "name": "葵花公寓"}, "heightStatus": "unknown", "source": "OpenStreetMap", "license": "ODbL-1.0"}, "geometry": {"type": "MultiPolygon", "coordinates": [[[[114.0468811, 22.5308465], [114.0468841, 22.5305815], [114.0472235, 22.5305848], [114.0472205, 22.5308497], [114.0468811, 22.5308465]]]]}}, {"type": "Feature", "id": "way/1060059833", "properties": {"tags": {"building": "apartments", "building:levels": "32", "name": "明月大厦北座", "name:zh": "明月大厦北座"}, "heightStatus": "levels_only_unverified", "source": "OpenStreetMap", "license": "ODbL-1.0"}, "geometry": {"type": "MultiPolygon", "coordinates": [[[[114.0507202, 22.5274671], [114.0507226, 22.5273127], [114.0507792, 22.5273134], [114.05078, 22.5272604], [114.0509393, 22.5272625], [114.0509384, 22.5273158], [114.0510178, 22.5273168], [114.0510154, 22.5274692], [114.050936, 22.5274682], [114.0509351, 22.5275225], [114.0507692, 22.5275203], [114.05077, 22.5274678], [114.0507202, 22.5274671]]]]}}, {"type": "Feature", "id": "relation/14181416", "properties": {"tags": {"building": "school"}, "heightStatus": "unknown", "source": "OpenStreetMap", "license": "ODbL-1.0"}, "geometry": {"type": "MultiPolygon", "coordinates": [[[[114.0478448, 22.5282263], [114.0478491, 22.5280115], [114.0479493, 22.5280115], [114.0479512, 22.5278946], [114.0478527, 22.5278935], [114.0478542, 22.527796], [114.0479616, 22.5277975], [114.0479624, 22.5277494], [114.0479836, 22.5277498], [114.0479855, 22.5276907], [114.0484232, 22.5276958], [114.0484135, 22.5282412], [114.0480103, 22.5282373], [114.0480092, 22.5282565], [114.0479123, 22.528256], [114.0479115, 22.5282995], [114.0480616, 22.5283], [114.0480619, 22.5282889], [114.0481489, 22.5282894], [114.0481492, 22.5283032], [114.0482527, 22.5283034], [114.0482631, 22.5283091], [114.0482955, 22.5283098], [114.0482958, 22.528298], [114.0483205, 22.5282985], [114.0483205, 22.5283093], [114.0483748, 22.5283106], [114.0483742, 22.5284467], [114.0483634, 22.528447], [114.0483564, 22.5288915], [114.0482461, 22.5288893], [114.048246, 22.5288977], [114.0478831, 22.5288915], [114.0478881, 22.5282273], [114.0478448, 22.5282263]], [[114.0479245, 22.5286448], [114.0482496, 22.5286474], [114.0482505, 22.5285494], [114.0479278, 22.5285468], [114.0479275, 22.5285752], [114.0480085, 22.5285758], [114.0480082, 22.5286113], [114.0479249, 22.5286106], [114.0479245, 22.5286448]], [[114.0479839, 22.5281416], [114.0481655, 22.5281439], [114.0481659, 22.5281155], [114.0479843, 22.5281131], [114.0479839, 22.5281416]], [[114.0479914, 22.5278136], [114.048173, 22.527816], [114.0481735, 22.5277876], [114.0479919, 22.5277852], [114.0479914, 22.5278136]], [[114.048008, 22.5287874], [114.048245, 22.5287904], [114.0482457, 22.5287453], [114.0480087, 22.5287422], [114.048008, 22.5287874]], [[114.048013, 22.5284456], [114.0482557, 22.5284494], [114.0482565, 22.5284076], [114.0480138, 22.5284038], [114.048013, 22.5284456]], [[114.0482073, 22.5281436], [114.0483889, 22.528146], [114.0483894, 22.5281175], [114.0482078, 22.5281151], [114.0482073, 22.5281436]], [[114.0482129, 22.5278154], [114.0483945, 22.5278177], [114.0483949, 22.5277893], [114.0482133, 22.5277869], [114.0482129, 22.5278154]]]]}}, {"type": "Feature", "id": "way/1253254379", "properties": {"tags": {"addr:city": "深圳市", "addr:district": "福田区", "addr:housenumber": "5013", "addr:postcode": "518048", "addr:province": "广东省", "addr:street": "益田路", "building": "commercial", "building:colour": "grey", "building:levels": "40", "building:levels:underground": "5", "building:material": "mirror", "height": "220", "name": "平安财险大厦"}, "heightStatus": "height_tag_unverified", "source": "OpenStreetMap", "license": "ODbL-1.0"}, "geometry": {"type": "MultiPolygon", "coordinates": [[[[114.0505289, 22.5341651], [114.0505388, 22.5336963], [114.0505552, 22.533682], [114.050889, 22.533688], [114.0509064, 22.5337045], [114.0508964, 22.5341757], [114.0508776, 22.534192], [114.0505457, 22.534186], [114.0505289, 22.5341651]]]]}}, {"type": "Feature", "id": "way/1333332313", "properties": {"tags": {"addr:housename": "皇庭世纪", "addr:housename:zh": "皇庭世纪", "building": "apartments", "building:levels": "33", "layer": "1", "name": "8栋", "name:zh": "8栋"}, "heightStatus": "levels_only_unverified", "source": "OpenStreetMap", "license": "ODbL-1.0"}, "geometry": {"type": "MultiPolygon", "coordinates": [[[[114.0519761, 22.5283338], [114.0520048, 22.5283096], [114.0519867, 22.5282914], [114.0521626, 22.5281429], [114.0521866, 22.5281672], [114.0522172, 22.5281414], [114.0524049, 22.528331], [114.0522253, 22.5284826], [114.0522003, 22.5285038], [114.05214, 22.5284429], [114.0521095, 22.5284685], [114.0519761, 22.5283338]]]]}}, {"type": "Feature", "id": "way/1333332314", "properties": {"tags": {"addr:housename": "皇庭世纪", "addr:housename:zh": "皇庭世纪", "building": "apartments", "building:levels": "33", "layer": "1", "name": "9栋", "name:zh": "9栋"}, "heightStatus": "levels_only_unverified", "source": "OpenStreetMap", "license": "ODbL-1.0"}, "geometry": {"type": "MultiPolygon", "coordinates": [[[[114.0520161, 22.5277751], [114.0521791, 22.5276336], [114.052214, 22.5276679], [114.0522442, 22.5276416], [114.0523848, 22.5277796], [114.0523583, 22.5278026], [114.052379, 22.527823], [114.0522327, 22.5279501], [114.0521966, 22.5279146], [114.0521527, 22.5279527], [114.05204, 22.527842], [114.0520635, 22.5278215], [114.0520161, 22.5277751]]]]}}, {"type": "Feature", "id": "way/1333332315", "properties": {"tags": {"addr:housename": "皇庭世纪", "addr:housename:zh": "皇庭世纪", "building": "apartments", "building:levels": "33", "layer": "1", "name": "7栋", "name:zh": "7栋"}, "heightStatus": "levels_only_unverified", "source": "OpenStreetMap", "license": "ODbL-1.0"}, "geometry": {"type": "MultiPolygon", "coordinates": [[[[114.0519793, 22.5288749], [114.0520079, 22.5288508], [114.0519899, 22.5288325], [114.0521659, 22.5286842], [114.0521899, 22.5287085], [114.0522206, 22.5286827], [114.052408, 22.5288725], [114.0522032, 22.5290452], [114.0521429, 22.5289841], [114.0521125, 22.5290098], [114.0519793, 22.5288749]]]]}}, {"type": "Feature", "id": "way/1333332316", "properties": {"tags": {"addr:housename": "皇庭世纪", "addr:housename:zh": "皇庭世纪", "building": "apartments", "name": "1栋", "name:zh": "1栋"}, "heightStatus": "unknown", "source": "OpenStreetMap", "license": "ODbL-1.0"}, "geometry": {"type": "MultiPolygon", "coordinates": [[[[114.0528672, 22.528752], [114.0528936, 22.5287258], [114.0528741, 22.5287089], [114.0530364, 22.5285478], [114.0530625, 22.5285703], [114.0530907, 22.5285422], [114.0532944, 22.5287172], [114.0531055, 22.5289048], [114.05304, 22.5288485], [114.0530119, 22.5288764], [114.0528672, 22.528752]]]]}}, {"type": "Feature", "id": "way/1333332317", "properties": {"tags": {"addr:housename": "皇达·东方雅苑", "addr:housename:zh": "皇达·东方雅苑", "building": "apartments", "building:levels": "31"}, "heightStatus": "levels_only_unverified", "source": "OpenStreetMap", "license": "ODbL-1.0"}, "geometry": {"type": "MultiPolygon", "coordinates": [[[[114.0521649, 22.5274042], [114.0521666, 22.5273239], [114.0522444, 22.5273253], [114.0522465, 22.5272303], [114.0523824, 22.5272328], [114.0523803, 22.5273279], [114.0524591, 22.5273294], [114.0524574, 22.5274097], [114.0521649, 22.5274042]]]]}}, {"type": "Feature", "id": "way/1333332320", "properties": {"tags": {"addr:housename": "天健阳光华苑", "addr:housename:zh": "天健阳光华苑", "building": "apartments", "building:levels": "33", "name": "B座", "name:zh": "B座"}, "heightStatus": "levels_only_unverified", "source": "OpenStreetMap", "license": "ODbL-1.0"}, "geometry": {"type": "MultiPolygon", "coordinates": [[[[114.0507046, 22.5278859], [114.0508044, 22.5278006], [114.0508413, 22.5278375], [114.0508861, 22.5277992], [114.0510151, 22.5279279], [114.0509185, 22.5280105], [114.0509743, 22.5280662], [114.0509471, 22.5280895], [114.050967, 22.5281093], [114.0508745, 22.5281882], [114.0508223, 22.5281361], [114.0507883, 22.5281651], [114.0507074, 22.5280842], [114.0507326, 22.5280628], [114.050711, 22.5280412], [114.0507678, 22.5279928], [114.050719, 22.5279441], [114.0507427, 22.5279239], [114.0507046, 22.5278859]]]]}}, {"type": "Feature", "id": "way/1333332321", "properties": {"tags": {"addr:housename": "天健阳光华苑", "addr:housename:zh": "天健阳光华苑", "building": "apartments", "building:levels": "33", "name": "A座", "name:zh": "A座"}, "heightStatus": "levels_only_unverified", "source": "OpenStreetMap", "license": "ODbL-1.0"}, "geometry": {"type": "MultiPolygon", "coordinates": [[[[114.0501797, 22.5278795], [114.0502795, 22.5277942], [114.0503164, 22.5278311], [114.0503612, 22.5277928], [114.0504901, 22.5279215], [114.0503935, 22.5280041], [114.0504494, 22.5280598], [114.0504222, 22.5280831], [114.050442, 22.5281029], [114.0503496, 22.5281818], [114.0502974, 22.5281297], [114.0502634, 22.5281587], [114.0501825, 22.5280779], [114.0502076, 22.5280564], [114.0501861, 22.5280349], [114.0502428, 22.5279864], [114.0501941, 22.5279377], [114.0502178, 22.5279175], [114.0501797, 22.5278795]]]]}}, {"type": "Feature", "id": "way/1333332322", "properties": {"tags": {"building": "apartments", "building:levels": "30", "name": "雅云轩", "name:zh": "雅云轩"}, "heightStatus": "levels_only_unverified", "source": "OpenStreetMap", "license": "ODbL-1.0"}, "geometry": {"type": "MultiPolygon", "coordinates": [[[[114.0497961, 22.5278759], [114.0498959, 22.5277906], [114.0499328, 22.5278275], [114.0499776, 22.5277892], [114.0501065, 22.5279179], [114.0500099, 22.5280005], [114.0500658, 22.5280562], [114.0500386, 22.5280795], [114.0500584, 22.5280993], [114.049966, 22.5281782], [114.0499138, 22.5281261], [114.0498798, 22.5281551], [114.0497989, 22.5280743], [114.049824, 22.5280528], [114.0498025, 22.5280313], [114.0498592, 22.5279828], [114.0498105, 22.5279341], [114.0498342, 22.5279139], [114.0497961, 22.5278759]]]]}}, {"type": "Feature", "id": "way/1333332323", "properties": {"tags": {"addr:housename": "合正佳园", "addr:housename:zh": "合正佳园", "building": "apartments", "building:levels": "25", "name": "合正佳园西座", "name:zh": "合正佳园西座"}, "heightStatus": "levels_only_unverified", "source": "OpenStreetMap", "license": "ODbL-1.0"}, "geometry": {"type": "MultiPolygon", "coordinates": [[[[114.0502557, 22.5283952], [114.0503129, 22.5283949], [114.0503126, 22.5283432], [114.0504354, 22.5283425], [114.0504365, 22.5284934], [114.0504831, 22.5284931], [114.0504826, 22.5284196], [114.0505614, 22.5284191], [114.0505611, 22.5283725], [114.0506202, 22.5283722], [114.0506217, 22.5285968], [114.050563, 22.5285971], [114.0505628, 22.5285664], [114.050437, 22.5285671], [114.0504376, 22.5286525], [114.050288, 22.5286534], [114.0502874, 22.5285662], [114.0502569, 22.5285664], [114.0502557, 22.5283952]]]]}}, {"type": "Feature", "id": "way/1333332324", "properties": {"tags": {"building": "apartments", "building:levels": "33", "name": "星座大厦", "name:zh": "星座大厦"}, "heightStatus": "levels_only_unverified", "source": "OpenStreetMap", "license": "ODbL-1.0"}, "geometry": {"type": "MultiPolygon", "coordinates": [[[[114.0496325, 22.5287946], [114.049835, 22.5286148], [114.0496503, 22.5284373], [114.0497451, 22.5283532], [114.0500153, 22.528613], [114.0501122, 22.5286135], [114.0501114, 22.5287682], [114.0500424, 22.5287679], [114.0500426, 22.5287304], [114.049955, 22.5287299], [114.0497523, 22.5289098], [114.0496325, 22.5287946]]]]}}, {"type": "Feature", "id": "way/1333334578", "properties": {"tags": {"building": "yes"}, "heightStatus": "unknown", "source": "OpenStreetMap", "license": "ODbL-1.0"}, "geometry": {"type": "MultiPolygon", "coordinates": [[[[114.0522606, 22.53081], [114.0522657, 22.5306399], [114.0523143, 22.5306411], [114.0523656, 22.5305972], [114.0523684, 22.5305454], [114.052531, 22.530553], [114.052527, 22.5306271], [114.0525669, 22.5306604], [114.0526215, 22.530659], [114.0526262, 22.5308168], [114.0525688, 22.5308183], [114.0525327, 22.5308534], [114.0525323, 22.5308972], [114.0523443, 22.5308959], [114.0523447, 22.5308516], [114.0523086, 22.5308113], [114.0522606, 22.53081]]]]}}, {"type": "Feature", "id": "way/1333334579", "properties": {"tags": {"building": "yes"}, "heightStatus": "unknown", "source": "OpenStreetMap", "license": "ODbL-1.0"}, "geometry": {"type": "MultiPolygon", "coordinates": [[[[114.0522718, 22.530263], [114.0523293, 22.5302616], [114.0523654, 22.5302266], [114.0523658, 22.5301828], [114.0525538, 22.5301843], [114.0525534, 22.5302286], [114.0525894, 22.5302689], [114.0526374, 22.5302702], [114.0526321, 22.5304404], [114.0525835, 22.5304391], [114.0525322, 22.5304829], [114.052531, 22.530553], [114.0523684, 22.5305454], [114.0523708, 22.5304529], [114.0523309, 22.5304195], [114.0522763, 22.5304208], [114.0522718, 22.530263]]]]}}, {"type": "Feature", "id": "way/1333334580", "properties": {"tags": {"building": "yes"}, "heightStatus": "unknown", "source": "OpenStreetMap", "license": "ODbL-1.0"}, "geometry": {"type": "MultiPolygon", "coordinates": [[[[114.0520294, 22.5297868], [114.0521206, 22.5297131], [114.0522896, 22.5297183], [114.0523618, 22.5298008], [114.0523618, 22.5299552], [114.0522934, 22.5300201], [114.052113, 22.5300166], [114.0520408, 22.5299517], [114.0520294, 22.5297868]]]]}}, {"type": "Feature", "id": "way/1333334583", "properties": {"tags": {"addr:housename": "皇庭世纪", "addr:housename:zh": "皇庭世纪", "building": "apartments", "building:levels": "33", "name": "2栋", "name:zh": "2栋"}, "heightStatus": "levels_only_unverified", "source": "OpenStreetMap", "license": "ODbL-1.0"}, "geometry": {"type": "MultiPolygon", "coordinates": [[[[114.0530766, 22.5292905], [114.0530788, 22.5292311], [114.0531146, 22.5291977], [114.0530768, 22.5291631], [114.0532096, 22.5290391], [114.0534273, 22.5292382], [114.0532403, 22.5294127], [114.0532024, 22.5293782], [114.0532038, 22.529341], [114.0531237, 22.5293385], [114.0531254, 22.5292921], [114.0530766, 22.5292905]]]]}}, {"type": "Feature", "id": "way/1333334584", "properties": {"tags": {"addr:housename": "皇庭世纪", "addr:housename:zh": "皇庭世纪", "building": "apartments", "building:levels": "33", "name": "3栋", "name:zh": "3栋"}, "heightStatus": "levels_only_unverified", "source": "OpenStreetMap", "license": "ODbL-1.0"}, "geometry": {"type": "MultiPolygon", "coordinates": [[[[114.0528211, 22.5292824], [114.0528241, 22.5292026], [114.0528824, 22.5292044], [114.052886, 22.5291069], [114.0530249, 22.5291114], [114.0530213, 22.5292088], [114.0530796, 22.5292107], [114.0530788, 22.5292311], [114.0530766, 22.5292905], [114.0530183, 22.5292887], [114.0530157, 22.5293581], [114.0528768, 22.5293537], [114.0528794, 22.5292842], [114.0528211, 22.5292824]]]]}}, {"type": "Feature", "id": "way/1333334585", "properties": {"tags": {"addr:housename": "城中雅苑", "addr:housename:zh": "城中雅苑", "building": "apartments", "building:levels": "33", "name": "B栋", "name:zh": "B栋"}, "heightStatus": "levels_only_unverified", "source": "OpenStreetMap", "license": "ODbL-1.0"}, "geometry": {"type": "MultiPolygon", "coordinates": [[[[114.0455302, 22.5337928], [114.0455312, 22.5337097], [114.0455895, 22.5337103], [114.0455902, 22.5336523], [114.0456097, 22.5336525], [114.0456106, 22.533581], [114.045772, 22.5335827], [114.0457711, 22.5336542], [114.0457906, 22.5336544], [114.0457899, 22.5337125], [114.0458482, 22.5337131], [114.0458472, 22.5337961], [114.0457694, 22.5337953], [114.0457686, 22.5338615], [114.0456071, 22.5338598], [114.045608, 22.5337936], [114.0455302, 22.5337928]]]]}}, {"type": "Feature", "id": "way/1333334586", "properties": {"tags": {"addr:housename": "城中雅苑", "addr:housename:zh": "城中雅苑", "building": "apartments", "building:levels": "33", "name": "A栋", "name:zh": "A栋"}, "heightStatus": "levels_only_unverified", "source": "OpenStreetMap", "license": "ODbL-1.0"}, "geometry": {"type": "MultiPolygon", "coordinates": [[[[114.045155, 22.5337887], [114.045156, 22.5337057], [114.0452143, 22.5337063], [114.0452151, 22.5336482], [114.0452345, 22.5336484], [114.0452354, 22.5335769], [114.0453968, 22.5335786], [114.0453959, 22.5336501], [114.0454154, 22.5336503], [114.0454147, 22.5337084], [114.045473, 22.533709], [114.045472, 22.5337921], [114.0453942, 22.5337913], [114.0453934, 22.5338575], [114.0452319, 22.5338558], [114.0452328, 22.5337896], [114.045155, 22.5337887]]]]}}, {"type": "Feature", "id": "way/1333334587", "properties": {"tags": {"building": "yes"}, "heightStatus": "unknown", "source": "OpenStreetMap", "license": "ODbL-1.0"}, "geometry": {"type": "MultiPolygon", "coordinates": [[[[114.0453903, 22.5360894], [114.0454132, 22.5355833], [114.0456024, 22.5355906], [114.0455794, 22.5360967], [114.0453903, 22.5360894]]]]}}, {"type": "Feature", "id": "way/1420258313", "properties": {"tags": {"building": "apartments"}, "heightStatus": "unknown", "source": "OpenStreetMap", "license": "ODbL-1.0"}, "geometry": {"type": "MultiPolygon", "coordinates": [[[[114.0486083, 22.5308357], [114.0486114, 22.5306645], [114.0490935, 22.5306718], [114.0490916, 22.5307759], [114.0491373, 22.5307766], [114.0491361, 22.5308437], [114.0486083, 22.5308357]]]]}}, {"type": "Feature", "id": "way/1420258314", "properties": {"tags": {"building": "apartments"}, "heightStatus": "unknown", "source": "OpenStreetMap", "license": "ODbL-1.0"}, "geometry": {"type": "MultiPolygon", "coordinates": [[[[114.0491957, 22.530602], [114.0493765, 22.5304486], [114.0494411, 22.5305136], [114.0494687, 22.5304902], [114.0494695, 22.5304555], [114.0493916, 22.530454], [114.0493972, 22.5302084], [114.0494842, 22.5302101], [114.0494849, 22.5301796], [114.0495664, 22.5301812], [114.0495593, 22.5304867], [114.0494965, 22.5304855], [114.0495592, 22.5305486], [114.049322, 22.5307498], [114.0492516, 22.530679], [114.0492922, 22.5306445], [114.0492734, 22.5306256], [114.049244, 22.5306506], [114.0491957, 22.530602]]]]}}, {"type": "Feature", "id": "way/1420258315", "properties": {"tags": {"building": "apartments"}, "heightStatus": "unknown", "source": "OpenStreetMap", "license": "ODbL-1.0"}, "geometry": {"type": "MultiPolygon", "coordinates": [[[[114.0487302, 22.529243], [114.0487352, 22.5291426], [114.0488572, 22.5291418], [114.0488614, 22.529043], [114.0490303, 22.5290499], [114.0490294, 22.529148], [114.0491565, 22.5291511], [114.049159, 22.5292468], [114.0487302, 22.529243]]]]}}, {"type": "Feature", "id": "way/1420258316", "properties": {"tags": {"building": "apartments"}, "heightStatus": "unknown", "source": "OpenStreetMap", "license": "ODbL-1.0"}, "geometry": {"type": "MultiPolygon", "coordinates": [[[[114.049278, 22.5293663], [114.0492885, 22.5290686], [114.049501, 22.529075], [114.0494904, 22.5293728], [114.049278, 22.5293663]]]]}}, {"type": "Feature", "id": "way/1420258317", "properties": {"tags": {"building": "apartments"}, "heightStatus": "unknown", "source": "OpenStreetMap", "license": "ODbL-1.0"}, "geometry": {"type": "MultiPolygon", "coordinates": [[[[114.0492258, 22.5298286], [114.0492326, 22.5295253], [114.0494825, 22.5295301], [114.0494758, 22.5298334], [114.0492258, 22.5298286]]]]}}, {"type": "Feature", "id": "way/1420258318", "properties": {"tags": {"building": "apartments"}, "heightStatus": "unknown", "source": "OpenStreetMap", "license": "ODbL-1.0"}, "geometry": {"type": "MultiPolygon", "coordinates": [[[[114.0487219, 22.5298508], [114.0487269, 22.5297504], [114.0488489, 22.5297496], [114.0488531, 22.5296508], [114.049022, 22.5296578], [114.0490211, 22.5297558], [114.0491482, 22.5297589], [114.0491507, 22.5298546], [114.0487219, 22.5298508]]]]}}, {"type": "Feature", "id": "way/1420258319", "properties": {"tags": {"addr:housename": "南方国际广场", "addr:housename:zh": "南方国际广场", "building": "apartments", "building:levels": "30", "name": "B栋", "name:zh": "B栋"}, "heightStatus": "levels_only_unverified", "source": "OpenStreetMap", "license": "ODbL-1.0"}, "geometry": {"type": "MultiPolygon", "coordinates": [[[[114.0502294, 22.5293114], [114.0502322, 22.5291866], [114.0503948, 22.5291897], [114.0503964, 22.5291155], [114.0505701, 22.5291188], [114.0505685, 22.529193], [114.050673, 22.5291949], [114.0506703, 22.5293198], [114.0505657, 22.5293178], [114.0505641, 22.529389], [114.0503904, 22.5293857], [114.050392, 22.5293145], [114.0502294, 22.5293114]]]]}}, {"type": "Feature", "id": "way/1420258320", "properties": {"tags": {"addr:housename": "南方国际广场", "addr:housename:zh": "南方国际广场", "building": "apartments", "building:levels": "30", "name": "A栋", "name:zh": "A栋"}, "heightStatus": "levels_only_unverified", "source": "OpenStreetMap", "license": "ODbL-1.0"}, "geometry": {"type": "MultiPolygon", "coordinates": [[[[114.0497886, 22.529303], [114.0497914, 22.5291782], [114.0498959, 22.5291802], [114.0498976, 22.529106], [114.0500713, 22.5291093], [114.0500696, 22.5291835], [114.0502322, 22.5291866], [114.0502294, 22.5293114], [114.0500669, 22.5293083], [114.0500653, 22.5293796], [114.0498916, 22.5293763], [114.0498931, 22.529305], [114.0497886, 22.529303]]]]}}, {"type": "Feature", "id": "way/1420258321", "properties": {"tags": {"addr:housename": "南方国际广场", "addr:housename:zh": "南方国际广场", "building": "apartments", "building:levels": "30", "name": "C栋", "name:zh": "C栋"}, "heightStatus": "levels_only_unverified", "source": "OpenStreetMap", "license": "ODbL-1.0"}, "geometry": {"type": "MultiPolygon", "coordinates": [[[[114.0496595, 22.529788], [114.0496622, 22.5296632], [114.04974, 22.5296647], [114.0497417, 22.5295905], [114.0499154, 22.5295938], [114.0499138, 22.529668], [114.0499474, 22.5296686], [114.049948, 22.5296398], [114.0500213, 22.5296412], [114.0500179, 22.5297948], [114.049911, 22.5297928], [114.0499094, 22.529864], [114.0497357, 22.5298607], [114.0497373, 22.5297895], [114.0496595, 22.529788]]]]}}, {"type": "Feature", "id": "way/1429641048", "properties": {"tags": {"addr:housename": "合正佳园", "addr:housename:zh": "合正佳园", "building": "apartments", "building:levels": "25", "name": "合正佳园东座", "name:zh": "合正佳园东座"}, "heightStatus": "levels_only_unverified", "source": "OpenStreetMap", "license": "ODbL-1.0"}, "geometry": {"type": "MultiPolygon", "coordinates": [[[[114.0506202, 22.5283722], [114.0506792, 22.5283718], [114.0506796, 22.5284184], [114.0507584, 22.528418], [114.0507589, 22.5284915], [114.0508055, 22.5284912], [114.0508045, 22.5283403], [114.0509273, 22.5283396], [114.0509277, 22.5283912], [114.050985, 22.5283909], [114.0509861, 22.5285621], [114.0509556, 22.5285622], [114.0509563, 22.5286494], [114.0508066, 22.5286503], [114.050806, 22.5285649], [114.0506802, 22.5285657], [114.0506805, 22.5285964], [114.0506217, 22.5285968], [114.0506202, 22.5283722]]]]}}, {"type": "Feature", "id": "way/1429641049", "properties": {"tags": {"addr:housename": "皇达·东方雅苑", "addr:housename:zh": "皇达·东方雅苑", "building": "apartments", "building:levels": "31"}, "heightStatus": "levels_only_unverified", "source": "OpenStreetMap", "license": "ODbL-1.0"}, "geometry": {"type": "MultiPolygon", "coordinates": [[[[114.0518405, 22.527398], [114.0518423, 22.5273177], [114.051953, 22.5273198], [114.0519551, 22.5272247], [114.052091, 22.5272273], [114.0520888, 22.5273224], [114.0521666, 22.5273239], [114.0521649, 22.5274042], [114.0518405, 22.527398]]]]}}, {"type": "Feature", "id": "way/1429641051", "properties": {"tags": {"building": "commercial", "name": "深港美居建材家居城", "name:zh": "深港美居建材家居城", "shop": "mall"}, "heightStatus": "unknown", "source": "OpenStreetMap", "license": "ODbL-1.0"}, "geometry": {"type": "MultiPolygon", "coordinates": [[[[114.051835, 22.529504], [114.0518671, 22.5285317], [114.0518985, 22.5275793], [114.052246, 22.5275891], [114.0522442, 22.5276416], [114.0523848, 22.5277796], [114.0523834, 22.52782], [114.0524064, 22.5278425], [114.0524049, 22.528331], [114.0522253, 22.5284826], [114.0522242, 22.5285312], [114.0522206, 22.5286827], [114.052408, 22.5288725], [114.0526148, 22.5286983], [114.0526803, 22.5287646], [114.0524736, 22.5289388], [114.0525494, 22.5290156], [114.052542, 22.5293907], [114.0525403, 22.5294768], [114.0523779, 22.529474], [114.052377, 22.5295192], [114.051835, 22.529504]]]]}}, {"type": "Feature", "id": "way/1429641052", "properties": {"tags": {"addr:housename": "皇庭世纪", "addr:housename:zh": "皇庭世纪", "building": "apartments", "building:levels": "33", "layer": "1", "name": "5栋", "name:zh": "5栋"}, "heightStatus": "levels_only_unverified", "source": "OpenStreetMap", "license": "ODbL-1.0"}, "geometry": {"type": "MultiPolygon", "coordinates": [[[[114.0521304, 22.5294402], [114.0521319, 22.529362], [114.0522206, 22.5293635], [114.0522214, 22.5293209], [114.0521916, 22.5293204], [114.0521923, 22.5292868], [114.0523171, 22.5292888], [114.0523164, 22.5293225], [114.0522949, 22.5293222], [114.0522941, 22.5293645], [114.0523155, 22.5293648], [114.052316, 22.5293393], [114.0523805, 22.5293403], [114.0523779, 22.529474], [114.0523134, 22.529473], [114.052314, 22.529443], [114.0522924, 22.5294427], [114.0522916, 22.5294841], [114.0523131, 22.5294845], [114.0523126, 22.5295093], [114.0521878, 22.5295073], [114.0521883, 22.5294823], [114.0522182, 22.5294828], [114.052219, 22.5294417], [114.0521304, 22.5294402]]]]}}, {"type": "Feature", "id": "way/1429641053", "properties": {"tags": {"addr:housename": "皇庭世纪", "addr:housename:zh": "皇庭世纪", "building": "apartments", "building:levels": "33", "name": "4栋", "name:zh": "4栋"}, "heightStatus": "levels_only_unverified", "source": "OpenStreetMap", "license": "ODbL-1.0"}, "geometry": {"type": "MultiPolygon", "coordinates": [[[[114.0525655, 22.5292743], [114.0525678, 22.5292149], [114.0525685, 22.5291944], [114.0526268, 22.5291963], [114.0526305, 22.5290988], [114.0527694, 22.5291032], [114.0527657, 22.5292007], [114.0528241, 22.5292026], [114.0528211, 22.5292824], [114.0527628, 22.5292805], [114.0527602, 22.52935], [114.0526213, 22.5293456], [114.0526239, 22.5292761], [114.0525655, 22.5292743]]]]}}, {"type": "Feature", "id": "way/1430179277", "properties": {"tags": {"building": "apartments", "name": "顺景楼", "name:zh": "顺景楼"}, "heightStatus": "unknown", "source": "OpenStreetMap", "license": "ODbL-1.0"}, "geometry": {"type": "MultiPolygon", "coordinates": [[[[114.0539725, 22.5299447], [114.0539865, 22.5299426], [114.0539835, 22.5299249], [114.0540342, 22.5299174], [114.0540372, 22.5299352], [114.0540755, 22.5299295], [114.0540999, 22.5300711], [114.0540616, 22.5300768], [114.0540677, 22.5301122], [114.054106, 22.5301066], [114.0541303, 22.5302482], [114.054092, 22.5302538], [114.0540981, 22.5302893], [114.0541364, 22.5302837], [114.0541608, 22.5304253], [114.0541225, 22.5304309], [114.0541255, 22.5304487], [114.0540748, 22.5304561], [114.0540718, 22.5304384], [114.0540578, 22.5304404], [114.0540334, 22.5302988], [114.0540474, 22.5302968], [114.0540413, 22.5302613], [114.0540273, 22.5302633], [114.054003, 22.5301217], [114.054017, 22.5301197], [114.0540109, 22.5300842], [114.0539969, 22.5300862], [114.0539725, 22.5299447]]]]}}, {"type": "Feature", "id": "way/1430772715", "properties": {"tags": {"building": "apartments", "building:levels": "33"}, "heightStatus": "levels_only_unverified", "source": "OpenStreetMap", "license": "ODbL-1.0"}, "geometry": {"type": "MultiPolygon", "coordinates": [[[[114.0462417, 22.5305883], [114.0462631, 22.5305669], [114.0462661, 22.5304719], [114.0463949, 22.5304754], [114.0463929, 22.5305362], [114.0465655, 22.5306837], [114.046666, 22.5306865], [114.0466621, 22.5308101], [114.0465443, 22.5308069], [114.0465227, 22.5308285], [114.0462417, 22.5305883]]]]}}, {"type": "Feature", "id": "way/1430772716", "properties": {"tags": {"building": "apartments", "building:levels": "33"}, "heightStatus": "levels_only_unverified", "source": "OpenStreetMap", "license": "ODbL-1.0"}, "geometry": {"type": "MultiPolygon", "coordinates": [[[[114.0463068, 22.5301438], [114.0464345, 22.530074], [114.0464365, 22.5300112], [114.0463226, 22.5300081], [114.0463245, 22.5299472], [114.046419, 22.5299498], [114.0464553, 22.5299374], [114.0464939, 22.5299339], [114.0465322, 22.5299395], [114.0465678, 22.5299539], [114.0466622, 22.5299564], [114.0466602, 22.5300173], [114.0465464, 22.5300142], [114.0465444, 22.530077], [114.0466673, 22.5301536], [114.0466223, 22.5302153], [114.0465606, 22.5301769], [114.0465236, 22.5301832], [114.0464859, 22.5301846], [114.0464484, 22.5301812], [114.0464118, 22.5301728], [114.0463478, 22.5302078], [114.0463068, 22.5301438]]]]}}, {"type": "Feature", "id": "way/1430772719", "properties": {"tags": {"addr:housename": "绿洲丰和家园", "addr:housename:zh": "绿洲丰和家园", "building": "apartments", "building:levels": "30", "name": "绿景阁", "name:zh": "绿景阁"}, "heightStatus": "levels_only_unverified", "source": "OpenStreetMap", "license": "ODbL-1.0"}, "geometry": {"type": "MultiPolygon", "coordinates": [[[[114.0456926, 22.5300653], [114.0457469, 22.5300153], [114.0458201, 22.5300831], [114.0458546, 22.5300514], [114.0458981, 22.5300514], [114.0458983, 22.5299723], [114.0460269, 22.5299725], [114.0460268, 22.5300517], [114.0460462, 22.5300697], [114.0460993, 22.5300208], [114.046191, 22.5301058], [114.0461118, 22.5301786], [114.0461393, 22.5302041], [114.0460623, 22.5302748], [114.0459541, 22.5301745], [114.045848, 22.5302722], [114.0457456, 22.5301773], [114.0457796, 22.5301461], [114.0456926, 22.5300653]]]]}}, {"type": "Feature", "id": "way/1430772720", "properties": {"tags": {"addr:housename": "绿洲丰和家园", "addr:housename:zh": "绿洲丰和家园", "building": "apartments", "building:levels": "30", "name": "绿园阁", "name:zh": "绿园阁"}, "heightStatus": "levels_only_unverified", "source": "OpenStreetMap", "license": "ODbL-1.0"}, "geometry": {"type": "MultiPolygon", "coordinates": [[[[114.0453861, 22.5297812], [114.0454405, 22.5297312], [114.0454903, 22.5297773], [114.0455629, 22.5297105], [114.0457598, 22.5298931], [114.0456872, 22.5299599], [114.0457469, 22.5300153], [114.0456926, 22.5300653], [114.0456191, 22.5299972], [114.0455845, 22.530029], [114.0454151, 22.5298719], [114.0454496, 22.5298401], [114.0453861, 22.5297812]]]]}}, {"type": "Feature", "id": "way/1430772740", "properties": {"tags": {"addr:housename": "阳光四季", "addr:housename:zh": "阳光四季", "building": "apartments", "name": "6栋", "name:zh": "6栋"}, "heightStatus": "unknown", "source": "OpenStreetMap", "license": "ODbL-1.0"}, "geometry": {"type": "MultiPolygon", "coordinates": [[[[114.0454423, 22.529407], [114.0454446, 22.5293353], [114.0454835, 22.5293364], [114.0454858, 22.5292656], [114.0455247, 22.5292667], [114.0455285, 22.5291481], [114.045709, 22.5291531], [114.0457051, 22.5292717], [114.045744, 22.5292728], [114.0457417, 22.5293435], [114.0457806, 22.5293446], [114.0457782, 22.5294163], [114.0454423, 22.529407]]]]}}, {"type": "Feature", "id": "way/1430772741", "properties": {"tags": {"addr:housename": "阳光四季", "addr:housename:zh": "阳光四季", "building": "apartments", "name": "5栋", "name:zh": "5栋"}, "heightStatus": "unknown", "source": "OpenStreetMap", "license": "ODbL-1.0"}, "geometry": {"type": "MultiPolygon", "coordinates": [[[[114.0457782, 22.5294163], [114.0457806, 22.5293446], [114.0458763, 22.5293473], [114.0458796, 22.529245], [114.0460294, 22.5292492], [114.0460261, 22.5293514], [114.0461446, 22.5293547], [114.0461422, 22.5294264], [114.0457782, 22.5294163]]]]}}, {"type": "Feature", "id": "way/1430772742", "properties": {"tags": {"addr:housename": "阳光四季", "addr:housename:zh": "阳光四季", "building": "apartments", "name": "4栋", "name:zh": "4栋"}, "heightStatus": "unknown", "source": "OpenStreetMap", "license": "ODbL-1.0"}, "geometry": {"type": "MultiPolygon", "coordinates": [[[[114.0461422, 22.5294264], [114.0461446, 22.5293547], [114.0462029, 22.5293563], [114.0462062, 22.5292541], [114.0463741, 22.5292587], [114.0463707, 22.529361], [114.0464291, 22.5293626], [114.0464267, 22.5294343], [114.0461422, 22.5294264]]]]}}, {"type": "Feature", "id": "way/1430772743", "properties": {"tags": {"addr:housename": "阳光四季", "addr:housename:zh": "阳光四季", "building": "apartments", "name": "3栋", "name:zh": "3栋"}, "heightStatus": "unknown", "source": "OpenStreetMap", "license": "ODbL-1.0"}, "geometry": {"type": "MultiPolygon", "coordinates": [[[[114.0464267, 22.5294343], [114.0464291, 22.5293626], [114.0464874, 22.5293642], [114.0464907, 22.5292619], [114.0466586, 22.5292666], [114.0466552, 22.5293688], [114.0467136, 22.5293705], [114.0467112, 22.5294422], [114.0464267, 22.5294343]]]]}}, {"type": "Feature", "id": "way/1430772744", "properties": {"tags": {"addr:housename": "阳光四季", "addr:housename:zh": "阳光四季", "building": "apartments", "name": "1栋", "name:zh": "1栋"}, "heightStatus": "unknown", "source": "OpenStreetMap", "license": "ODbL-1.0"}, "geometry": {"type": "MultiPolygon", "coordinates": [[[[114.0461354, 22.5286875], [114.0461377, 22.5286158], [114.046196, 22.5286174], [114.0461994, 22.5285152], [114.0463672, 22.5285198], [114.0463639, 22.5286221], [114.0464805, 22.5286253], [114.0464839, 22.5285231], [114.0466517, 22.5285277], [114.0466484, 22.52863], [114.0467067, 22.5286316], [114.0467044, 22.5287033], [114.0461354, 22.5286875]]]]}}, {"type": "Feature", "id": "way/1430772746", "properties": {"tags": {"building": "yes"}, "heightStatus": "unknown", "source": "OpenStreetMap", "license": "ODbL-1.0"}, "geometry": {"type": "MultiPolygon", "coordinates": [[[[114.0504836, 22.5298025], [114.0505469, 22.5296362], [114.050541, 22.5296266], [114.0505368, 22.5296111], [114.0505369, 22.5295952], [114.0505396, 22.5295637], [114.0505491, 22.5295334], [114.0505649, 22.5295054], [114.0505864, 22.5294809], [114.0506128, 22.5294608], [114.050643, 22.529446], [114.0506758, 22.529437], [114.0507099, 22.5294343], [114.0507271, 22.5294341], [114.0507439, 22.5294379], [114.0507544, 22.5294433], [114.050934, 22.5293837], [114.0509526, 22.5294314], [114.0509626, 22.5294814], [114.0509639, 22.5295322], [114.0509563, 22.5295825], [114.0509401, 22.529631], [114.0509157, 22.5296765], [114.0508837, 22.5297178], [114.050845, 22.5297538], [114.0508005, 22.5297837], [114.0507514, 22.5298065], [114.0506989, 22.5298218], [114.0506445, 22.5298291], [114.0505896, 22.5298283], [114.0505354, 22.5298194], [114.0504836, 22.5298025]]]]}}, {"type": "Feature", "id": "way/1430772747", "properties": {"tags": {"addr:housename": "南方国际广场", "addr:housename:zh": "南方国际广场", "building": "apartments", "building:levels": "30", "name": "D栋", "name:zh": "D栋"}, "heightStatus": "levels_only_unverified", "source": "OpenStreetMap", "license": "ODbL-1.0"}, "geometry": {"type": "MultiPolygon", "coordinates": [[[[114.0500179, 22.5297948], [114.0500213, 22.5296412], [114.050093, 22.5296425], [114.0500923, 22.5296727], [114.0501432, 22.5296737], [114.0501821, 22.5296393], [114.050294, 22.5297471], [114.0502229, 22.5298101], [114.0502215, 22.52987], [114.0500344, 22.5298664], [114.050036, 22.5297952], [114.0500179, 22.5297948]]]]}}, {"type": "Feature", "id": "way/1430772749", "properties": {"tags": {"addr:housename": "星河国际花园", "addr:housename:zh": "星河国际花园", "building": "apartments", "building:levels": "30", "layer": "1", "name": "A3栋", "name:zh": "A3栋"}, "heightStatus": "levels_only_unverified", "source": "OpenStreetMap", "license": "ODbL-1.0"}, "geometry": {"type": "MultiPolygon", "coordinates": [[[[114.0491707, 22.5348733], [114.0492974, 22.5348608], [114.0494231, 22.5348413], [114.0495473, 22.534815], [114.0495778, 22.5349376], [114.0494496, 22.5349648], [114.0493159, 22.5349855], [114.0491811, 22.5349988], [114.0491707, 22.5348733]]]]}}, {"type": "Feature", "id": "way/1430772750", "properties": {"tags": {"addr:housename": "星河国际花园", "addr:housename:zh": "星河国际花园", "building": "apartments", "building:levels": "30", "layer": "1", "name": "A1栋", "name:zh": "A1栋"}, "heightStatus": "levels_only_unverified", "source": "OpenStreetMap", "license": "ODbL-1.0"}, "geometry": {"type": "MultiPolygon", "coordinates": [[[[114.0483801, 22.5349232], [114.0484141, 22.5348014], [114.0485375, 22.5348307], [114.0486626, 22.5348532], [114.0487889, 22.5348687], [114.048775, 22.5349939], [114.0486406, 22.5349773], [114.0485075, 22.5349534], [114.0483801, 22.5349232]]]]}}, {"type": "Feature", "id": "way/1430772751", "properties": {"tags": {"addr:housename": "星河国际花园", "addr:housename:zh": "星河国际花园", "building": "apartments", "building:levels": "30", "layer": "1", "name": "A2栋", "name:zh": "A2栋"}, "heightStatus": "levels_only_unverified", "source": "OpenStreetMap", "license": "ODbL-1.0"}, "geometry": {"type": "MultiPolygon", "coordinates": [[[[114.048775, 22.5349939], [114.0487889, 22.5348687], [114.048916, 22.5348773], [114.0490434, 22.5348788], [114.0491707, 22.5348733], [114.0491811, 22.5349988], [114.0490457, 22.5350046], [114.0489102, 22.535003], [114.048775, 22.5349939]]]]}}, {"type": "Feature", "id": "way/1430772752", "properties": {"tags": {"addr:housename": "星河国际花园", "addr:housename:zh": "星河国际花园", "building": "apartments", "building:levels": "30", "layer": "1", "name": "B2栋", "name:zh": "B2栋"}, "heightStatus": "levels_only_unverified", "source": "OpenStreetMap", "license": "ODbL-1.0"}, "geometry": {"type": "MultiPolygon", "coordinates": [[[[114.0481385, 22.5348531], [114.0482324, 22.5347674], [114.0481631, 22.5347026], [114.0482552, 22.5346186], [114.0482256, 22.534591], [114.0482895, 22.5345328], [114.048481, 22.5347119], [114.0484172, 22.5347701], [114.0483865, 22.5347414], [114.0482504, 22.5348655], [114.048231, 22.5348474], [114.0481811, 22.5348929], [114.0481385, 22.5348531]]]]}}, {"type": "Feature", "id": "way/1430772753", "properties": {"tags": {"addr:housename": "星河国际花园", "addr:housename:zh": "星河国际花园", "building": "apartments", "building:levels": "30", "layer": "1", "name": "B1栋", "name:zh": "B1栋"}, "heightStatus": "levels_only_unverified", "source": "OpenStreetMap", "license": "ODbL-1.0"}, "geometry": {"type": "MultiPolygon", "coordinates": [[[[114.0495116, 22.534733], [114.049709, 22.5345594], [114.0497708, 22.5346194], [114.0497404, 22.5346462], [114.0498296, 22.5347327], [114.0497582, 22.5347955], [114.0498492, 22.5348839], [114.0498053, 22.5349225], [114.0497569, 22.5348756], [114.0497369, 22.5348931], [114.0496051, 22.5347652], [114.0495734, 22.534793], [114.0495116, 22.534733]]]]}}, {"type": "Feature", "id": "way/1430772754", "properties": {"tags": {"addr:housename": "星河国际花园", "addr:housename:zh": "星河国际花园", "building": "apartments", "building:levels": "30", "layer": "1", "name": "D2栋", "name:zh": "D2栋"}, "heightStatus": "levels_only_unverified", "source": "OpenStreetMap", "license": "ODbL-1.0"}, "geometry": {"type": "MultiPolygon", "coordinates": [[[[114.0481776, 22.5338071], [114.0482267, 22.5337632], [114.0482164, 22.5337534], [114.048289, 22.5336884], [114.0482568, 22.5336879], [114.0482572, 22.5336627], [114.0482395, 22.5336624], [114.0482405, 22.5336052], [114.0484067, 22.5336075], [114.048406, 22.5336476], [114.0484628, 22.5336485], [114.0484635, 22.5336083], [114.0486296, 22.5336107], [114.0486287, 22.533668], [114.048611, 22.5336677], [114.0486105, 22.5336929], [114.0485784, 22.5336925], [114.0486488, 22.5337595], [114.0486382, 22.533769], [114.0486857, 22.5338143], [114.0486242, 22.5338694], [114.0484979, 22.533749], [114.0483676, 22.5337472], [114.0482373, 22.5338639], [114.0481776, 22.5338071]]]]}}, {"type": "Feature", "id": "way/1430772755", "properties": {"tags": {"addr:housename": "星河国际花园", "addr:housename:zh": "星河国际花园", "building": "apartments", "building:levels": "30", "layer": "1", "name": "D1栋", "name:zh": "D1栋"}, "heightStatus": "levels_only_unverified", "source": "OpenStreetMap", "license": "ODbL-1.0"}, "geometry": {"type": "MultiPolygon", "coordinates": [[[[114.0493389, 22.5338285], [114.049388, 22.5337846], [114.0493777, 22.5337748], [114.0494503, 22.5337098], [114.0494181, 22.5337093], [114.0494185, 22.5336841], [114.0494008, 22.5336838], [114.0494017, 22.5336266], [114.0495679, 22.5336289], [114.0495673, 22.533669], [114.0496241, 22.5336699], [114.0496247, 22.5336297], [114.0497909, 22.5336321], [114.04979, 22.5336894], [114.0497722, 22.5336891], [114.0497718, 22.5337143], [114.0497397, 22.5337139], [114.0498101, 22.5337809], [114.0497994, 22.5337904], [114.049847, 22.5338357], [114.0497855, 22.5338908], [114.0496592, 22.5337704], [114.0495289, 22.5337686], [114.0493986, 22.5338853], [114.0493389, 22.5338285]]]]}}, {"type": "Feature", "id": "way/1430772756", "properties": {"tags": {"addr:housename": "星河国际花园", "addr:housename:zh": "星河国际花园", "building": "apartments", "building:levels": "30", "layer": "1", "name": "C2栋", "name:zh": "C2栋"}, "heightStatus": "levels_only_unverified", "source": "OpenStreetMap", "license": "ODbL-1.0"}, "geometry": {"type": "MultiPolygon", "coordinates": [[[[114.0481127, 22.5343051], [114.0481617, 22.5342612], [114.0481514, 22.5342514], [114.048224, 22.5341864], [114.0481825, 22.5341469], [114.0482769, 22.5340624], [114.0483277, 22.5341108], [114.0483802, 22.5340638], [114.0484717, 22.534151], [114.0484289, 22.5341893], [114.0484993, 22.5342563], [114.0484886, 22.5342658], [114.0485362, 22.5343111], [114.0484747, 22.5343662], [114.0483258, 22.5342244], [114.0481723, 22.5343619], [114.0481127, 22.5343051]]]]}}, {"type": "Feature", "id": "way/1430772757", "properties": {"tags": {"addr:housename": "星河国际花园", "addr:housename:zh": "星河国际花园", "building": "apartments", "building:levels": "30", "layer": "1", "name": "C1栋", "name:zh": "C1栋"}, "heightStatus": "levels_only_unverified", "source": "OpenStreetMap", "license": "ODbL-1.0"}, "geometry": {"type": "MultiPolygon", "coordinates": [[[[114.0494636, 22.5343195], [114.0495126, 22.5342756], [114.0495023, 22.5342657], [114.0495749, 22.5342007], [114.0495334, 22.5341612], [114.0496277, 22.5340767], [114.0496786, 22.5341252], [114.0497311, 22.5340782], [114.0498225, 22.5341653], [114.0497797, 22.5342036], [114.0498501, 22.5342707], [114.0498395, 22.5342802], [114.0498871, 22.5343255], [114.0498256, 22.5343806], [114.0496767, 22.5342388], [114.0495232, 22.5343763], [114.0494636, 22.5343195]]]]}}, {"type": "Feature", "id": "way/1430772762", "properties": {"tags": {"addr:housename": "发展兴苑", "addr:housename:zh": "发展兴苑", "building": "house", "name": "11栋", "name:zh": "11栋"}, "heightStatus": "unknown", "source": "OpenStreetMap", "license": "ODbL-1.0"}, "geometry": {"type": "MultiPolygon", "coordinates": [[[[114.0463813, 22.5320581], [114.0464779, 22.5320043], [114.046549, 22.5321133], [114.0464524, 22.5321671], [114.0463813, 22.5320581]]]]}}, {"type": "Feature", "id": "way/1430772763", "properties": {"tags": {"addr:housename": "发展兴苑", "addr:housename:zh": "发展兴苑", "building": "house", "name": "9栋", "name:zh": "9栋"}, "heightStatus": "unknown", "source": "OpenStreetMap", "license": "ODbL-1.0"}, "geometry": {"type": "MultiPolygon", "coordinates": [[[[114.0461114, 22.5322713], [114.046208, 22.5322176], [114.0462791, 22.5323266], [114.0461825, 22.5323803], [114.0461114, 22.5322713]]]]}}, {"type": "Feature", "id": "way/1430772764", "properties": {"tags": {"addr:housename": "发展兴苑", "addr:housename:zh": "发展兴苑", "building": "house", "name": "10栋", "name:zh": "10栋"}, "heightStatus": "unknown", "source": "OpenStreetMap", "license": "ODbL-1.0"}, "geometry": {"type": "MultiPolygon", "coordinates": [[[[114.0462489, 22.5321669], [114.0463455, 22.5321131], [114.0464166, 22.5322221], [114.0463199, 22.5322759], [114.0462489, 22.5321669]]]]}}, {"type": "Feature", "id": "way/1430772765", "properties": {"tags": {"addr:housename": "发展兴苑", "addr:housename:zh": "发展兴苑", "building": "house", "name": "8栋", "name:zh": "8栋"}, "heightStatus": "unknown", "source": "OpenStreetMap", "license": "ODbL-1.0"}, "geometry": {"type": "MultiPolygon", "coordinates": [[[[114.0459709, 22.5323801], [114.0460675, 22.5323264], [114.0461386, 22.5324354], [114.046042, 22.5324891], [114.0459709, 22.5323801]]]]}}, {"type": "Feature", "id": "way/1430772766", "properties": {"tags": {"addr:housename": "发展兴苑", "addr:housename:zh": "发展兴苑", "building": "house", "name": "7栋", "name:zh": "7栋"}, "heightStatus": "unknown", "source": "OpenStreetMap", "license": "ODbL-1.0"}, "geometry": {"type": "MultiPolygon", "coordinates": [[[[114.0458335, 22.5324846], [114.0459301, 22.5324308], [114.0460012, 22.5325398], [114.0459046, 22.5325936], [114.0458335, 22.5324846]]]]}}, {"type": "Feature", "id": "way/1430772767", "properties": {"tags": {"addr:housename": "发展兴苑", "addr:housename:zh": "发展兴苑", "building": "apartments", "name": "6栋", "name:zh": "6栋"}, "heightStatus": "unknown", "source": "OpenStreetMap", "license": "ODbL-1.0"}, "geometry": {"type": "MultiPolygon", "coordinates": [[[[114.0451375, 22.532769], [114.0451397, 22.5325886], [114.0451951, 22.5325892], [114.0451956, 22.5325479], [114.0453402, 22.5325494], [114.0453405, 22.5325297], [114.04576, 22.5325341], [114.0457585, 22.5326494], [114.0452576, 22.5326442], [114.045256, 22.5327702], [114.0451375, 22.532769]]]]}}, {"type": "Feature", "id": "way/1430772768", "properties": {"tags": {"addr:housename": "发展兴苑", "addr:housename:zh": "发展兴苑", "building": "apartments", "name": "5栋", "name:zh": "5栋"}, "heightStatus": "unknown", "source": "OpenStreetMap", "license": "ODbL-1.0"}, "geometry": {"type": "MultiPolygon", "coordinates": [[[[114.0466567, 22.5323918], [114.0466576, 22.5323171], [114.047225, 22.5323231], [114.0472241, 22.5323978], [114.0472047, 22.5323976], [114.0472043, 22.5324264], [114.0471459, 22.5324258], [114.0471456, 22.5324522], [114.0470175, 22.5324508], [114.0470178, 22.5324245], [114.0469595, 22.5324238], [114.0469598, 22.532395], [114.0469209, 22.5323946], [114.0469206, 22.5324234], [114.0468622, 22.5324228], [114.0468619, 22.5324492], [114.0467338, 22.5324479], [114.0467341, 22.5324215], [114.0466757, 22.5324209], [114.0466761, 22.532392], [114.0466567, 22.5323918]]]]}}, {"type": "Feature", "id": "way/1430772769", "properties": {"tags": {"addr:housename": "发展兴苑", "addr:housename:zh": "发展兴苑", "building": "apartments", "name": "4栋", "name:zh": "4栋"}, "heightStatus": "unknown", "source": "OpenStreetMap", "license": "ODbL-1.0"}, "geometry": {"type": "MultiPolygon", "coordinates": [[[[114.0474028, 22.5326123], [114.0474041, 22.5324002], [114.0476338, 22.5324014], [114.0476325, 22.5326135], [114.0474028, 22.5326123]]]]}}, {"type": "Feature", "id": "way/1430772770", "properties": {"tags": {"addr:housename": "发展兴苑", "addr:housename:zh": "发展兴苑", "building": "apartments", "name": "天元阁", "name:zh": "天元阁"}, "heightStatus": "unknown", "source": "OpenStreetMap", "license": "ODbL-1.0"}, "geometry": {"type": "MultiPolygon", "coordinates": [[[[114.0474521, 22.5330806], [114.0476547, 22.5329613], [114.0477274, 22.5330666], [114.0475248, 22.5331859], [114.0474521, 22.5330806]]]]}}, {"type": "Feature", "id": "way/1430772771", "properties": {"tags": {"addr:housename": "发展兴苑", "addr:housename:zh": "发展兴苑", "building": "apartments", "building:levels": "22", "name": "2栋", "name:zh": "2栋"}, "heightStatus": "levels_only_unverified", "source": "OpenStreetMap", "license": "ODbL-1.0"}, "geometry": {"type": "MultiPolygon", "coordinates": [[[[114.0461012, 22.5331775], [114.0461026, 22.5330647], [114.0462145, 22.5330659], [114.0462163, 22.5329199], [114.0463949, 22.5329218], [114.0463931, 22.5330678], [114.0465774, 22.5330697], [114.0465792, 22.5329237], [114.0467467, 22.5329255], [114.0467449, 22.5330715], [114.0469328, 22.5330735], [114.0469346, 22.5329275], [114.0471132, 22.5329293], [114.0471114, 22.5330753], [114.0473945, 22.5330783], [114.0473932, 22.5331911], [114.0461012, 22.5331775]]]]}}, {"type": "Feature", "id": "way/1430772772", "properties": {"tags": {"addr:housename": "发展兴苑", "addr:housename:zh": "发展兴苑", "building": "apartments", "building:levels": "22", "name": "1栋", "name:zh": "1栋"}, "heightStatus": "levels_only_unverified", "source": "OpenStreetMap", "license": "ODbL-1.0"}, "geometry": {"type": "MultiPolygon", "coordinates": [[[[114.0451418, 22.5331674], [114.0451432, 22.5330546], [114.0452551, 22.5330557], [114.0452569, 22.5329097], [114.0454355, 22.5329116], [114.0454337, 22.5330576], [114.045571, 22.5330591], [114.0455728, 22.5329131], [114.0457513, 22.532915], [114.0457495, 22.5330609], [114.0458615, 22.5330621], [114.0458601, 22.5331749], [114.0451418, 22.5331674]]]]}}, {"type": "Feature", "id": "way/1430772777", "properties": {"tags": {"building": "apartments", "building:levels": "12", "name": "华景轩1座", "name:zh": "华景轩1座"}, "heightStatus": "levels_only_unverified", "source": "OpenStreetMap", "license": "ODbL-1.0"}, "geometry": {"type": "MultiPolygon", "coordinates": [[[[114.0464559, 22.5356452], [114.0465179, 22.5356131], [114.0465074, 22.5355958], [114.0466363, 22.5355289], [114.0468806, 22.5355317], [114.0468798, 22.5355919], [114.0467615, 22.5355905], [114.0467608, 22.5356477], [114.0467444, 22.5356732], [114.0466966, 22.535647], [114.0466974, 22.5355898], [114.0466602, 22.5355893], [114.04666, 22.5356023], [114.0466426, 22.5356021], [114.0466423, 22.5356273], [114.0465991, 22.5356497], [114.0466032, 22.5356564], [114.0464963, 22.5357118], [114.0464559, 22.5356452]]]]}}, {"type": "Feature", "id": "way/1430772780", "properties": {"tags": {"building": "apartments", "building:levels": "28", "name": "华景峰1座", "name:zh": "华景峰1座"}, "heightStatus": "levels_only_unverified", "source": "OpenStreetMap", "license": "ODbL-1.0"}, "geometry": {"type": "MultiPolygon", "coordinates": [[[[114.04613, 22.5360633], [114.0461309, 22.5359697], [114.046186, 22.5359704], [114.0461989, 22.5359493], [114.0462169, 22.5359318], [114.0462389, 22.5359187], [114.0462396, 22.5358487], [114.0463766, 22.5358499], [114.0463759, 22.5359199], [114.0463976, 22.5359334], [114.0464152, 22.5359513], [114.0464277, 22.5359725], [114.0464828, 22.5359728], [114.0464818, 22.5360664], [114.04613, 22.5360633]]]]}}]}