{"type": "FeatureCollection", "features": [{"type": "Feature", "id": "way/334641745", "properties": {"tags": {"building": "warehouse"}, "heightStatus": "unknown", "source": "OpenStreetMap", "license": "ODbL-1.0"}, "geometry": {"type": "MultiPolygon", "coordinates": [[[[114.0457988, 22.5081694], [114.0470489, 22.5081555], [114.0470564, 22.5087378], [114.0458064, 22.5087517], [114.0457988, 22.5081694]]]]}}, {"type": "Feature", "id": "way/334642222", "properties": {"tags": {"building": "yes", "name": "万利科技园"}, "heightStatus": "unknown", "source": "OpenStreetMap", "license": "ODbL-1.0"}, "geometry": {"type": "MultiPolygon", "coordinates": [[[[114.0443217, 22.5069591], [114.0446811, 22.5069366], [114.044756, 22.5079599], [114.0443966, 22.5079824], [114.0443217, 22.5069591]]]]}}, {"type": "Feature", "id": "way/334642251", "properties": {"tags": {"addr:city": "深圳", "addr:country": "CN", "addr:district": "福田", "addr:housenumber": "3", "addr:postcode": "518000", "addr:province": "广东", "addr:street": "红柳道", "building": "yes", "name": "万国数据深圳3号数据中心", "operator": "万国数据", "telecom": "data_center"}, "heightStatus": "unknown", "source": "OpenStreetMap", "license": "ODbL-1.0"}, "geometry": {"type": "MultiPolygon", "coordinates": [[[[114.0448385, 22.5071307], [114.0452918, 22.5071017], [114.0453114, 22.507364], [114.0448581, 22.5073929], [114.0448385, 22.5071307]]]]}}, {"type": "Feature", "id": "way/662689583", "properties": {"tags": {"building": "commercial", "name": "万利工业大厦2期"}, "heightStatus": "unknown", "source": "OpenStreetMap", "license": "ODbL-1.0"}, "geometry": {"type": "MultiPolygon", "coordinates": [[[[114.0442974, 22.5084181], [114.0443622, 22.5084143], [114.0444012, 22.508423], [114.0444352, 22.5084409], [114.0444692, 22.5084697], [114.0444892, 22.5085006], [114.0444998, 22.5085366], [114.0447226, 22.5085203], [114.0447232, 22.508479], [114.0447325, 22.5084457], [114.0447537, 22.5084185], [114.0447885, 22.5083915], [114.0448274, 22.5083792], [114.0449422, 22.5083701], [114.0449886, 22.5083788], [114.0450283, 22.5084033], [114.0450548, 22.5084301], [114.0450711, 22.5084605], [114.0450821, 22.508494], [114.0453011, 22.5084779], [114.0453039, 22.5084404], [114.0453144, 22.5084007], [114.0453355, 22.5083749], [114.0453733, 22.5083485], [114.0454138, 22.5083335], [114.0454689, 22.5083296], [114.0455006, 22.508685], [114.0443307, 22.5087791], [114.0442974, 22.5084181]]]]}}, {"type": "Feature", "id": "way/662689586", "properties": {"tags": {"building": "commercial", "name": "万利工业大厦"}, "heightStatus": "unknown", "source": "OpenStreetMap", "license": "ODbL-1.0"}, "geometry": {"type": "MultiPolygon", "coordinates": [[[[114.044341, 22.5088894], [114.0455112, 22.508799], [114.0455452, 22.5091542], [114.0454902, 22.509159], [114.0454475, 22.5091505], [114.0454054, 22.5091305], [114.0453799, 22.5091083], [114.0453622, 22.5090708], [114.0453525, 22.5090343], [114.0451338, 22.5090528], [114.0451291, 22.5090875], [114.0451187, 22.50912], [114.0450974, 22.5091505], [114.0450628, 22.5091809], [114.0450187, 22.5091968], [114.0449038, 22.5092057], [114.0448632, 22.5091997], [114.044824, 22.5091786], [114.0447981, 22.5091551], [114.0447829, 22.5091237], [114.0447747, 22.5090831], [114.0445521, 22.5091019], [114.0445483, 22.509139], [114.0445342, 22.5091726], [114.044506, 22.5092064], [114.0444758, 22.5092293], [114.0444389, 22.5092439], [114.0443743, 22.5092504], [114.044341, 22.5088894]]]]}}, {"type": "Feature", "id": "way/662689590", "properties": {"tags": {"building": "industrial", "name": "泰福物流园"}, "heightStatus": "unknown", "source": "OpenStreetMap", "license": "ODbL-1.0"}, "geometry": {"type": "MultiPolygon", "coordinates": [[[[114.0475389, 22.5087134], [114.0475613, 22.5082115], [114.0486703, 22.5082535], [114.0486479, 22.5087557], [114.0475389, 22.5087134]]]]}}, {"type": "Feature", "id": "way/697943874", "properties": {"tags": {"building": "yes", "name": "昱科环球存储科技", "office": "company"}, "heightStatus": "unknown", "source": "OpenStreetMap", "license": "ODbL-1.0"}, "geometry": {"type": "MultiPolygon", "coordinates": [[[[114.0490117, 22.5092985], [114.0491281, 22.5083012], [114.0502853, 22.5084166], [114.0502231, 22.508948], [114.049994, 22.5089251], [114.0499396, 22.509391], [114.0490117, 22.5092985]]]]}}, {"type": "Feature", "id": "way/697946105", "properties": {"tags": {"building": "yes", "name": "远鹏办公大楼", "office": "company"}, "heightStatus": "unknown", "source": "OpenStreetMap", "license": "ODbL-1.0"}, "geometry": {"type": "MultiPolygon", "coordinates": [[[[114.044731, 22.5059384], [114.0453487, 22.5058848], [114.0453943, 22.5063339], [114.0447767, 22.5063875], [114.044731, 22.5059384]]]]}}, {"type": "Feature", "id": "way/697946106", "properties": {"tags": {"building": "yes", "name": "福田区国际生物医药产业园", "office": "research"}, "heightStatus": "unknown", "source": "OpenStreetMap", "license": "ODbL-1.0"}, "geometry": {"type": "MultiPolygon", "coordinates": [[[[114.0460118, 22.5070634], [114.0460395, 22.5070309], [114.0469706, 22.5070202], [114.047003, 22.5070525], [114.0470116, 22.5076997], [114.0469816, 22.5077291], [114.0460514, 22.5077398], [114.0460207, 22.5077133], [114.0460118, 22.5070634]]]]}}, {"type": "Feature", "id": "way/697946107", "properties": {"tags": {"building": "yes", "name": "福田区国际生物医药产业园2期", "office": "it"}, "heightStatus": "unknown", "source": "OpenStreetMap", "license": "ODbL-1.0"}, "geometry": {"type": "MultiPolygon", "coordinates": [[[[114.0457227, 22.5056278], [114.0471681, 22.5056059], [114.0471798, 22.5062625], [114.0457345, 22.5062846], [114.0457227, 22.5056278]]]]}}, {"type": "Feature", "id": "way/746554928", "properties": {"tags": {"building": "yes", "name": "深圳量子科学与工程研究院", "office": "research"}, "heightStatus": "unknown", "source": "OpenStreetMap", "license": "ODbL-1.0"}, "geometry": {"type": "MultiPolygon", "coordinates": [[[[114.0491326, 22.5079384], [114.0492246, 22.5069719], [114.0497838, 22.5070174], [114.0496917, 22.5079838], [114.0491326, 22.5079384]]]]}}, {"type": "Feature", "id": "way/746554929", "properties": {"tags": {"building": "industrial"}, "heightStatus": "unknown", "source": "OpenStreetMap", "license": "ODbL-1.0"}, "geometry": {"type": "MultiPolygon", "coordinates": [[[[114.0494036, 22.5042828], [114.0494186, 22.504165], [114.0501459, 22.5042442], [114.0499968, 22.5054124], [114.0495551, 22.5053642], [114.0496892, 22.5043139], [114.0494036, 22.5042828]]]]}}, {"type": "Feature", "id": "way/746554930", "properties": {"tags": {"building": "industrial", "old_name": "江贸工贸仓储楼"}, "heightStatus": "unknown", "source": "OpenStreetMap", "license": "ODbL-1.0"}, "geometry": {"type": "MultiPolygon", "coordinates": [[[[114.0468066, 22.5049937], [114.046994, 22.5049922], [114.0469934, 22.5049273], [114.04716, 22.5049259], [114.0471595, 22.504865], [114.0472453, 22.5048644], [114.047245, 22.5048326], [114.0473195, 22.504832], [114.0473192, 22.504799], [114.0475207, 22.5047974], [114.047524, 22.5051442], [114.0468081, 22.50515], [114.0468066, 22.5049937]]]]}}, {"type": "Feature", "id": "way/746554931", "properties": {"tags": {"building": "warehouse", "name": "深圳嘉里福田物流中心"}, "heightStatus": "unknown", "source": "OpenStreetMap", "license": "ODbL-1.0"}, "geometry": {"type": "MultiPolygon", "coordinates": [[[[114.0476408, 22.5050768], [114.0476458, 22.5047235], [114.048031, 22.5047281], [114.0480342, 22.5045016], [114.0484364, 22.5045065], [114.0484281, 22.5050864], [114.0476408, 22.5050768]]]]}}, {"type": "Feature", "id": "way/746554932", "properties": {"tags": {"building": "commercial", "name": "吉虹研发大楼"}, "heightStatus": "unknown", "source": "OpenStreetMap", "license": "ODbL-1.0"}, "geometry": {"type": "MultiPolygon", "coordinates": [[[[114.0485565, 22.5052073], [114.0486089, 22.5045995], [114.0489526, 22.5046248], [114.0489368, 22.5048084], [114.0489864, 22.504812], [114.0489497, 22.5052362], [114.0485565, 22.5052073]]]]}}, {"type": "Feature", "id": "way/746554933", "properties": {"tags": {"building": "commercial", "name": "腾邦集团大厦", "office": "company"}, "heightStatus": "unknown", "source": "OpenStreetMap", "license": "ODbL-1.0"}, "geometry": {"type": "MultiPolygon", "coordinates": [[[[114.0521566, 22.5055954], [114.0523812, 22.5045474], [114.0527895, 22.504622], [114.0525652, 22.50567], [114.0521566, 22.5055954]]]]}}, {"type": "Feature", "id": "way/746554934", "properties": {"tags": {"building": "yes", "office": "company"}, "heightStatus": "unknown", "source": "OpenStreetMap", "license": "ODbL-1.0"}, "geometry": {"type": "MultiPolygon", "coordinates": [[[[114.0533819, 22.5047005], [114.0534894, 22.5042868], [114.0541789, 22.5045883], [114.0541079, 22.5048615], [114.0533819, 22.5047005]]]]}}, {"type": "Feature", "id": "way/746554942", "properties": {"tags": {"building": "yes", "check_date": "2026-08-16", "name": "华为数字能源创新中心", "office": "company"}, "heightStatus": "unknown", "source": "OpenStreetMap", "license": "ODbL-1.0"}, "geometry": {"type": "MultiPolygon", "coordinates": [[[[114.0510007, 22.5074207], [114.0510013, 22.5073924], [114.0511667, 22.5066067], [114.0511781, 22.5065778], [114.0511971, 22.5065591], [114.0512249, 22.5065532], [114.0512572, 22.5065551], [114.0518457, 22.5066609], [114.0518786, 22.5066741], [114.0518936, 22.5066909], [114.0519027, 22.5067099], [114.0519002, 22.5067433], [114.051851, 22.506977], [114.0518941, 22.5069892], [114.0519321, 22.5070115], [114.0519625, 22.5070422], [114.051983, 22.5070792], [114.0519923, 22.5071198], [114.0519896, 22.5071614], [114.0519752, 22.5072007], [114.0519501, 22.5072352], [114.051916, 22.5072624], [114.0518754, 22.5072804], [114.0518312, 22.5072878], [114.0517863, 22.5072842], [114.0517352, 22.5075268], [114.0517214, 22.507554], [114.0517056, 22.5075686], [114.0516807, 22.5075784], [114.0516483, 22.5075786], [114.051061, 22.507473], [114.0510365, 22.5074655], [114.0510101, 22.5074462], [114.0510007, 22.5074207]]]]}}, {"type": "Feature", "id": "way/775849841", "properties": {"tags": {"building": "industrial", "name": "城联物流大厦"}, "heightStatus": "unknown", "source": "OpenStreetMap", "license": "ODbL-1.0"}, "geometry": {"type": "MultiPolygon", "coordinates": [[[[114.0512638, 22.505312], [114.051453, 22.5043274], [114.0519065, 22.5044017], [114.0517175, 22.5053864], [114.0512638, 22.505312]]]]}}, {"type": "Feature", "id": "way/775849843", "properties": {"tags": {"building": "warehouse"}, "heightStatus": "unknown", "source": "OpenStreetMap", "license": "ODbL-1.0"}, "geometry": {"type": "MultiPolygon", "coordinates": [[[[114.051594, 22.5042099], [114.0516781, 22.5037745], [114.0526993, 22.5039428], [114.0526153, 22.504378], [114.051594, 22.5042099]]]]}}, {"type": "Feature", "id": "way/775849847", "properties": {"tags": {"building": "commercial"}, "heightStatus": "unknown", "source": "OpenStreetMap", "license": "ODbL-1.0"}, "geometry": {"type": "MultiPolygon", "coordinates": [[[[114.0492853, 22.5059239], [114.0493165, 22.5056772], [114.0507602, 22.5058329], [114.0506792, 22.5064743], [114.0503203, 22.5064356], [114.0503702, 22.506041], [114.0492853, 22.5059239]]]]}}, {"type": "Feature", "id": "way/775849848", "properties": {"tags": {"amenity": "fire_station", "building": "yes", "name": "消防站"}, "heightStatus": "unknown", "source": "OpenStreetMap", "license": "ODbL-1.0"}, "geometry": {"type": "MultiPolygon", "coordinates": [[[[114.0526633, 22.5043803], [114.0526904, 22.504234], [114.0528546, 22.50426], [114.0528275, 22.5044063], [114.0526633, 22.5043803]]]]}}, {"type": "Feature", "id": "way/775849849", "properties": {"tags": {"building": "yes", "name": "盐田港深能物流", "office": "yes"}, "heightStatus": "unknown", "source": "OpenStreetMap", "license": "ODbL-1.0"}, "geometry": {"type": "MultiPolygon", "coordinates": [[[[114.0529877, 22.50578], [114.0531087, 22.5053205], [114.0535298, 22.5054152], [114.0534089, 22.5058747], [114.0529877, 22.50578]]]]}}, {"type": "Feature", "id": "way/816881873", "properties": {"tags": {"building": "industrial", "name": "兴达物流大厦"}, "heightStatus": "unknown", "source": "OpenStreetMap", "license": "ODbL-1.0"}, "geometry": {"type": "MultiPolygon", "coordinates": [[[[114.0501668, 22.5054297], [114.0503225, 22.5042383], [114.0506118, 22.5042706], [114.0504764, 22.5053045], [114.0507851, 22.505339], [114.0507645, 22.5054964], [114.0501668, 22.5054297]]]]}}, {"type": "Feature", "id": "way/830419318", "properties": {"tags": {"building": "warehouse", "leisure": "sports_hall", "name": "壹号体育大仓馆"}, "heightStatus": "unknown", "source": "OpenStreetMap", "license": "ODbL-1.0"}, "geometry": {"type": "MultiPolygon", "coordinates": [[[[114.0501577, 22.5041027], [114.0502056, 22.5036658], [114.0509282, 22.5037333], [114.0508803, 22.5041703], [114.0501577, 22.5041027]]]]}}, {"type": "Feature", "id": "way/830419319", "properties": {"tags": {"building": "commercial", "name": "国际互联网金融产业园商务中心"}, "heightStatus": "unknown", "source": "OpenStreetMap", "license": "ODbL-1.0"}, "geometry": {"type": "MultiPolygon", "coordinates": [[[[114.0510171, 22.5061204], [114.0510504, 22.5059427], [114.0510866, 22.5059485], [114.0511009, 22.5058725], [114.0518138, 22.5059867], [114.0517996, 22.5060623], [114.0518435, 22.5060693], [114.0518102, 22.5062473], [114.0510171, 22.5061204]]]]}}, {"type": "Feature", "id": "way/875261267", "properties": {"tags": {"addr:city": "深圳", "addr:district": "福田", "addr:housenumber": "5号", "addr:province": "广东", "addr:street": "市花路", "alt_name": "长富金茂大厦2号楼", "building": "apartments", "building:flats": "630", "building:levels": "17", "name": "深圳河套学院公寓", "start_date": "2015"}, "heightStatus": "levels_only_unverified", "source": "OpenStreetMap", "license": "ODbL-1.0"}, "geometry": {"type": "MultiPolygon", "coordinates": [[[[114.0508121, 22.5087268], [114.0508494, 22.5085214], [114.0518936, 22.5086836], [114.0518563, 22.5088887], [114.0508121, 22.5087268]]]]}}, {"type": "Feature", "id": "way/996009013", "properties": {"tags": {"building": "commercial"}, "heightStatus": "unknown", "source": "OpenStreetMap", "license": "ODbL-1.0"}, "geometry": {"type": "MultiPolygon", "coordinates": [[[[114.0533746, 22.5052417], [114.0534835, 22.5048164], [114.0539694, 22.5049226], [114.0538605, 22.5053479], [114.0533746, 22.5052417]]]]}}, {"type": "Feature", "id": "way/996009016", "properties": {"tags": {"building": "yes"}, "heightStatus": "unknown", "source": "OpenStreetMap", "license": "ODbL-1.0"}, "geometry": {"type": "MultiPolygon", "coordinates": [[[[114.0500138, 22.5068202], [114.0500474, 22.5065443], [114.0506363, 22.5066055], [114.0506027, 22.5068815], [114.0500138, 22.5068202]]]]}}, {"type": "Feature", "id": "way/996009017", "properties": {"tags": {"building": "yes"}, "heightStatus": "unknown", "source": "OpenStreetMap", "license": "ODbL-1.0"}, "geometry": {"type": "MultiPolygon", "coordinates": [[[[114.0493468, 22.5068194], [114.0493789, 22.5064989], [114.0499188, 22.5065451], [114.0498868, 22.5068655], [114.0493468, 22.5068194]]]]}}, {"type": "Feature", "id": "way/996009018", "properties": {"tags": {"building": "yes"}, "heightStatus": "unknown", "source": "OpenStreetMap", "license": "ODbL-1.0"}, "geometry": {"type": "MultiPolygon", "coordinates": [[[[114.050135, 22.5080846], [114.0502887, 22.5070935], [114.0506061, 22.5071354], [114.0504525, 22.5081266], [114.050135, 22.5080846]]]]}}, {"type": "Feature", "id": "way/996009019", "properties": {"tags": {"building": "yes"}, "heightStatus": "unknown", "source": "OpenStreetMap", "license": "ODbL-1.0"}, "geometry": {"type": "MultiPolygon", "coordinates": [[[[114.0498087, 22.5080134], [114.0498458, 22.5077385], [114.0499337, 22.5077487], [114.0499154, 22.5078846], [114.0501234, 22.5079085], [114.0501047, 22.5080474], [114.0498087, 22.5080134]]]]}}, {"type": "Feature", "id": "way/996009020", "properties": {"tags": {"building": "industrial"}, "heightStatus": "unknown", "source": "OpenStreetMap", "license": "ODbL-1.0"}, "geometry": {"type": "MultiPolygon", "coordinates": [[[[114.0476885, 22.5075184], [114.0477028, 22.5071994], [114.0482792, 22.5072214], [114.0482648, 22.5075406], [114.0476885, 22.5075184]]]]}}, {"type": "Feature", "id": "way/996009021", "properties": {"tags": {"building": "industrial"}, "heightStatus": "unknown", "source": "OpenStreetMap", "license": "ODbL-1.0"}, "geometry": {"type": "MultiPolygon", "coordinates": [[[[114.0486068, 22.5075466], [114.0486236, 22.5072319], [114.0488798, 22.5072436], [114.048863, 22.5075583], [114.0486068, 22.5075466]]]]}}, {"type": "Feature", "id": "way/996009022", "properties": {"tags": {"building": "industrial"}, "heightStatus": "unknown", "source": "OpenStreetMap", "license": "ODbL-1.0"}, "geometry": {"type": "MultiPolygon", "coordinates": [[[[114.0484658, 22.5079158], [114.0484786, 22.5076546], [114.048718, 22.5076646], [114.0487052, 22.5079257], [114.0484658, 22.5079158]]]]}}, {"type": "Feature", "id": "way/1253197468", "properties": {"tags": {"building": "commercial", "building:levels": "13", "building:material": "glass"}, "heightStatus": "levels_only_unverified", "source": "OpenStreetMap", "license": "ODbL-1.0"}, "geometry": {"type": "MultiPolygon", "coordinates": [[[[114.0475225, 22.5058357], [114.0475317, 22.5056374], [114.047985, 22.5056552], [114.0479829, 22.5057013], [114.048071, 22.5057048], [114.0480588, 22.5059687], [114.0475742, 22.5059497], [114.0475793, 22.5058379], [114.0475225, 22.5058357]]]]}}, {"type": "Feature", "id": "way/1253197469", "properties": {"tags": {"building": "commercial", "building:levels": "13", "building:material": "glass"}, "heightStatus": "levels_only_unverified", "source": "OpenStreetMap", "license": "ODbL-1.0"}, "geometry": {"type": "MultiPolygon", "coordinates": [[[[114.0483201, 22.5059781], [114.0483322, 22.5057142], [114.0484203, 22.5057177], [114.0484224, 22.5056716], [114.0488757, 22.5056892], [114.0488666, 22.5058876], [114.0488098, 22.5058854], [114.0488047, 22.5059971], [114.0483201, 22.5059781]]]]}}, {"type": "Feature", "id": "way/1253197470", "properties": {"tags": {"building": "commercial", "building:levels": "13", "building:material": "glass"}, "heightStatus": "levels_only_unverified", "source": "OpenStreetMap", "license": "ODbL-1.0"}, "geometry": {"type": "MultiPolygon", "coordinates": [[[[114.0474908, 22.5065855], [114.0475103, 22.5061667], [114.0475602, 22.5061687], [114.047564, 22.5060873], [114.0478496, 22.5060986], [114.0478289, 22.5065464], [114.0477079, 22.5065416], [114.0477055, 22.506594], [114.0474908, 22.5065855]]]]}}, {"type": "Feature", "id": "way/1253197471", "properties": {"tags": {"building": "commercial", "building:levels": "13", "building:material": "glass"}, "heightStatus": "levels_only_unverified", "source": "OpenStreetMap", "license": "ODbL-1.0"}, "geometry": {"type": "MultiPolygon", "coordinates": [[[[114.0485065, 22.5065739], [114.0485273, 22.5061262], [114.048813, 22.5061375], [114.0488092, 22.5062189], [114.0488591, 22.5062208], [114.0488398, 22.5066396], [114.0486251, 22.5066312], [114.0486275, 22.5065787], [114.0485065, 22.5065739]]]]}}, {"type": "Feature", "id": "way/1253197472", "properties": {"tags": {"building": "commercial", "building:levels": "13", "building:material": "glass"}, "heightStatus": "levels_only_unverified", "source": "OpenStreetMap", "license": "ODbL-1.0"}, "geometry": {"type": "MultiPolygon", "coordinates": [[[[114.0474578, 22.5070297], [114.0474746, 22.5067237], [114.0488299, 22.5067874], [114.0488131, 22.5070932], [114.0474578, 22.5070297]]]]}}, {"type": "Feature", "id": "way/1253197497", "properties": {"tags": {"building": "commercial"}, "heightStatus": "unknown", "source": "OpenStreetMap", "license": "ODbL-1.0"}, "geometry": {"type": "MultiPolygon", "coordinates": [[[[114.0524362, 22.5084277], [114.0525319, 22.5080677], [114.0537135, 22.5083357], [114.0536178, 22.5086958], [114.0524362, 22.5084277]]]]}}, {"type": "Feature", "id": "way/1253197498", "properties": {"tags": {"building": "commercial"}, "heightStatus": "unknown", "source": "OpenStreetMap", "license": "ODbL-1.0"}, "geometry": {"type": "MultiPolygon", "coordinates": [[[[114.0525215, 22.5078733], [114.052637, 22.5074277], [114.053053, 22.5075198], [114.0529374, 22.5079654], [114.0525215, 22.5078733]]]]}}, {"type": "Feature", "id": "relation/17247028", "properties": {"tags": {"building": "yes", "name": "万乘储运大厦", "office": "company"}, "heightStatus": "unknown", "source": "OpenStreetMap", "license": "ODbL-1.0"}, "geometry": {"type": "MultiPolygon", "coordinates": [[[[114.0526604, 22.5072485], [114.0529277, 22.5061767], [114.0542594, 22.5064601], [114.053992, 22.5075321], [114.0526604, 22.5072485]], [[114.0531412, 22.5070679], [114.0536462, 22.5071814], [114.0537856, 22.5066521], [114.0532805, 22.5065386], [114.0531412, 22.5070679]]]]}}, {"type": "Feature", "id": "way/1253197500", "properties": {"tags": {"addr:city": "深圳", "addr:district": "福田", "addr:housenumber": "6", "addr:province": "广东", "addr:street": "红棉道", "building": "college", "building:levels": "6", "height": "30", "name": "深圳河套学院", "start_date": "2025-09-01"}, "heightStatus": "height_tag_unverified", "source": "OpenStreetMap", "license": "ODbL-1.0"}, "geometry": {"type": "MultiPolygon", "coordinates": [[[[114.0526027, 22.5072004], [114.0528449, 22.5061538], [114.0529412, 22.5061046], [114.0543128, 22.5064253], [114.0543604, 22.506508], [114.0540529, 22.5075157], [114.0539771, 22.507575], [114.0526541, 22.507269], [114.0526027, 22.5072004]]]]}}, {"type": "Feature", "id": "way/1253197525", "properties": {"tags": {"building": "commercial"}, "heightStatus": "unknown", "source": "OpenStreetMap", "license": "ODbL-1.0"}, "geometry": {"type": "MultiPolygon", "coordinates": [[[[114.0487322, 22.5044625], [114.0487538, 22.5041416], [114.0488352, 22.5041463], [114.0488395, 22.5040829], [114.0491003, 22.5040978], [114.0490746, 22.5044821], [114.0487322, 22.5044625]]]]}}, {"type": "Feature", "id": "way/1253489216", "properties": {"tags": {"building": "commercial"}, "heightStatus": "unknown", "source": "OpenStreetMap", "license": "ODbL-1.0"}, "geometry": {"type": "MultiPolygon", "coordinates": [[[[114.0447958, 22.5065272], [114.0453771, 22.5064818], [114.0454184, 22.5069331], [114.0448372, 22.5069785], [114.0447958, 22.5065272]]]]}}, {"type": "Feature", "id": "way/1361112949", "properties": {"tags": {"building": "industrial"}, "heightStatus": "unknown", "source": "OpenStreetMap", "license": "ODbL-1.0"}, "geometry": {"type": "MultiPolygon", "coordinates": [[[[114.0492526, 22.506303], [114.0492849, 22.5060396], [114.049429, 22.5060547], [114.0493967, 22.5063181], [114.0492526, 22.506303]]]]}}, {"type": "Feature", "id": "way/1426560484", "properties": {"tags": {"addr:city": "深圳", "addr:district": "福田", "addr:housenumber": "5", "addr:postcode": "518000", "addr:province": "广东", "addr:street": "桃花路", "alt_name": "万国数据 深圳1号数据中心", "building": "yes", "name": "万国数据（深圳福田数据中心）", "operator": "万国数据", "telecom": "data_center"}, "heightStatus": "unknown", "source": "OpenStreetMap", "license": "ODbL-1.0"}, "geometry": {"type": "MultiPolygon", "coordinates": [[[[114.0535218, 22.5059361], [114.0536602, 22.5054656], [114.05397, 22.5055252], [114.0538323, 22.5059982], [114.0535218, 22.5059361]]]]}}]}