{"type": "FeatureCollection", "features": [{"type": "Feature", "id": "way/135961007", "properties": {"tags": {"addr:city": "深圳市", "addr:country": "CN", "addr:district": "福田区", "addr:housenumber": "5", "addr:postcode": "518038", "addr:province": "广东省", "addr:street": "桂花路", "addr:street:en": "Guihua Road", "brand": "Four Points by Sheraton", "brand:wikidata": "Q1439966", "brand:wikipedia": "en:Four Points by Sheraton", "building": "hotel", "building:levels": "57", "name": "深圳福朋喜来登酒店", "name:en": "Four Points by Sheraton Shenzhen", "name:zh": "深圳福朋喜来登酒店", "short_name": "Four Points", "tourism": "hotel", "website": "https://www.marriott.com.cn/hotels/szxfp-four-points-shenzhen/overview/"}, "heightStatus": "levels_only_unverified", "source": "OpenStreetMap", "license": "ODbL-1.0"}, "geometry": {"type": "MultiPolygon", "coordinates": [[[[114.0569442, 22.5139724], [114.0571097, 22.513873], [114.0571627, 22.5139483], [114.0573386, 22.5140311], [114.0574357, 22.5140263], [114.0574461, 22.5142084], [114.057349, 22.5142132], [114.0571835, 22.5143125], [114.0571394, 22.5143926], [114.0569635, 22.5143098], [114.0570076, 22.5142298], [114.0569972, 22.5140477], [114.0569442, 22.5139724]]]]}}, {"type": "Feature", "id": "way/135961010", "properties": {"tags": {"building": "apartments", "building:levels": "29", "name": "A座", "name:zh": "A座"}, "heightStatus": "levels_only_unverified", "source": "OpenStreetMap", "license": "ODbL-1.0"}, "geometry": {"type": "MultiPolygon", "coordinates": [[[[114.0564442, 22.5137281], [114.056445, 22.5137044], [114.0564525, 22.5136817], [114.0564666, 22.5136377], [114.0564445, 22.5136317], [114.0564731, 22.5135426], [114.0567299, 22.513613], [114.0567234, 22.5135951], [114.0567259, 22.5135765], [114.0567369, 22.5135606], [114.0567543, 22.5135508], [114.0567746, 22.5135489], [114.0567937, 22.5135553], [114.056808, 22.5135687], [114.0568563, 22.5133253], [114.0569553, 22.5133421], [114.0569511, 22.513363], [114.0569999, 22.5133713], [114.0570252, 22.5133755], [114.0570485, 22.5133856], [114.0570681, 22.5134009], [114.0570827, 22.5134205], [114.0570913, 22.5134429], [114.0570933, 22.5134665], [114.0570885, 22.5134899], [114.0570809, 22.513528], [114.0570987, 22.513531], [114.05707, 22.5136755], [114.0567143, 22.5138772], [114.0565619, 22.5138354], [114.056567, 22.5138194], [114.0565268, 22.5138083], [114.0565021, 22.5138017], [114.0564802, 22.5137893], [114.0564624, 22.5137721], [114.0564502, 22.5137512], [114.0564442, 22.5137281]]]]}}, {"type": "Feature", "id": "way/303958167", "properties": {"tags": {"building": "roof", "layer": "1"}, "heightStatus": "unknown", "source": "OpenStreetMap", "license": "ODbL-1.0"}, "geometry": {"type": "MultiPolygon", "coordinates": [[[[114.0613638, 22.5160769], [114.0614276, 22.5159979], [114.0616354, 22.5161411], [114.0615716, 22.5162201], [114.0613638, 22.5160769]]]]}}, {"type": "Feature", "id": "way/303958170", "properties": {"tags": {"building": "yes"}, "heightStatus": "unknown", "source": "OpenStreetMap", "license": "ODbL-1.0"}, "geometry": {"type": "MultiPolygon", "coordinates": [[[[114.0613133, 22.5161394], [114.0613638, 22.5160769], [114.0615716, 22.5162201], [114.0616373, 22.5162654], [114.0616367, 22.5162939], [114.0616134, 22.5163193], [114.0615868, 22.5163279], [114.0615259, 22.5162859], [114.0613133, 22.5161394]]]]}}, {"type": "Feature", "id": "way/303958179", "properties": {"tags": {"building": "roof", "layer": "1"}, "heightStatus": "unknown", "source": "OpenStreetMap", "license": "ODbL-1.0"}, "geometry": {"type": "MultiPolygon", "coordinates": [[[[114.0612514, 22.5162159], [114.0613133, 22.5161394], [114.0615259, 22.5162859], [114.061464, 22.5163625], [114.0612514, 22.5162159]]]]}}, {"type": "Feature", "id": "way/385575032", "properties": {"tags": {"addr:city": "深圳市", "building": "yes", "building:levels": "6"}, "heightStatus": "levels_only_unverified", "source": "OpenStreetMap", "license": "ODbL-1.0"}, "geometry": {"type": "MultiPolygon", "coordinates": [[[[114.0624975, 22.5171815], [114.0626317, 22.517049], [114.0627591, 22.5171369], [114.0627845, 22.5171084], [114.0628811, 22.5171679], [114.062857, 22.5172001], [114.0629562, 22.5172757], [114.0630595, 22.5171307], [114.0631802, 22.5172113], [114.0630031, 22.5174367], [114.0629307, 22.5173897], [114.0628945, 22.5174305], [114.0624975, 22.5171815]]]]}}, {"type": "Feature", "id": "way/482249522", "properties": {"tags": {"building": "roof", "layer": "1", "name": "皇岗收费站"}, "heightStatus": "unknown", "source": "OpenStreetMap", "license": "ODbL-1.0"}, "geometry": {"type": "MultiPolygon", "coordinates": [[[[114.0578766, 22.516624], [114.058036, 22.5163966], [114.0581859, 22.5161829], [114.0583891, 22.5158932], [114.0583979, 22.5158806], [114.0585249, 22.5159566], [114.058514, 22.5159721], [114.0583131, 22.5162586], [114.0581616, 22.5164748], [114.0580037, 22.5167], [114.0578766, 22.516624]]]]}}, {"type": "Feature", "id": "way/564102790", "properties": {"tags": {"area": "yes", "building": "roof", "layer": "1"}, "heightStatus": "unknown", "source": "OpenStreetMap", "license": "ODbL-1.0"}, "geometry": {"type": "MultiPolygon", "coordinates": [[[[114.0593883, 22.5169765], [114.0593929, 22.5169257], [114.0594104, 22.5168688], [114.0594365, 22.5168256], [114.0594435, 22.5168187], [114.0594766, 22.5167858], [114.0595382, 22.5167488], [114.0595952, 22.5167289], [114.0596594, 22.5167142], [114.0596877, 22.5167317], [114.0596908, 22.5167972], [114.0596815, 22.5168484], [114.0596584, 22.5169025], [114.0596338, 22.5169395], [114.0596235, 22.5169498], [114.0595952, 22.5169779], [114.0595429, 22.5170121], [114.059489, 22.5170377], [114.0594563, 22.5170447], [114.0594088, 22.5170548], [114.0593934, 22.5170434], [114.0593897, 22.5169955], [114.0593883, 22.5169765]]]]}}, {"type": "Feature", "id": "way/697943860", "properties": {"tags": {"building": "commercial", "building:levels": "9", "layer": "1", "name": "长宝大厦", "name:zh": "长宝大厦"}, "heightStatus": "levels_only_unverified", "source": "OpenStreetMap", "license": "ODbL-1.0"}, "geometry": {"type": "MultiPolygon", "coordinates": [[[[114.0531105, 22.5116977], [114.0531117, 22.5116728], [114.053122, 22.5116497], [114.0531402, 22.5116313], [114.0531642, 22.5116198], [114.053191, 22.5116165], [114.0532173, 22.5116219], [114.0533381, 22.511668], [114.0534571, 22.5117179], [114.0535741, 22.5117718], [114.0536889, 22.5118294], [114.0538015, 22.5118906], [114.0539149, 22.5119461], [114.0540314, 22.5119957], [114.0541507, 22.5120393], [114.0542724, 22.5120768], [114.0543961, 22.5121081], [114.0545215, 22.512133], [114.0546482, 22.5121521], [114.0547938, 22.5121699], [114.0549378, 22.5121964], [114.0550797, 22.5122316], [114.0552187, 22.5122754], [114.0553544, 22.5123274], [114.055486, 22.5123876], [114.0556132, 22.5124555], [114.0557352, 22.5125311], [114.0558312, 22.5125994], [114.0558494, 22.5126178], [114.0558597, 22.5126409], [114.0558609, 22.5126658], [114.0558527, 22.5126896], [114.0558362, 22.5127094], [114.0558134, 22.5127227], [114.055787, 22.5127281], [114.0557603, 22.5127248], [114.0557363, 22.5127133], [114.0556443, 22.5126478], [114.0555308, 22.5125776], [114.0554125, 22.5125143], [114.05529, 22.5124583], [114.0551638, 22.5124099], [114.0550344, 22.5123692], [114.0549024, 22.5123364], [114.0547684, 22.5123117], [114.0546255, 22.5122943], [114.0544926, 22.5122743], [114.0543592, 22.5122478], [114.0542272, 22.5122144], [114.0540974, 22.5121744], [114.0539701, 22.5121279], [114.0538459, 22.512075], [114.0537256, 22.5120161], [114.0536123, 22.5119545], [114.0535023, 22.5118993], [114.0533902, 22.5118477], [114.0532762, 22.5117998], [114.0531579, 22.5117547], [114.0531351, 22.5117413], [114.0531187, 22.5117215], [114.0531105, 22.5116977]]]]}}, {"type": "Feature", "id": "way/938724454", "properties": {"tags": {"building": "roof", "layer": "1"}, "heightStatus": "unknown", "source": "OpenStreetMap", "license": "ODbL-1.0"}, "geometry": {"type": "MultiPolygon", "coordinates": [[[[114.055525, 22.5153935], [114.0556031, 22.5153655], [114.0556218, 22.5154102], [114.0557354, 22.5154591], [114.0557835, 22.5153636], [114.0559532, 22.5154367], [114.0558403, 22.5156607], [114.0555923, 22.5155539], [114.055525, 22.5153935]]]]}}, {"type": "Feature", "id": "way/1194189551", "properties": {"tags": {"building": "yes"}, "heightStatus": "unknown", "source": "OpenStreetMap", "license": "ODbL-1.0"}, "geometry": {"type": "MultiPolygon", "coordinates": [[[[114.0549393, 22.510497], [114.0550547, 22.5101848], [114.0558593, 22.5104549], [114.0559854, 22.5106903], [114.0557601, 22.5107894], [114.0557413, 22.5107572], [114.0549393, 22.510497]]]]}}, {"type": "Feature", "id": "way/1194189552", "properties": {"tags": {"building": "yes"}, "heightStatus": "unknown", "source": "OpenStreetMap", "license": "ODbL-1.0"}, "geometry": {"type": "MultiPolygon", "coordinates": [[[[114.0551941, 22.5097636], [114.0553068, 22.5094662], [114.0556018, 22.5095653], [114.0556367, 22.5095975], [114.0556635, 22.5096446], [114.0556903, 22.5099221], [114.0551941, 22.5097636]]]]}}, {"type": "Feature", "id": "way/1253197494", "properties": {"tags": {"building": "commercial", "building:levels": "17", "building:material": "glass", "layer": "1"}, "heightStatus": "levels_only_unverified", "source": "OpenStreetMap", "license": "ODbL-1.0"}, "geometry": {"type": "MultiPolygon", "coordinates": [[[[114.0540085, 22.5100854], [114.0540998, 22.5098074], [114.0546379, 22.5099583], [114.0547541, 22.5099909], [114.0546628, 22.5102688], [114.0540085, 22.5100854]]]]}}, {"type": "Feature", "id": "way/1253197506", "properties": {"tags": {"building": "commercial", "name": "福保物流大厦"}, "heightStatus": "unknown", "source": "OpenStreetMap", "license": "ODbL-1.0"}, "geometry": {"type": "MultiPolygon", "coordinates": [[[[114.0559325, 22.509135], [114.0561118, 22.5090975], [114.0564035, 22.5102877], [114.056224, 22.5103252], [114.0559325, 22.509135]]]]}}, {"type": "Feature", "id": "relation/17374481", "properties": {"tags": {"building": "school"}, "heightStatus": "unknown", "source": "OpenStreetMap", "license": "ODbL-1.0"}, "geometry": {"type": "MultiPolygon", "coordinates": [[[[114.054799, 22.5160121], [114.0548893, 22.5156267], [114.054952, 22.5155292], [114.0554704, 22.5158134], [114.0554613, 22.5158276], [114.0554929, 22.5158449], [114.0554452, 22.5159191], [114.0554212, 22.515906], [114.0553943, 22.5160207], [114.0554334, 22.5160285], [114.0554086, 22.5161341], [114.054799, 22.5160121]], [[114.0549188, 22.5159265], [114.0551735, 22.5159815], [114.0551811, 22.5159517], [114.0553366, 22.5159853], [114.0553631, 22.5158805], [114.0550419, 22.51571], [114.0549771, 22.515696], [114.0549188, 22.5159265]]]]}}, {"type": "Feature", "id": "way/1265309413", "properties": {"tags": {"addr:housename": "丽港湾", "addr:housename:zh": "丽港湾", "building": "apartments", "building:levels": "18", "name": "丽海阁", "name:zh": "丽海阁"}, "heightStatus": "levels_only_unverified", "source": "OpenStreetMap", "license": "ODbL-1.0"}, "geometry": {"type": "MultiPolygon", "coordinates": [[[[114.0563974, 22.5129236], [114.056428, 22.5128544], [114.0564961, 22.5128802], [114.0565222, 22.5128212], [114.0564688, 22.512801], [114.0565037, 22.5127222], [114.0566478, 22.5127767], [114.0566274, 22.5128227], [114.0566067, 22.5128148], [114.0565953, 22.5128405], [114.056677, 22.5128714], [114.0566451, 22.5129436], [114.0565839, 22.5129205], [114.0565559, 22.5129836], [114.0563974, 22.5129236]]]]}}, {"type": "Feature", "id": "way/1265309414", "properties": {"tags": {"addr:housename": "丽港湾", "addr:housename:zh": "丽港湾", "building": "apartments", "building:levels": "32", "name": "丽湾阁", "name:zh": "丽湾阁"}, "heightStatus": "levels_only_unverified", "source": "OpenStreetMap", "license": "ODbL-1.0"}, "geometry": {"type": "MultiPolygon", "coordinates": [[[[114.0561732, 22.5133854], [114.0562308, 22.513253], [114.0563297, 22.5132897], [114.0563453, 22.513254], [114.0565032, 22.5133126], [114.056472, 22.5133844], [114.0563771, 22.5133492], [114.0563476, 22.5134172], [114.0564015, 22.5134372], [114.0563755, 22.513497], [114.0562477, 22.5134496], [114.0562614, 22.5134182], [114.0561732, 22.5133854]]]]}}, {"type": "Feature", "id": "way/1265309415", "properties": {"tags": {"addr:housename": "丽港湾", "addr:housename:zh": "丽港湾", "building": "apartments", "building:levels": "18", "name": "丽华阁", "name:zh": "丽华阁"}, "heightStatus": "levels_only_unverified", "source": "OpenStreetMap", "license": "ODbL-1.0"}, "geometry": {"type": "MultiPolygon", "coordinates": [[[[114.0557851, 22.5136252], [114.0558359, 22.5135184], [114.0559049, 22.5135464], [114.0559313, 22.5134909], [114.0560873, 22.5135542], [114.0560607, 22.5136103], [114.0559856, 22.5135799], [114.0559477, 22.5136595], [114.0560156, 22.513687], [114.0559826, 22.5137563], [114.0558258, 22.5136927], [114.0558461, 22.51365], [114.0557851, 22.5136252]]]]}}, {"type": "Feature", "id": "way/1333009584", "properties": {"tags": {"building": "yes", "building:levels": "4"}, "heightStatus": "levels_only_unverified", "source": "OpenStreetMap", "license": "ODbL-1.0"}, "geometry": {"type": "MultiPolygon", "coordinates": [[[[114.0620381, 22.5166643], [114.0620961, 22.5165867], [114.0623484, 22.5167477], [114.0622904, 22.5168252], [114.0620381, 22.5166643]]]]}}, {"type": "Feature", "id": "way/1333028499", "properties": {"tags": {"addr:housename": "京隆苑", "addr:housename:zh": "京隆苑", "building": "apartments", "building:levels": "12", "name": "16栋", "name:zh": "16栋"}, "heightStatus": "levels_only_unverified", "source": "OpenStreetMap", "license": "ODbL-1.0"}, "geometry": {"type": "MultiPolygon", "coordinates": [[[[114.0545608, 22.5172487], [114.0545794, 22.5171715], [114.0546174, 22.5171793], [114.0546293, 22.5171295], [114.0547657, 22.5171574], [114.0547537, 22.5172072], [114.0547917, 22.5172149], [114.0547732, 22.5172922], [114.0547163, 22.5172805], [114.0547124, 22.5172965], [114.054614, 22.5172763], [114.0546178, 22.5172604], [114.0545608, 22.5172487]]]]}}, {"type": "Feature", "id": "way/1333028500", "properties": {"tags": {"addr:housename": "京隆苑", "addr:housename:zh": "京隆苑", "building": "apartments", "building:levels": "12", "name": "15栋", "name:zh": "15栋"}, "heightStatus": "levels_only_unverified", "source": "OpenStreetMap", "license": "ODbL-1.0"}, "geometry": {"type": "MultiPolygon", "coordinates": [[[[114.0543485, 22.5172053], [114.054367, 22.517128], [114.054405, 22.5171358], [114.0544169, 22.5170861], [114.0545533, 22.517114], [114.0545414, 22.5171637], [114.0545794, 22.5171715], [114.0545608, 22.5172487], [114.0545039, 22.5172371], [114.0545001, 22.517253], [114.0544016, 22.5172328], [114.0544054, 22.5172169], [114.0543485, 22.5172053]]]]}}, {"type": "Feature", "id": "way/1333028501", "properties": {"tags": {"addr:housename": "京隆苑", "addr:housename:zh": "京隆苑", "building": "apartments", "building:levels": "12", "name": "13栋", "name:zh": "13栋"}, "heightStatus": "levels_only_unverified", "source": "OpenStreetMap", "license": "ODbL-1.0"}, "geometry": {"type": "MultiPolygon", "coordinates": [[[[114.0541361, 22.5171618], [114.0541546, 22.5170845], [114.0541926, 22.5170923], [114.0542046, 22.5170426], [114.0543409, 22.5170705], [114.054329, 22.5171202], [114.054367, 22.517128], [114.0543485, 22.5172053], [114.0542915, 22.5171936], [114.0542877, 22.5172095], [114.0541892, 22.5171894], [114.0541931, 22.5171734], [114.0541361, 22.5171618]]]]}}, {"type": "Feature", "id": "way/1333028503", "properties": {"tags": {"addr:housename": "京隆苑", "addr:housename:zh": "京隆苑", "building": "apartments", "building:levels": "12", "name": "30栋", "name:zh": "30栋"}, "heightStatus": "levels_only_unverified", "source": "OpenStreetMap", "license": "ODbL-1.0"}, "geometry": {"type": "MultiPolygon", "coordinates": [[[[114.0541338, 22.5178642], [114.0541485, 22.517803], [114.0541524, 22.5177869], [114.0541907, 22.5177948], [114.0542167, 22.5176863], [114.0543845, 22.5177207], [114.0543585, 22.5178292], [114.0543964, 22.5178369], [114.0543779, 22.5179142], [114.0543209, 22.5179025], [114.0543171, 22.5179184], [114.0541873, 22.5178918], [114.0541911, 22.5178759], [114.0541338, 22.5178642]]]]}}, {"type": "Feature", "id": "way/1333028504", "properties": {"tags": {"addr:housename": "京隆苑", "addr:housename:zh": "京隆苑", "building": "apartments", "building:levels": "12", "name": "31栋", "name:zh": "31栋"}, "heightStatus": "levels_only_unverified", "source": "OpenStreetMap", "license": "ODbL-1.0"}, "geometry": {"type": "MultiPolygon", "coordinates": [[[[114.0543779, 22.5179142], [114.0543964, 22.5178369], [114.0544344, 22.5178447], [114.0544604, 22.5177362], [114.0546282, 22.5177706], [114.0546022, 22.5178791], [114.0546401, 22.5178869], [114.0546216, 22.5179641], [114.0545646, 22.5179525], [114.0545608, 22.5179683], [114.054431, 22.5179418], [114.0544349, 22.5179258], [114.0543779, 22.5179142]]]]}}, {"type": "Feature", "id": "way/1333028509", "properties": {"tags": {"addr:housename": "京隆苑", "addr:housename:zh": "京隆苑", "building": "apartments", "building:levels": "12", "name": "24栋", "name:zh": "24栋"}, "heightStatus": "levels_only_unverified", "source": "OpenStreetMap", "license": "ODbL-1.0"}, "geometry": {"type": "MultiPolygon", "coordinates": [[[[114.0544882, 22.5175686], [114.0545068, 22.5174914], [114.0545448, 22.5174992], [114.0545567, 22.5174495], [114.0546931, 22.5174774], [114.0546811, 22.5175271], [114.0547191, 22.5175349], [114.0547006, 22.5176121], [114.0546436, 22.5176005], [114.0546398, 22.5176164], [114.0545414, 22.5175962], [114.0545452, 22.5175803], [114.0544882, 22.5175686]]]]}}, {"type": "Feature", "id": "way/1333028510", "properties": {"tags": {"addr:housename": "京隆苑", "addr:housename:zh": "京隆苑", "building": "apartments", "building:levels": "12", "name": "9栋", "name:zh": "9栋"}, "heightStatus": "levels_only_unverified", "source": "OpenStreetMap", "license": "ODbL-1.0"}, "geometry": {"type": "MultiPolygon", "coordinates": [[[[114.0546465, 22.5169468], [114.054665, 22.5168696], [114.054703, 22.5168773], [114.054715, 22.5168276], [114.0548513, 22.5168555], [114.0548394, 22.5169053], [114.0548774, 22.516913], [114.0548589, 22.5169903], [114.0548019, 22.5169786], [114.0547981, 22.5169945], [114.0546996, 22.5169744], [114.0547035, 22.5169585], [114.0546465, 22.5169468]]]]}}, {"type": "Feature", "id": "way/1333028511", "properties": {"tags": {"addr:housename": "京隆苑", "addr:housename:zh": "京隆苑", "building": "apartments", "building:levels": "12", "name": "8栋", "name:zh": "8栋"}, "heightStatus": "levels_only_unverified", "source": "OpenStreetMap", "license": "ODbL-1.0"}, "geometry": {"type": "MultiPolygon", "coordinates": [[[[114.0544341, 22.5169033], [114.0544527, 22.5168261], [114.0544907, 22.5168339], [114.0545026, 22.5167842], [114.054639, 22.5168121], [114.054627, 22.5168618], [114.054665, 22.5168696], [114.0546465, 22.5169468], [114.0545895, 22.5169352], [114.0545857, 22.5169511], [114.0544873, 22.5169309], [114.0544911, 22.516915], [114.0544341, 22.5169033]]]]}}, {"type": "Feature", "id": "way/1333028512", "properties": {"tags": {"addr:housename": "京隆苑", "addr:housename:zh": "京隆苑", "building": "apartments", "building:levels": "12", "name": "7栋", "name:zh": "7栋"}, "heightStatus": "levels_only_unverified", "source": "OpenStreetMap", "license": "ODbL-1.0"}, "geometry": {"type": "MultiPolygon", "coordinates": [[[[114.0542218, 22.5168599], [114.0542403, 22.5167826], [114.0542783, 22.5167904], [114.0542902, 22.5167407], [114.0544266, 22.5167686], [114.0544147, 22.5168183], [114.0544527, 22.5168261], [114.0544341, 22.5169033], [114.0543772, 22.5168917], [114.0543734, 22.5169076], [114.0542749, 22.5168875], [114.0542787, 22.5168715], [114.0542218, 22.5168599]]]]}}, {"type": "Feature", "id": "way/1429988251", "properties": {"tags": {"addr:housename": "宝瑞轩", "addr:housename:zh": "宝瑞轩", "building": "apartments", "building:levels": "12", "name": "福祥阁", "name:zh": "福祥阁"}, "heightStatus": "levels_only_unverified", "source": "OpenStreetMap", "license": "ODbL-1.0"}, "geometry": {"type": "MultiPolygon", "coordinates": [[[[114.0541224, 22.5127394], [114.0542482, 22.5124167], [114.0544375, 22.5124797], [114.0544088, 22.5125533], [114.0543298, 22.5125269], [114.0542608, 22.5127037], [114.0543399, 22.51273], [114.0543116, 22.5128024], [114.0541224, 22.5127394]]]]}}, {"type": "Feature", "id": "way/1429988252", "properties": {"tags": {"addr:housename": "宝瑞轩", "addr:housename:zh": "宝瑞轩", "building": "apartments", "building:levels": "12", "name": "福宝阁", "name:zh": "福宝阁"}, "heightStatus": "levels_only_unverified", "source": "OpenStreetMap", "license": "ODbL-1.0"}, "geometry": {"type": "MultiPolygon", "coordinates": [[[[114.055444, 22.5132099], [114.0554776, 22.5131395], [114.0555544, 22.5131708], [114.0556365, 22.5129989], [114.0555596, 22.5129676], [114.0555937, 22.5128961], [114.0557778, 22.512971], [114.0556281, 22.5132849], [114.055444, 22.5132099]]]]}}, {"type": "Feature", "id": "way/1429988253", "properties": {"tags": {"addr:housename": "宝瑞轩", "addr:housename:zh": "宝瑞轩", "building": "apartments", "building:levels": "12", "name": "福宏阁", "name:zh": "福宏阁"}, "heightStatus": "levels_only_unverified", "source": "OpenStreetMap", "license": "ODbL-1.0"}, "geometry": {"type": "MultiPolygon", "coordinates": [[[[114.0545329, 22.5125856], [114.0545437, 22.5124963], [114.0546739, 22.5125098], [114.0548029, 22.5125308], [114.0549302, 22.5125592], [114.0550553, 22.512595], [114.0551778, 22.512638], [114.0552971, 22.5126879], [114.0554127, 22.5127447], [114.0555243, 22.5128081], [114.0554733, 22.5128847], [114.0553644, 22.5128227], [114.0552541, 22.5127686], [114.0551404, 22.5127209], [114.0550237, 22.51268], [114.0549044, 22.5126459], [114.054783, 22.5126187], [114.05466, 22.5125987], [114.0545329, 22.5125856]]]]}}, {"type": "Feature", "id": "way/1429988254", "properties": {"tags": {"addr:housename": "宝瑞轩", "addr:housename:zh": "宝瑞轩", "building": "apartments", "building:levels": "12", "name": "福满阁", "name:zh": "福满阁"}, "heightStatus": "levels_only_unverified", "source": "OpenStreetMap", "license": "ODbL-1.0"}, "geometry": {"type": "MultiPolygon", "coordinates": [[[[114.0543116, 22.5128024], [114.0543399, 22.51273], [114.0544027, 22.5127509], [114.0544306, 22.5126793], [114.0545353, 22.5127142], [114.0545073, 22.5127858], [114.0546537, 22.5128345], [114.0546816, 22.5127629], [114.0547863, 22.5127977], [114.0547584, 22.5128693], [114.0548316, 22.5128937], [114.0548033, 22.512966], [114.0543116, 22.5128024]]]]}}, {"type": "Feature", "id": "way/1429988255", "properties": {"tags": {"addr:housename": "宝瑞轩", "addr:housename:zh": "宝瑞轩", "building": "apartments", "building:levels": "12", "name": "福海阁", "name:zh": "福海阁"}, "heightStatus": "levels_only_unverified", "source": "OpenStreetMap", "license": "ODbL-1.0"}, "geometry": {"type": "MultiPolygon", "coordinates": [[[[114.0549658, 22.5130152], [114.0549994, 22.5129448], [114.0550705, 22.5129738], [114.0551038, 22.5129041], [114.0552055, 22.5129456], [114.0551723, 22.5130152], [114.0553147, 22.5130732], [114.0553479, 22.5130036], [114.0554497, 22.513045], [114.0554164, 22.5131146], [114.0554776, 22.5131395], [114.055444, 22.5132099], [114.0549658, 22.5130152]]]]}}, {"type": "Feature", "id": "way/1429988256", "properties": {"tags": {"addr:housename": "朗庭豪园", "addr:housename:zh": "朗庭豪园", "building": "apartments", "building:levels": "18", "name": "A座", "name:zh": "A座"}, "heightStatus": "levels_only_unverified", "source": "OpenStreetMap", "license": "ODbL-1.0"}, "geometry": {"type": "MultiPolygon", "coordinates": [[[[114.0552005, 22.5135002], [114.0552457, 22.513392], [114.0552618, 22.5133977], [114.0553166, 22.5133753], [114.0553363, 22.513328], [114.055382, 22.5133442], [114.0553775, 22.5133549], [114.0554523, 22.5133814], [114.0554567, 22.5133708], [114.0555024, 22.513387], [114.0554827, 22.5134344], [114.055507, 22.5134849], [114.0555232, 22.5134907], [114.0554781, 22.5135989], [114.0554619, 22.5135932], [114.0554072, 22.5136156], [114.0553874, 22.5136629], [114.0553418, 22.5136467], [114.0553462, 22.513636], [114.0552714, 22.5136095], [114.055267, 22.5136201], [114.0552214, 22.5136039], [114.0552411, 22.5135565], [114.0552167, 22.513506], [114.0552005, 22.5135002]]]]}}, {"type": "Feature", "id": "way/1429988257", "properties": {"tags": {"addr:housename": "朗庭豪园", "addr:housename:zh": "朗庭豪园", "building": "apartments", "building:levels": "18", "name": "B座", "name:zh": "B座"}, "heightStatus": "levels_only_unverified", "source": "OpenStreetMap", "license": "ODbL-1.0"}, "geometry": {"type": "MultiPolygon", "coordinates": [[[[114.0547865, 22.5133446], [114.0548316, 22.5132364], [114.0548478, 22.5132421], [114.0549025, 22.5132197], [114.0549223, 22.5131724], [114.0549679, 22.5131886], [114.0549635, 22.5131993], [114.0550383, 22.5132259], [114.0550427, 22.5132152], [114.0550883, 22.5132314], [114.0550686, 22.5132788], [114.055093, 22.5133293], [114.0551092, 22.5133351], [114.0550641, 22.5134433], [114.0550479, 22.5134376], [114.0549931, 22.51346], [114.0549734, 22.5135073], [114.0549277, 22.5134911], [114.0549322, 22.5134805], [114.0548574, 22.5134539], [114.054853, 22.5134645], [114.0548073, 22.5134483], [114.0548271, 22.5134009], [114.0548027, 22.5133504], [114.0547865, 22.5133446]]]]}}, {"type": "Feature", "id": "way/1429988258", "properties": {"tags": {"addr:housename": "朗庭豪园", "addr:housename:zh": "朗庭豪园", "building": "apartments", "building:levels": "18", "name": "C座", "name:zh": "C座"}, "heightStatus": "levels_only_unverified", "source": "OpenStreetMap", "license": "ODbL-1.0"}, "geometry": {"type": "MultiPolygon", "coordinates": [[[[114.0543081, 22.5131861], [114.0543462, 22.5130755], [114.0543859, 22.5130872], [114.0544392, 22.5130619], [114.0544558, 22.5130135], [114.0546023, 22.5130566], [114.0545856, 22.5131049], [114.0546132, 22.513154], [114.0546657, 22.5131695], [114.0546276, 22.51328], [114.0545752, 22.5132646], [114.0545219, 22.5132899], [114.0545052, 22.5133383], [114.0543588, 22.5132952], [114.0543755, 22.5132469], [114.0543479, 22.5131978], [114.0543081, 22.5131861]]]]}}, {"type": "Feature", "id": "way/1429989321", "properties": {"tags": {"addr:housename": "丽港湾", "addr:housename:zh": "丽港湾", "building": "apartments", "building:levels": "18", "name": "丽庭阁", "name:zh": "丽庭阁"}, "heightStatus": "levels_only_unverified", "source": "OpenStreetMap", "license": "ODbL-1.0"}, "geometry": {"type": "MultiPolygon", "coordinates": [[[[114.0558623, 22.5138937], [114.0559015, 22.5138113], [114.0559684, 22.5138384], [114.0560034, 22.5137648], [114.0559826, 22.5137563], [114.0560156, 22.513687], [114.0561355, 22.5137357], [114.0561028, 22.5138044], [114.0561493, 22.5138232], [114.0561117, 22.5139023], [114.0560317, 22.5138698], [114.0560238, 22.5138864], [114.0560536, 22.5138984], [114.0560246, 22.5139595], [114.0558623, 22.5138937]]]]}}, {"type": "Feature", "id": "way/1429989322", "properties": {"tags": {"addr:housename": "丽港湾", "addr:housename:zh": "丽港湾", "building": "apartments", "building:levels": "18", "name": "丽景阁", "name:zh": "丽景阁"}, "heightStatus": "levels_only_unverified", "source": "OpenStreetMap", "license": "ODbL-1.0"}, "geometry": {"type": "MultiPolygon", "coordinates": [[[[114.0561483, 22.5129066], [114.0561803, 22.5128344], [114.0562415, 22.5128575], [114.0562694, 22.5127945], [114.056428, 22.5128544], [114.0563974, 22.5129236], [114.0563292, 22.5128979], [114.0563031, 22.5129568], [114.0563566, 22.512977], [114.0563217, 22.5130558], [114.0561776, 22.5130013], [114.0561979, 22.5129554], [114.0562187, 22.5129632], [114.0562301, 22.5129375], [114.0561483, 22.5129066]]]]}}, {"type": "Feature", "id": "way/1429993620", "properties": {"tags": {"building": "commercial"}, "heightStatus": "unknown", "source": "OpenStreetMap", "license": "ODbL-1.0"}, "geometry": {"type": "MultiPolygon", "coordinates": [[[[114.0558275, 22.5117775], [114.055902, 22.5115842], [114.0563301, 22.511725], [114.0562556, 22.5119183], [114.0558275, 22.5117775]]]]}}, {"type": "Feature", "id": "way/1429993621", "properties": {"tags": {"building": "commercial"}, "heightStatus": "unknown", "source": "OpenStreetMap", "license": "ODbL-1.0"}, "geometry": {"type": "MultiPolygon", "coordinates": [[[[114.0547611, 22.5110875], [114.0548341, 22.510898], [114.0561505, 22.5113307], [114.0560774, 22.5115203], [114.0547611, 22.5110875]]]]}}, {"type": "Feature", "id": "way/1429993622", "properties": {"tags": {"building": "commercial"}, "heightStatus": "unknown", "source": "OpenStreetMap", "license": "ODbL-1.0"}, "geometry": {"type": "MultiPolygon", "coordinates": [[[[114.0546288, 22.5114341], [114.0547019, 22.5112446], [114.0557793, 22.5115988], [114.0557063, 22.5117883], [114.0546288, 22.5114341]]]]}}, {"type": "Feature", "id": "way/1429995242", "properties": {"tags": {"building": "apartments", "name": "3栋", "name:zh": "3栋"}, "heightStatus": "unknown", "source": "OpenStreetMap", "license": "ODbL-1.0"}, "geometry": {"type": "MultiPolygon", "coordinates": [[[[114.0571646, 22.5167995], [114.0572048, 22.5167264], [114.057503, 22.5168663], [114.0574628, 22.5169394], [114.0571646, 22.5167995]]]]}}, {"type": "Feature", "id": "way/1429995243", "properties": {"tags": {"building": "apartments", "name": "2栋", "name:zh": "2栋"}, "heightStatus": "unknown", "source": "OpenStreetMap", "license": "ODbL-1.0"}, "geometry": {"type": "MultiPolygon", "coordinates": [[[[114.0570687, 22.5170077], [114.0571089, 22.5169345], [114.0574072, 22.5170745], [114.057367, 22.5171476], [114.0570687, 22.5170077]]]]}}, {"type": "Feature", "id": "way/1429995244", "properties": {"tags": {"addr:housename": "金桂大厦", "addr:housename:zh": "金桂大厦", "building": "apartments", "building:levels": "22", "name": "A栋", "name:en": "Block A", "name:zh": "A栋"}, "heightStatus": "levels_only_unverified", "source": "OpenStreetMap", "license": "ODbL-1.0"}, "geometry": {"type": "MultiPolygon", "coordinates": [[[[114.0575286, 22.5173877], [114.0576623, 22.5171729], [114.0578349, 22.5172646], [114.0578009, 22.5173191], [114.0578227, 22.5173938], [114.0578818, 22.5174251], [114.0577825, 22.5175845], [114.05755, 22.517461], [114.0575741, 22.5174222], [114.0575916, 22.5174316], [114.0576016, 22.5174156], [114.0576221, 22.5174265], [114.0576314, 22.5174116], [114.0576697, 22.5174319], [114.0576479, 22.5173573], [114.0576259, 22.5173926], [114.0576097, 22.517384], [114.0575979, 22.517403], [114.0575806, 22.5173938], [114.0575705, 22.51741], [114.0575286, 22.5173877]]]]}}, {"type": "Feature", "id": "way/1429995245", "properties": {"tags": {"addr:housename": "金桂大厦", "addr:housename:zh": "金桂大厦", "building": "apartments", "building:levels": "22", "name": "B栋", "name:en": "Block B", "name:zh": "B栋"}, "heightStatus": "levels_only_unverified", "source": "OpenStreetMap", "license": "ODbL-1.0"}, "geometry": {"type": "MultiPolygon", "coordinates": [[[[114.0579408, 22.5173288], [114.05804, 22.5171695], [114.0582725, 22.517293], [114.0582484, 22.5173317], [114.0582309, 22.5173224], [114.0582209, 22.5173384], [114.0582004, 22.5173275], [114.0581911, 22.5173424], [114.0581528, 22.5173221], [114.0581746, 22.5173967], [114.0581966, 22.5173614], [114.0582128, 22.5173699], [114.0582246, 22.517351], [114.0582419, 22.5173602], [114.058252, 22.517344], [114.0582939, 22.5173662], [114.0581602, 22.517581], [114.0579876, 22.5174894], [114.0580216, 22.5174348], [114.0579998, 22.5173602], [114.0579408, 22.5173288]]]]}}, {"type": "Feature", "id": "way/1429995521", "properties": {"tags": {"building": "school"}, "heightStatus": "unknown", "source": "OpenStreetMap", "license": "ODbL-1.0"}, "geometry": {"type": "MultiPolygon", "coordinates": [[[[114.0557307, 22.5168105], [114.0557391, 22.5167873], [114.0557529, 22.5167663], [114.0557716, 22.5167489], [114.055794, 22.5167357], [114.055819, 22.5167276], [114.0558454, 22.516725], [114.0558718, 22.516728], [114.0558741, 22.5167194], [114.0560868, 22.5167691], [114.05612, 22.516648], [114.0557319, 22.5164755], [114.0557706, 22.5164012], [114.0563007, 22.5166369], [114.056262, 22.5167111], [114.0561972, 22.5169478], [114.0558319, 22.5168624], [114.0558391, 22.5168359], [114.0557307, 22.5168105]]]]}}, {"type": "Feature", "id": "way/1429996034", "properties": {"tags": {"addr:housename": "江南名苑", "addr:housename:en": "Jiangnan Mingyuan", "addr:housename:zh": "江南名苑", "building": "apartments", "building:levels": "13", "name": "D栋", "name:zh": "D栋"}, "heightStatus": "levels_only_unverified", "source": "OpenStreetMap", "license": "ODbL-1.0"}, "geometry": {"type": "MultiPolygon", "coordinates": [[[[114.056203, 22.5178442], [114.0562807, 22.5176011], [114.056313, 22.51761], [114.0563042, 22.5176375], [114.0564236, 22.5176701], [114.0564324, 22.5176426], [114.0564647, 22.5176514], [114.0563869, 22.5178944], [114.0563353, 22.5178803], [114.0563429, 22.5178566], [114.0562622, 22.5178346], [114.0562546, 22.5178583], [114.056203, 22.5178442]]]]}}, {"type": "Feature", "id": "way/1429996035", "properties": {"tags": {"addr:housename": "江南名苑", "addr:housename:en": "Jiangnan Mingyuan", "addr:housename:zh": "江南名苑", "building": "apartments", "building:levels": "13", "name": "C栋", "name:zh": "C栋"}, "heightStatus": "levels_only_unverified", "source": "OpenStreetMap", "license": "ODbL-1.0"}, "geometry": {"type": "MultiPolygon", "coordinates": [[[[114.0567389, 22.5179938], [114.0568167, 22.5177508], [114.056849, 22.5177596], [114.0568402, 22.5177871], [114.0569596, 22.5178197], [114.0569684, 22.5177922], [114.0570007, 22.517801], [114.0569229, 22.518044], [114.0568713, 22.51803], [114.0568789, 22.5180062], [114.0567982, 22.5179842], [114.0567906, 22.5180079], [114.0567389, 22.5179938]]]]}}, {"type": "Feature", "id": "way/1429996036", "properties": {"tags": {"addr:housename": "江南名苑", "addr:housename:en": "Jiangnan Mingyuan", "addr:housename:zh": "江南名苑", "building": "apartments", "building:levels": "13", "name": "F栋", "name:zh": "F栋"}, "heightStatus": "levels_only_unverified", "source": "OpenStreetMap", "license": "ODbL-1.0"}, "geometry": {"type": "MultiPolygon", "coordinates": [[[[114.0563401, 22.5174724], [114.0563598, 22.5174109], [114.056453, 22.5174363], [114.0564617, 22.5174092], [114.0564431, 22.5174042], [114.0564644, 22.5173374], [114.0566667, 22.5173926], [114.0566454, 22.5174594], [114.0566267, 22.5174543], [114.056618, 22.5174814], [114.0567113, 22.5175068], [114.0566916, 22.5175684], [114.0563401, 22.5174724]]]]}}, {"type": "Feature", "id": "way/1429996037", "properties": {"tags": {"addr:housename": "江南名苑", "addr:housename:en": "Jiangnan Mingyuan", "addr:housename:zh": "江南名苑", "building": "apartments", "building:levels": "13", "name": "E栋", "name:zh": "E栋"}, "heightStatus": "levels_only_unverified", "source": "OpenStreetMap", "license": "ODbL-1.0"}, "geometry": {"type": "MultiPolygon", "coordinates": [[[[114.0566916, 22.5175684], [114.0567113, 22.5175068], [114.0568046, 22.5175323], [114.0568132, 22.5175052], [114.0567946, 22.5175001], [114.0568159, 22.5174333], [114.0570182, 22.5174886], [114.0569969, 22.5175554], [114.0569782, 22.5175503], [114.0569695, 22.5175773], [114.0570628, 22.5176028], [114.0570431, 22.5176643], [114.0566916, 22.5175684]]]]}}, {"type": "Feature", "id": "way/1429997530", "properties": {"tags": {"addr:housename": "京隆苑", "addr:housename:zh": "京隆苑", "building": "apartments", "building:levels": "12", "name": "23栋", "name:zh": "23栋"}, "heightStatus": "levels_only_unverified", "source": "OpenStreetMap", "license": "ODbL-1.0"}, "geometry": {"type": "MultiPolygon", "coordinates": [[[[114.0542209, 22.5173822], [114.0542826, 22.5173555], [114.0543466, 22.5173165], [114.0544109, 22.5174064], [114.0543398, 22.5174498], [114.0542626, 22.5174832], [114.0542209, 22.5173822]]]]}}, {"type": "Feature", "id": "way/1429997532", "properties": {"tags": {"building": "apartments", "name": "A栋", "name:zh": "A栋"}, "heightStatus": "unknown", "source": "OpenStreetMap", "license": "ODbL-1.0"}, "geometry": {"type": "MultiPolygon", "coordinates": [[[[114.0547976, 22.5176134], [114.0548159, 22.5175311], [114.0548731, 22.517542], [114.0548797, 22.5175124], [114.0548606, 22.5175088], [114.0548746, 22.5174461], [114.0550384, 22.5174773], [114.0550245, 22.5175399], [114.0550054, 22.5175363], [114.0549988, 22.5175659], [114.0551131, 22.5175877], [114.0551197, 22.5175581], [114.0551007, 22.5175544], [114.0551146, 22.5174917], [114.0552785, 22.5175229], [114.0552645, 22.5175856], [114.0552454, 22.517582], [114.0552388, 22.5176116], [114.055296, 22.5176225], [114.0552776, 22.5177048], [114.0547976, 22.5176134]]]]}}, {"type": "Feature", "id": "way/1429997533", "properties": {"tags": {"building": "apartments", "name": "D栋", "name:zh": "D栋"}, "heightStatus": "unknown", "source": "OpenStreetMap", "license": "ODbL-1.0"}, "geometry": {"type": "MultiPolygon", "coordinates": [[[[114.0548538, 22.5173677], [114.0549091, 22.5171197], [114.0550356, 22.5171437], [114.0549803, 22.5173918], [114.0548538, 22.5173677]]]]}}, {"type": "Feature", "id": "way/1429997534", "properties": {"tags": {"building": "apartments", "name": "B栋", "name:zh": "B栋"}, "heightStatus": "unknown", "source": "OpenStreetMap", "license": "ODbL-1.0"}, "geometry": {"type": "MultiPolygon", "coordinates": [[[[114.0552063, 22.517434], [114.0552616, 22.517186], [114.0553881, 22.51721], [114.0553328, 22.5174581], [114.0552063, 22.517434]]]]}}, {"type": "Feature", "id": "way/1429997535", "properties": {"tags": {"building": "apartments", "name": "C栋", "name:zh": "C栋"}, "heightStatus": "unknown", "source": "OpenStreetMap", "license": "ODbL-1.0"}, "geometry": {"type": "MultiPolygon", "coordinates": [[[[114.0549144, 22.517048], [114.0549328, 22.5169657], [114.0549899, 22.5169766], [114.0549965, 22.516947], [114.0549775, 22.5169433], [114.0549938, 22.5168831], [114.0551572, 22.5169158], [114.0551413, 22.5169745], [114.0551222, 22.5169709], [114.0551156, 22.5170005], [114.0552299, 22.5170222], [114.0552365, 22.5169926], [114.0552175, 22.516989], [114.0552333, 22.5169311], [114.0553967, 22.5169638], [114.0553813, 22.5170202], [114.0553623, 22.5170166], [114.0553557, 22.5170462], [114.0554128, 22.517057], [114.0553945, 22.5171393], [114.0549144, 22.517048]]]]}}, {"type": "Feature", "id": "way/1431060051", "properties": {"tags": {"building": "kindergarten"}, "heightStatus": "unknown", "source": "OpenStreetMap", "license": "ODbL-1.0"}, "geometry": {"type": "MultiPolygon", "coordinates": [[[[114.0583798, 22.5175869], [114.0584217, 22.5175316], [114.0584016, 22.5175186], [114.0584834, 22.5174104], [114.0585366, 22.5174447], [114.0585111, 22.5174785], [114.0585705, 22.5175168], [114.058596, 22.517483], [114.0586367, 22.5174959], [114.058675, 22.5175139], [114.0587102, 22.5175366], [114.0587417, 22.5175637], [114.0587688, 22.5175945], [114.0586885, 22.5177008], [114.058739, 22.5177333], [114.0587205, 22.5177505], [114.0587005, 22.5177661], [114.0586791, 22.5177801], [114.0583798, 22.5175869]]]]}}, {"type": "Feature", "id": "way/1431060052", "properties": {"tags": {"addr:housename": "新桂花村", "addr:housename:en": "Xinguihua Estate", "addr:housename:zh": "新桂花村", "building": "apartments", "name": "5号楼", "name:en": "Block 5", "name:zh": "5号楼"}, "heightStatus": "unknown", "source": "OpenStreetMap", "license": "ODbL-1.0"}, "geometry": {"type": "MultiPolygon", "coordinates": [[[[114.0583068, 22.517873], [114.0583467, 22.5178039], [114.0586852, 22.5179705], [114.0586601, 22.5180141], [114.0590166, 22.5181896], [114.0589767, 22.5182588], [114.0586383, 22.5180921], [114.0586634, 22.5180486], [114.0583068, 22.517873]]]]}}, {"type": "Feature", "id": "way/1431060053", "properties": {"tags": {"addr:housename": "新桂花村", "addr:housename:en": "Xinguihua Estate", "addr:housename:zh": "新桂花村", "building": "apartments", "name": "6号楼", "name:en": "Block 6", "name:zh": "6号楼"}, "heightStatus": "unknown", "source": "OpenStreetMap", "license": "ODbL-1.0"}, "geometry": {"type": "MultiPolygon", "coordinates": [[[[114.0588385, 22.5178964], [114.0588616, 22.5178665], [114.0588932, 22.5178874], [114.0589078, 22.5178687], [114.0589552, 22.5179001], [114.0589987, 22.5178439], [114.0589265, 22.5177961], [114.0589508, 22.5177648], [114.0589824, 22.5177857], [114.0589964, 22.5177676], [114.0590371, 22.5177945], [114.0590482, 22.5177801], [114.0591201, 22.5178277], [114.0591089, 22.517842], [114.0591406, 22.517863], [114.0591265, 22.5178811], [114.0591582, 22.517902], [114.0591338, 22.5179333], [114.0590706, 22.5178915], [114.0590271, 22.5179476], [114.0590907, 22.5179897], [114.0590764, 22.5180082], [114.0590943, 22.51802], [114.0590709, 22.5180502], [114.0589894, 22.5179962], [114.0589808, 22.5180073], [114.0589089, 22.5179598], [114.0589175, 22.5179487], [114.0588385, 22.5178964]]]]}}, {"type": "Feature", "id": "relation/19620519", "properties": {"tags": {"building": "school"}, "heightStatus": "unknown", "source": "OpenStreetMap", "license": "ODbL-1.0"}, "geometry": {"type": "MultiPolygon", "coordinates": [[[[114.0549843, 22.5166388], [114.0550054, 22.5165511], [114.0550322, 22.5165566], [114.0550756, 22.5163758], [114.0550488, 22.5163703], [114.0550699, 22.5162826], [114.0554809, 22.5163668], [114.055402, 22.5166951], [114.055365, 22.5167169], [114.0549843, 22.5166388]], [[114.0551003, 22.5165706], [114.0553354, 22.5166188], [114.0553481, 22.5165662], [114.0553137, 22.5165591], [114.0553319, 22.5164835], [114.0553662, 22.5164905], [114.0553789, 22.5164379], [114.0551438, 22.5163897], [114.0551003, 22.5165706]]]]}}]}