{"type": "FeatureCollection", "features": [{"type": "Feature", "id": "way/193921211", "properties": {"tags": {"addr:city": "深圳市", "addr:district": "福田区", "addr:housenumber": "118", "addr:postcode": "518048", "addr:province": "广东省", "addr:street": "福华三路", "building": "yes", "building:levels": "3", "name": "皇庭广场", "name:en": "Wongtee Plaza", "name:zh": "皇庭广场", "opening_hours": "Su-Th 10:00-22:00; Fr-Sa 10:00-22:30", "shop": "mall", "website": "http://www.wongteeplaza.com"}, "heightStatus": "levels_only_unverified", "source": "OpenStreetMap", "license": "ODbL-1.0"}, "geometry": {"type": "MultiPolygon", "coordinates": [[[[114.0538966, 22.5371463], [114.0539063, 22.5365301], [114.0539079, 22.536428], [114.0539193, 22.5357073], [114.0539208, 22.535613], [114.0542062, 22.5356874], [114.0542741, 22.5357059], [114.0543439, 22.5356453], [114.0544151, 22.5356867], [114.0544982, 22.535728], [114.0545934, 22.5357509], [114.0546887, 22.5357546], [114.0547024, 22.5357539], [114.0547789, 22.5357502], [114.0548715, 22.5357311], [114.054954, 22.5357014], [114.0550335, 22.5356581], [114.055088, 22.5357102], [114.0551917, 22.5356938], [114.0554637, 22.5356337], [114.0554621, 22.5357364], [114.055451, 22.5364468], [114.0554495, 22.5365442], [114.0554398, 22.537167], [114.0552867, 22.537165], [114.0551718, 22.5371634], [114.0548453, 22.537159], [114.0546714, 22.5371568], [114.0544985, 22.5371545], [114.0540871, 22.537149], [114.0539733, 22.5371474], [114.0538966, 22.5371463]]]]}}, {"type": "Feature", "id": "way/193921212", "properties": {"tags": {"addr:city": "深圳市", "addr:district": "福田区", "addr:housenumber": "3", "addr:postcode": "518048", "addr:province": "广东省", "addr:street": "福华一路", "alt_name": "新怡景商业中心;怡景中心城;中心城广场", "building": "yes", "building:levels": "3", "name": "领展中心城", "name:en": "Link CentralWalk", "name:zh": "领展中心城", "shop": "mall", "wikidata": "Q65050145", "wikipedia": "zh:中心城廣場"}, "heightStatus": "levels_only_unverified", "source": "OpenStreetMap", "license": "ODbL-1.0"}, "geometry": {"type": "MultiPolygon", "coordinates": [[[[114.053847, 22.5393536], [114.0538489, 22.5392151], [114.0538537, 22.5388653], [114.0538615, 22.5382952], [114.0538691, 22.5377415], [114.053916, 22.537742], [114.0539626, 22.5377426], [114.0540749, 22.5377439], [114.0544794, 22.5377484], [114.0546643, 22.5377508], [114.0548186, 22.5377528], [114.0551591, 22.5377566], [114.0552776, 22.5377579], [114.0553596, 22.5377589], [114.0554121, 22.5377595], [114.0554047, 22.5383015], [114.0553986, 22.5388753], [114.055392, 22.5392276], [114.0553901, 22.5393724], [114.0553335, 22.5393717], [114.0553077, 22.5393714], [114.0552703, 22.5393709], [114.0551987, 22.5393693], [114.0542068, 22.539358], [114.0540459, 22.539356], [114.0539336, 22.5393546], [114.0538927, 22.5393542], [114.053847, 22.5393536]]]]}}, {"type": "Feature", "id": "way/193921213", "properties": {"tags": {"addr:city": "深圳市", "addr:district": "福田区", "addr:housenumber": "1", "addr:postcode": "518048", "addr:province": "广东省", "addr:street": "福华一路", "building": "commercial", "building:colour": "#0f1a1c", "building:levels": "8", "name": "大中华国际交易广场", "name:en": "Great China International Exchange Square", "name:zh": "大中华国际交易广场"}, "heightStatus": "levels_only_unverified", "source": "OpenStreetMap", "license": "ODbL-1.0"}, "geometry": {"type": "MultiPolygon", "coordinates": [[[[114.0562587, 22.5390791], [114.0562592, 22.539045], [114.0562619, 22.5388836], [114.0562638, 22.5387644], [114.0562673, 22.5385511], [114.0562715, 22.5382917], [114.056272, 22.5382586], [114.0563126, 22.538257], [114.0563543, 22.5382452], [114.0563881, 22.5382237], [114.0564139, 22.5381978], [114.0564297, 22.5381707], [114.0564411, 22.5381368], [114.0564762, 22.5381373], [114.0566917, 22.5381403], [114.0567609, 22.5381168], [114.0568334, 22.5381019], [114.0569118, 22.5380942], [114.0569907, 22.538095], [114.0570689, 22.5381043], [114.0571354, 22.5381216], [114.0571976, 22.5381473], [114.0574113, 22.5381503], [114.0574459, 22.5381507], [114.0574521, 22.5381855], [114.0574658, 22.5382135], [114.0574897, 22.538241], [114.0575219, 22.5382645], [114.0575626, 22.5382789], [114.0576067, 22.5382835], [114.0576062, 22.5383142], [114.057602, 22.5385742], [114.0575987, 22.5387773], [114.0575941, 22.5390606], [114.0575934, 22.5391015], [114.0575556, 22.5391058], [114.0575243, 22.5391163], [114.0574924, 22.5391357], [114.0574641, 22.5391632], [114.0574448, 22.5391993], [114.0574368, 22.5392378], [114.0573893, 22.5392372], [114.0571915, 22.5392344], [114.057118, 22.5392557], [114.0570439, 22.5392705], [114.0569686, 22.5392775], [114.0568928, 22.5392767], [114.0568177, 22.5392681], [114.056741, 22.539251], [114.056661, 22.5392271], [114.0564426, 22.539224], [114.0564102, 22.5392236], [114.0564044, 22.5391856], [114.0563926, 22.5391569], [114.0563708, 22.539128], [114.0563403, 22.5391026], [114.0563006, 22.5390858], [114.0562587, 22.5390791]]]]}}, {"type": "Feature", "id": "way/193923327", "properties": {"tags": {"addr:city": "深圳市", "addr:district": "福田区", "addr:housenumber": "116", "addr:postcode": "518048", "addr:province": "广东省", "addr:street": "福华三路", "building": "commercial", "building:material": "glass", "name": "星河发展中心大厦"}, "heightStatus": "unknown", "source": "OpenStreetMap", "license": "ODbL-1.0"}, "geometry": {"type": "MultiPolygon", "coordinates": [[[[114.0561422, 22.5372022], [114.0561478, 22.5368102], [114.0561529, 22.5364554], [114.0561593, 22.5360084], [114.0561635, 22.5357173], [114.0567172, 22.5357241], [114.056713, 22.5360166], [114.0567014, 22.5368191], [114.0566958, 22.5372091], [114.0561422, 22.5372022]]]]}}, {"type": "Feature", "id": "way/193923330", "properties": {"tags": {"addr:city": "深圳市", "addr:district": "福田区", "addr:housenumber": "3037", "addr:postcode": "518048", "addr:province": "广东省", "addr:street": "金田路", "alt_name": "金中环大厦", "building": "commercial", "name": "金中环商务大厦", "name:en": "Golden Central Tower", "name:zh": "金中环商务大厦"}, "heightStatus": "unknown", "source": "OpenStreetMap", "license": "ODbL-1.0"}, "geometry": {"type": "MultiPolygon", "coordinates": [[[[114.0567847, 22.537211], [114.0567915, 22.536813], [114.0572587, 22.5368198], [114.0572636, 22.5365277], [114.0577721, 22.5365351], [114.0577603, 22.5372265], [114.0576977, 22.5372257], [114.0573317, 22.537219], [114.0567847, 22.537211]]]]}}, {"type": "Feature", "id": "way/245978165", "properties": {"tags": {"building": "retail", "building:levels": "4", "building:material": "glass"}, "heightStatus": "levels_only_unverified", "source": "OpenStreetMap", "license": "ODbL-1.0"}, "geometry": {"type": "MultiPolygon", "coordinates": [[[[114.063302, 22.5410389], [114.0635555, 22.5410326], [114.0635539, 22.541512], [114.063553, 22.5417325], [114.0635578, 22.5417326], [114.0641858, 22.5417423], [114.0641912, 22.5417424], [114.0645003, 22.5417472], [114.0645063, 22.5417473], [114.0652491, 22.5417589], [114.0652552, 22.541759], [114.0655695, 22.5417639], [114.0655759, 22.541764], [114.0662832, 22.541775], [114.0662894, 22.5417751], [114.0665209, 22.5417764], [114.0665177, 22.5420058], [114.0662852, 22.5420035], [114.066279, 22.5420034], [114.0655717, 22.5419924], [114.0655654, 22.5419923], [114.065251, 22.5419874], [114.0652449, 22.5419873], [114.0645021, 22.5419757], [114.0644961, 22.5419756], [114.064187, 22.5419707], [114.0641816, 22.5419706], [114.0635536, 22.5419609], [114.0635488, 22.5419608], [114.0633496, 22.5419609], [114.0633318, 22.5416398], [114.0633252, 22.5415214], [114.063325, 22.5415159], [114.0633035, 22.5410697], [114.0633033, 22.5410652], [114.063302, 22.5410389]]]]}}, {"type": "Feature", "id": "way/269974957", "properties": {"tags": {"addr:city": "深圳市", "addr:district": "福田区", "addr:housenumber": "3038", "addr:postcode": "518033", "addr:province": "广东省", "addr:street": "金田路", "building": "commercial", "name": "现代国际大厦"}, "heightStatus": "unknown", "source": "OpenStreetMap", "license": "ODbL-1.0"}, "geometry": {"type": "MultiPolygon", "coordinates": [[[[114.0584395, 22.5371996], [114.0584403, 22.5371201], [114.0584481, 22.5367944], [114.0584524, 22.5365837], [114.0588964, 22.5365904], [114.0588945, 22.5368035], [114.0588867, 22.5371292], [114.0588859, 22.537206], [114.0588122, 22.5372053], [114.0587391, 22.5372044], [114.0586656, 22.5372036], [114.0584395, 22.5371996]]]]}}, {"type": "Feature", "id": "way/269974967", "properties": {"tags": {"building": "commercial", "building:levels": "33", "height": "180"}, "heightStatus": "height_tag_unverified", "source": "OpenStreetMap", "license": "ODbL-1.0"}, "geometry": {"type": "MultiPolygon", "coordinates": [[[[114.0584403, 22.5371201], [114.0584481, 22.5367944], [114.0588945, 22.5368035], [114.0588867, 22.5371292], [114.0584403, 22.5371201]]]]}}, {"type": "Feature", "id": "way/269978214", "properties": {"tags": {"building": "commercial", "building:levels": "50", "height": "200.5"}, "heightStatus": "height_tag_unverified", "source": "OpenStreetMap", "license": "ODbL-1.0"}, "geometry": {"type": "MultiPolygon", "coordinates": [[[[114.0573317, 22.537219], [114.0573392, 22.5368768], [114.0577053, 22.5368837], [114.0576977, 22.5372257], [114.0573317, 22.537219]]]]}}, {"type": "Feature", "id": "way/269978218", "properties": {"tags": {"building": "roof", "layer": "1", "roof:colour": "#faefe5"}, "heightStatus": "unknown", "source": "OpenStreetMap", "license": "ODbL-1.0"}, "geometry": {"type": "MultiPolygon", "coordinates": [[[[114.0566804, 22.5379412], [114.056787, 22.5379214], [114.0568621, 22.5379123], [114.0569437, 22.5379095], [114.0570219, 22.537916], [114.0571031, 22.5379271], [114.0572136, 22.5379582], [114.0571976, 22.5381473], [114.0571354, 22.5381216], [114.0570689, 22.5381043], [114.0569907, 22.538095], [114.0569118, 22.5380942], [114.0568334, 22.5381019], [114.0567609, 22.5381168], [114.0566917, 22.5381403], [114.0566804, 22.5379412]]]]}}, {"type": "Feature", "id": "way/270044015", "properties": {"tags": {"addr:city": "深圳市", "addr:district": "福田区", "addr:housenumber": "2002", "addr:postcode": "518035", "addr:province": "广东省", "addr:street": "深南大道", "building": "commercial", "building:colour": "#56545a", "building:material": "metal", "name": "南楼", "name:en": "South Building", "name:zh": "南楼", "official_name": "中广核大厦南楼"}, "heightStatus": "unknown", "source": "OpenStreetMap", "license": "ODbL-1.0"}, "geometry": {"type": "MultiPolygon", "coordinates": [[[[114.0618615, 22.5445241], [114.0618634, 22.5443139], [114.0618685, 22.5437439], [114.0621935, 22.5437465], [114.0621884, 22.5443166], [114.0621865, 22.5445266], [114.0618615, 22.5445241]]]]}}, {"type": "Feature", "id": "way/270044025", "properties": {"tags": {"addr:city": "深圳市", "addr:district": "福田区", "addr:housenumber": "2018", "addr:postcode": "518035", "addr:province": "广东省", "addr:street": "金田路", "building": "commercial", "building:levels": "31", "building:material": "glass", "height": "162", "name": "安联大厦", "name:en": "Anlian Tower", "wikidata": "Q136327664"}, "heightStatus": "height_tag_unverified", "source": "OpenStreetMap", "license": "ODbL-1.0"}, "geometry": {"type": "MultiPolygon", "coordinates": [[[[114.0583569, 22.5452936], [114.0583648, 22.5446543], [114.0586188, 22.5446569], [114.0586185, 22.5446836], [114.0587359, 22.5446849], [114.0587337, 22.5448655], [114.0587304, 22.5450864], [114.0587281, 22.5452708], [114.0586158, 22.5452696], [114.0586155, 22.5452963], [114.0583569, 22.5452936]]]]}}, {"type": "Feature", "id": "way/270044910", "properties": {"tags": {"addr:city": "深圳市", "addr:district": "福田区", "addr:housenumber": "3088", "addr:province": "广东省", "addr:street": "金田路", "building": "commercial", "building:levels": "43", "building:material": "glass", "height": "200", "name": "中洲大厦"}, "heightStatus": "height_tag_unverified", "source": "OpenStreetMap", "license": "ODbL-1.0"}, "geometry": {"type": "MultiPolygon", "coordinates": [[[[114.0584003, 22.5402915], [114.0584005, 22.5397429], [114.0588081, 22.539743], [114.0588081, 22.5402916], [114.0584003, 22.5402915]]]]}}, {"type": "Feature", "id": "way/270044919", "properties": {"tags": {"addr:city": "深圳市", "addr:district": "福田区", "addr:housenumber": "100", "addr:postcode": "518048", "addr:province": "广东省", "addr:street": "福华三路", "alt_name:en": "Lihe Tower", "building": "commercial", "name": "鼎和大厦", "name:en": "Dinghe Tower", "name:zh": "鼎和大厦"}, "heightStatus": "unknown", "source": "OpenStreetMap", "license": "ODbL-1.0"}, "geometry": {"type": "MultiPolygon", "coordinates": [[[[114.056881, 22.5363421], [114.0568915, 22.5357918], [114.0573891, 22.5357999], [114.0577516, 22.5358058], [114.0577411, 22.5363561], [114.0573785, 22.5363502], [114.056881, 22.5363421]]]]}}, {"type": "Feature", "id": "way/345406877", "properties": {"tags": {"building": "apartments"}, "heightStatus": "unknown", "source": "OpenStreetMap", "license": "ODbL-1.0"}, "geometry": {"type": "MultiPolygon", "coordinates": [[[[114.0620556, 22.5400091], [114.0620576, 22.5398238], [114.0625379, 22.5398283], [114.0625373, 22.5398854], [114.062536, 22.5400134], [114.0620556, 22.5400091]]]]}}, {"type": "Feature", "id": "way/345406920", "properties": {"tags": {"addr:city": "深圳市", "addr:district": "福田区", "addr:housenumber": "3069", "addr:province": "广东省", "addr:street": "彩田路", "building": "commercial", "building:colour": "#354b4c", "building:levels": "39", "building:material": "glass", "height": "170", "name": "星河世纪大厦", "name:en": "Galaxy Century", "name:zh": "星河世纪大厦"}, "heightStatus": "height_tag_unverified", "source": "OpenStreetMap", "license": "ODbL-1.0"}, "geometry": {"type": "MultiPolygon", "coordinates": [[[[114.0620179, 22.5418234], [114.062025, 22.5413953], [114.0623502, 22.5414], [114.0623454, 22.541692], [114.0623439, 22.5417818], [114.0623431, 22.5418281], [114.0620179, 22.5418234]]]]}}, {"type": "Feature", "id": "way/345406977", "properties": {"tags": {"addr:city": "深圳市", "addr:district": "福田区", "addr:housenumber": "2001", "addr:province": "广东省", "addr:street": "深南大道", "building": "apartments", "name": "嘉麟豪庭"}, "heightStatus": "unknown", "source": "OpenStreetMap", "license": "ODbL-1.0"}, "geometry": {"type": "MultiPolygon", "coordinates": [[[[114.0611347, 22.5416207], [114.061137, 22.5413521], [114.0618678, 22.5413575], [114.0618654, 22.5416261], [114.0611347, 22.5416207]]]]}}, {"type": "Feature", "id": "way/345409505", "properties": {"tags": {"building:colour": "silver", "building:levels": "24", "building:part": "yes", "height": "110", "roof:colour": "#58896b"}, "heightStatus": "height_tag_unverified", "source": "OpenStreetMap", "license": "ODbL-1.0"}, "geometry": {"type": "MultiPolygon", "coordinates": [[[[114.060703, 22.5440296], [114.0607063, 22.5438047], [114.0608627, 22.5438067], [114.0613848, 22.5438134], [114.0615392, 22.5438154], [114.0615358, 22.5440402], [114.0612748, 22.5440369], [114.0609667, 22.544033], [114.060703, 22.5440296]]]]}}, {"type": "Feature", "id": "way/345409507", "properties": {"tags": {"addr:city": "深圳市", "addr:district": "福田区", "addr:housenumber": "2008", "addr:postcode": "518035", "addr:province": "广东省", "addr:street": "深南大道", "building": "commercial", "building:levels": "29", "building:material": "mirror", "name": "B座"}, "heightStatus": "levels_only_unverified", "source": "OpenStreetMap", "license": "ODbL-1.0"}, "geometry": {"type": "MultiPolygon", "coordinates": [[[[114.0600339, 22.5443611], [114.0600367, 22.5441132], [114.060037, 22.5440892], [114.0600396, 22.5438494], [114.0600402, 22.5437933], [114.0600409, 22.5437337], [114.0602168, 22.5437353], [114.06021, 22.5443627], [114.0600339, 22.5443611]]]]}}, {"type": "Feature", "id": "way/345409508", "properties": {"tags": {"addr:city": "深圳市", "addr:district": "福田区", "addr:housenumber": "2008", "addr:postcode": "518035", "addr:province": "广东省", "addr:street": "深南大道", "building": "commercial", "building:levels": "29", "building:material": "mirror", "name": "A座"}, "heightStatus": "levels_only_unverified", "source": "OpenStreetMap", "license": "ODbL-1.0"}, "geometry": {"type": "MultiPolygon", "coordinates": [[[[114.0592154, 22.5439033], [114.0592173, 22.543726], [114.0598591, 22.543732], [114.0598584, 22.5437915], [114.0598578, 22.5438476], [114.0598571, 22.5439094], [114.0594279, 22.5439053], [114.0593864, 22.5439049], [114.0592154, 22.5439033]]]]}}, {"type": "Feature", "id": "way/345409509", "properties": {"tags": {"building": "commercial", "building:levels": "6", "building:material": "mirror", "name": "C座"}, "heightStatus": "levels_only_unverified", "source": "OpenStreetMap", "license": "ODbL-1.0"}, "geometry": {"type": "MultiPolygon", "coordinates": [[[[114.0592105, 22.5443535], [114.0592144, 22.543993], [114.0593853, 22.5439946], [114.0594269, 22.543995], [114.0598574, 22.543999], [114.0598564, 22.5440872], [114.0598561, 22.5441112], [114.0598535, 22.5443595], [114.0592105, 22.5443535]]]]}}, {"type": "Feature", "id": "way/345409510", "properties": {"tags": {"building:colour": "silver", "building:levels": "5", "building:part": "yes"}, "heightStatus": "levels_only_unverified", "source": "OpenStreetMap", "license": "ODbL-1.0"}, "geometry": {"type": "MultiPolygon", "coordinates": [[[[114.0607102, 22.5445202], [114.0607161, 22.5441946], [114.0610757, 22.5442], [114.0611613, 22.5442013], [114.0615349, 22.544207], [114.0615291, 22.5445309], [114.061419, 22.5445292], [114.0614179, 22.5445917], [114.0608229, 22.5445826], [114.060824, 22.5445219], [114.0607102, 22.5445202]]]]}}, {"type": "Feature", "id": "way/345409511", "properties": {"tags": {"building": "residential"}, "heightStatus": "unknown", "source": "OpenStreetMap", "license": "ODbL-1.0"}, "geometry": {"type": "MultiPolygon", "coordinates": [[[[114.062005, 22.5408312], [114.0620071, 22.5406636], [114.0622085, 22.5406659], [114.0622117, 22.5404155], [114.06201, 22.5404133], [114.0620123, 22.5402307], [114.0623798, 22.5402347], [114.0623722, 22.5408352], [114.062005, 22.5408312]]]]}}, {"type": "Feature", "id": "way/345409512", "properties": {"tags": {"addr:block": "C座", "addr:city": "深圳市", "addr:district": "福田区", "addr:housename": "大中华国际金融中心", "addr:housenumber": "1003号", "addr:province": "广东省", "addr:street": "深南大道", "building": "commercial", "building:levels": "23", "height": "120", "name": "C座", "ref": "C"}, "heightStatus": "height_tag_unverified", "source": "OpenStreetMap", "license": "ODbL-1.0"}, "geometry": {"type": "MultiPolygon", "coordinates": [[[[114.0635488, 22.5419608], [114.063553, 22.5417325], [114.0635578, 22.5417326], [114.0641858, 22.5417423], [114.0641912, 22.5417424], [114.064187, 22.5419707], [114.0641816, 22.5419706], [114.0635536, 22.5419609], [114.0635488, 22.5419608]]]]}}, {"type": "Feature", "id": "way/345409515", "properties": {"tags": {"addr:block": "D座", "addr:city": "深圳市", "addr:district": "福田区", "addr:housename": "大中华国际金融中心", "addr:housenumber": "1003号", "addr:province": "广东省", "addr:street": "深南大道", "building": "apartments", "building:levels": "30", "height": "120", "name": "D座", "ref": "D"}, "heightStatus": "height_tag_unverified", "source": "OpenStreetMap", "license": "ODbL-1.0"}, "geometry": {"type": "MultiPolygon", "coordinates": [[[[114.0633033, 22.5410652], [114.063532, 22.5410559], [114.0635322, 22.5410604], [114.0635536, 22.5415065], [114.0635539, 22.541512], [114.0633252, 22.5415214], [114.063325, 22.5415159], [114.0633035, 22.5410697], [114.0633033, 22.5410652]]]]}}, {"type": "Feature", "id": "way/351751591", "properties": {"tags": {"building": "yes"}, "heightStatus": "unknown", "source": "OpenStreetMap", "license": "ODbL-1.0"}, "geometry": {"type": "MultiPolygon", "coordinates": [[[[114.0637993, 22.5393854], [114.0638657, 22.5392074], [114.0639985, 22.5392455], [114.0639364, 22.5394181], [114.0639021, 22.5394114], [114.0639046, 22.5394059], [114.0638589, 22.5393946], [114.0638532, 22.5394118], [114.0638111, 22.5394023], [114.0638154, 22.5393934], [114.0637993, 22.5393854]]]]}}, {"type": "Feature", "id": "way/351751601", "properties": {"tags": {"building": "yes"}, "heightStatus": "unknown", "source": "OpenStreetMap", "license": "ODbL-1.0"}, "geometry": {"type": "MultiPolygon", "coordinates": [[[[114.0632685, 22.5407516], [114.0632688, 22.5405708], [114.0632691, 22.540413], [114.0632693, 22.5402323], [114.0632696, 22.5400776], [114.0632699, 22.5398969], [114.0632701, 22.5397391], [114.0632704, 22.5395583], [114.0632705, 22.5395171], [114.0635263, 22.5395175], [114.0635263, 22.5395522], [114.0635262, 22.5396273], [114.0635261, 22.5396707], [114.063526, 22.5397458], [114.0635257, 22.5398908], [114.0635256, 22.5399659], [114.0635256, 22.5400093], [114.0635254, 22.5400844], [114.0635252, 22.5402262], [114.0635251, 22.5403013], [114.063525, 22.5403447], [114.0635249, 22.5404198], [114.0635247, 22.5405647], [114.0635246, 22.5406399], [114.0635245, 22.5406832], [114.0635244, 22.5407584], [114.0635243, 22.5407931], [114.0632685, 22.5407928], [114.0632685, 22.5407516]]]]}}, {"type": "Feature", "id": "way/351751611", "properties": {"tags": {"building": "yes"}, "heightStatus": "unknown", "source": "OpenStreetMap", "license": "ODbL-1.0"}, "geometry": {"type": "MultiPolygon", "coordinates": [[[[114.0632572, 22.5393173], [114.063258, 22.5392633], [114.0632592, 22.5391765], [114.06326, 22.5391225], [114.0632643, 22.5389341], [114.0632651, 22.5388801], [114.0632663, 22.5387933], [114.063267, 22.5387393], [114.0632686, 22.5385431], [114.0632694, 22.5384891], [114.0632706, 22.5384023], [114.0632714, 22.5383483], [114.0632747, 22.538145], [114.0632755, 22.538091], [114.0632767, 22.5380042], [114.0632774, 22.5379502], [114.0633251, 22.537907], [114.0634807, 22.5379088], [114.0637211, 22.5379117], [114.0638768, 22.5379136], [114.0639232, 22.5379579], [114.0639224, 22.5380119], [114.0639212, 22.5380987], [114.0639205, 22.5381527], [114.0638728, 22.5381959], [114.0637172, 22.5381941], [114.0635891, 22.5381933], [114.0635868, 22.538352], [114.063586, 22.538406], [114.0635848, 22.5384929], [114.0635841, 22.5385468], [114.0635825, 22.538743], [114.0635817, 22.538797], [114.0635805, 22.5388838], [114.0635798, 22.5389378], [114.0635754, 22.5391262], [114.0635746, 22.5391802], [114.0635734, 22.539267], [114.0635727, 22.539321], [114.063525, 22.5393642], [114.0633037, 22.5393616], [114.0632572, 22.5393173]]]]}}, {"type": "Feature", "id": "way/351751648", "properties": {"tags": {"building": "yes"}, "heightStatus": "unknown", "source": "OpenStreetMap", "license": "ODbL-1.0"}, "geometry": {"type": "MultiPolygon", "coordinates": [[[[114.0637537, 22.540875], [114.0637926, 22.540742], [114.0638698, 22.5407613], [114.0638309, 22.5408943], [114.0637537, 22.540875]]]]}}, {"type": "Feature", "id": "way/351751649", "properties": {"tags": {"building": "yes"}, "heightStatus": "unknown", "source": "OpenStreetMap", "license": "ODbL-1.0"}, "geometry": {"type": "MultiPolygon", "coordinates": [[[[114.063732, 22.5407004], [114.0637818, 22.5405873], [114.0638597, 22.5406062], [114.0638244, 22.5407315], [114.063732, 22.5407004]]]]}}, {"type": "Feature", "id": "way/351751689", "properties": {"tags": {"building": "yes"}, "heightStatus": "unknown", "source": "OpenStreetMap", "license": "ODbL-1.0"}, "geometry": {"type": "MultiPolygon", "coordinates": [[[[114.0637738, 22.5391458], [114.0637924, 22.5390785], [114.0639643, 22.539119], [114.0639457, 22.5391864], [114.0637738, 22.5391458]]]]}}, {"type": "Feature", "id": "way/351751703", "properties": {"tags": {"building": "yes"}, "heightStatus": "unknown", "source": "OpenStreetMap", "license": "ODbL-1.0"}, "geometry": {"type": "MultiPolygon", "coordinates": [[[[114.063678, 22.5410246], [114.063752, 22.541043], [114.0637178, 22.5411604], [114.0637075, 22.5411569], [114.063678, 22.5410246]]]]}}, {"type": "Feature", "id": "way/351751720", "properties": {"tags": {"building": "yes"}, "heightStatus": "unknown", "source": "OpenStreetMap", "license": "ODbL-1.0"}, "geometry": {"type": "MultiPolygon", "coordinates": [[[[114.0638251, 22.5401671], [114.0638599, 22.5400611], [114.0639775, 22.540094], [114.0639427, 22.5402], [114.0638251, 22.5401671]]]]}}, {"type": "Feature", "id": "way/351751731", "properties": {"tags": {"building": "yes"}, "heightStatus": "unknown", "source": "OpenStreetMap", "license": "ODbL-1.0"}, "geometry": {"type": "MultiPolygon", "coordinates": [[[[114.0638092, 22.5411928], [114.0638431, 22.5410768], [114.0639026, 22.5410916], [114.0638687, 22.5412077], [114.0638092, 22.5411928]]]]}}, {"type": "Feature", "id": "way/351751733", "properties": {"tags": {"building": "yes"}, "heightStatus": "unknown", "source": "OpenStreetMap", "license": "ODbL-1.0"}, "geometry": {"type": "MultiPolygon", "coordinates": [[[[114.0638388, 22.5407362], [114.063866, 22.5406431], [114.0639303, 22.5406591], [114.0639031, 22.5407523], [114.0638388, 22.5407362]]]]}}, {"type": "Feature", "id": "way/351751763", "properties": {"tags": {"building": "yes"}, "heightStatus": "unknown", "source": "OpenStreetMap", "license": "ODbL-1.0"}, "geometry": {"type": "MultiPolygon", "coordinates": [[[[114.0637823, 22.5405611], [114.0638139, 22.5404722], [114.0639281, 22.5405069], [114.0638965, 22.5405957], [114.0637823, 22.5405611]]]]}}, {"type": "Feature", "id": "way/351751766", "properties": {"tags": {"building": "yes"}, "heightStatus": "unknown", "source": "OpenStreetMap", "license": "ODbL-1.0"}, "geometry": {"type": "MultiPolygon", "coordinates": [[[[114.0637215, 22.5411798], [114.0637678, 22.5410509], [114.06383, 22.5410664], [114.0637918, 22.5411974], [114.0637215, 22.5411798]]]]}}, {"type": "Feature", "id": "way/351751767", "properties": {"tags": {"building": "yes"}, "heightStatus": "unknown", "source": "OpenStreetMap", "license": "ODbL-1.0"}, "geometry": {"type": "MultiPolygon", "coordinates": [[[[114.0637152, 22.5410146], [114.0637511, 22.5408916], [114.0637974, 22.5409031], [114.0637615, 22.5410261], [114.0637152, 22.5410146]]]]}}, {"type": "Feature", "id": "way/351751778", "properties": {"tags": {"building": "yes"}, "heightStatus": "unknown", "source": "OpenStreetMap", "license": "ODbL-1.0"}, "geometry": {"type": "MultiPolygon", "coordinates": [[[[114.0638379, 22.5408987], [114.0638765, 22.5407664], [114.0639351, 22.540781], [114.0638964, 22.5409133], [114.0638379, 22.5408987]]]]}}, {"type": "Feature", "id": "way/351751807", "properties": {"tags": {"building": "yes"}, "heightStatus": "unknown", "source": "OpenStreetMap", "license": "ODbL-1.0"}, "geometry": {"type": "MultiPolygon", "coordinates": [[[[114.0638209, 22.5388988], [114.0638338, 22.5388522], [114.0639368, 22.5388764], [114.0639239, 22.5389231], [114.0638209, 22.5388988]]]]}}, {"type": "Feature", "id": "way/351751898", "properties": {"tags": {"building": "yes"}, "heightStatus": "unknown", "source": "OpenStreetMap", "license": "ODbL-1.0"}, "geometry": {"type": "MultiPolygon", "coordinates": [[[[114.0637752, 22.5403597], [114.0638205, 22.5402177], [114.0639114, 22.5402329], [114.0639091, 22.5403322], [114.0638437, 22.5403786], [114.0637752, 22.5403597]]]]}}, {"type": "Feature", "id": "way/351751901", "properties": {"tags": {"building": "yes"}, "heightStatus": "unknown", "source": "OpenStreetMap", "license": "ODbL-1.0"}, "geometry": {"type": "MultiPolygon", "coordinates": [[[[114.063636, 22.540994], [114.0636449, 22.5408631], [114.0636558, 22.5408582], [114.0637338, 22.5408867], [114.0636972, 22.5410128], [114.063636, 22.540994]]]]}}, {"type": "Feature", "id": "way/351751902", "properties": {"tags": {"building": "yes"}, "heightStatus": "unknown", "source": "OpenStreetMap", "license": "ODbL-1.0"}, "geometry": {"type": "MultiPolygon", "coordinates": [[[[114.063749, 22.5398786], [114.0637561, 22.5398572], [114.0637835, 22.5398142], [114.0638675, 22.5398359], [114.0638465, 22.5399], [114.063749, 22.5398786]]]]}}, {"type": "Feature", "id": "way/351751908", "properties": {"tags": {"building": "yes"}, "heightStatus": "unknown", "source": "OpenStreetMap", "license": "ODbL-1.0"}, "geometry": {"type": "MultiPolygon", "coordinates": [[[[114.0637432, 22.5403967], [114.0637555, 22.540363], [114.0638375, 22.5403858], [114.063836, 22.5403939], [114.0638161, 22.5404184], [114.0637432, 22.5403967]]]]}}, {"type": "Feature", "id": "way/351751916", "properties": {"tags": {"building": "yes"}, "heightStatus": "unknown", "source": "OpenStreetMap", "license": "ODbL-1.0"}, "geometry": {"type": "MultiPolygon", "coordinates": [[[[114.0637685, 22.5390317], [114.0637847, 22.538975], [114.063792, 22.5389783], [114.063806, 22.538927], [114.06391, 22.5389674], [114.0638756, 22.539064], [114.0637685, 22.5390317]]]]}}, {"type": "Feature", "id": "way/351751942", "properties": {"tags": {"building": "yes"}, "heightStatus": "unknown", "source": "OpenStreetMap", "license": "ODbL-1.0"}, "geometry": {"type": "MultiPolygon", "coordinates": [[[[114.063798, 22.5398018], [114.0638344, 22.5396911], [114.0638411, 22.5396929], [114.0638504, 22.5396644], [114.063912, 22.5396841], [114.0638674, 22.5398212], [114.063798, 22.5398018]]]]}}, {"type": "Feature", "id": "way/351751944", "properties": {"tags": {"building": "yes"}, "heightStatus": "unknown", "source": "OpenStreetMap", "license": "ODbL-1.0"}, "geometry": {"type": "MultiPolygon", "coordinates": [[[[114.0636927, 22.5415384], [114.0638995, 22.541543], [114.0638994, 22.5415664], [114.0639097, 22.5415666], [114.0639111, 22.5416239], [114.0636964, 22.5416239], [114.0636927, 22.5415384]]]]}}, {"type": "Feature", "id": "way/351751956", "properties": {"tags": {"building": "yes"}, "heightStatus": "unknown", "source": "OpenStreetMap", "license": "ODbL-1.0"}, "geometry": {"type": "MultiPolygon", "coordinates": [[[[114.0636462, 22.5408053], [114.0636622, 22.5407333], [114.0637155, 22.5407174], [114.0637873, 22.5407461], [114.0637416, 22.5408724], [114.0636558, 22.5408455], [114.0636462, 22.5408053]]]]}}, {"type": "Feature", "id": "way/351752002", "properties": {"tags": {"building": "yes"}, "heightStatus": "unknown", "source": "OpenStreetMap", "license": "ODbL-1.0"}, "geometry": {"type": "MultiPolygon", "coordinates": [[[[114.0636417, 22.5398496], [114.0636892, 22.5397215], [114.0636794, 22.5397181], [114.0637133, 22.5396348], [114.0638133, 22.539673], [114.0637514, 22.5398321], [114.0637303, 22.5398262], [114.0637108, 22.5398722], [114.0636417, 22.5398496]]]]}}, {"type": "Feature", "id": "way/351752006", "properties": {"tags": {"building": "yes"}, "heightStatus": "unknown", "source": "OpenStreetMap", "license": "ODbL-1.0"}, "geometry": {"type": "MultiPolygon", "coordinates": [[[[114.0637773, 22.5410327], [114.063815, 22.5409186], [114.0638485, 22.5409281], [114.0638396, 22.5409655], [114.0639266, 22.5409965], [114.0639018, 22.5410748], [114.0638614, 22.5410651], [114.0638639, 22.5410566], [114.0637773, 22.5410327]]]]}}, {"type": "Feature", "id": "way/351752028", "properties": {"tags": {"building": "yes"}, "heightStatus": "unknown", "source": "OpenStreetMap", "license": "ODbL-1.0"}, "geometry": {"type": "MultiPolygon", "coordinates": [[[[114.0636317, 22.5402398], [114.06364, 22.5399742], [114.0636613, 22.5399055], [114.0638541, 22.5399498], [114.063778, 22.5402268], [114.0638025, 22.5402337], [114.0637665, 22.5403436], [114.063641, 22.5403086], [114.063663, 22.5402417], [114.0636317, 22.5402398]]]]}}, {"type": "Feature", "id": "way/351762260", "properties": {"tags": {"building": "yes"}, "heightStatus": "unknown", "source": "OpenStreetMap", "license": "ODbL-1.0"}, "geometry": {"type": "MultiPolygon", "coordinates": [[[[114.0636017, 22.5444213], [114.0636029, 22.54436], [114.0636047, 22.5442683], [114.0636984, 22.5442698], [114.0641783, 22.5442776], [114.0641766, 22.5443693], [114.0641752, 22.5444398], [114.0640824, 22.5444383], [114.0640838, 22.5443678], [114.0639249, 22.5443652], [114.0639236, 22.5444337], [114.0638248, 22.5444321], [114.0638261, 22.5443636], [114.0636966, 22.5443615], [114.0636955, 22.5444228], [114.0636017, 22.5444213]]]]}}, {"type": "Feature", "id": "way/351762267", "properties": {"tags": {"building": "yes"}, "heightStatus": "unknown", "source": "OpenStreetMap", "license": "ODbL-1.0"}, "geometry": {"type": "MultiPolygon", "coordinates": [[[[114.0632867, 22.5446255], [114.0632882, 22.5445491], [114.063803, 22.5445575], [114.0638016, 22.5446338], [114.0632867, 22.5446255]]]]}}, {"type": "Feature", "id": "way/351762280", "properties": {"tags": {"building": "yes"}, "heightStatus": "unknown", "source": "OpenStreetMap", "license": "ODbL-1.0"}, "geometry": {"type": "MultiPolygon", "coordinates": [[[[114.063542, 22.5440036], [114.0635432, 22.5439416], [114.0637864, 22.5439455], [114.0637852, 22.5440075], [114.063542, 22.5440036]]]]}}, {"type": "Feature", "id": "way/351762287", "properties": {"tags": {"addr:housename": "彩福大厦", "addr:housename:zh": "彩福大厦", "building": "apartments", "building:levels": "29", "layer": "1", "name": "嘉福阁", "name:zh": "嘉福阁"}, "heightStatus": "levels_only_unverified", "source": "OpenStreetMap", "license": "ODbL-1.0"}, "geometry": {"type": "MultiPolygon", "coordinates": [[[[114.0622781, 22.5381417], [114.0622811, 22.5379277], [114.0623237, 22.5378892], [114.0625554, 22.537892], [114.0625972, 22.5379314], [114.0625941, 22.5381455], [114.0625513, 22.5381839], [114.0623196, 22.5381811], [114.0622781, 22.5381417]]]]}}, {"type": "Feature", "id": "way/351762288", "properties": {"tags": {"building": "yes"}, "heightStatus": "unknown", "source": "OpenStreetMap", "license": "ODbL-1.0"}, "geometry": {"type": "MultiPolygon", "coordinates": [[[[114.0633017, 22.5444148], [114.063309, 22.5440333], [114.0635337, 22.5440369], [114.0635265, 22.5444184], [114.0633017, 22.5444148]]]]}}, {"type": "Feature", "id": "way/545448762", "properties": {"tags": {"building:levels": "40", "building:material": "glass", "building:part": "yes", "height": "177"}, "heightStatus": "height_tag_unverified", "source": "OpenStreetMap", "license": "ODbL-1.0"}, "geometry": {"type": "MultiPolygon", "coordinates": [[[[114.0584624, 22.5441172], [114.0584692, 22.5437266], [114.0585704, 22.5437281], [114.0587994, 22.5437315], [114.0589043, 22.5437331], [114.0588974, 22.5441237], [114.0584624, 22.5441172]]]]}}, {"type": "Feature", "id": "way/545448763", "properties": {"tags": {"building:part": "yes"}, "heightStatus": "unknown", "source": "OpenStreetMap", "license": "ODbL-1.0"}, "geometry": {"type": "MultiPolygon", "coordinates": [[[[114.0584573, 22.5444084], [114.0584624, 22.5441172], [114.0588974, 22.5441237], [114.0588923, 22.5444149], [114.0584573, 22.5444084]]]]}}, {"type": "Feature", "id": "way/545448765", "properties": {"tags": {"addr:city": "深圳市", "addr:district": "福田区", "addr:housenumber": "2005", "addr:postcode": "518035", "addr:province": "广东省", "addr:street": "福中三路", "building": "commercial", "building:levels": "22", "height": "109.3", "name": "民生金融大厦"}, "heightStatus": "height_tag_unverified", "source": "OpenStreetMap", "license": "ODbL-1.0"}, "geometry": {"type": "MultiPolygon", "coordinates": [[[[114.0598849, 22.5452469], [114.0598913, 22.5446827], [114.0601788, 22.5446855], [114.0601724, 22.5452496], [114.0598849, 22.5452469]]]]}}, {"type": "Feature", "id": "way/586140646", "properties": {"tags": {"addr:city": "深圳市", "addr:district": "福田区", "addr:housenumber": "319", "addr:postcode": "518026", "addr:province": "广东省", "addr:street": "福华路", "building": "commercial", "building:levels": "30", "name": "兆邦基金融大厦"}, "heightStatus": "levels_only_unverified", "source": "OpenStreetMap", "license": "ODbL-1.0"}, "geometry": {"type": "MultiPolygon", "coordinates": [[[[114.062292, 22.5372476], [114.0622973, 22.5367978], [114.0625731, 22.5368007], [114.0625679, 22.5372503], [114.062292, 22.5372476]]]]}}, {"type": "Feature", "id": "way/612997284", "properties": {"tags": {"building:levels": "65", "building:material": "mirror", "building:part": "commercial", "height": "253.6"}, "heightStatus": "height_tag_unverified", "source": "OpenStreetMap", "license": "ODbL-1.0"}, "geometry": {"type": "MultiPolygon", "coordinates": [[[[114.05841, 22.5382314], [114.0584127, 22.5378145], [114.0586557, 22.537816], [114.0587957, 22.5378171], [114.0588467, 22.5378169], [114.0588439, 22.5382338], [114.05841, 22.5382314]]]]}}, {"type": "Feature", "id": "way/612997285", "properties": {"tags": {"addr:city": "深圳市", "addr:district": "福田区", "addr:housenumber": "350", "addr:province": "广东省", "addr:street": "福华路", "building": "commercial", "name": "皇庭中心", "name:en": "Wongtee Plaza", "name:zh": "皇庭中心", "wikidata": "Q28057931"}, "heightStatus": "unknown", "source": "OpenStreetMap", "license": "ODbL-1.0"}, "geometry": {"type": "MultiPolygon", "coordinates": [[[[114.0584079, 22.5385242], [114.05841, 22.5382314], [114.0584127, 22.5378145], [114.0586557, 22.537816], [114.0587957, 22.5378171], [114.0588467, 22.5378169], [114.0590023, 22.5378195], [114.0590803, 22.5378205], [114.0591577, 22.5378214], [114.0593497, 22.5378199], [114.059345, 22.5384956], [114.0591108, 22.5384943], [114.0591118, 22.5383545], [114.058833, 22.5383529], [114.0588318, 22.5385266], [114.0584079, 22.5385242]]]]}}, {"type": "Feature", "id": "way/612997286", "properties": {"tags": {"addr:city": "深圳市", "addr:district": "福田区", "addr:housenumber": "3086", "addr:province": "广东省", "addr:street": "金田路", "alt_name": "大百汇中心", "building": "commercial", "building:levels": "77", "building:material": "mirror", "check_date": "2021-04-22", "height": "375.6", "name": "大百汇广场", "name:en": "Dabaihui Plaza", "name:zh": "大百汇广场", "old_name": "深圳中心", "old_name:en": "Shenzhen Center", "old_name:zh": "深圳中心", "wikidata": "Q15811586", "wikipedia": "en:Shenzhen Center"}, "heightStatus": "height_tag_unverified", "source": "OpenStreetMap", "license": "ODbL-1.0"}, "geometry": {"type": "MultiPolygon", "coordinates": [[[[114.0584302, 22.5393169], [114.0584319, 22.5389697], [114.0584375, 22.538936], [114.0584603, 22.5389148], [114.0584937, 22.5389035], [114.0588107, 22.5389224], [114.0588578, 22.5389348], [114.0588871, 22.5389669], [114.0588937, 22.5390001], [114.0588922, 22.5393203], [114.0588838, 22.5393524], [114.0588586, 22.5393758], [114.0588227, 22.5393819], [114.0584943, 22.5393764], [114.0584581, 22.53937], [114.058438, 22.5393488], [114.0584302, 22.5393169]]]]}}, {"type": "Feature", "id": "way/612997288", "properties": {"tags": {"building": "yes"}, "heightStatus": "unknown", "source": "OpenStreetMap", "license": "ODbL-1.0"}, "geometry": {"type": "MultiPolygon", "coordinates": [[[[114.0607559, 22.5390669], [114.0607574, 22.5388334], [114.0610534, 22.5388349], [114.0610527, 22.538954], [114.0611365, 22.5389544], [114.0611358, 22.5390688], [114.0607559, 22.5390669]]]]}}, {"type": "Feature", "id": "way/612997289", "properties": {"tags": {"building": "yes"}, "heightStatus": "unknown", "source": "OpenStreetMap", "license": "ODbL-1.0"}, "geometry": {"type": "MultiPolygon", "coordinates": [[[[114.0607602, 22.5383993], [114.0607619, 22.5381361], [114.0610439, 22.5381377], [114.0610422, 22.5384008], [114.0607602, 22.5383993]]]]}}, {"type": "Feature", "id": "way/612997290", "properties": {"tags": {"building": "yes"}, "heightStatus": "unknown", "source": "OpenStreetMap", "license": "ODbL-1.0"}, "geometry": {"type": "MultiPolygon", "coordinates": [[[[114.0612448, 22.5380733], [114.0612458, 22.5379091], [114.061441, 22.5379098], [114.0615229, 22.5379108], [114.0615987, 22.5379109], [114.0616543, 22.5379112], [114.0617145, 22.5379115], [114.0618201, 22.5379121], [114.0618189, 22.538102], [114.0617824, 22.5381018], [114.061782, 22.5381586], [114.0616413, 22.5381579], [114.0616421, 22.5380212], [114.0615816, 22.5380209], [114.0615814, 22.5380476], [114.0614193, 22.5380468], [114.0614187, 22.5381454], [114.0612993, 22.5381448], [114.0612997, 22.5380736], [114.0612448, 22.5380733]]]]}}, {"type": "Feature", "id": "way/612997291", "properties": {"tags": {"building": "yes"}, "heightStatus": "unknown", "source": "OpenStreetMap", "license": "ODbL-1.0"}, "geometry": {"type": "MultiPolygon", "coordinates": [[[[114.0615772, 22.5388926], [114.0615808, 22.5383581], [114.0618172, 22.5383595], [114.0618137, 22.5388939], [114.0615772, 22.5388926]]]]}}, {"type": "Feature", "id": "way/612997411", "properties": {"tags": {"building": "yes"}, "heightStatus": "unknown", "source": "OpenStreetMap", "license": "ODbL-1.0"}, "geometry": {"type": "MultiPolygon", "coordinates": [[[[114.0611778, 22.5393284], [114.0611783, 22.5392508], [114.061344, 22.5392517], [114.0613438, 22.5392813], [114.0615057, 22.5392821], [114.0615053, 22.5393444], [114.061631, 22.5393451], [114.0616326, 22.5391077], [114.0618123, 22.5391087], [114.06181, 22.5394672], [114.061613, 22.5394661], [114.0616133, 22.5394166], [114.0614605, 22.5394157], [114.0614602, 22.5394653], [114.0611977, 22.5394638], [114.0611986, 22.5393285], [114.0611778, 22.5393284]]]]}}, {"type": "Feature", "id": "way/617162836", "properties": {"tags": {"building": "commercial"}, "heightStatus": "unknown", "source": "OpenStreetMap", "license": "ODbL-1.0"}, "geometry": {"type": "MultiPolygon", "coordinates": [[[[114.0587337, 22.5448655], [114.0587359, 22.5446849], [114.0588269, 22.5446859], [114.0588253, 22.5448661], [114.0587337, 22.5448655]]]]}}, {"type": "Feature", "id": "way/657177566", "properties": {"tags": {"addr:housename": "彩虹新都", "addr:housename:zh": "彩虹新都", "building": "yes", "layer": "1", "name": "彩虹大厦", "office": "yes"}, "heightStatus": "unknown", "source": "OpenStreetMap", "license": "ODbL-1.0"}, "geometry": {"type": "MultiPolygon", "coordinates": [[[[114.0632747, 22.538145], [114.0632755, 22.538091], [114.0633094, 22.5380602], [114.0633097, 22.5380358], [114.0632767, 22.5380042], [114.0632774, 22.5379502], [114.0633251, 22.537907], [114.0634807, 22.5379088], [114.0635403, 22.5379653], [114.0635397, 22.5380073], [114.0635591, 22.5380076], [114.0635594, 22.5379892], [114.0635776, 22.5379762], [114.0636001, 22.5379717], [114.0635978, 22.5381312], [114.0635755, 22.5381262], [114.0635576, 22.5381128], [114.0635579, 22.5380944], [114.0635385, 22.5380942], [114.0635379, 22.5381362], [114.0634768, 22.5381912], [114.0633211, 22.5381893], [114.0632747, 22.538145]]]]}}, {"type": "Feature", "id": "way/657177569", "properties": {"tags": {"addr:housename": "彩虹新都", "addr:housename:zh": "彩虹新都", "building": "yes", "layer": "1", "name": "海鹰大厦", "office": "yes"}, "heightStatus": "unknown", "source": "OpenStreetMap", "license": "ODbL-1.0"}, "geometry": {"type": "MultiPolygon", "coordinates": [[[[114.0635978, 22.5381312], [114.0636001, 22.5379717], [114.0636224, 22.5379767], [114.0636402, 22.5379902], [114.06364, 22.5380085], [114.0636594, 22.5380088], [114.06366, 22.5379667], [114.0637211, 22.5379117], [114.0638768, 22.5379136], [114.0639232, 22.5379579], [114.0639224, 22.5380119], [114.0638885, 22.5380427], [114.0638882, 22.5380671], [114.0639212, 22.5380987], [114.0639205, 22.5381527], [114.0638728, 22.5381959], [114.0637172, 22.5381941], [114.0636576, 22.5381376], [114.0636582, 22.5380956], [114.0636388, 22.5380953], [114.0636385, 22.5381137], [114.0636203, 22.5381267], [114.0635978, 22.5381312]]]]}}, {"type": "Feature", "id": "way/702183064", "properties": {"tags": {"addr:city": "深圳市", "addr:district": "福田区", "addr:province": "广东省", "addr:street": "彩田路", "building": "residential", "building:levels": "0", "layer": "1"}, "heightStatus": "levels_only_unverified", "source": "OpenStreetMap", "license": "ODbL-1.0"}, "geometry": {"type": "MultiPolygon", "coordinates": [[[[114.0637306, 22.5414546], [114.0637511, 22.5413891], [114.0637674, 22.5413877], [114.0637832, 22.5413143], [114.0637681, 22.5413118], [114.0637779, 22.5412718], [114.0639788, 22.5413093], [114.0639528, 22.5414012], [114.0638758, 22.5413856], [114.0638468, 22.5414782], [114.0637395, 22.5414545], [114.0637306, 22.5414546]]]]}}, {"type": "Feature", "id": "way/702185238", "properties": {"tags": {"addr:city": "深圳市", "addr:district": "福田区", "addr:housenumber": "1980", "addr:postcode": "518000", "addr:province": "广东省", "addr:street": "彩田路", "building": "residential", "building:levels": "4", "layer": "1", "name": "城上绿云屋顶花园"}, "heightStatus": "levels_only_unverified", "source": "OpenStreetMap", "license": "ODbL-1.0"}, "geometry": {"type": "MultiPolygon", "coordinates": [[[[114.0637507, 22.5410703], [114.0637931, 22.5409483], [114.0639129, 22.540987], [114.0638732, 22.5411048], [114.0637507, 22.5410703]]]]}}, {"type": "Feature", "id": "way/776141677", "properties": {"tags": {"building": "commercial", "building:colour": "#0f1a1c", "building:levels": "42", "height": "195"}, "heightStatus": "height_tag_unverified", "source": "OpenStreetMap", "license": "ODbL-1.0"}, "geometry": {"type": "MultiPolygon", "coordinates": [[[[114.0562592, 22.539045], [114.0562619, 22.5388836], [114.0562638, 22.5387644], [114.0563213, 22.5387676], [114.0563813, 22.5387745], [114.0564381, 22.5387868], [114.0564893, 22.5388036], [114.0565327, 22.5388305], [114.0565656, 22.5388632], [114.0565913, 22.5388943], [114.0566117, 22.5389264], [114.0566289, 22.5389614], [114.0566648, 22.5389618], [114.0567404, 22.538939], [114.0568174, 22.5389229], [114.0568958, 22.5389152], [114.0569746, 22.538916], [114.0570529, 22.5389253], [114.0571264, 22.538942], [114.0571952, 22.5389683], [114.0572289, 22.5389686], [114.0572457, 22.5389302], [114.057267, 22.5388986], [114.0572936, 22.5388681], [114.0573275, 22.5388364], [114.0573717, 22.5388105], [114.0574234, 22.5387951], [114.0574805, 22.5387842], [114.0575407, 22.5387788], [114.0575987, 22.5387773], [114.0575941, 22.5390606], [114.0575489, 22.5390662], [114.0575142, 22.5390768], [114.0574768, 22.5390949], [114.0574464, 22.5391188], [114.0574209, 22.5391507], [114.0574049, 22.5391841], [114.0573893, 22.5392372], [114.0571915, 22.5392344], [114.057118, 22.5392557], [114.0570439, 22.5392705], [114.0569686, 22.5392775], [114.0568928, 22.5392767], [114.0568177, 22.5392681], [114.056741, 22.539251], [114.056661, 22.5392271], [114.0564426, 22.539224], [114.0564357, 22.5391805], [114.0564217, 22.5391421], [114.0564008, 22.5391116], [114.0563704, 22.5390835], [114.0563376, 22.5390653], [114.0563006, 22.5390521], [114.0562592, 22.539045]]]]}}, {"type": "Feature", "id": "way/776141678", "properties": {"tags": {"building": "commercial", "building:colour": "#0f1a1c", "building:levels": "30"}, "heightStatus": "levels_only_unverified", "source": "OpenStreetMap", "license": "ODbL-1.0"}, "geometry": {"type": "MultiPolygon", "coordinates": [[[[114.0562673, 22.5385511], [114.0562715, 22.5382917], [114.0563236, 22.5382867], [114.0563654, 22.5382741], [114.0563986, 22.5382566], [114.0564295, 22.5382289], [114.056451, 22.5381987], [114.056464, 22.538173], [114.0564762, 22.5381373], [114.0566917, 22.5381403], [114.0567695, 22.5381413], [114.0567592, 22.5382104], [114.0567416, 22.538274], [114.0567165, 22.5383281], [114.0566851, 22.5383765], [114.056649, 22.5384191], [114.0566032, 22.5384593], [114.0565533, 22.5384899], [114.0565019, 22.5385147], [114.0564503, 22.5385306], [114.0563933, 22.5385421], [114.0563333, 22.538548], [114.0562673, 22.5385511]]]]}}, {"type": "Feature", "id": "way/776141679", "properties": {"tags": {"building": "commercial", "building:colour": "#0f1a1c", "building:levels": "30"}, "heightStatus": "levels_only_unverified", "source": "OpenStreetMap", "license": "ODbL-1.0"}, "geometry": {"type": "MultiPolygon", "coordinates": [[[[114.0571151, 22.5381461], [114.0571976, 22.5381473], [114.0574113, 22.5381503], [114.0574182, 22.538188], [114.0574304, 22.5382141], [114.0574509, 22.5382449], [114.0574809, 22.5382734], [114.0575134, 22.538292], [114.0575548, 22.5383057], [114.0576062, 22.5383142], [114.057602, 22.5385742], [114.0575365, 22.5385666], [114.0574767, 22.538559], [114.05742, 22.5385459], [114.0573691, 22.5385285], [114.0573185, 22.5385023], [114.0572697, 22.5384703], [114.0572252, 22.5384288], [114.0571906, 22.5383852], [114.0571607, 22.5383359], [114.0571375, 22.5382812], [114.057122, 22.538217], [114.0571151, 22.5381461]]]]}}, {"type": "Feature", "id": "way/776141681", "properties": {"tags": {"building": "commercial", "building:levels": "48", "height": "230.9"}, "heightStatus": "height_tag_unverified", "source": "OpenStreetMap", "license": "ODbL-1.0"}, "geometry": {"type": "MultiPolygon", "coordinates": [[[[114.0573785, 22.5363502], [114.0573891, 22.5357999], [114.0577516, 22.5358058], [114.0577411, 22.5363561], [114.0573785, 22.5363502]]]]}}, {"type": "Feature", "id": "way/776141684", "properties": {"tags": {"building": "commercial", "building:levels": "28", "building:material": "glass", "height": "100"}, "heightStatus": "height_tag_unverified", "source": "OpenStreetMap", "license": "ODbL-1.0"}, "geometry": {"type": "MultiPolygon", "coordinates": [[[[114.0561422, 22.5372022], [114.0561478, 22.5368102], [114.0567014, 22.5368191], [114.0566958, 22.5372091], [114.0561422, 22.5372022]]]]}}, {"type": "Feature", "id": "way/776141685", "properties": {"tags": {"addr:city": "深圳市", "addr:district": "福田区", "addr:housenumber": "2007", "addr:province": "广东省", "addr:street": "深南大道", "building": "commercial", "building:colour": "white", "building:levels": "33", "building:material": "concrete", "height": "168.9", "name": "金地中心", "name:en": "Golden Land Center", "name:zh": "金地中心"}, "heightStatus": "height_tag_unverified", "source": "OpenStreetMap", "license": "ODbL-1.0"}, "geometry": {"type": "MultiPolygon", "coordinates": [[[[114.0584888, 22.5416738], [114.0584931, 22.5412388], [114.0589742, 22.5412429], [114.05897, 22.5416779], [114.0584888, 22.5416738]]]]}}, {"type": "Feature", "id": "way/776141686", "properties": {"tags": {"building": "yes"}, "heightStatus": "unknown", "source": "OpenStreetMap", "license": "ODbL-1.0"}, "geometry": {"type": "MultiPolygon", "coordinates": [[[[114.0563313, 22.5378433], [114.0563336, 22.5378257], [114.0563417, 22.5378096], [114.0563549, 22.5377967], [114.0563718, 22.5377883], [114.0563919, 22.5377851], [114.056412, 22.5377884], [114.0564298, 22.5377976], [114.0564433, 22.5378118], [114.0564509, 22.5378293], [114.0564517, 22.5378482], [114.0564457, 22.5378662], [114.0564335, 22.5378814], [114.0564166, 22.5378919], [114.0563968, 22.5378967], [114.0563765, 22.5378951], [114.0563589, 22.5378879], [114.0563446, 22.5378761], [114.0563351, 22.5378607], [114.0563313, 22.5378433]]]]}}, {"type": "Feature", "id": "way/776141687", "properties": {"tags": {"building": "yes"}, "heightStatus": "unknown", "source": "OpenStreetMap", "license": "ODbL-1.0"}, "geometry": {"type": "MultiPolygon", "coordinates": [[[[114.057534, 22.5378606], [114.0575363, 22.537843], [114.0575444, 22.5378269], [114.0575576, 22.537814], [114.0575745, 22.5378056], [114.0575947, 22.5378025], [114.0576148, 22.5378057], [114.0576326, 22.5378149], [114.057646, 22.5378291], [114.0576536, 22.5378467], [114.0576544, 22.5378655], [114.0576484, 22.5378835], [114.0576363, 22.5378987], [114.0576193, 22.5379092], [114.0575996, 22.537914], [114.0575792, 22.5379124], [114.0575616, 22.5379052], [114.0575474, 22.5378934], [114.0575379, 22.537878], [114.057534, 22.5378606]]]]}}, {"type": "Feature", "id": "way/776141688", "properties": {"tags": {"building": "commercial", "building:levels": "54", "height": "218"}, "heightStatus": "height_tag_unverified", "source": "OpenStreetMap", "license": "ODbL-1.0"}, "geometry": {"type": "MultiPolygon", "coordinates": [[[[114.0584655, 22.5361774], [114.0584792, 22.5361346], [114.0584972, 22.536098], [114.0585281, 22.5360559], [114.0585569, 22.5360295], [114.0585885, 22.5360037], [114.0586321, 22.5359796], [114.0586798, 22.5359581], [114.0587293, 22.5359441], [114.0587801, 22.5359356], [114.0590887, 22.5359413], [114.0590859, 22.5360715], [114.0590833, 22.5361887], [114.0584655, 22.5361774]]]]}}, {"type": "Feature", "id": "way/776141690", "properties": {"tags": {"building": "commercial", "building:levels": "40"}, "heightStatus": "levels_only_unverified", "source": "OpenStreetMap", "license": "ODbL-1.0"}, "geometry": {"type": "MultiPolygon", "coordinates": [[[[114.0590859, 22.5360715], [114.0590887, 22.5359413], [114.0592341, 22.535945], [114.0592302, 22.5359696], [114.0592214, 22.5359933], [114.0592086, 22.5360142], [114.0591913, 22.5360331], [114.0591721, 22.5360478], [114.059146, 22.5360611], [114.059117, 22.5360692], [114.0590859, 22.5360715]]]]}}, {"type": "Feature", "id": "way/776141693", "properties": {"tags": {"building": "retail", "building:levels": "5", "name": "卓悦中心西区", "name:en": "One Avenue West", "name:zh": "卓悦中心西区", "operator": "卓越集团"}, "heightStatus": "levels_only_unverified", "source": "OpenStreetMap", "license": "ODbL-1.0"}, "geometry": {"type": "MultiPolygon", "coordinates": [[[[114.059084, 22.5393235], [114.0590846, 22.5389375], [114.0590861, 22.5389256], [114.0590921, 22.5389174], [114.0591034, 22.5389097], [114.059115, 22.5389068], [114.059443, 22.538909], [114.0594509, 22.537896], [114.0594711, 22.5378557], [114.0594996, 22.5378386], [114.059545, 22.5378277], [114.0597504, 22.537826], [114.0598705, 22.5378275], [114.0599769, 22.5378215], [114.0600424, 22.5378308], [114.0600878, 22.5378448], [114.0601315, 22.5378727], [114.0601601, 22.5379104], [114.0601781, 22.5379573], [114.0601836, 22.538014], [114.0601768, 22.5380605], [114.0601466, 22.5381211], [114.0601163, 22.5381723], [114.0601063, 22.5382251], [114.0601029, 22.5382825], [114.0601079, 22.5383632], [114.0601449, 22.5384873], [114.0601668, 22.538568], [114.0601785, 22.5386301], [114.0601785, 22.5386829], [114.0601651, 22.5387326], [114.06016, 22.5387915], [114.0601617, 22.5389235], [114.0601752, 22.5390926], [114.0601634, 22.5392075], [114.0601432, 22.5392897], [114.0600979, 22.5393549], [114.060039, 22.5394061], [114.0599617, 22.5394403], [114.0598845, 22.5394496], [114.0597954, 22.539448], [114.0596946, 22.5394356], [114.0595837, 22.5394232], [114.0594963, 22.5394217], [114.0593971, 22.5394294], [114.0592795, 22.5394418], [114.059214, 22.5394434], [114.05916, 22.5394367], [114.0591218, 22.5394181], [114.0590989, 22.5393895], [114.0590869, 22.5393541], [114.059084, 22.5393235]]]]}}, {"type": "Feature", "id": "way/776141694", "properties": {"tags": {"building": "commercial", "building:levels": "35"}, "heightStatus": "levels_only_unverified", "source": "OpenStreetMap", "license": "ODbL-1.0"}, "geometry": {"type": "MultiPolygon", "coordinates": [[[[114.0590957, 22.5390387], [114.059096, 22.5389213], [114.0591026, 22.5389118], [114.059115, 22.5389068], [114.059443, 22.538909], [114.0595261, 22.5389095], [114.0595359, 22.5389157], [114.0595407, 22.5389258], [114.0595393, 22.5390432], [114.0595363, 22.5390541], [114.0595258, 22.5390632], [114.0594649, 22.5390845], [114.0594088, 22.5390939], [114.0593487, 22.5390984], [114.0592833, 22.5390973], [114.0592204, 22.5390919], [114.0591575, 22.5390771], [114.0591092, 22.5390568], [114.0591, 22.5390477], [114.0590957, 22.5390387]]]]}}, {"type": "Feature", "id": "way/776141696", "properties": {"tags": {"building": "retail", "name": "卓悦中心东区", "operator": "卓越集团"}, "heightStatus": "unknown", "source": "OpenStreetMap", "license": "ODbL-1.0"}, "geometry": {"type": "MultiPolygon", "coordinates": [[[[114.0607533, 22.5394614], [114.0607559, 22.5390669], [114.0607574, 22.5388334], [114.0607602, 22.5383993], [114.0607619, 22.5381361], [114.0610439, 22.5381377], [114.0610943, 22.5381935], [114.0611739, 22.5381321], [114.0611943, 22.538098], [114.0611965, 22.5380555], [114.0611853, 22.5380225], [114.0611614, 22.5379807], [114.0611509, 22.5379469], [114.0611472, 22.5379101], [114.0612458, 22.5379091], [114.061441, 22.5379098], [114.0615229, 22.5379108], [114.0615987, 22.5379111], [114.0615987, 22.5379109], [114.0616694, 22.5379126], [114.0616543, 22.5379112], [114.0617145, 22.5379115], [114.0618201, 22.5379121], [114.0618189, 22.538102], [114.0618184, 22.5381839], [114.0616797, 22.5381832], [114.0616787, 22.5383396], [114.0618173, 22.5383404], [114.0618172, 22.5383595], [114.0618137, 22.5388939], [114.0618135, 22.5389297], [114.0616604, 22.5389289], [114.0616593, 22.5390931], [114.0618124, 22.539094], [114.0618123, 22.5391087], [114.06181, 22.5394672], [114.061613, 22.5394661], [114.0616133, 22.5394166], [114.0614605, 22.5394157], [114.0614602, 22.5394653], [114.0611977, 22.5394638], [114.0607533, 22.5394614]]]]}}, {"type": "Feature", "id": "way/776141697", "properties": {"tags": {"building": "apartments"}, "heightStatus": "unknown", "source": "OpenStreetMap", "license": "ODbL-1.0"}, "geometry": {"type": "MultiPolygon", "coordinates": [[[[114.0605212, 22.5409725], [114.0606486, 22.5405373], [114.060885, 22.5405963], [114.0607577, 22.5410316], [114.0605212, 22.5409725]]]]}}, {"type": "Feature", "id": "way/776141698", "properties": {"tags": {"building": "apartments"}, "heightStatus": "unknown", "source": "OpenStreetMap", "license": "ODbL-1.0"}, "geometry": {"type": "MultiPolygon", "coordinates": [[[[114.0606976, 22.5402214], [114.0606993, 22.5397957], [114.0609082, 22.5397964], [114.0609064, 22.5402222], [114.0606976, 22.5402214]]]]}}, {"type": "Feature", "id": "way/776141700", "properties": {"tags": {"building": "apartments"}, "heightStatus": "unknown", "source": "OpenStreetMap", "license": "ODbL-1.0"}, "geometry": {"type": "MultiPolygon", "coordinates": [[[[114.0591796, 22.5402246], [114.0591806, 22.5399654], [114.0594689, 22.5399663], [114.0594679, 22.5402255], [114.0591796, 22.5402246]]]]}}, {"type": "Feature", "id": "way/776141701", "properties": {"tags": {"building": "apartments"}, "heightStatus": "unknown", "source": "OpenStreetMap", "license": "ODbL-1.0"}, "geometry": {"type": "MultiPolygon", "coordinates": [[[[114.0594776, 22.5405754], [114.0594792, 22.5403536], [114.0601199, 22.5403577], [114.0601183, 22.5405796], [114.0594776, 22.5405754]]]]}}, {"type": "Feature", "id": "way/776141702", "properties": {"tags": {"building": "apartments"}, "heightStatus": "unknown", "source": "OpenStreetMap", "license": "ODbL-1.0"}, "geometry": {"type": "MultiPolygon", "coordinates": [[[[114.059529, 22.5417549], [114.0595307, 22.5415331], [114.0601714, 22.5415372], [114.0601697, 22.5417591], [114.059529, 22.5417549]]]]}}, {"type": "Feature", "id": "way/776141703", "properties": {"tags": {"building": "apartments"}, "heightStatus": "unknown", "source": "OpenStreetMap", "license": "ODbL-1.0"}, "geometry": {"type": "MultiPolygon", "coordinates": [[[[114.0590242, 22.5410489], [114.0590317, 22.5404572], [114.0592718, 22.5404598], [114.0592644, 22.5410515], [114.0590242, 22.5410489]]]]}}, {"type": "Feature", "id": "way/776141704", "properties": {"tags": {"building": "apartments"}, "heightStatus": "unknown", "source": "OpenStreetMap", "license": "ODbL-1.0"}, "geometry": {"type": "MultiPolygon", "coordinates": [[[[114.0591, 22.5417373], [114.0591008, 22.5415457], [114.0593891, 22.5415467], [114.0593883, 22.5417384], [114.0591, 22.5417373]]]]}}, {"type": "Feature", "id": "way/776141705", "properties": {"tags": {"addr:city": "深圳市", "addr:district": "福田区", "addr:housenumber": "2003", "addr:province": "广东省", "addr:street": "深南大道", "building": "commercial", "name": "华嵘大厦"}, "heightStatus": "unknown", "source": "OpenStreetMap", "license": "ODbL-1.0"}, "geometry": {"type": "MultiPolygon", "coordinates": [[[[114.0605596, 22.5417902], [114.0605645, 22.5413402], [114.0609223, 22.5413435], [114.0609175, 22.5417935], [114.0605596, 22.5417902]]]]}}, {"type": "Feature", "id": "way/776141707", "properties": {"tags": {"building": "yes", "name": "星河·第3空间", "shop": "mall"}, "heightStatus": "unknown", "source": "OpenStreetMap", "license": "ODbL-1.0"}, "geometry": {"type": "MultiPolygon", "coordinates": [[[[114.0619991, 22.5413156], [114.062005, 22.5408312], [114.0620071, 22.5406636], [114.06201, 22.5404133], [114.0620123, 22.5402307], [114.0620172, 22.5398232], [114.0620576, 22.5398238], [114.0625379, 22.5398283], [114.0625373, 22.5398854], [114.062573, 22.5398857], [114.0623963, 22.5413197], [114.0619991, 22.5413156]]]]}}, {"type": "Feature", "id": "way/776898831", "properties": {"tags": {"addr:city": "深圳市", "addr:district": "福田区", "addr:housenumber": "2009", "addr:postcode": "518026", "addr:province": "广东省", "addr:street": "彩田路", "building": "commercial", "building:levels": "33", "height": "150.5", "name": "瀚森大厦"}, "heightStatus": "height_tag_unverified", "source": "OpenStreetMap", "license": "ODbL-1.0"}, "geometry": {"type": "MultiPolygon", "coordinates": [[[[114.0622976, 22.5363735], [114.0623007, 22.5361146], [114.0625811, 22.5361174], [114.0625742, 22.5367136], [114.0623843, 22.5367116], [114.0623883, 22.5363745], [114.0622976, 22.5363735]]]]}}, {"type": "Feature", "id": "way/777201406", "properties": {"tags": {"building:part": "yes"}, "heightStatus": "unknown", "source": "OpenStreetMap", "license": "ODbL-1.0"}, "geometry": {"type": "MultiPolygon", "coordinates": [[[[114.0585704, 22.5437281], [114.0585725, 22.5436195], [114.0588014, 22.5436232], [114.0587994, 22.5437315], [114.0585704, 22.5437281]]]]}}, {"type": "Feature", "id": "way/781193985", "properties": {"tags": {"building:levels": "23", "building:material": "glass", "building:part": "yes", "height": "120", "roof:material": "concrete"}, "heightStatus": "height_tag_unverified", "source": "OpenStreetMap", "license": "ODbL-1.0"}, "geometry": {"type": "MultiPolygon", "coordinates": [[[[114.0635536, 22.5419609], [114.0635578, 22.5417326], [114.0641858, 22.5417423], [114.0641816, 22.5419706], [114.0635536, 22.5419609]]]]}}, {"type": "Feature", "id": "way/781193986", "properties": {"tags": {"building:levels": "23", "building:material": "concrete", "building:min_level": "4", "building:part": "yes", "height": "120", "roof:material": "concrete"}, "heightStatus": "height_tag_unverified", "source": "OpenStreetMap", "license": "ODbL-1.0"}, "geometry": {"type": "MultiPolygon", "coordinates": [[[[114.0635488, 22.5419608], [114.063553, 22.5417325], [114.0635578, 22.5417326], [114.0635536, 22.5419609], [114.0635488, 22.5419608]]]]}}, {"type": "Feature", "id": "way/781193988", "properties": {"tags": {"building:levels": "23", "building:material": "concrete", "building:min_level": "4", "building:part": "yes", "height": "120", "roof:material": "concrete"}, "heightStatus": "height_tag_unverified", "source": "OpenStreetMap", "license": "ODbL-1.0"}, "geometry": {"type": "MultiPolygon", "coordinates": [[[[114.0633033, 22.5410652], [114.063532, 22.5410559], [114.0635322, 22.5410604], [114.0633035, 22.5410697], [114.0633033, 22.5410652]]]]}}, {"type": "Feature", "id": "way/781193989", "properties": {"tags": {"building:levels": "23", "building:material": "glass", "building:part": "yes", "height": "120", "roof:material": "concrete"}, "heightStatus": "height_tag_unverified", "source": "OpenStreetMap", "license": "ODbL-1.0"}, "geometry": {"type": "MultiPolygon", "coordinates": [[[[114.0633035, 22.5410697], [114.0635322, 22.5410604], [114.0635536, 22.5415065], [114.063325, 22.5415159], [114.0633035, 22.5410697]]]]}}, {"type": "Feature", "id": "way/781193990", "properties": {"tags": {"building:levels": "23", "building:material": "concrete", "building:min_level": "4", "building:part": "yes", "height": "120", "roof:material": "concrete"}, "heightStatus": "height_tag_unverified", "source": "OpenStreetMap", "license": "ODbL-1.0"}, "geometry": {"type": "MultiPolygon", "coordinates": [[[[114.063325, 22.5415159], [114.0635536, 22.5415065], [114.0635539, 22.541512], [114.0633252, 22.5415214], [114.063325, 22.5415159]]]]}}, {"type": "Feature", "id": "way/781271949", "properties": {"tags": {"building:levels": "5", "building:part": "yes"}, "heightStatus": "levels_only_unverified", "source": "OpenStreetMap", "license": "ODbL-1.0"}, "geometry": {"type": "MultiPolygon", "coordinates": [[[[114.0609662, 22.5440662], [114.0609667, 22.544033], [114.0612748, 22.5440369], [114.0612743, 22.5440701], [114.0611634, 22.5440687], [114.0610779, 22.5440675], [114.0609662, 22.5440662]]]]}}, {"type": "Feature", "id": "way/781271950", "properties": {"tags": {"building:levels": "5", "building:min_level": "2", "building:part": "yes"}, "heightStatus": "levels_only_unverified", "source": "OpenStreetMap", "license": "ODbL-1.0"}, "geometry": {"type": "MultiPolygon", "coordinates": [[[[114.0610757, 22.5442], [114.0610779, 22.5440675], [114.0611634, 22.5440687], [114.0611613, 22.5442013], [114.0610757, 22.5442]]]]}}, {"type": "Feature", "id": "way/781271951", "properties": {"tags": {"building:colour": "#56545a", "building:levels": "39", "building:material": "metal", "building:part": "yes", "height": "177", "roof:colour": "#56545a"}, "heightStatus": "height_tag_unverified", "source": "OpenStreetMap", "license": "ODbL-1.0"}, "geometry": {"type": "MultiPolygon", "coordinates": [[[[114.0618634, 22.5443139], [114.0618685, 22.5437439], [114.0621935, 22.5437465], [114.0621884, 22.5443166], [114.0618634, 22.5443139]]]]}}, {"type": "Feature", "id": "way/781271953", "properties": {"tags": {"building:colour": "#56545a", "building:levels": "4", "building:material": "metal", "building:part": "yes", "height": "25", "roof:colour": "#56545a"}, "heightStatus": "height_tag_unverified", "source": "OpenStreetMap", "license": "ODbL-1.0"}, "geometry": {"type": "MultiPolygon", "coordinates": [[[[114.0618615, 22.5445241], [114.0618634, 22.5443139], [114.0621884, 22.5443166], [114.0621865, 22.5445266], [114.0618615, 22.5445241]]]]}}, {"type": "Feature", "id": "way/781271954", "properties": {"tags": {"building:colour": "#56545a", "building:levels": "24", "building:material": "metal", "building:min_level": "8", "building:part": "yes", "height": "108", "min_height": "38", "roof:colour": "#56545a"}, "heightStatus": "height_tag_unverified", "source": "OpenStreetMap", "license": "ODbL-1.0"}, "geometry": {"type": "MultiPolygon", "coordinates": [[[[114.0619755, 22.5447758], [114.0619782, 22.5446288], [114.0623003, 22.544634], [114.0622975, 22.544781], [114.0619755, 22.5447758]]]]}}, {"type": "Feature", "id": "way/781271956", "properties": {"tags": {"building:levels": "8", "building:part": "yes"}, "heightStatus": "levels_only_unverified", "source": "OpenStreetMap", "license": "ODbL-1.0"}, "geometry": {"type": "MultiPolygon", "coordinates": [[[[114.0606501, 22.5440289], [114.060654, 22.5437644], [114.0608633, 22.5437671], [114.0608627, 22.5438067], [114.0607063, 22.5438047], [114.060703, 22.5440296], [114.0606501, 22.5440289]]]]}}, {"type": "Feature", "id": "way/781271957", "properties": {"tags": {"building:levels": "8", "building:part": "yes"}, "heightStatus": "levels_only_unverified", "source": "OpenStreetMap", "license": "ODbL-1.0"}, "geometry": {"type": "MultiPolygon", "coordinates": [[[[114.0613848, 22.5438134], [114.0613854, 22.5437738], [114.0615944, 22.5437764], [114.0615904, 22.5440409], [114.0615358, 22.5440402], [114.0615392, 22.5438154], [114.0613848, 22.5438134]]]]}}, {"type": "Feature", "id": "way/781536990", "properties": {"tags": {"building": "yes", "building:material": "glass", "height": "20", "roof:material": "glass"}, "heightStatus": "height_tag_unverified", "source": "OpenStreetMap", "license": "ODbL-1.0"}, "geometry": {"type": "MultiPolygon", "coordinates": [[[[114.0552916, 22.5437255], [114.0552921, 22.5436712], [114.0554202, 22.5436722], [114.0554197, 22.5437265], [114.0552916, 22.5437255]]]]}}, {"type": "Feature", "id": "way/781536991", "properties": {"tags": {"building": "yes", "building:material": "glass", "height": "20", "roof:material": "glass"}, "heightStatus": "height_tag_unverified", "source": "OpenStreetMap", "license": "ODbL-1.0"}, "geometry": {"type": "MultiPolygon", "coordinates": [[[[114.0552831, 22.5444499], [114.0552836, 22.5443956], [114.0554117, 22.5443966], [114.0554112, 22.5444509], [114.0552831, 22.5444499]]]]}}, {"type": "Feature", "id": "way/800275816", "properties": {"tags": {"building": "train_station", "building:levels": "0", "building:levels:underground": "2", "layer": "-1", "location": "underground", "name": "会展中心站", "name:en": "Convention & Exhibition Center Station", "name:zh": "会展中心站", "operator": "深圳市地铁集团", "public_transport": "station", "start_date": "2004-12-28", "wikidata": "Q3270120", "wikimedia_commons": "Category:Convention & Exhibition Center Station (Shenzhen)", "wikipedia": "zh:会展中心站 (深圳市)"}, "heightStatus": "levels_only_unverified", "source": "OpenStreetMap", "license": "ODbL-1.0"}, "geometry": {"type": "MultiPolygon", "coordinates": [[[[114.0554675, 22.5375977], [114.0554716, 22.5373253], [114.0558203, 22.537327], [114.0558423, 22.5372955], [114.0558502, 22.53652], [114.0560298, 22.5365215], [114.0560274, 22.5367572], [114.0560513, 22.5367574], [114.0560539, 22.5364824], [114.0561141, 22.5364829], [114.0561107, 22.5368436], [114.0560286, 22.536843], [114.0560242, 22.5373195], [114.0560778, 22.537374], [114.0566596, 22.5373787], [114.0566599, 22.5373518], [114.056208, 22.537348], [114.0562086, 22.5372961], [114.0571722, 22.5372986], [114.0571675, 22.5376309], [114.0570094, 22.5376322], [114.0570077, 22.5378006], [114.0576832, 22.5378063], [114.0576823, 22.5378923], [114.0563043, 22.5378808], [114.0563052, 22.5377946], [114.0568623, 22.5377993], [114.0568639, 22.537631], [114.0560441, 22.5376227], [114.0560423, 22.5377969], [114.055835, 22.5377951], [114.055836, 22.5376948], [114.0557172, 22.5376938], [114.0557182, 22.5375972], [114.0554675, 22.5375977]]]]}}, {"type": "Feature", "id": "way/864705250", "properties": {"tags": {"building": "train_station", "building:levels": "0", "building:levels:underground": "2", "layer": "-1", "location": "underground", "name": "市民中心站", "name:en": "Civic Center Station", "name:zh": "市民中心站", "operator": "深圳市地铁集团;港铁（深圳）", "wikidata": "Q877067", "wikimedia_commons": "Category:Civic Center Station (Shenzhen)", "wikipedia": "zh:市民中心站 (深圳地鐵)"}, "heightStatus": "levels_only_unverified", "source": "OpenStreetMap", "license": "ODbL-1.0"}, "geometry": {"type": "MultiPolygon", "coordinates": [[[[114.0555248, 22.5452795], [114.0555514, 22.54348], [114.0557125, 22.543482], [114.0557106, 22.5436145], [114.0557695, 22.5436153], [114.0557712, 22.5434947], [114.0557439, 22.5434944], [114.0557452, 22.5433994], [114.0559484, 22.5434018], [114.0559516, 22.5431647], [114.0561719, 22.5431672], [114.0561714, 22.5432025], [114.0568431, 22.5432101], [114.0568444, 22.5431121], [114.0569391, 22.5430944], [114.0569558, 22.5431352], [114.0570867, 22.5431374], [114.0570882, 22.5430597], [114.057149, 22.5430607], [114.0571482, 22.5430989], [114.0572586, 22.5431007], [114.0572573, 22.5431691], [114.057411, 22.5431716], [114.0574046, 22.543504], [114.0572771, 22.5435019], [114.0572785, 22.5434303], [114.0571725, 22.5434286], [114.0571702, 22.5435502], [114.0570665, 22.5435485], [114.057069, 22.5434144], [114.0566193, 22.5434072], [114.0566176, 22.5434961], [114.0563515, 22.5434918], [114.0563421, 22.5439918], [114.0566938, 22.5439975], [114.0566923, 22.5440785], [114.0563422, 22.5440729], [114.0563383, 22.5442781], [114.0560003, 22.5442727], [114.0559932, 22.5446529], [114.0562525, 22.5446571], [114.0562517, 22.5446982], [114.0563365, 22.5446996], [114.0565009, 22.5448514], [114.0564894, 22.5453069], [114.0564148, 22.5453053], [114.0564257, 22.5448726], [114.0563182, 22.5447843], [114.0559956, 22.5447802], [114.0559941, 22.5448745], [114.0560695, 22.5448755], [114.0560664, 22.5450842], [114.055722, 22.5450798], [114.0557239, 22.544958], [114.0556323, 22.5449568], [114.0556275, 22.5452808], [114.0555248, 22.5452795]]]]}}, {"type": "Feature", "id": "way/925221213", "properties": {"tags": {"addr:city": "深圳市", "addr:district": "福田区", "addr:housenumber": "2006", "addr:postcode": "518035", "addr:province": "广东省", "addr:street": "深南大道", "alt_name": "深圳海关科技信息业务综合大楼", "building": "yes", "government": "customs", "name": "深圳海关", "name:en": "Shenzhen Costuoms", "name:zh": "深圳海关", "office": "government", "phone": "+86 755 8439 8000"}, "heightStatus": "unknown", "source": "OpenStreetMap", "license": "ODbL-1.0"}, "geometry": {"type": "MultiPolygon", "coordinates": [[[[114.0606501, 22.5440289], [114.060654, 22.5437644], [114.0608633, 22.5437671], [114.0608627, 22.5438067], [114.0613848, 22.5438134], [114.0613854, 22.5437738], [114.0615944, 22.5437764], [114.0615904, 22.5440409], [114.0615358, 22.5440402], [114.0612748, 22.5440369], [114.0612743, 22.5440701], [114.0611634, 22.5440687], [114.0611613, 22.5442013], [114.0615349, 22.544207], [114.0615291, 22.5445309], [114.061419, 22.5445292], [114.0614179, 22.5445917], [114.0608229, 22.5445826], [114.060824, 22.5445219], [114.0607102, 22.5445202], [114.0607161, 22.5441946], [114.0610757, 22.5442], [114.0610779, 22.5440675], [114.0609662, 22.5440662], [114.0609667, 22.544033], [114.060703, 22.5440296], [114.0606501, 22.5440289]]]]}}, {"type": "Feature", "id": "way/925221214", "properties": {"tags": {"addr:city": "深圳市", "addr:district": "福田区", "addr:housenumber": "2010", "addr:postcode": "518035", "addr:province": "广东省", "addr:street": "深南大道", "building": "commercial", "building:material": "glass", "name": "中国移动深圳信息大厦", "name:en": "China Mobile Building", "name:zh": "中国移动深圳信息大厦"}, "heightStatus": "unknown", "source": "OpenStreetMap", "license": "ODbL-1.0"}, "geometry": {"type": "MultiPolygon", "coordinates": [[[[114.0584573, 22.5444084], [114.0584624, 22.5441172], [114.0584692, 22.5437266], [114.0585704, 22.5437281], [114.0585725, 22.5436195], [114.0588014, 22.5436232], [114.0587994, 22.5437315], [114.0589043, 22.5437331], [114.0588974, 22.5441237], [114.0588923, 22.5444149], [114.0584573, 22.5444084]]]]}}, {"type": "Feature", "id": "relation/15525717", "properties": {"tags": {"building": "train_station", "building:levels": "0", "building:levels:underground": "3", "layer": "-2", "location": "underground", "name": "岗厦北站", "name:en": "Gangxia North Station", "name:zh": "岗厦北站", "public_transport": "station", "start_date": "2011-06-28", "wikidata": "Q5521287", "wikimedia_commons": "Category:Gangxia North Station", "wikipedia": "zh:岗厦北站"}, "heightStatus": "levels_only_unverified", "source": "OpenStreetMap", "license": "ODbL-1.0"}, "geometry": {"type": "MultiPolygon", "coordinates": [[[[114.0583056, 22.5432103], [114.0583213, 22.5424862], [114.058326, 22.542265], [114.0585479, 22.5422684], [114.0585544, 22.5418841], [114.0586958, 22.5418894], [114.05869, 22.5424611], [114.0588001, 22.5424632], [114.0587986, 22.5425302], [114.0590126, 22.542534], [114.0589545, 22.542374], [114.0590249, 22.542374], [114.0590831, 22.5425355], [114.0599049, 22.542549], [114.0599784, 22.5423928], [114.0600804, 22.5423997], [114.060011, 22.5425515], [114.0608245, 22.5425675], [114.0608281, 22.5423994], [114.0610528, 22.5424035], [114.0610546, 22.5423158], [114.061212, 22.5423187], [114.0612066, 22.5425685], [114.0614951, 22.5425738], [114.0614975, 22.5424627], [114.0618461, 22.5424691], [114.0618563, 22.5419976], [114.0623671, 22.542007], [114.0626498, 22.5420122], [114.0626546, 22.5417872], [114.0623439, 22.5417818], [114.0623454, 22.541692], [114.0626565, 22.5416996], [114.0626597, 22.5415532], [114.0625045, 22.5415504], [114.0625105, 22.5412731], [114.0626389, 22.5412754], [114.0626443, 22.541025], [114.0625226, 22.5410227], [114.0625375, 22.5403352], [114.0626542, 22.5403373], [114.0626718, 22.5395213], [114.0622392, 22.5395134], [114.0622407, 22.5394441], [114.0626608, 22.5394518], [114.0626719, 22.538939], [114.0625752, 22.5389373], [114.0625847, 22.5384939], [114.0626825, 22.5384957], [114.0627079, 22.5377299], [114.0631063, 22.5377343], [114.063055, 22.5400239], [114.0629736, 22.5400224], [114.0629533, 22.5409636], [114.0630562, 22.5409655], [114.0630637, 22.540619], [114.0631402, 22.5406204], [114.0631293, 22.5411278], [114.0630658, 22.5411266], [114.0630629, 22.5412625], [114.0630404, 22.5412621], [114.0630347, 22.5415251], [114.0633252, 22.5415214], [114.0633318, 22.5416398], [114.0630322, 22.5416437], [114.0630246, 22.5419953], [114.0633221, 22.5420008], [114.063784, 22.5420093], [114.0637809, 22.5421489], [114.0640333, 22.5421536], [114.0640287, 22.5423647], [114.0648022, 22.5423789], [114.0648046, 22.5422691], [114.0660007, 22.5422911], [114.0659938, 22.5426119], [114.0664962, 22.5426212], [114.0669818, 22.5426301], [114.0669732, 22.5430316], [114.0666133, 22.5430249], [114.0666145, 22.5429692], [114.0663115, 22.5429636], [114.066305, 22.5432642], [114.0662351, 22.5432629], [114.0662416, 22.5429614], [114.0659195, 22.5429555], [114.0659123, 22.5432927], [114.0654222, 22.5432836], [114.0654237, 22.5432154], [114.0658594, 22.5432234], [114.0658652, 22.5429539], [114.0652778, 22.5429431], [114.0652699, 22.5433076], [114.0650858, 22.5433042], [114.0650849, 22.5433455], [114.0644892, 22.5433346], [114.0644889, 22.5433523], [114.065103, 22.5433636], [114.0651038, 22.5433249], [114.0652727, 22.543328], [114.065265, 22.5436858], [114.0649393, 22.5436798], [114.0649425, 22.5435281], [114.0648863, 22.5435271], [114.0648848, 22.5435968], [114.0647424, 22.5435942], [114.0647441, 22.543515], [114.0640135, 22.5435015], [114.0640106, 22.5436366], [114.0635823, 22.5436287], [114.0635837, 22.5435632], [114.0638667, 22.5435684], [114.0638679, 22.5435146], [114.0635095, 22.543508], [114.0635064, 22.5436513], [114.06324, 22.5436464], [114.0632474, 22.5433037], [114.0634566, 22.5433076], [114.0634574, 22.543271], [114.063181, 22.543266], [114.0631801, 22.5433041], [114.0616678, 22.5432763], [114.0616683, 22.5432514], [114.0611706, 22.5432423], [114.0611743, 22.5430694], [114.0611056, 22.5430681], [114.0611023, 22.5432229], [114.0610202, 22.5432214], [114.0609381, 22.5432199], [114.0609413, 22.5430702], [114.0599585, 22.5430521], [114.0600464, 22.543229], [114.0599939, 22.5432311], [114.0599413, 22.5432331], [114.0598468, 22.5430518], [114.0584634, 22.5430246], [114.0584593, 22.5432131], [114.0583056, 22.5432103]], [[114.0636258, 22.5433123], [114.0638956, 22.5433139], [114.0638954, 22.5433525], [114.0643873, 22.5433555], [114.0643881, 22.5432425], [114.0645753, 22.5432437], [114.0645756, 22.5432043], [114.0643162, 22.5432027], [114.0643156, 22.5432781], [114.0636261, 22.5432738], [114.0636258, 22.5433123]]]]}}, {"type": "Feature", "id": "way/1195269080", "properties": {"tags": {"building": "train_station", "building:levels": "0", "building:levels:underground": "2", "layer": "-1", "location": "underground", "name": "岗厦站", "name:en": "Gangxia Station", "name:zh": "岗厦站", "operator": "深圳市地铁集团", "public_transport": "station", "start_date": "2004-12-28", "wikidata": "Q5521290", "wikimedia_commons": "Category:Gangxia Station", "wikipedia": "zh:岗厦站"}, "heightStatus": "levels_only_unverified", "source": "OpenStreetMap", "license": "ODbL-1.0"}, "geometry": {"type": "MultiPolygon", "coordinates": [[[[114.0616543, 22.5379112], [114.0616558, 22.5377838], [114.0620111, 22.537789], [114.0623197, 22.5377935], [114.0623208, 22.5377265], [114.0618025, 22.5377178], [114.0618044, 22.5375818], [114.0618068, 22.5374183], [114.062337, 22.5374255], [114.0623375, 22.5373967], [114.0620432, 22.5373924], [114.0620438, 22.5373535], [114.0623944, 22.5373587], [114.0623933, 22.5374253], [114.0625407, 22.5373565], [114.0627341, 22.5373387], [114.062738, 22.5362594], [114.0625253, 22.5362593], [114.0625257, 22.535705], [114.0627378, 22.5357051], [114.0627379, 22.5355746], [114.0627053, 22.5355746], [114.0627054, 22.5354343], [114.0629887, 22.5354345], [114.0629886, 22.5355707], [114.0629712, 22.5355706], [114.0629711, 22.5356579], [114.0631204, 22.535658], [114.0631203, 22.535714], [114.0631916, 22.535714], [114.0631911, 22.5362139], [114.0631535, 22.5362138], [114.0631535, 22.5362506], [114.0631205, 22.5362506], [114.0631206, 22.5362141], [114.0629785, 22.536214], [114.0629739, 22.5370455], [114.0631264, 22.5370487], [114.0631281, 22.5369809], [114.0632327, 22.5369831], [114.0632247, 22.5373053], [114.063783, 22.5373034], [114.0637795, 22.5373563], [114.0636623, 22.5373527], [114.0636573, 22.5374886], [114.0637113, 22.5374882], [114.0637115, 22.5375151], [114.0637978, 22.5375143], [114.0637983, 22.5375608], [114.0637106, 22.5375616], [114.0637114, 22.5376442], [114.0637973, 22.5376434], [114.0637979, 22.5377037], [114.0637163, 22.5377045], [114.0636886, 22.5377353], [114.0636885, 22.5377981], [114.0637908, 22.5377986], [114.0637902, 22.5378486], [114.0635901, 22.5378461], [114.0635903, 22.5378018], [114.0632999, 22.5377926], [114.0632957, 22.537732], [114.0631063, 22.5377343], [114.0627079, 22.5377299], [114.0623792, 22.5377267], [114.062377, 22.5378507], [114.0620862, 22.5378465], [114.0620831, 22.5380324], [114.062006, 22.5380313], [114.0620096, 22.5378203], [114.0617157, 22.5378159], [114.0617145, 22.5379115], [114.0616543, 22.5379112]]]]}}, {"type": "Feature", "id": "way/1195269081", "properties": {"tags": {"building": "retail", "building:levels": "0", "building:levels:underground": "1", "layer": "-1", "location": "underground", "name": "連城新天地二期", "name:en": "Link City II", "name:yue": "連城新天地二期", "name:zh": "连城新天地二期", "name:zh-Hans": "连城新天地二期", "name:zh-Hant": "連城新天地二期", "note": "連城新天地的官方名稱為繁體字，現更正為繁體字"}, "heightStatus": "levels_only_unverified", "source": "OpenStreetMap", "license": "ODbL-1.0"}, "geometry": {"type": "MultiPolygon", "coordinates": [[[[114.0571675, 22.5376309], [114.0571722, 22.5372986], [114.0578771, 22.5373072], [114.0578806, 22.5370579], [114.0579004, 22.5370582], [114.0579201, 22.5370584], [114.0579166, 22.5373066], [114.0582561, 22.5373107], [114.0582596, 22.5370615], [114.0582823, 22.5370617], [114.0583019, 22.537062], [114.0582974, 22.5373791], [114.0586631, 22.5373835], [114.0586656, 22.5372036], [114.0587391, 22.5372044], [114.0588122, 22.5372053], [114.0588097, 22.5373818], [114.0618068, 22.5374183], [114.0618044, 22.5375818], [114.0618025, 22.5377178], [114.061672, 22.5377162], [114.0616711, 22.5377814], [114.0616357, 22.537781], [114.0616032, 22.5377806], [114.0616057, 22.5376061], [114.0615273, 22.5376051], [114.0615229, 22.5379108], [114.061441, 22.5379098], [114.0614455, 22.5376007], [114.059874, 22.5375816], [114.0598705, 22.5378275], [114.0597504, 22.537826], [114.0597539, 22.5375807], [114.0591613, 22.5375735], [114.0591577, 22.5378214], [114.0590803, 22.5378205], [114.0590023, 22.5378195], [114.059006, 22.5375629], [114.0582534, 22.5375538], [114.0582465, 22.5380392], [114.0582293, 22.538039], [114.0582102, 22.5380388], [114.0582171, 22.5375513], [114.0579128, 22.5375475], [114.0579058, 22.5380373], [114.057886, 22.538037], [114.0578681, 22.5380368], [114.0578737, 22.5376395], [114.0571675, 22.5376309]]]]}}, {"type": "Feature", "id": "way/1430431770", "properties": {"tags": {"building": "commercial"}, "heightStatus": "unknown", "source": "OpenStreetMap", "license": "ODbL-1.0"}, "geometry": {"type": "MultiPolygon", "coordinates": [[[[114.0633631, 22.5371093], [114.0633697, 22.5368437], [114.063486, 22.5368461], [114.063481, 22.5370466], [114.0635441, 22.537048], [114.0635445, 22.5370316], [114.06381, 22.5370372], [114.0638137, 22.536887], [114.0639349, 22.5368896], [114.0639281, 22.5371635], [114.0634133, 22.5371525], [114.0633951, 22.537149], [114.0633793, 22.5371397], [114.0633682, 22.5371259], [114.0633631, 22.5371093]]]]}}, {"type": "Feature", "id": "way/1430431771", "properties": {"tags": {"building": "commercial"}, "heightStatus": "unknown", "source": "OpenStreetMap", "license": "ODbL-1.0"}, "geometry": {"type": "MultiPolygon", "coordinates": [[[[114.0633697, 22.5368437], [114.0633755, 22.5366095], [114.0635129, 22.5366124], [114.0635112, 22.5366816], [114.0634671, 22.5366807], [114.0634649, 22.53677], [114.0634879, 22.5367704], [114.063486, 22.5368461], [114.0633697, 22.5368437]]]]}}, {"type": "Feature", "id": "way/1430431774", "properties": {"tags": {"building": "commercial"}, "heightStatus": "unknown", "source": "OpenStreetMap", "license": "ODbL-1.0"}, "geometry": {"type": "MultiPolygon", "coordinates": [[[[114.063391, 22.5364671], [114.0633959, 22.5362712], [114.0636152, 22.5362759], [114.0636483, 22.5362151], [114.0636085, 22.5361425], [114.0639414, 22.5361496], [114.0639365, 22.5363454], [114.0637172, 22.5363408], [114.0636841, 22.5364015], [114.0637239, 22.5364741], [114.063391, 22.5364671]]]]}}, {"type": "Feature", "id": "way/1430531106", "properties": {"tags": {"addr:housename": "彩天名苑", "addr:housename:zh": "彩天名苑", "building": "apartments", "building:levels": "32", "layer": "1", "name": "1栋", "name:zh": "1栋"}, "heightStatus": "levels_only_unverified", "source": "OpenStreetMap", "license": "ODbL-1.0"}, "geometry": {"type": "MultiPolygon", "coordinates": [[[[114.0632685, 22.5407516], [114.0632688, 22.5405708], [114.0633399, 22.5405709], [114.06334, 22.540492], [114.0634159, 22.5404921], [114.0634157, 22.5405826], [114.0634458, 22.5405826], [114.0634459, 22.5405646], [114.0635247, 22.5405647], [114.0635246, 22.5406399], [114.0634874, 22.5406398], [114.0634874, 22.5406832], [114.0635245, 22.5406832], [114.0635244, 22.5407584], [114.0634753, 22.5407583], [114.0634753, 22.5407663], [114.0633396, 22.5407661], [114.0633396, 22.5407517], [114.0632685, 22.5407516]]]]}}, {"type": "Feature", "id": "way/1430531107", "properties": {"tags": {"addr:housename": "彩天名苑", "addr:housename:zh": "彩天名苑", "building": "apartments", "building:levels": "32", "layer": "1", "name": "4栋", "name:zh": "4栋"}, "heightStatus": "levels_only_unverified", "source": "OpenStreetMap", "license": "ODbL-1.0"}, "geometry": {"type": "MultiPolygon", "coordinates": [[[[114.0632701, 22.5397391], [114.0632704, 22.5395583], [114.0633415, 22.5395584], [114.0633415, 22.5395439], [114.0634772, 22.5395441], [114.0634772, 22.5395522], [114.0635263, 22.5395522], [114.0635262, 22.5396273], [114.063489, 22.5396273], [114.063489, 22.5396707], [114.0635261, 22.5396707], [114.063526, 22.5397458], [114.0634472, 22.5397457], [114.0634472, 22.5397278], [114.0634171, 22.5397277], [114.0634169, 22.5398182], [114.0633411, 22.5398181], [114.0633412, 22.5397392], [114.0632701, 22.5397391]]]]}}, {"type": "Feature", "id": "way/1430531108", "properties": {"tags": {"addr:housename": "彩天名苑", "addr:housename:zh": "彩天名苑", "building": "apartments", "building:levels": "32", "layer": "1", "name": "2栋", "name:zh": "2栋"}, "heightStatus": "levels_only_unverified", "source": "OpenStreetMap", "license": "ODbL-1.0"}, "geometry": {"type": "MultiPolygon", "coordinates": [[[[114.0632691, 22.540413], [114.0632693, 22.5402323], [114.0633404, 22.5402324], [114.0633405, 22.540155], [114.0634164, 22.5401551], [114.0634163, 22.540244], [114.0634464, 22.540244], [114.0634464, 22.5402261], [114.0635252, 22.5402262], [114.0635251, 22.5403013], [114.063488, 22.5403013], [114.0634879, 22.5403446], [114.063525, 22.5403447], [114.0635249, 22.5404198], [114.0634461, 22.5404197], [114.0634461, 22.5404017], [114.063416, 22.5404017], [114.0634159, 22.5404921], [114.06334, 22.540492], [114.0633401, 22.5404131], [114.0632691, 22.540413]]]]}}, {"type": "Feature", "id": "way/1430531109", "properties": {"tags": {"addr:housename": "彩天名苑", "addr:housename:zh": "彩天名苑", "building": "apartments", "building:levels": "32", "layer": "1", "name": "3栋", "name:zh": "3栋"}, "heightStatus": "levels_only_unverified", "source": "OpenStreetMap", "license": "ODbL-1.0"}, "geometry": {"type": "MultiPolygon", "coordinates": [[[[114.0632696, 22.5400776], [114.0632699, 22.5398969], [114.0633409, 22.539897], [114.0633411, 22.5398181], [114.0634169, 22.5398182], [114.0634168, 22.5399086], [114.0634469, 22.5399086], [114.0634469, 22.5398907], [114.0635257, 22.5398908], [114.0635256, 22.5399659], [114.0634885, 22.5399658], [114.0634884, 22.5400092], [114.0635256, 22.5400093], [114.0635254, 22.5400844], [114.0634466, 22.5400843], [114.0634467, 22.5400663], [114.0634166, 22.5400663], [114.0634164, 22.5401551], [114.0633405, 22.540155], [114.0633407, 22.5400777], [114.0632696, 22.5400776]]]]}}, {"type": "Feature", "id": "way/1430531111", "properties": {"tags": {"addr:housename": "彩虹新都", "addr:housename:zh": "彩虹新都", "building": "apartments", "building:levels": "33", "layer": "1", "name": "彩荟阁", "name:zh": "彩荟阁"}, "heightStatus": "levels_only_unverified", "source": "OpenStreetMap", "license": "ODbL-1.0"}, "geometry": {"type": "MultiPolygon", "coordinates": [[[[114.0632686, 22.5385431], [114.0632694, 22.5384891], [114.0633033, 22.5384583], [114.0633037, 22.5384339], [114.0632706, 22.5384023], [114.0632714, 22.5383483], [114.063319, 22.5383051], [114.0633528, 22.5383368], [114.0633768, 22.538315], [114.0633977, 22.5383153], [114.0634161, 22.5383327], [114.0634425, 22.538333], [114.0634614, 22.538316], [114.0634823, 22.5383163], [114.0635057, 22.5383386], [114.0635403, 22.5383077], [114.0635868, 22.538352], [114.063586, 22.538406], [114.0635521, 22.5384369], [114.0635518, 22.5384612], [114.0635848, 22.5384929], [114.0635841, 22.5385468], [114.0635364, 22.5385901], [114.0635027, 22.5385583], [114.0634786, 22.5385801], [114.0634577, 22.5385799], [114.0634393, 22.5385624], [114.0634129, 22.5385621], [114.0633941, 22.5385791], [114.0633731, 22.5385789], [114.0633497, 22.5385565], [114.0633151, 22.5385874], [114.0632686, 22.5385431]]]]}}, {"type": "Feature", "id": "way/1430531112", "properties": {"tags": {"addr:housename": "彩虹新都", "addr:housename:zh": "彩虹新都", "building": "apartments", "building:levels": "33", "layer": "1", "name": "彩云阁", "name:zh": "彩云阁"}, "heightStatus": "levels_only_unverified", "source": "OpenStreetMap", "license": "ODbL-1.0"}, "geometry": {"type": "MultiPolygon", "coordinates": [[[[114.0632643, 22.5389341], [114.0632651, 22.5388801], [114.063299, 22.5388492], [114.0632994, 22.5388249], [114.0632663, 22.5387933], [114.063267, 22.5387393], [114.0633147, 22.5386961], [114.0633484, 22.5387278], [114.0633725, 22.538706], [114.0633934, 22.5387062], [114.0634118, 22.5387237], [114.0634382, 22.538724], [114.0634571, 22.538707], [114.063478, 22.5387072], [114.0635014, 22.5387296], [114.063536, 22.5386987], [114.0635825, 22.538743], [114.0635817, 22.538797], [114.0635478, 22.5388278], [114.0635474, 22.5388522], [114.0635805, 22.5388838], [114.0635798, 22.5389378], [114.0635321, 22.538981], [114.0634984, 22.5389493], [114.0634743, 22.5389711], [114.0634534, 22.5389708], [114.063435, 22.5389534], [114.0634086, 22.5389531], [114.0633897, 22.5389701], [114.0633688, 22.5389698], [114.0633454, 22.5389475], [114.0633108, 22.5389784], [114.0632643, 22.5389341]]]]}}, {"type": "Feature", "id": "way/1430531113", "properties": {"tags": {"addr:housename": "彩虹新都", "addr:housename:zh": "彩虹新都", "building": "apartments", "building:levels": "33", "layer": "1", "name": "彩霞阁", "name:zh": "彩霞阁"}, "heightStatus": "levels_only_unverified", "source": "OpenStreetMap", "license": "ODbL-1.0"}, "geometry": {"type": "MultiPolygon", "coordinates": [[[[114.0632572, 22.5393173], [114.063258, 22.5392633], [114.063292, 22.5392325], [114.0632923, 22.5392081], [114.0632592, 22.5391765], [114.06326, 22.5391225], [114.0633076, 22.5390793], [114.0633414, 22.539111], [114.0633654, 22.5390892], [114.0633863, 22.5390894], [114.0634047, 22.5391069], [114.0634311, 22.5391072], [114.06345, 22.5390902], [114.0634709, 22.5390904], [114.0634944, 22.5391128], [114.063529, 22.5390819], [114.0635754, 22.5391262], [114.0635746, 22.5391802], [114.0635407, 22.539211], [114.0635404, 22.5392354], [114.0635734, 22.539267], [114.0635727, 22.539321], [114.063525, 22.5393642], [114.0634913, 22.5393325], [114.0634672, 22.5393543], [114.0634463, 22.5393541], [114.0634279, 22.5393366], [114.0634015, 22.5393363], [114.0633827, 22.5393533], [114.0633617, 22.539353], [114.0633383, 22.5393307], [114.0633037, 22.5393616], [114.0632572, 22.5393173]]]]}}, {"type": "Feature", "id": "way/1430531114", "properties": {"tags": {"building": "yes"}, "heightStatus": "unknown", "source": "OpenStreetMap", "license": "ODbL-1.0"}, "geometry": {"type": "MultiPolygon", "coordinates": [[[[114.0622609, 22.539335], [114.0622615, 22.5392964], [114.0622646, 22.5390824], [114.0622671, 22.538904], [114.062268, 22.5388404], [114.0622693, 22.5387536], [114.0622702, 22.53869], [114.0622726, 22.5385194], [114.0622736, 22.5384558], [114.0622748, 22.538369], [114.0622757, 22.5383054], [114.0622781, 22.5381417], [114.0622811, 22.5379277], [114.0622819, 22.5378728], [114.062598, 22.5378766], [114.0625972, 22.5379314], [114.0625941, 22.5381455], [114.0625918, 22.5383091], [114.0625908, 22.5383727], [114.0625896, 22.5384596], [114.0625887, 22.5385232], [114.0625862, 22.5386938], [114.0625853, 22.5387574], [114.0625841, 22.5388442], [114.0625832, 22.5389078], [114.0625806, 22.5390862], [114.0625775, 22.5393002], [114.062577, 22.5393388], [114.0625347, 22.5393383], [114.0623022, 22.5393355], [114.0622609, 22.539335]]]]}}, {"type": "Feature", "id": "way/1430531115", "properties": {"tags": {"addr:housename": "彩福大厦", "addr:housename:zh": "彩福大厦", "building": "apartments", "building:levels": "29", "layer": "1", "name": "鸿福阁", "name:zh": "鸿福阁"}, "heightStatus": "levels_only_unverified", "source": "OpenStreetMap", "license": "ODbL-1.0"}, "geometry": {"type": "MultiPolygon", "coordinates": [[[[114.0622615, 22.5392964], [114.0622646, 22.5390824], [114.0623071, 22.539044], [114.0625388, 22.5390467], [114.0625806, 22.5390862], [114.0625775, 22.5393002], [114.0625347, 22.5393383], [114.0623022, 22.5393355], [114.0622615, 22.5392964]]]]}}, {"type": "Feature", "id": "way/1430531116", "properties": {"tags": {"addr:housename": "彩福大厦", "addr:housename:zh": "彩福大厦", "building": "apartments", "building:levels": "32", "layer": "1", "name": "聚福阁", "name:zh": "聚福阁"}, "heightStatus": "levels_only_unverified", "source": "OpenStreetMap", "license": "ODbL-1.0"}, "geometry": {"type": "MultiPolygon", "coordinates": [[[[114.0622726, 22.5385194], [114.0622736, 22.5384558], [114.0623077, 22.538425], [114.062308, 22.5384006], [114.0622748, 22.538369], [114.0622757, 22.5383054], [114.0623182, 22.5382669], [114.0623871, 22.5382678], [114.0624205, 22.5382994], [114.0624469, 22.5382997], [114.0624811, 22.5382689], [114.06255, 22.5382697], [114.0625918, 22.5383091], [114.0625908, 22.5383727], [114.0625564, 22.5384036], [114.0625561, 22.5384279], [114.0625896, 22.5384596], [114.0625887, 22.5385232], [114.0625459, 22.5385616], [114.062477, 22.5385608], [114.0624437, 22.5385291], [114.0624173, 22.5385288], [114.062383, 22.5385597], [114.0623142, 22.5385588], [114.0622726, 22.5385194]]]]}}, {"type": "Feature", "id": "way/1430531117", "properties": {"tags": {"addr:housename": "彩福大厦", "addr:housename:zh": "彩福大厦", "building": "apartments", "building:levels": "32", "layer": "1", "name": "汇福阁", "name:zh": "汇福阁"}, "heightStatus": "levels_only_unverified", "source": "OpenStreetMap", "license": "ODbL-1.0"}, "geometry": {"type": "MultiPolygon", "coordinates": [[[[114.0622671, 22.538904], [114.062268, 22.5388404], [114.0623026, 22.5388096], [114.062303, 22.5387852], [114.0622693, 22.5387536], [114.0622702, 22.53869], [114.0623132, 22.5386516], [114.062382, 22.5386524], [114.0624154, 22.538684], [114.0624418, 22.5386843], [114.0624761, 22.5386535], [114.0625449, 22.5386543], [114.0625862, 22.5386938], [114.0625853, 22.5387574], [114.0625514, 22.5387882], [114.0625511, 22.5388125], [114.0625841, 22.5388442], [114.0625832, 22.5389078], [114.0625408, 22.5389462], [114.062472, 22.5389454], [114.0624386, 22.5389138], [114.0624122, 22.5389135], [114.062378, 22.5389443], [114.0623091, 22.5389435], [114.0622671, 22.538904]]]]}}, {"type": "Feature", "id": "way/1473831680", "properties": {"tags": {"building": "school"}, "heightStatus": "unknown", "source": "OpenStreetMap", "license": "ODbL-1.0"}, "geometry": {"type": "MultiPolygon", "coordinates": [[[[114.0610395, 22.5399186], [114.0610421, 22.5398137], [114.0617903, 22.5398291], [114.0617684, 22.5407408], [114.0614004, 22.5407332], [114.06142, 22.5399265], [114.0610395, 22.5399186]]]]}}, {"type": "Feature", "id": "way/1473831683", "properties": {"tags": {"building": "school"}, "heightStatus": "unknown", "source": "OpenStreetMap", "license": "ODbL-1.0"}, "geometry": {"type": "MultiPolygon", "coordinates": [[[[114.0610357, 22.5410601], [114.0610385, 22.5408924], [114.0616426, 22.540901], [114.0616398, 22.5410688], [114.0610357, 22.5410601]]]]}}]}