{"type": "FeatureCollection", "features": [{"type": "Feature", "id": "way/160902163", "properties": {"tags": {"addr:city": "深圳市", "addr:district": "福田区", "addr:housenumber": "1006", "addr:postcode": "518038", "addr:province": "广东省", "addr:street": "福中三路", "building": "commercial", "building:levels": "38", "building:material": "mirror", "height": "193.2", "name": "诺德中心", "name:en": "Noble Center", "wikidata": "Q136326755"}, "heightStatus": "height_tag_unverified", "source": "OpenStreetMap", "license": "ODbL-1.0"}, "geometry": {"type": "MultiPolygon", "coordinates": [[[[114.0583066, 22.5461737], [114.0583073, 22.5457595], [114.0587753, 22.5457603], [114.0587745, 22.5461744], [114.0583066, 22.5461737]]]]}}, {"type": "Feature", "id": "way/170144292", "properties": {"tags": {"addr:city": "深圳市", "addr:district": "福田区", "addr:housenumber": "6026号", "addr:postcode": "518026", "addr:province": "广东省", "addr:street": "红荔路", "building": "museum", "museum": "art", "name": "关山月美术馆", "name:en": "Guan Shanyue Art Museum", "name:fr": "Musée des beaux-arts Guānshānyuè", "name:zh": "关山月美术馆", "name:zh-Latn-pinyin": "Guān Shānyuè Měishùguǎn", "opening_hours": "Tu-Su 09:00-17:00; Mo off", "tourism": "museum", "website": "http://www.gsyart.com/", "wikidata": "Q16926285", "wikimedia_commons": "Category:Guan Shanyue Art Museum", "wikipedia": "zh:關山月美術館"}, "heightStatus": "unknown", "source": "OpenStreetMap", "license": "ODbL-1.0"}, "geometry": {"type": "MultiPolygon", "coordinates": [[[[114.0587265, 22.5519774], [114.0587301, 22.5519298], [114.0587766, 22.5518813], [114.0587808, 22.5517838], [114.059432, 22.5517897], [114.0594231, 22.5523901], [114.0592828, 22.5523884], [114.0592513, 22.5524142], [114.0591987, 22.552417], [114.0591526, 22.5524149], [114.0590938, 22.5524075], [114.0590443, 22.5523911], [114.0589991, 22.5523711], [114.0589537, 22.5523431], [114.0589031, 22.5523885], [114.0587682, 22.5523863], [114.0587713, 22.5522777], [114.0588226, 22.5522245], [114.0587976, 22.5521908], [114.0587785, 22.5521625], [114.0587563, 22.5521185], [114.0587396, 22.5520719], [114.0587313, 22.5520318], [114.0587265, 22.5519774]]]]}}, {"type": "Feature", "id": "way/183019557", "properties": {"tags": {"building:levels": "3", "building:material": "concrete", "building:part": "service", "height": "10", "roof:colour": "#cdc3b7"}, "heightStatus": "height_tag_unverified", "source": "OpenStreetMap", "license": "ODbL-1.0"}, "geometry": {"type": "MultiPolygon", "coordinates": [[[[114.0539118, 22.5482252], [114.0539187, 22.5476897], [114.0541656, 22.5476936], [114.0544836, 22.547696], [114.0547908, 22.5477011], [114.0551001, 22.5477028], [114.0550944, 22.5481464], [114.0550544, 22.5481459], [114.0550513, 22.5483824], [114.0549425, 22.5483812], [114.0549415, 22.5484589], [114.0549407, 22.5485158], [114.0550181, 22.5485167], [114.0550105, 22.5490912], [114.0549339, 22.5490903], [114.0549319, 22.549245], [114.0547592, 22.5492435], [114.0544551, 22.5492396], [114.0541764, 22.5492361], [114.0540295, 22.5492348], [114.0540316, 22.549078], [114.0539359, 22.5490769], [114.0539437, 22.5484927], [114.0540297, 22.5484936], [114.0540304, 22.54845], [114.0540312, 22.5483827], [114.0539454, 22.5483817], [114.0539474, 22.5482256], [114.0539118, 22.5482252]]]]}}, {"type": "Feature", "id": "way/183019558", "properties": {"tags": {"building:levels": "3", "building:material": "glass", "building:min_level": "1", "building:part": "service", "height": "10", "layer": "1", "min_height": "4.2", "roof:colour": "#cdc3b7"}, "heightStatus": "height_tag_unverified", "source": "OpenStreetMap", "license": "ODbL-1.0"}, "geometry": {"type": "MultiPolygon", "coordinates": [[[[114.0541712, 22.5495872], [114.0541737, 22.5494417], [114.0541746, 22.5493544], [114.0541764, 22.5492361], [114.0544551, 22.5492396], [114.0547592, 22.5492435], [114.0547574, 22.5493632], [114.0547565, 22.5494508], [114.0547539, 22.5495947], [114.0544489, 22.5495908], [114.0541712, 22.5495872]]]]}}, {"type": "Feature", "id": "way/183019559", "properties": {"tags": {"building:levels": "3", "building:material": "concrete", "building:part": "service", "height": "10", "name": "深圳书城中心城", "name:en": "Shenzhen Book City Central City", "name:zh": "深圳书城中心城", "roof:colour": "#cdc3b7"}, "heightStatus": "height_tag_unverified", "source": "OpenStreetMap", "license": "ODbL-1.0"}, "geometry": {"type": "MultiPolygon", "coordinates": [[[[114.0539726, 22.5508929], [114.0539825, 22.5502983], [114.0539943, 22.5495843], [114.0541712, 22.5495872], [114.0544489, 22.5495908], [114.0547539, 22.5495947], [114.0549404, 22.5495978], [114.0549285, 22.5503143], [114.0549187, 22.5509062], [114.0547294, 22.5509043], [114.0544249, 22.5508993], [114.0541107, 22.5508941], [114.0539726, 22.5508929]]]]}}, {"type": "Feature", "id": "way/269895563", "properties": {"tags": {"building:levels": "52", "building:material": "mirror", "building:part": "yes", "height": "206"}, "heightStatus": "height_tag_unverified", "source": "OpenStreetMap", "license": "ODbL-1.0"}, "geometry": {"type": "MultiPolygon", "coordinates": [[[[114.0582567, 22.5470494], [114.0582595, 22.5466505], [114.0587254, 22.5466532], [114.0587227, 22.5470521], [114.0582567, 22.5470494]]]]}}, {"type": "Feature", "id": "way/269895567", "properties": {"tags": {"building": "yes"}, "heightStatus": "unknown", "source": "OpenStreetMap", "license": "ODbL-1.0"}, "geometry": {"type": "MultiPolygon", "coordinates": [[[[114.058211, 22.5502347], [114.0582127, 22.5500221], [114.0588096, 22.5500261], [114.0588079, 22.5502387], [114.058211, 22.5502347]]]]}}, {"type": "Feature", "id": "way/269895570", "properties": {"tags": {"addr:city": "深圳市", "addr:district": "福田区", "addr:housenumber": "2002", "addr:postcode": "518038", "addr:province": "广东省", "addr:street": "福中一路", "alt_name": "深圳市少儿科技馆", "alt_name:en": "Shenzhen Children's Museum of Science and Technology", "amenity": "arts_centre", "building": "yes", "email": "83513000@szcp.com", "name": "深圳市少年宫", "name:en": "Shenzhen Children's Palace", "name:zh": "深圳市少年宫", "opening_hours:url": "https://www.szcp.com/Item/2112.aspx", "phone": "+86 755 8351 3099", "source": "http://www.china-up.com:8080/shenzhen/showshenzhen.asp?title=%C9%EE%DB%DA%CA%D0%C9%D9%C4%EA%B9%AC%7C%B7%BD%B0%B8%D2%BB", "start_date": "2004-06-01", "website": "https://www.szcp.com/", "wheelchair": "yes"}, "heightStatus": "unknown", "source": "OpenStreetMap", "license": "ODbL-1.0"}, "geometry": {"type": "MultiPolygon", "coordinates": [[[[114.0561844, 22.5508603], [114.0561923, 22.550378], [114.0564283, 22.5503397], [114.0564131, 22.5502841], [114.056413, 22.5502288], [114.0564266, 22.5501773], [114.0564536, 22.550129], [114.0564832, 22.5500958], [114.0565254, 22.5500646], [114.0565857, 22.550039], [114.0566508, 22.5500292], [114.0566553, 22.5497541], [114.0567702, 22.5497557], [114.0571048, 22.5497604], [114.0573552, 22.5497638], [114.0573482, 22.5501948], [114.0573386, 22.550793], [114.0568765, 22.550359], [114.0568545, 22.5503925], [114.0568275, 22.5504207], [114.0569732, 22.5505574], [114.056942, 22.5505858], [114.0572488, 22.5508744], [114.0564218, 22.5508636], [114.0561844, 22.5508603]]]]}}, {"type": "Feature", "id": "way/269895572", "properties": {"tags": {"building": "yes"}, "heightStatus": "unknown", "source": "OpenStreetMap", "license": "ODbL-1.0"}, "geometry": {"type": "MultiPolygon", "coordinates": [[[[114.0582171, 22.5499441], [114.0582189, 22.5496642], [114.0588157, 22.5496675], [114.0588138, 22.5499474], [114.0582171, 22.5499441]]]]}}, {"type": "Feature", "id": "way/270044019", "properties": {"tags": {"addr:city": "深圳市", "addr:district": "福田区", "addr:housenumber": "2002", "addr:postcode": "518035", "addr:province": "广东省", "addr:street": "深南大道", "building": "commercial", "name": "北楼", "name:en": "North Building", "name:zh": "北楼", "official_name": "中广核大厦北楼"}, "heightStatus": "unknown", "source": "OpenStreetMap", "license": "ODbL-1.0"}, "geometry": {"type": "MultiPolygon", "coordinates": [[[[114.0618708, 22.54535], [114.0618818, 22.5447741], [114.0619755, 22.5447758], [114.0619782, 22.5446288], [114.0623003, 22.544634], [114.0622975, 22.544781], [114.0622866, 22.5453568], [114.0619647, 22.5453516], [114.0618708, 22.54535]]]]}}, {"type": "Feature", "id": "way/270044020", "properties": {"tags": {"building": "school"}, "heightStatus": "unknown", "source": "OpenStreetMap", "license": "ODbL-1.0"}, "geometry": {"type": "MultiPolygon", "coordinates": [[[[114.0598306, 22.5509872], [114.0598339, 22.5507186], [114.0598678, 22.550719], [114.0599546, 22.5506407], [114.0599611, 22.5501046], [114.060105, 22.5501061], [114.0600942, 22.55099], [114.0598306, 22.5509872]]]]}}, {"type": "Feature", "id": "way/270044905", "properties": {"tags": {"building": "yes"}, "heightStatus": "unknown", "source": "OpenStreetMap", "license": "ODbL-1.0"}, "geometry": {"type": "MultiPolygon", "coordinates": [[[[114.0582029, 22.5506855], [114.0587836, 22.5506847], [114.058784, 22.5509485], [114.0582033, 22.5509494], [114.0582029, 22.5506855]]]]}}, {"type": "Feature", "id": "way/270044907", "properties": {"tags": {"building": "yes"}, "heightStatus": "unknown", "source": "OpenStreetMap", "license": "ODbL-1.0"}, "geometry": {"type": "MultiPolygon", "coordinates": [[[[114.0582578, 22.5503697], [114.0586755, 22.5503674], [114.0586754, 22.5504285], [114.0587372, 22.550428], [114.0587382, 22.550573], [114.0582591, 22.5505757], [114.0582578, 22.5503697]]]]}}, {"type": "Feature", "id": "way/270044916", "properties": {"tags": {"addr:city": "深圳市", "addr:district": "福田区", "addr:housenumber": "4028", "addr:postcode": "518038", "addr:province": "广东省", "addr:street": "金田路", "building": "commercial", "name": "荣超经贸中心", "wikidata": "Q20991730"}, "heightStatus": "unknown", "source": "OpenStreetMap", "license": "ODbL-1.0"}, "geometry": {"type": "MultiPolygon", "coordinates": [[[[114.0582567, 22.5470494], [114.0582595, 22.5466505], [114.0587254, 22.5466532], [114.0587274, 22.5463284], [114.0589086, 22.5463295], [114.0589032, 22.5470536], [114.0587227, 22.5470521], [114.0582567, 22.5470494]]]]}}, {"type": "Feature", "id": "way/345406817", "properties": {"tags": {"building": "apartments", "name": "春晖苑"}, "heightStatus": "unknown", "source": "OpenStreetMap", "license": "ODbL-1.0"}, "geometry": {"type": "MultiPolygon", "coordinates": [[[[114.0632537, 22.5453126], [114.0632562, 22.5451356], [114.0635764, 22.5451394], [114.0635794, 22.5449235], [114.0632708, 22.5449198], [114.0632735, 22.5447304], [114.0637833, 22.5447365], [114.0637751, 22.5453189], [114.0632537, 22.5453126]]]]}}, {"type": "Feature", "id": "way/456331569", "properties": {"tags": {"addr:city": "深圳市", "addr:district": "福田区", "addr:housenumber": "184", "addr:postcode": "518038", "addr:province": "广东省", "addr:street": "福中路", "alt_name": "深圳当代艺术馆;深圳城市规划展览馆", "building": "yes", "building:colour": "#eadcd1", "building:levels": "5", "building:material": "concrete", "height": "40", "museum": "urban_planning;art", "name": "深圳市当代艺术与城市规划馆", "name:en": "The Museum of Contemporary Art & Planning Exhibition (MOCAPE)", "name:zh": "深圳市当代艺术与城市规划馆", "opening_hours": "Tu-Su 10:00-18:00", "roof:colour": "#eadcd1", "roof:material": "concrete", "short_name:en": "MOCAPE", "tourism": "museum", "wikidata": "Q17498976", "wikimedia_commons": "Category:Museum of Contemporary Art & Planning Exhibition (MOCAPE), Shenzhen", "wikipedia": "zh:当代艺术与城市规划展览馆 (深圳)"}, "heightStatus": "height_tag_unverified", "source": "OpenStreetMap", "license": "ODbL-1.0"}, "geometry": {"type": "MultiPolygon", "coordinates": [[[[114.0560034, 22.5486178], [114.056005, 22.5485724], [114.0560105, 22.5485385], [114.0560187, 22.5485141], [114.0561617, 22.5482271], [114.056151, 22.5481994], [114.0561393, 22.5481565], [114.0561325, 22.5481175], [114.0561277, 22.5480791], [114.0561256, 22.5480394], [114.0561332, 22.5480136], [114.056151, 22.547981], [114.0561755, 22.5479576], [114.0562061, 22.5479316], [114.0562443, 22.5479127], [114.0563078, 22.547888], [114.0563523, 22.5478737], [114.0563547, 22.5478235], [114.0574364, 22.5478397], [114.0574269, 22.5483834], [114.0572566, 22.5483825], [114.0574497, 22.5486017], [114.0574328, 22.5491683], [114.0570729, 22.5491649], [114.0569436, 22.5492102], [114.0563633, 22.549209], [114.0562432, 22.5489279], [114.0561397, 22.5488611], [114.0561097, 22.5488415], [114.0560802, 22.5488158], [114.0560511, 22.5487822], [114.0560321, 22.5487514], [114.056015, 22.5487178], [114.0560048, 22.5486694], [114.0560034, 22.5486178]]]]}}, {"type": "Feature", "id": "way/545448764", "properties": {"tags": {"addr:city": "深圳市", "addr:district": "福田区", "addr:housenumber": "2005", "addr:postcode": "518035", "addr:province": "广东省", "addr:street": "福中三路", "building": "commercial", "building:levels": "34", "height": "159.7", "name": "国银金融中心大厦"}, "heightStatus": "height_tag_unverified", "source": "OpenStreetMap", "license": "ODbL-1.0"}, "geometry": {"type": "MultiPolygon", "coordinates": [[[[114.0592593, 22.5452746], [114.0592598, 22.5448525], [114.0596524, 22.5448529], [114.0596518, 22.545275], [114.0592593, 22.5452746]]]]}}, {"type": "Feature", "id": "way/556150900", "properties": {"tags": {"building": "commercial", "building:levels": "32", "name": "中银大厦A座", "name:zh": "中银大厦A座"}, "heightStatus": "levels_only_unverified", "source": "OpenStreetMap", "license": "ODbL-1.0"}, "geometry": {"type": "MultiPolygon", "coordinates": [[[[114.0619901, 22.5504289], [114.0619926, 22.5502766], [114.062062, 22.5502776], [114.0620631, 22.5502135], [114.062228, 22.5502158], [114.0622269, 22.5502799], [114.0622963, 22.5502809], [114.0622937, 22.5504332], [114.0622244, 22.5504322], [114.0622233, 22.5504963], [114.0620584, 22.5504939], [114.0620595, 22.5504299], [114.0619901, 22.5504289]]]]}}, {"type": "Feature", "id": "way/556150901", "properties": {"tags": {"building": "commercial", "building:levels": "32", "name": "中银大厦B座", "name:zh": "中银大厦B座"}, "heightStatus": "levels_only_unverified", "source": "OpenStreetMap", "license": "ODbL-1.0"}, "geometry": {"type": "MultiPolygon", "coordinates": [[[[114.0619965, 22.5500688], [114.061999, 22.5499165], [114.0620684, 22.5499175], [114.0620695, 22.5498535], [114.0622344, 22.5498558], [114.0622333, 22.5499199], [114.0623027, 22.5499208], [114.0623001, 22.5500731], [114.0622308, 22.5500721], [114.0622297, 22.5501362], [114.0620648, 22.5501339], [114.0620659, 22.5500698], [114.0619965, 22.5500688]]]]}}, {"type": "Feature", "id": "way/556150902", "properties": {"tags": {"building": "apartments", "building:levels": "32", "name": "南商阁", "name:zh": "南商阁"}, "heightStatus": "levels_only_unverified", "source": "OpenStreetMap", "license": "ODbL-1.0"}, "geometry": {"type": "MultiPolygon", "coordinates": [[[[114.0616051, 22.5499069], [114.0616076, 22.5497546], [114.061677, 22.5497556], [114.0616781, 22.5496915], [114.061843, 22.5496939], [114.0618419, 22.5497579], [114.0619113, 22.5497589], [114.0619087, 22.5499112], [114.0618394, 22.5499102], [114.0618383, 22.5499743], [114.0616734, 22.5499719], [114.0616745, 22.5499079], [114.0616051, 22.5499069]]]]}}, {"type": "Feature", "id": "way/616988601", "properties": {"tags": {"building:colour": "#e72e21", "building:material": "metal", "building:part": "yes", "height": "91.5", "min_height": "17", "roof:colour": "grey", "roof:direction": "270", "roof:height": "11.5", "roof:shape": "skillion"}, "heightStatus": "height_tag_unverified", "source": "OpenStreetMap", "license": "ODbL-1.0"}, "geometry": {"type": "MultiPolygon", "coordinates": [[[[114.0548266, 22.5466087], [114.0548307, 22.5462166], [114.0549529, 22.5462177], [114.0552196, 22.5462201], [114.0552155, 22.5466123], [114.0549352, 22.5466097], [114.0548266, 22.5466087]]]]}}, {"type": "Feature", "id": "way/617162833", "properties": {"tags": {"building:levels": "48", "building:material": "mirror", "building:part": "yes", "height": "219"}, "heightStatus": "height_tag_unverified", "source": "OpenStreetMap", "license": "ODbL-1.0"}, "geometry": {"type": "MultiPolygon", "coordinates": [[[[114.0583411, 22.5492406], [114.0583465, 22.548635], [114.0587731, 22.5486382], [114.0587688, 22.5491297], [114.0587678, 22.5492438], [114.0583411, 22.5492406]]]]}}, {"type": "Feature", "id": "way/617162834", "properties": {"tags": {"building": "commercial", "building:material": "mirror", "name": "生命保险大厦", "name:en": "Sino Life Insurance Building", "wikidata": "Q28873314"}, "heightStatus": "unknown", "source": "OpenStreetMap", "license": "ODbL-1.0"}, "geometry": {"type": "MultiPolygon", "coordinates": [[[[114.0583411, 22.5492406], [114.0583465, 22.548635], [114.058349, 22.5483782], [114.0588368, 22.5483822], [114.0588296, 22.5491302], [114.0587688, 22.5491297], [114.0587678, 22.5492438], [114.0583411, 22.5492406]]]]}}, {"type": "Feature", "id": "way/617162835", "properties": {"tags": {"building": "commercial"}, "heightStatus": "unknown", "source": "OpenStreetMap", "license": "ODbL-1.0"}, "geometry": {"type": "MultiPolygon", "coordinates": [[[[114.0587281, 22.5452708], [114.0587304, 22.5450864], [114.0588257, 22.5450876], [114.0588229, 22.5452714], [114.0587281, 22.5452708]]]]}}, {"type": "Feature", "id": "way/776182780", "properties": {"tags": {"building:colour": "#3d6d71", "building:levels": "6", "building:material": "glass", "building:part": "yes", "height": "31", "roof:colour": "#3d6d71", "roof:material": "glass"}, "heightStatus": "height_tag_unverified", "source": "OpenStreetMap", "license": "ODbL-1.0"}, "geometry": {"type": "MultiPolygon", "coordinates": [[[[114.056413, 22.5502288], [114.0564266, 22.5501773], [114.0564536, 22.550129], [114.0564832, 22.5500958], [114.0565254, 22.5500646], [114.0565857, 22.550039], [114.0566508, 22.5500292], [114.05671, 22.5500344], [114.0567661, 22.5500525], [114.0568159, 22.5500825], [114.0568564, 22.5501228], [114.0568808, 22.550161], [114.0568991, 22.550214], [114.0569032, 22.5502669], [114.0568953, 22.5503144], [114.0568765, 22.550359], [114.0568545, 22.5503925], [114.0568275, 22.5504207], [114.0567931, 22.550446], [114.0567527, 22.550466], [114.056706, 22.5504792], [114.0566572, 22.5504837], [114.0566085, 22.5504792], [114.0565618, 22.5504659], [114.0565188, 22.5504443], [114.0564813, 22.5504152], [114.0564507, 22.5503799], [114.0564283, 22.5503397], [114.0564131, 22.5502841], [114.056413, 22.5502288]]]]}}, {"type": "Feature", "id": "way/777201413", "properties": {"tags": {"building": "yes"}, "heightStatus": "unknown", "source": "OpenStreetMap", "license": "ODbL-1.0"}, "geometry": {"type": "MultiPolygon", "coordinates": [[[[114.0592598, 22.5448525], [114.0592624, 22.544681], [114.0592675, 22.5446627], [114.0592803, 22.544651], [114.0592959, 22.5446456], [114.0598913, 22.5446827], [114.0598849, 22.5452469], [114.0601724, 22.5452496], [114.0601644, 22.5452682], [114.0601523, 22.5452774], [114.0601365, 22.54528], [114.0596518, 22.545275], [114.0596524, 22.5448529], [114.0592598, 22.5448525]]]]}}, {"type": "Feature", "id": "way/777201426", "properties": {"tags": {"building": "yes"}, "heightStatus": "unknown", "source": "OpenStreetMap", "license": "ODbL-1.0"}, "geometry": {"type": "MultiPolygon", "coordinates": [[[[114.0610574, 22.545295], [114.0610591, 22.5451752], [114.061494, 22.5451803], [114.0614923, 22.5453003], [114.0610574, 22.545295]]]]}}, {"type": "Feature", "id": "way/777201427", "properties": {"tags": {"building": "yes"}, "heightStatus": "unknown", "source": "OpenStreetMap", "license": "ODbL-1.0"}, "geometry": {"type": "MultiPolygon", "coordinates": [[[[114.060593, 22.545344], [114.0605937, 22.5452757], [114.060985, 22.5452794], [114.0609843, 22.5453476], [114.060593, 22.545344]]]]}}, {"type": "Feature", "id": "way/780536852", "properties": {"tags": {"building:colour": "silver", "building:levels": "0", "building:material": "metal", "building:part": "yes", "height": "13.6", "roof:colour": "silver", "roof:height": "13.6", "roof:levels": "1", "roof:material": "metal", "roof:shape": "dome"}, "heightStatus": "height_tag_unverified", "source": "OpenStreetMap", "license": "ODbL-1.0"}, "geometry": {"type": "MultiPolygon", "coordinates": [[[[114.0562383, 22.550644], [114.0562535, 22.5506038], [114.0562826, 22.5505707], [114.0563221, 22.5505488], [114.0563674, 22.5505405], [114.056413, 22.5505469], [114.0564536, 22.5505672], [114.0564843, 22.550599], [114.0565006, 22.550635], [114.056504, 22.5506739], [114.056494, 22.5507118], [114.0564718, 22.550745], [114.0564395, 22.5507701], [114.0564003, 22.5507847], [114.0563582, 22.5507873], [114.0563172, 22.5507777], [114.0562816, 22.5507567], [114.0562548, 22.5507266], [114.0562387, 22.5506866], [114.0562383, 22.550644]]]]}}, {"type": "Feature", "id": "way/780536853", "properties": {"tags": {"building:colour": "#3d6d71", "building:levels": "3", "building:material": "glass", "building:part": "yes", "height": "23.6", "roof:colour": "#3d6d71", "roof:direction": "270", "roof:height": "4.9", "roof:levels": "1", "roof:material": "glass", "roof:shape": "skillion"}, "heightStatus": "height_tag_unverified", "source": "OpenStreetMap", "license": "ODbL-1.0"}, "geometry": {"type": "MultiPolygon", "coordinates": [[[[114.0566508, 22.5500292], [114.0566553, 22.5497541], [114.0567702, 22.5497557], [114.0567661, 22.5500525], [114.05671, 22.5500344], [114.0566508, 22.5500292]]]]}}, {"type": "Feature", "id": "way/780536854", "properties": {"tags": {"building:colour": "#cebeae", "building:levels": "4", "building:material": "concrete", "building:part": "yes", "height": "40", "roof:colour": "#cebeae", "roof:direction": "270", "roof:height": "16.4", "roof:levels": "2", "roof:material": "concrete", "roof:shape": "skillion"}, "heightStatus": "height_tag_unverified", "source": "OpenStreetMap", "license": "ODbL-1.0"}, "geometry": {"type": "MultiPolygon", "coordinates": [[[[114.0567661, 22.5500525], [114.0567702, 22.5497557], [114.0571048, 22.5497604], [114.0570978, 22.5501914], [114.0573482, 22.5501948], [114.0573386, 22.550793], [114.0568765, 22.550359], [114.0568953, 22.5503144], [114.0569032, 22.5502669], [114.0568991, 22.550214], [114.0568808, 22.550161], [114.0568564, 22.5501228], [114.0568159, 22.5500825], [114.0567661, 22.5500525]]]]}}, {"type": "Feature", "id": "relation/10823226", "properties": {"tags": {"building:colour": "#cebeae", "building:levels": "0", "building:material": "concrete", "building:part": "yes", "height": "36", "roof:colour": "#cebeae", "roof:direction": "270", "roof:height": "36", "roof:levels": "6", "roof:material": "concrete", "roof:shape": "skillion"}, "heightStatus": "height_tag_unverified", "source": "OpenStreetMap", "license": "ODbL-1.0"}, "geometry": {"type": "MultiPolygon", "coordinates": [[[[114.0561844, 22.5508603], [114.0561923, 22.550378], [114.0564283, 22.5503397], [114.0564507, 22.5503799], [114.0564813, 22.5504152], [114.0565188, 22.5504443], [114.0565618, 22.5504659], [114.0566085, 22.5504792], [114.0566572, 22.5504837], [114.056706, 22.5504792], [114.0567527, 22.550466], [114.0567931, 22.550446], [114.056942, 22.5505858], [114.0572488, 22.5508744], [114.0564218, 22.5508636], [114.0561844, 22.5508603]], [[114.0562383, 22.550644], [114.0562387, 22.5506866], [114.0562548, 22.5507266], [114.0562816, 22.5507567], [114.0563172, 22.5507777], [114.0563582, 22.5507873], [114.0564003, 22.5507847], [114.0564395, 22.5507701], [114.0564718, 22.550745], [114.056494, 22.5507118], [114.056504, 22.5506739], [114.0565006, 22.550635], [114.0564843, 22.550599], [114.0564536, 22.5505672], [114.056413, 22.5505469], [114.0563674, 22.5505405], [114.0563221, 22.5505488], [114.0562826, 22.5505707], [114.0562535, 22.5506038], [114.0562383, 22.550644]]]]}}, {"type": "Feature", "id": "way/780536856", "properties": {"tags": {"building:colour": "#3d6d71", "building:levels": "4", "building:material": "glass", "building:part": "yes", "roof:colour": "#3d6d71"}, "heightStatus": "levels_only_unverified", "source": "OpenStreetMap", "license": "ODbL-1.0"}, "geometry": {"type": "MultiPolygon", "coordinates": [[[[114.0567931, 22.550446], [114.0568275, 22.5504207], [114.0569732, 22.5505574], [114.056942, 22.5505858], [114.0567931, 22.550446]]]]}}, {"type": "Feature", "id": "way/780536860", "properties": {"tags": {"building:colour": "#cebeae", "building:levels": "4", "building:material": "concrete", "building:part": "yes", "height": "37", "roof:colour": "#8b8877", "roof:material": "concrete"}, "heightStatus": "height_tag_unverified", "source": "OpenStreetMap", "license": "ODbL-1.0"}, "geometry": {"type": "MultiPolygon", "coordinates": [[[[114.0570978, 22.5501914], [114.0571048, 22.5497604], [114.0573552, 22.5497638], [114.0573482, 22.5501948], [114.0570978, 22.5501914]]]]}}, {"type": "Feature", "id": "way/781271952", "properties": {"tags": {"building:colour": "#56545a", "building:levels": "24", "building:material": "metal", "building:part": "yes", "height": "108", "roof:colour": "#56545a"}, "heightStatus": "height_tag_unverified", "source": "OpenStreetMap", "license": "ODbL-1.0"}, "geometry": {"type": "MultiPolygon", "coordinates": [[[[114.0619647, 22.5453516], [114.0619755, 22.5447758], [114.0622975, 22.544781], [114.0622866, 22.5453568], [114.0619647, 22.5453516]]]]}}, {"type": "Feature", "id": "way/781271955", "properties": {"tags": {"building:colour": "#56545a", "building:levels": "4", "building:material": "metal", "building:part": "yes", "height": "25", "roof:colour": "#56545a"}, "heightStatus": "height_tag_unverified", "source": "OpenStreetMap", "license": "ODbL-1.0"}, "geometry": {"type": "MultiPolygon", "coordinates": [[[[114.0618708, 22.54535], [114.0618818, 22.5447741], [114.0619755, 22.5447758], [114.0619647, 22.5453516], [114.0618708, 22.54535]]]]}}, {"type": "Feature", "id": "relation/10837975", "properties": {"tags": {"addr:city": "深圳市", "addr:district": "福田区", "addr:postcode": "518038", "addr:province": "广东省", "addr:street": "福中三路", "alt_name": "深圳市民中心", "building": "civic", "layer": "2", "name": "市民中心", "name:en": "Civic Center", "name:zh": "市民中心", "official_name": "深圳市民中心", "official_name:en": "Shenzhen Civic Center", "official_name:zh": "深圳市民中心", "start_date": "2004-05-31", "wikidata": "Q11059491", "wikipedia": "zh:市民中心 (深圳)"}, "heightStatus": "unknown", "source": "OpenStreetMap", "license": "ODbL-1.0"}, "geometry": {"type": "MultiPolygon", "coordinates": [[[[114.0521105, 22.5469401], [114.0521279, 22.5455334], [114.0523055, 22.5455779], [114.0524527, 22.5456106], [114.0526669, 22.5456572], [114.0529458, 22.5457086], [114.0531708, 22.545743], [114.0533954, 22.5457685], [114.0535778, 22.5457861], [114.0536231, 22.5457902], [114.0536817, 22.5457946], [114.0536841, 22.5456117], [114.0542799, 22.5456183], [114.0547443, 22.5456235], [114.0553466, 22.5456302], [114.0553444, 22.5458049], [114.0554006, 22.5458026], [114.055516, 22.5457964], [114.0556633, 22.5457823], [114.05579, 22.5457709], [114.055913, 22.5457582], [114.0561549, 22.5457321], [114.0564081, 22.5456951], [114.0566328, 22.5456541], [114.0567807, 22.5456245], [114.0569368, 22.5455852], [114.0569194, 22.5469908], [114.0566175, 22.5469877], [114.0558979, 22.5469801], [114.0554951, 22.5469758], [114.0553791, 22.5469746], [114.0550948, 22.5469716], [114.0548025, 22.5469685], [114.0541753, 22.5469619], [114.0538958, 22.546959], [114.0536065, 22.5469553], [114.0535495, 22.5469553], [114.0531555, 22.5469512], [114.052436, 22.5469436], [114.0521105, 22.5469401]]]]}}, {"type": "Feature", "id": "way/781536965", "properties": {"tags": {"building:levels": "3", "building:material": "glass", "building:part": "yes", "height": "10"}, "heightStatus": "height_tag_unverified", "source": "OpenStreetMap", "license": "ODbL-1.0"}, "geometry": {"type": "MultiPolygon", "coordinates": [[[[114.0556154, 22.5460892], [114.0556175, 22.5459238], [114.0558047, 22.5459033], [114.0559499, 22.5458795], [114.0561412, 22.5458414], [114.05614, 22.5460115], [114.0560013, 22.5460379], [114.0558058, 22.5460684], [114.0556248, 22.5460893], [114.0556154, 22.5460892]]]]}}, {"type": "Feature", "id": "way/781536966", "properties": {"tags": {"building:levels": "3", "building:material": "glass", "building:part": "yes", "height": "10"}, "heightStatus": "height_tag_unverified", "source": "OpenStreetMap", "license": "ODbL-1.0"}, "geometry": {"type": "MultiPolygon", "coordinates": [[[[114.0563634, 22.5459587], [114.0563642, 22.5457887], [114.0565262, 22.5457454], [114.0567132, 22.5456827], [114.0568719, 22.5456211], [114.05687, 22.5457898], [114.056705, 22.5458539], [114.0565298, 22.5459121], [114.0563634, 22.5459587]]]]}}, {"type": "Feature", "id": "way/781536968", "properties": {"tags": {"building:levels": "5", "building:material": "glass", "building:part": "yes", "height": "19"}, "heightStatus": "height_tag_unverified", "source": "OpenStreetMap", "license": "ODbL-1.0"}, "geometry": {"type": "MultiPolygon", "coordinates": [[[[114.0563633, 22.5469149], [114.0563652, 22.5467759], [114.0568588, 22.5467815], [114.056857, 22.5469205], [114.0563633, 22.5469149]]]]}}, {"type": "Feature", "id": "way/781536969", "properties": {"tags": {"building:levels": "4", "building:material": "concrete", "building:part": "yes", "height": "15"}, "heightStatus": "height_tag_unverified", "source": "OpenStreetMap", "license": "ODbL-1.0"}, "geometry": {"type": "MultiPolygon", "coordinates": [[[[114.0567455, 22.5464908], [114.0567496, 22.5461246], [114.0568661, 22.5461257], [114.0568641, 22.5463088], [114.056862, 22.5464919], [114.0567455, 22.5464908]]]]}}, {"type": "Feature", "id": "way/781536970", "properties": {"tags": {"building:levels": "3", "building:part": "yes", "height": "10"}, "heightStatus": "height_tag_unverified", "source": "OpenStreetMap", "license": "ODbL-1.0"}, "geometry": {"type": "MultiPolygon", "coordinates": [[[[114.0556044, 22.5469067], [114.0556061, 22.546769], [114.0561246, 22.5467743], [114.0561229, 22.5469121], [114.0556044, 22.5469067]]]]}}, {"type": "Feature", "id": "way/781536971", "properties": {"tags": {"building:levels": "5", "building:material": "glass", "building:part": "yes", "height": "19"}, "heightStatus": "height_tag_unverified", "source": "OpenStreetMap", "license": "ODbL-1.0"}, "geometry": {"type": "MultiPolygon", "coordinates": [[[[114.0556061, 22.546769], [114.0556154, 22.5460892], [114.0556248, 22.5460893], [114.0556154, 22.5467691], [114.0556061, 22.546769]]]]}}, {"type": "Feature", "id": "relation/10837978", "properties": {"tags": {"building:levels": "1", "building:material": "concrete", "building:part": "yes", "height": "3.4"}, "heightStatus": "height_tag_unverified", "source": "OpenStreetMap", "license": "ODbL-1.0"}, "geometry": {"type": "MultiPolygon", "coordinates": [[[[114.0536706, 22.5466451], [114.0536817, 22.5457946], [114.0536841, 22.5456117], [114.0542799, 22.5456183], [114.0547443, 22.5456235], [114.0553466, 22.5456302], [114.0553444, 22.5458049], [114.0553331, 22.5466641], [114.0552897, 22.5466635], [114.0552992, 22.5459621], [114.0547576, 22.5459558], [114.0546624, 22.5459547], [114.0546528, 22.5466561], [114.0547481, 22.5466572], [114.054807, 22.5466579], [114.0548025, 22.5469685], [114.0541753, 22.5469619], [114.0541805, 22.5466507], [114.0542606, 22.5466516], [114.0543558, 22.5466527], [114.0543654, 22.5459513], [114.0542701, 22.5459502], [114.0537285, 22.545944], [114.053719, 22.5466453], [114.0536706, 22.5466451]]]]}}, {"type": "Feature", "id": "way/781536977", "properties": {"tags": {"building:material": "glass", "building:part": "yes", "height": "17", "roof:direction": "90", "roof:height": "13.6", "roof:material": "glass", "roof:shape": "skillion"}, "heightStatus": "height_tag_unverified", "source": "OpenStreetMap", "license": "ODbL-1.0"}, "geometry": {"type": "MultiPolygon", "coordinates": [[[[114.0542606, 22.5466516], [114.0542701, 22.5459502], [114.0543654, 22.5459513], [114.0543558, 22.5466527], [114.0542606, 22.5466516]]]]}}, {"type": "Feature", "id": "way/781536978", "properties": {"tags": {"building:levels": "5", "building:material": "glass", "building:min_level": "1", "building:part": "yes", "height": "17", "roof:material": "glass"}, "heightStatus": "height_tag_unverified", "source": "OpenStreetMap", "license": "ODbL-1.0"}, "geometry": {"type": "MultiPolygon", "coordinates": [[[[114.0547481, 22.5466572], [114.0547576, 22.5459558], [114.0552992, 22.5459621], [114.0552897, 22.5466635], [114.054807, 22.5466579], [114.0547481, 22.5466572]]]]}}, {"type": "Feature", "id": "way/781536979", "properties": {"tags": {"building:material": "glass", "building:part": "yes", "height": "17", "roof:direction": "270", "roof:height": "13.6", "roof:material": "glass", "roof:shape": "skillion"}, "heightStatus": "height_tag_unverified", "source": "OpenStreetMap", "license": "ODbL-1.0"}, "geometry": {"type": "MultiPolygon", "coordinates": [[[[114.0546528, 22.5466561], [114.0546624, 22.5459547], [114.0547576, 22.5459558], [114.0547481, 22.5466572], [114.0546528, 22.5466561]]]]}}, {"type": "Feature", "id": "way/781536981", "properties": {"tags": {"building:part": "yes", "height": "19"}, "heightStatus": "height_tag_unverified", "source": "OpenStreetMap", "license": "ODbL-1.0"}, "geometry": {"type": "MultiPolygon", "coordinates": [[[[114.0561969, 22.5458824], [114.0563025, 22.5458824], [114.0563025, 22.5459471], [114.0561969, 22.5459471], [114.0561969, 22.5458824]]]]}}, {"type": "Feature", "id": "way/781536982", "properties": {"tags": {"building:part": "yes", "height": "19"}, "heightStatus": "height_tag_unverified", "source": "OpenStreetMap", "license": "ODbL-1.0"}, "geometry": {"type": "MultiPolygon", "coordinates": [[[[114.0561888, 22.5468781], [114.0561892, 22.5468134], [114.0562947, 22.5468139], [114.0562944, 22.5468786], [114.0561888, 22.5468781]]]]}}, {"type": "Feature", "id": "way/781536983", "properties": {"tags": {"building:levels": "6", "building:material": "glass", "building:part": "yes", "height": "23"}, "heightStatus": "height_tag_unverified", "source": "OpenStreetMap", "license": "ODbL-1.0"}, "geometry": {"type": "MultiPolygon", "coordinates": [[[[114.054892, 22.5468173], [114.0548937, 22.5467067], [114.0551388, 22.5467099], [114.0551371, 22.5468206], [114.054892, 22.5468173]]]]}}, {"type": "Feature", "id": "way/781536992", "properties": {"tags": {"building": "yes", "building:material": "glass", "height": "20", "roof:material": "glass"}, "heightStatus": "height_tag_unverified", "source": "OpenStreetMap", "license": "ODbL-1.0"}, "geometry": {"type": "MultiPolygon", "coordinates": [[[[114.0552735, 22.5450177], [114.055274, 22.5449634], [114.0554021, 22.5449644], [114.0554016, 22.5450187], [114.0552735, 22.5450177]]]]}}, {"type": "Feature", "id": "relation/10837977", "properties": {"tags": {"building:levels": "5", "building:material": "concrete", "building:part": "yes", "height": "19"}, "heightStatus": "height_tag_unverified", "source": "OpenStreetMap", "license": "ODbL-1.0"}, "geometry": {"type": "MultiPolygon", "coordinates": [[[[114.0556154, 22.5467691], [114.0556248, 22.5460893], [114.0558058, 22.5460684], [114.0560013, 22.5460379], [114.05614, 22.5460115], [114.056271, 22.5459831], [114.0563634, 22.5459587], [114.0565298, 22.5459121], [114.056705, 22.5458539], [114.05687, 22.5457898], [114.0568661, 22.5461257], [114.0567496, 22.5461246], [114.0567455, 22.5464908], [114.056862, 22.5464919], [114.0568588, 22.5467815], [114.0563652, 22.5467759], [114.0561246, 22.5467743], [114.0556154, 22.5467691]], [[114.0559014, 22.5466492], [114.0561003, 22.5466511], [114.0561068, 22.546068], [114.0559078, 22.5461003], [114.0559014, 22.5466492]]]]}}, {"type": "Feature", "id": "way/783584159", "properties": {"tags": {"building:material": "metal", "building:part": "yes", "height": "38.7", "layer": "2", "min_height": "27.6", "roof:colour": "#1860af", "roof:direction": "269.3", "roof:height": "4", "roof:shape": "skillion"}, "heightStatus": "height_tag_unverified", "source": "OpenStreetMap", "license": "ODbL-1.0"}, "geometry": {"type": "MultiPolygon", "coordinates": [[[[114.0566175, 22.5469877], [114.0566208, 22.5466521], [114.0566289, 22.5459528], [114.0566328, 22.5456541], [114.0567807, 22.5456245], [114.0569368, 22.5455852], [114.0569194, 22.5469908], [114.0566175, 22.5469877]]]]}}, {"type": "Feature", "id": "way/783584160", "properties": {"tags": {"building:material": "metal", "building:part": "yes", "height": "31.9", "layer": "2", "min_height": "27", "roof:colour": "#1860af"}, "heightStatus": "height_tag_unverified", "source": "OpenStreetMap", "license": "ODbL-1.0"}, "geometry": {"type": "MultiPolygon", "coordinates": [[[[114.0558979, 22.5469801], [114.0559014, 22.5466492], [114.0561003, 22.5466511], [114.0561068, 22.546068], [114.0559078, 22.5461003], [114.055913, 22.5457582], [114.0561549, 22.5457321], [114.0564081, 22.5456951], [114.0566328, 22.5456541], [114.0566289, 22.5459528], [114.056443, 22.545989], [114.0564353, 22.5466502], [114.0566208, 22.5466521], [114.0566175, 22.5469877], [114.0558979, 22.5469801]]]]}}, {"type": "Feature", "id": "way/783584161", "properties": {"tags": {"building:material": "metal", "building:part": "yes", "height": "38", "layer": "2", "min_height": "27.6", "roof:colour": "#1860af", "roof:direction": "89.3", "roof:height": "5", "roof:shape": "skillion"}, "heightStatus": "height_tag_unverified", "source": "OpenStreetMap", "license": "ODbL-1.0"}, "geometry": {"type": "MultiPolygon", "coordinates": [[[[114.0554951, 22.5469758], [114.055534, 22.54687], [114.055562, 22.5467484], [114.0555805, 22.5466394], [114.0555917, 22.5464959], [114.0555952, 22.5463652], [114.0555899, 22.5462278], [114.0555794, 22.5460997], [114.0555579, 22.545973], [114.055516, 22.5457964], [114.0556633, 22.5457823], [114.05579, 22.5457709], [114.055913, 22.5457582], [114.0559078, 22.5461003], [114.0559014, 22.5466492], [114.0558979, 22.5469801], [114.0554951, 22.5469758]]]]}}, {"type": "Feature", "id": "way/783584165", "properties": {"tags": {"building:material": "metal", "building:part": "yes", "height": "49.6", "layer": "2", "min_height": "31", "roof:colour": "#1860af", "roof:direction": "89.3", "roof:height": "8", "roof:shape": "skillion"}, "heightStatus": "height_tag_unverified", "source": "OpenStreetMap", "license": "ODbL-1.0"}, "geometry": {"type": "MultiPolygon", "coordinates": [[[[114.0550948, 22.5469716], [114.0551563, 22.5468715], [114.055201, 22.546772], [114.0552288, 22.5466846], [114.0552475, 22.5465904], [114.0552656, 22.5464638], [114.0552681, 22.5463215], [114.0552595, 22.5462132], [114.0552393, 22.5461043], [114.0552024, 22.5460013], [114.0551644, 22.5459198], [114.0551002, 22.5458137], [114.0553444, 22.5458049], [114.0554006, 22.5458026], [114.055516, 22.5457964], [114.0555579, 22.545973], [114.0555794, 22.5460997], [114.0555899, 22.5462278], [114.0555952, 22.5463652], [114.0555917, 22.5464959], [114.0555805, 22.5466394], [114.055562, 22.5467484], [114.055534, 22.54687], [114.0554951, 22.5469758], [114.0550948, 22.5469716]]]]}}, {"type": "Feature", "id": "relation/8531208", "properties": {"tags": {"building:material": "metal", "building:part": "yes", "height": "60", "layer": "2", "min_height": "43", "roof:colour": "#1860af", "roof:height": "10", "roof:orientation": "across", "roof:shape": "round"}, "heightStatus": "height_tag_unverified", "source": "OpenStreetMap", "license": "ODbL-1.0"}, "geometry": {"type": "MultiPolygon", "coordinates": [[[[114.0537479, 22.5464357], [114.0537526, 22.5462934], [114.0537666, 22.5461856], [114.0537923, 22.5460777], [114.0538343, 22.5459764], [114.0538764, 22.5458966], [114.053939, 22.5458087], [114.0542128, 22.5458162], [114.0545128, 22.5458221], [114.0548028, 22.5458204], [114.0551002, 22.5458137], [114.0551644, 22.5459198], [114.0552024, 22.5460013], [114.0552393, 22.5461043], [114.0552595, 22.5462132], [114.0552681, 22.5463215], [114.0552656, 22.5464638], [114.0552475, 22.5465904], [114.0552288, 22.5466846], [114.055201, 22.546772], [114.0551563, 22.5468715], [114.0550948, 22.5469716], [114.0538958, 22.546959], [114.0538367, 22.5468476], [114.053797, 22.5467463], [114.0537736, 22.5466578], [114.0537596, 22.546563], [114.0537479, 22.5464357]], [[114.0537728, 22.5464098], [114.0537783, 22.5464502], [114.0537924, 22.5464889], [114.0538146, 22.5465241], [114.053844, 22.5465544], [114.0538794, 22.5465787], [114.0539194, 22.546596], [114.0539623, 22.5466055], [114.0540064, 22.5466068], [114.0540499, 22.5466], [114.0541011, 22.5466664], [114.0541493, 22.5467175], [114.0542145, 22.5467625], [114.0542879, 22.5467952], [114.0543784, 22.5468219], [114.0544686, 22.5468349], [114.0545665, 22.5468329], [114.0546614, 22.5468186], [114.0547465, 22.5467872], [114.0548205, 22.5467411], [114.054877, 22.5466879], [114.0549187, 22.5466397], [114.0549352, 22.5466097], [114.0552155, 22.5466123], [114.0552196, 22.5462201], [114.0549529, 22.5462177], [114.0549327, 22.5461558], [114.0548939, 22.5460784], [114.0548477, 22.5460207], [114.0547727, 22.5459665], [114.0546926, 22.5459284], [114.0546143, 22.5459077], [114.0545349, 22.5458969], [114.0544558, 22.5458973], [114.0543796, 22.5459088], [114.054305, 22.5459301], [114.0542374, 22.5459649], [114.054182, 22.5460069], [114.0541336, 22.5460574], [114.0540975, 22.5461164], [114.0540591, 22.5462129], [114.0540209, 22.5462049], [114.0539817, 22.5462033], [114.0539428, 22.5462082], [114.0539055, 22.5462194], [114.053871, 22.5462366], [114.0538368, 22.5462623], [114.0538089, 22.5462939], [114.0537884, 22.54633], [114.0537762, 22.5463692], [114.0537728, 22.5464098]]]]}}, {"type": "Feature", "id": "way/783584168", "properties": {"tags": {"building:material": "metal", "building:part": "yes", "height": "66", "layer": "2", "min_height": "48", "roof:colour": "#1860af"}, "heightStatus": "height_tag_unverified", "source": "OpenStreetMap", "license": "ODbL-1.0"}, "geometry": {"type": "MultiPolygon", "coordinates": [[[[114.0540499, 22.5466], [114.054091, 22.5465852], [114.0541281, 22.5465631], [114.0541565, 22.5465381], [114.0541795, 22.5465087], [114.0541965, 22.5464761], [114.0542069, 22.5464412], [114.0542104, 22.5464051], [114.0542069, 22.546369], [114.0541964, 22.5463341], [114.0541794, 22.5463014], [114.0541563, 22.5462721], [114.0541279, 22.5462471], [114.0540952, 22.5462272], [114.0540591, 22.5462129], [114.0540975, 22.5461164], [114.0541336, 22.5460574], [114.054182, 22.5460069], [114.0542374, 22.5459649], [114.054305, 22.5459301], [114.0543796, 22.5459088], [114.0544558, 22.5458973], [114.0545349, 22.5458969], [114.0546143, 22.5459077], [114.0546926, 22.5459284], [114.0547727, 22.5459665], [114.0548477, 22.5460207], [114.0548939, 22.5460784], [114.0549327, 22.5461558], [114.0549529, 22.5462177], [114.0548307, 22.5462166], [114.0548266, 22.5466087], [114.0549352, 22.5466097], [114.0549187, 22.5466397], [114.054877, 22.5466879], [114.0548205, 22.5467411], [114.0547465, 22.5467872], [114.0546614, 22.5468186], [114.0545665, 22.5468329], [114.0544686, 22.5468349], [114.0543784, 22.5468219], [114.0542879, 22.5467952], [114.0542145, 22.5467625], [114.0541493, 22.5467175], [114.0541011, 22.5466664], [114.0540499, 22.5466]]]]}}, {"type": "Feature", "id": "way/889255371", "properties": {"tags": {"building": "yes"}, "heightStatus": "unknown", "source": "OpenStreetMap", "license": "ODbL-1.0"}, "geometry": {"type": "MultiPolygon", "coordinates": [[[[114.0606914, 22.5465596], [114.0606945, 22.5464238], [114.0607701, 22.5464252], [114.0607714, 22.5463649], [114.0607876, 22.5463652], [114.0607887, 22.5463137], [114.0608549, 22.5463149], [114.0608555, 22.5462867], [114.0610212, 22.5462898], [114.0610205, 22.5463238], [114.0611313, 22.5463259], [114.0611303, 22.5463717], [114.0611464, 22.546372], [114.0611407, 22.5466304], [114.0611152, 22.54663], [114.0611142, 22.5466762], [114.0610165, 22.5466744], [114.0610159, 22.5467016], [114.0608562, 22.5466986], [114.0608569, 22.546667], [114.0607648, 22.5466652], [114.0607658, 22.5466192], [114.0607419, 22.5466187], [114.0607432, 22.5465606], [114.0606914, 22.5465596]]]]}}, {"type": "Feature", "id": "way/889255372", "properties": {"tags": {"addr:housename": "雅颂居", "addr:housename:zh": "雅颂居", "building": "apartments", "building:levels": "25", "name": "2栋", "name:zh": "2栋"}, "heightStatus": "levels_only_unverified", "source": "OpenStreetMap", "license": "ODbL-1.0"}, "geometry": {"type": "MultiPolygon", "coordinates": [[[[114.0609319, 22.5458659], [114.0611856, 22.5458247], [114.0612797, 22.5458264], [114.0612774, 22.5459342], [114.061305, 22.5459347], [114.0613035, 22.5460065], [114.0611893, 22.5460045], [114.0610753, 22.5460106], [114.0609621, 22.5460248], [114.0609319, 22.5458659]]]]}}, {"type": "Feature", "id": "way/889255373", "properties": {"tags": {"addr:housename": "雅颂居", "addr:housename:zh": "雅颂居", "building": "apartments", "building:levels": "25", "name": "5栋", "name:zh": "5栋"}, "heightStatus": "levels_only_unverified", "source": "OpenStreetMap", "license": "ODbL-1.0"}, "geometry": {"type": "MultiPolygon", "coordinates": [[[[114.0618567, 22.5460343], [114.0618883, 22.5458756], [114.0621416, 22.5459186], [114.0622292, 22.5459504], [114.0621865, 22.5460507], [114.0622122, 22.54606], [114.0621837, 22.5461269], [114.0620774, 22.5460883], [114.0619682, 22.5460574], [114.0618567, 22.5460343]]]]}}, {"type": "Feature", "id": "way/889255374", "properties": {"tags": {"addr:housename": "雅颂居", "addr:housename:zh": "雅颂居", "building": "apartments", "building:levels": "33", "name": "8栋", "name:zh": "8栋"}, "heightStatus": "levels_only_unverified", "source": "OpenStreetMap", "license": "ODbL-1.0"}, "geometry": {"type": "MultiPolygon", "coordinates": [[[[114.0609252, 22.5469669], [114.0609267, 22.5468822], [114.0612734, 22.5468874], [114.0612716, 22.5469923], [114.0611736, 22.5469908], [114.0611724, 22.547058], [114.0610649, 22.5470564], [114.0610664, 22.546969], [114.0609252, 22.5469669]]]]}}, {"type": "Feature", "id": "way/889255375", "properties": {"tags": {"addr:housename": "雅颂居", "addr:housename:zh": "雅颂居", "building": "apartments", "building:levels": "33", "name": "6栋", "name:zh": "6栋"}, "heightStatus": "levels_only_unverified", "source": "OpenStreetMap", "license": "ODbL-1.0"}, "geometry": {"type": "MultiPolygon", "coordinates": [[[[114.0618616, 22.546701], [114.0621956, 22.546615], [114.0622261, 22.546716], [114.0621317, 22.5467403], [114.0621513, 22.546805], [114.0620477, 22.5468317], [114.0620223, 22.5467476], [114.0618862, 22.5467826], [114.0618616, 22.546701]]]]}}, {"type": "Feature", "id": "way/925221215", "properties": {"tags": {"addr:city": "深圳市", "addr:district": "福田区", "addr:housenumber": "2014号", "addr:postcode": "518038", "addr:province": "广东省", "addr:street": "福中一路", "building": "retail", "internet_access": "wlan", "internet_access:fee": "no", "layer": "-1", "name": "深圳书城·中心城", "name:en": "Shenzhen Book Mall, Central", "name:ru": "Центральный книжный магазин Шеньчженя (молл)", "name:zh": "深圳书城·中心城", "opening_hours": "Mo-Th 10:00-22:00; Fr 10:00-22:30; Sa 9:30-22:30; Su 9:30-22:00; PH 9:30-22:30", "operator": "深圳出版集团", "payment:alipay": "yes", "payment:cash": "yes", "payment:unionpay": "yes", "payment:wechat": "yes", "phone": "+86 755 2399 2013;+86 755 2399 2014", "shop": "books", "wikidata": "Q11152855", "wikimedia_commons": "Category:Shenzhen Book City", "wikipedia": "zh:深圳书城中心城"}, "heightStatus": "unknown", "source": "OpenStreetMap", "license": "ODbL-1.0"}, "geometry": {"type": "MultiPolygon", "coordinates": [[[[114.0539118, 22.5482252], [114.0539187, 22.5476897], [114.0541656, 22.5476936], [114.0544836, 22.547696], [114.0547908, 22.5477011], [114.0551001, 22.5477028], [114.0550944, 22.5481464], [114.0550544, 22.5481459], [114.0550513, 22.5483824], [114.0549425, 22.5483812], [114.0549415, 22.5484589], [114.0549407, 22.5485158], [114.0550181, 22.5485167], [114.0550105, 22.5490912], [114.0549339, 22.5490903], [114.0549319, 22.549245], [114.0547592, 22.5492435], [114.0547574, 22.5493632], [114.0547565, 22.5494508], [114.0547539, 22.5495947], [114.0549404, 22.5495978], [114.0549285, 22.5503143], [114.0549187, 22.5509062], [114.0547294, 22.5509043], [114.0544249, 22.5508993], [114.0541107, 22.5508941], [114.0539726, 22.5508929], [114.0539825, 22.5502983], [114.0539943, 22.5495843], [114.0541712, 22.5495872], [114.0541737, 22.5494417], [114.0541746, 22.5493544], [114.0541764, 22.5492361], [114.0540295, 22.5492348], [114.0540316, 22.549078], [114.0539359, 22.5490769], [114.0539437, 22.5484927], [114.0540297, 22.5484936], [114.0540304, 22.54845], [114.0540312, 22.5483827], [114.0539454, 22.5483817], [114.0539474, 22.5482256], [114.0539118, 22.5482252]]]]}}, {"type": "Feature", "id": "way/1018426473", "properties": {"tags": {"building": "train_station", "building:levels": "0", "building:levels:underground": "2", "layer": "-1", "location": "underground", "name": "少年宫站", "name:en": "Children’s Palace", "name:zh": "少年宫站", "public_transport": "station"}, "heightStatus": "levels_only_unverified", "source": "OpenStreetMap", "license": "ODbL-1.0"}, "geometry": {"type": "MultiPolygon", "coordinates": [[[[114.0537682, 22.5514517], [114.0537776, 22.5511178], [114.0549791, 22.5511327], [114.0549857, 22.550568], [114.0553574, 22.5505698], [114.0553799, 22.5495123], [114.0560829, 22.5495204], [114.056096, 22.549186], [114.0563272, 22.5491911], [114.0563262, 22.5492766], [114.0561899, 22.549272], [114.0561832, 22.5495194], [114.0563238, 22.5495212], [114.0563233, 22.5496096], [114.0558544, 22.5496065], [114.0558334, 22.5509933], [114.0563674, 22.5510013], [114.0563678, 22.5510987], [114.0558066, 22.5510922], [114.0558035, 22.551365], [114.055598, 22.5513647], [114.0555957, 22.5514833], [114.0556858, 22.5514844], [114.0556845, 22.5516117], [114.0549656, 22.5516019], [114.0549685, 22.5514676], [114.0537682, 22.5514517]]]]}}, {"type": "Feature", "id": "way/1018426474", "properties": {"tags": {"building": "train_station", "building:levels": "0", "building:levels:underground": "2", "layer": "-1", "location": "underground", "name": "莲花村站", "name:en": "Lianhuacun Station", "name:zh": "莲花村站", "public_transport": "station", "wikidata": "Q5940554", "wikimedia_commons": "Category:Lianhuacun Station", "wikipedia": "zh:莲花村站"}, "heightStatus": "levels_only_unverified", "source": "OpenStreetMap", "license": "ODbL-1.0"}, "geometry": {"type": "MultiPolygon", "coordinates": [[[[114.0616649, 22.5515757], [114.0616704, 22.5513404], [114.0623389, 22.5513419], [114.0623407, 22.55116], [114.0618092, 22.5511584], [114.0618084, 22.5510866], [114.0623279, 22.5510953], [114.0623285, 22.5510115], [114.0622005, 22.5510082], [114.06196, 22.5510063], [114.0619614, 22.5509138], [114.0620422, 22.5509157], [114.062043, 22.5505148], [114.0624504, 22.5505213], [114.0628895, 22.5505215], [114.0628823, 22.550966], [114.0629807, 22.5509729], [114.0629887, 22.5505278], [114.063083, 22.5505304], [114.0630813, 22.5511711], [114.0637165, 22.5511324], [114.0637332, 22.5514427], [114.063372, 22.5514701], [114.0633784, 22.5515566], [114.0635392, 22.5515398], [114.0635468, 22.551611], [114.0631895, 22.5516496], [114.0630376, 22.5517463], [114.0630338, 22.5519115], [114.0630306, 22.5525597], [114.062266, 22.5525563], [114.0622697, 22.5520272], [114.0624986, 22.5520273], [114.0624975, 22.5517864], [114.0619032, 22.5517827], [114.0619063, 22.5516907], [114.0622124, 22.5516947], [114.0622131, 22.5515819], [114.0616649, 22.5515757]]]]}}, {"type": "Feature", "id": "way/1274818940", "properties": {"tags": {"building": "apartments", "building:levels": "30", "layer": "2", "name": "西座", "name:zh": "西座"}, "heightStatus": "levels_only_unverified", "source": "OpenStreetMap", "license": "ODbL-1.0"}, "geometry": {"type": "MultiPolygon", "coordinates": [[[[114.0634059, 22.547042], [114.0634063, 22.5469278], [114.0634173, 22.5469278], [114.0634174, 22.5468937], [114.063443, 22.5468938], [114.0634431, 22.5468741], [114.0634856, 22.5468742], [114.0634858, 22.5468357], [114.0635256, 22.5468358], [114.0635257, 22.5468171], [114.0636003, 22.5468173], [114.0636002, 22.546838], [114.0636316, 22.5468381], [114.0636315, 22.5468822], [114.0636763, 22.5468823], [114.0636762, 22.5469086], [114.0636988, 22.5469087], [114.0636988, 22.5469309], [114.0637172, 22.546931], [114.063717, 22.5470175], [114.063701, 22.5470175], [114.0637009, 22.5470388], [114.0636706, 22.5470387], [114.0636705, 22.5470639], [114.0636315, 22.5470638], [114.0636314, 22.5471151], [114.0635959, 22.547115], [114.0635959, 22.5471296], [114.0635112, 22.5471294], [114.0635113, 22.5471147], [114.0634708, 22.5471145], [114.0634709, 22.5470709], [114.0634322, 22.5470707], [114.0634323, 22.5470421], [114.0634059, 22.547042]]]]}}, {"type": "Feature", "id": "way/1274818946", "properties": {"tags": {"building": "office", "building:levels": "32", "name": "橄榄大厦"}, "heightStatus": "levels_only_unverified", "source": "OpenStreetMap", "license": "ODbL-1.0"}, "geometry": {"type": "MultiPolygon", "coordinates": [[[[114.063297, 22.5464315], [114.0633115, 22.5459293], [114.0635291, 22.5459347], [114.0635146, 22.5464364], [114.0634665, 22.5464352], [114.0634668, 22.5464243], [114.0633436, 22.5464213], [114.0633433, 22.5464327], [114.063297, 22.5464315]]]]}}, {"type": "Feature", "id": "way/1274818948", "properties": {"tags": {"addr:housename": "橄榄鹏苑", "addr:housename:zh": "橄榄鹏苑", "building": "apartments", "building:levels": "24", "name": "A栋", "name:zh": "A栋"}, "heightStatus": "levels_only_unverified", "source": "OpenStreetMap", "license": "ODbL-1.0"}, "geometry": {"type": "MultiPolygon", "coordinates": [[[[114.0633022, 22.5457944], [114.0633064, 22.5455596], [114.063385, 22.5455608], [114.0633844, 22.545595], [114.0635958, 22.5455982], [114.0635964, 22.5455656], [114.0636726, 22.5455667], [114.0636683, 22.5458032], [114.0635934, 22.5458021], [114.0635943, 22.5457539], [114.0633786, 22.5457506], [114.0633778, 22.5457955], [114.0633022, 22.5457944]]]]}}, {"type": "Feature", "id": "relation/17518317", "properties": {"tags": {"building": "apartments", "building:levels": "8", "layer": "1", "name": "39栋", "name:ja": "39棟", "name:zh": "39栋"}, "heightStatus": "levels_only_unverified", "source": "OpenStreetMap", "license": "ODbL-1.0"}, "geometry": {"type": "MultiPolygon", "coordinates": [[[[114.0631406, 22.5528565], [114.0631417, 22.552624], [114.0632182, 22.5526243], [114.0632185, 22.5525693], [114.0631427, 22.5525689], [114.0631431, 22.5524784], [114.0636803, 22.5524808], [114.063679, 22.5527198], [114.0636117, 22.5527195], [114.0636115, 22.552768], [114.0636782, 22.5527683], [114.0636778, 22.5528587], [114.0631406, 22.5528565]], [[114.0632379, 22.5527644], [114.0635769, 22.5527686], [114.0635797, 22.5525744], [114.0632407, 22.5525703], [114.0632379, 22.5527644]]]]}}, {"type": "Feature", "id": "way/1276338218", "properties": {"tags": {"building": "school"}, "heightStatus": "unknown", "source": "OpenStreetMap", "license": "ODbL-1.0"}, "geometry": {"type": "MultiPolygon", "coordinates": [[[[114.0630048, 22.5529948], [114.0631273, 22.5529945], [114.0631274, 22.5530147], [114.0631969, 22.5530145], [114.0631977, 22.5532438], [114.0631281, 22.5532441], [114.0631282, 22.5532725], [114.0630722, 22.5532727], [114.0630721, 22.5532465], [114.0630056, 22.5532467], [114.0630048, 22.5529948]]]]}}, {"type": "Feature", "id": "relation/17518318", "properties": {"tags": {"building": "school"}, "heightStatus": "unknown", "source": "OpenStreetMap", "license": "ODbL-1.0"}, "geometry": {"type": "MultiPolygon", "coordinates": [[[[114.0632773, 22.5532794], [114.0632821, 22.5530891], [114.0635028, 22.5530938], [114.0634993, 22.5532327], [114.063916, 22.5532417], [114.0639156, 22.5532575], [114.0641337, 22.5532623], [114.0641327, 22.5533041], [114.0641638, 22.5533048], [114.0641616, 22.5533888], [114.0640819, 22.553387], [114.0640833, 22.553332], [114.0638969, 22.5533279], [114.0638973, 22.5533138], [114.0634038, 22.553303], [114.0634044, 22.5532821], [114.0632773, 22.5532794]], [[114.0632983, 22.5532151], [114.0634845, 22.5532169], [114.0634851, 22.5531642], [114.0632989, 22.5531624], [114.0632983, 22.5532151]]]]}}, {"type": "Feature", "id": "way/1276338261", "properties": {"tags": {"addr:housename": "莲花二村", "addr:housename:zh": "莲花二村", "building": "apartments", "building:levels": "8", "name": "40栋", "name:ja": "40棟", "name:zh": "40栋"}, "heightStatus": "levels_only_unverified", "source": "OpenStreetMap", "license": "ODbL-1.0"}, "geometry": {"type": "MultiPolygon", "coordinates": [[[[114.063151, 22.5523068], [114.0631516, 22.5522268], [114.0631755, 22.552227], [114.0631757, 22.552199], [114.0632176, 22.5521992], [114.0632177, 22.552188], [114.0632894, 22.5521885], [114.0632893, 22.5521974], [114.0633254, 22.5521976], [114.0633252, 22.5522394], [114.0633513, 22.5522396], [114.0633516, 22.5522001], [114.0633891, 22.5522003], [114.0633891, 22.5521947], [114.063454, 22.5521952], [114.0634539, 22.5522038], [114.0634885, 22.5522041], [114.0634881, 22.5522509], [114.0635284, 22.5522512], [114.0635288, 22.5522048], [114.0635611, 22.552205], [114.0635612, 22.5521949], [114.0636345, 22.5521954], [114.0636344, 22.5522031], [114.0636621, 22.5522033], [114.0636618, 22.5522409], [114.0636877, 22.5522411], [114.0636871, 22.5523095], [114.0636228, 22.5523091], [114.063623, 22.5522867], [114.0635636, 22.5522863], [114.0635634, 22.5523087], [114.063454, 22.5523079], [114.0634541, 22.5522887], [114.063391, 22.5522883], [114.0633908, 22.5523069], [114.0632789, 22.5523062], [114.0632791, 22.5522882], [114.0632286, 22.5522879], [114.0632285, 22.5523073], [114.063151, 22.5523068]]]]}}, {"type": "Feature", "id": "way/1276338263", "properties": {"tags": {"addr:housename": "莲花二村", "addr:housename:zh": "莲花二村", "building": "apartments", "building:levels": "8", "name": "41栋", "name:ja": "41棟", "name:zh": "41栋"}, "heightStatus": "levels_only_unverified", "source": "OpenStreetMap", "license": "ODbL-1.0"}, "geometry": {"type": "MultiPolygon", "coordinates": [[[[114.0631578, 22.5519804], [114.0631816, 22.5519785], [114.063179, 22.5519506], [114.0632208, 22.5519473], [114.0632198, 22.5519362], [114.0632912, 22.5519305], [114.063292, 22.5519394], [114.063328, 22.5519366], [114.0633319, 22.5519783], [114.0633579, 22.5519762], [114.0633543, 22.5519369], [114.0633917, 22.551934], [114.0633912, 22.5519284], [114.0634558, 22.5519234], [114.0634566, 22.551932], [114.063491, 22.5519293], [114.0634953, 22.551976], [114.0635355, 22.5519729], [114.0635312, 22.5519266], [114.0635634, 22.5519241], [114.0635625, 22.5519141], [114.0636356, 22.5519084], [114.0636363, 22.551916], [114.0636639, 22.5519139], [114.0636672, 22.5519514], [114.0636931, 22.5519494], [114.0636992, 22.5520176], [114.0636351, 22.5520226], [114.0636331, 22.5520003], [114.0635739, 22.5520049], [114.063576, 22.5520272], [114.0634669, 22.5520356], [114.0634652, 22.5520165], [114.0634023, 22.5520214], [114.063404, 22.55204], [114.0632924, 22.5520487], [114.0632908, 22.5520307], [114.0632406, 22.5520347], [114.0632423, 22.552054], [114.0631651, 22.55206], [114.0631578, 22.5519804]]]]}}, {"type": "Feature", "id": "way/1276338268", "properties": {"tags": {"addr:housename": "莲花二村", "addr:housename:zh": "莲花二村", "building": "apartments", "building:levels": "8", "name": "42栋", "name:ja": "42棟", "name:zh": "42栋"}, "heightStatus": "levels_only_unverified", "source": "OpenStreetMap", "license": "ODbL-1.0"}, "geometry": {"type": "MultiPolygon", "coordinates": [[[[114.0631041, 22.5516837], [114.0632133, 22.5516773], [114.0632163, 22.551721], [114.0632419, 22.5517195], [114.0632387, 22.5516734], [114.0633489, 22.5516669], [114.0633519, 22.5517101], [114.0633778, 22.5517086], [114.0633746, 22.5516611], [114.0634924, 22.5516542], [114.0634951, 22.5516935], [114.0635085, 22.5516927], [114.0635058, 22.5516538], [114.0636183, 22.5516472], [114.0636261, 22.5517603], [114.0636132, 22.5517611], [114.0636124, 22.5517486], [114.0635782, 22.5517506], [114.0635795, 22.5517697], [114.0635127, 22.5517736], [114.063512, 22.5517625], [114.0634771, 22.5517646], [114.0634781, 22.5517783], [114.0633773, 22.5517842], [114.0633766, 22.5517734], [114.0633385, 22.5517756], [114.0633394, 22.5517889], [114.0632392, 22.5517947], [114.0632384, 22.5517826], [114.0632046, 22.5517846], [114.0632056, 22.5518], [114.0631586, 22.5518027], [114.0631577, 22.5517906], [114.0631116, 22.5517933], [114.0631041, 22.5516837]]]]}}, {"type": "Feature", "id": "way/1429635144", "properties": {"tags": {"building": "school"}, "heightStatus": "unknown", "source": "OpenStreetMap", "license": "ODbL-1.0"}, "geometry": {"type": "MultiPolygon", "coordinates": [[[[114.0633953, 22.5497736], [114.0633978, 22.5496579], [114.0634577, 22.5496591], [114.0634569, 22.5496933], [114.0636036, 22.5496961], [114.0636018, 22.5497776], [114.0633953, 22.5497736]]]]}}, {"type": "Feature", "id": "way/1429635145", "properties": {"tags": {"addr:housename": "福莲花园", "addr:housename:zh": "福莲花园", "building": "apartments", "building:levels": "9", "name": "20栋", "name:zh": "20栋"}, "heightStatus": "levels_only_unverified", "source": "OpenStreetMap", "license": "ODbL-1.0"}, "geometry": {"type": "MultiPolygon", "coordinates": [[[[114.0631133, 22.5478885], [114.0631136, 22.5478128], [114.063181, 22.547813], [114.063181, 22.5477917], [114.0631685, 22.5477917], [114.0631686, 22.5477573], [114.0631527, 22.5477573], [114.0631529, 22.5477185], [114.0632103, 22.5477187], [114.0632102, 22.5477479], [114.0632577, 22.547748], [114.0632578, 22.5477188], [114.0633153, 22.547719], [114.0633151, 22.5477578], [114.0632992, 22.5477577], [114.0632991, 22.5477921], [114.0632866, 22.547792], [114.0632865, 22.5478133], [114.0633539, 22.5478136], [114.0633536, 22.5478893], [114.0633062, 22.5478891], [114.0633063, 22.5478743], [114.0631607, 22.5478738], [114.0631607, 22.5478887], [114.0631133, 22.5478885]]]]}}, {"type": "Feature", "id": "way/1429635146", "properties": {"tags": {"addr:housename": "福莲花园", "addr:housename:zh": "福莲花园", "building": "apartments", "building:levels": "9", "name": "21栋", "name:zh": "21栋"}, "heightStatus": "levels_only_unverified", "source": "OpenStreetMap", "license": "ODbL-1.0"}, "geometry": {"type": "MultiPolygon", "coordinates": [[[[114.0634888, 22.5478906], [114.0634891, 22.5478149], [114.0635565, 22.5478151], [114.0635566, 22.5477938], [114.063544, 22.5477937], [114.0635441, 22.5477594], [114.0635283, 22.5477593], [114.0635284, 22.5477206], [114.0635858, 22.5477208], [114.0635857, 22.5477499], [114.0636333, 22.5477501], [114.0636334, 22.5477209], [114.0636908, 22.5477211], [114.0636907, 22.5477598], [114.0636748, 22.5477598], [114.0636747, 22.5477941], [114.0636621, 22.5477941], [114.063662, 22.5478154], [114.0637294, 22.5478156], [114.0637291, 22.5478914], [114.0636818, 22.5478912], [114.0636818, 22.5478764], [114.0635362, 22.5478759], [114.0635362, 22.5478908], [114.0634888, 22.5478906]]]]}}, {"type": "Feature", "id": "way/1429635149", "properties": {"tags": {"addr:housename": "福莲花园", "addr:housename:zh": "福莲花园", "building": "apartments", "building:levels": "6", "name": "19栋", "name:zh": "19栋"}, "heightStatus": "levels_only_unverified", "source": "OpenStreetMap", "license": "ODbL-1.0"}, "geometry": {"type": "MultiPolygon", "coordinates": [[[[114.063249, 22.5482129], [114.0632511, 22.5480787], [114.063833, 22.5480863], [114.0638309, 22.5482205], [114.063249, 22.5482129]]]]}}, {"type": "Feature", "id": "way/1429635150", "properties": {"tags": {"addr:housename": "福莲花园", "addr:housename:zh": "福莲花园", "building": "apartments", "building:levels": "6", "name": "13栋", "name:zh": "13栋"}, "heightStatus": "levels_only_unverified", "source": "OpenStreetMap", "license": "ODbL-1.0"}, "geometry": {"type": "MultiPolygon", "coordinates": [[[[114.0632395, 22.5486105], [114.0632416, 22.5484763], [114.0638235, 22.5484839], [114.0638214, 22.5486182], [114.0632395, 22.5486105]]]]}}, {"type": "Feature", "id": "way/1429635153", "properties": {"tags": {"addr:housename": "福莲花园", "addr:housename:zh": "福莲花园", "building": "apartments", "building:levels": "6", "name": "12栋", "name:zh": "12栋"}, "heightStatus": "levels_only_unverified", "source": "OpenStreetMap", "license": "ODbL-1.0"}, "geometry": {"type": "MultiPolygon", "coordinates": [[[[114.0631771, 22.548961], [114.0631792, 22.5488268], [114.0637611, 22.5488345], [114.063759, 22.5489687], [114.0631771, 22.548961]]]]}}, {"type": "Feature", "id": "way/1429635159", "properties": {"tags": {"addr:housename": "福莲花园", "addr:housename:zh": "福莲花园", "building": "apartments", "building:levels": "9", "name": "1栋", "name:zh": "1栋"}, "heightStatus": "levels_only_unverified", "source": "OpenStreetMap", "license": "ODbL-1.0"}, "geometry": {"type": "MultiPolygon", "coordinates": [[[[114.0630651, 22.5509719], [114.0630664, 22.5509162], [114.0630882, 22.5509166], [114.0630893, 22.5508659], [114.0633353, 22.5508705], [114.0637402, 22.5508782], [114.0637391, 22.5509285], [114.0637606, 22.5509289], [114.0637593, 22.5509846], [114.0637033, 22.5509835], [114.0637036, 22.5509681], [114.0631214, 22.550957], [114.0631211, 22.550973], [114.0630651, 22.5509719]]]]}}, {"type": "Feature", "id": "way/1429635163", "properties": {"tags": {"addr:housename": "福莲花园", "addr:housename:zh": "福莲花园", "building": "apartments", "building:levels": "9", "name": "4栋", "name:zh": "4栋"}, "heightStatus": "levels_only_unverified", "source": "OpenStreetMap", "license": "ODbL-1.0"}, "geometry": {"type": "MultiPolygon", "coordinates": [[[[114.0631983, 22.550696], [114.0631993, 22.5506339], [114.0632183, 22.5506342], [114.0632189, 22.5505931], [114.063866, 22.550602], [114.0638654, 22.550644], [114.0638853, 22.5506443], [114.0638843, 22.5507054], [114.0631983, 22.550696]]]]}}, {"type": "Feature", "id": "way/1429635164", "properties": {"tags": {"addr:housename": "福莲花园", "addr:housename:zh": "福莲花园", "building": "apartments", "building:levels": "9", "name": "8栋", "name:ja": "8棟", "name:zh": "8栋"}, "heightStatus": "levels_only_unverified", "source": "OpenStreetMap", "license": "ODbL-1.0"}, "geometry": {"type": "MultiPolygon", "coordinates": [[[[114.0631367, 22.5500077], [114.0631369, 22.5499462], [114.0631566, 22.5499463], [114.0631567, 22.5499045], [114.0636186, 22.5499061], [114.0636185, 22.5499475], [114.0636377, 22.5499475], [114.0636375, 22.5500094], [114.0631367, 22.5500077]]]]}}, {"type": "Feature", "id": "way/1429635165", "properties": {"tags": {"addr:housename": "福莲花园", "addr:housename:zh": "福莲花园", "building": "apartments", "building:levels": "9", "name": "6栋", "name:ja": "6棟", "name:zh": "6栋"}, "heightStatus": "levels_only_unverified", "source": "OpenStreetMap", "license": "ODbL-1.0"}, "geometry": {"type": "MultiPolygon", "coordinates": [[[[114.0631917, 22.5502923], [114.063192, 22.5502308], [114.0632116, 22.5502309], [114.0632118, 22.5501891], [114.0636978, 22.5501907], [114.0636976, 22.5502321], [114.0637169, 22.5502322], [114.0637167, 22.550294], [114.0631917, 22.5502923]]]]}}, {"type": "Feature", "id": "way/1429636193", "properties": {"tags": {"addr:housename": "雅颂居", "addr:housename:zh": "雅颂居", "building": "apartments", "building:levels": "25", "name": "1栋", "name:zh": "1栋"}, "heightStatus": "levels_only_unverified", "source": "OpenStreetMap", "license": "ODbL-1.0"}, "geometry": {"type": "MultiPolygon", "coordinates": [[[[114.0605903, 22.5459382], [114.0606782, 22.545907], [114.0609319, 22.5458659], [114.0609621, 22.5460248], [114.0608504, 22.5460471], [114.060741, 22.5460772], [114.0606343, 22.546115], [114.0606064, 22.546048], [114.0606322, 22.5460388], [114.0605903, 22.5459382]]]]}}, {"type": "Feature", "id": "way/1429636194", "properties": {"tags": {"addr:housename": "雅颂居", "addr:housename:zh": "雅颂居", "building": "apartments", "building:levels": "25", "name": "3栋", "name:zh": "3栋"}, "heightStatus": "levels_only_unverified", "source": "OpenStreetMap", "license": "ODbL-1.0"}, "geometry": {"type": "MultiPolygon", "coordinates": [[[[114.0615145, 22.5459416], [114.0615422, 22.5459413], [114.0615408, 22.5458336], [114.061635, 22.5458326], [114.0618883, 22.5458756], [114.0618567, 22.5460343], [114.0617436, 22.5460192], [114.0616297, 22.5460123], [114.0615154, 22.5460135], [114.0615145, 22.5459416]]]]}}, {"type": "Feature", "id": "way/1429636195", "properties": {"tags": {"addr:housename": "雅颂居", "addr:housename:zh": "雅颂居", "building": "apartments", "building:levels": "33", "name": "9栋", "name:zh": "9栋"}, "heightStatus": "levels_only_unverified", "source": "OpenStreetMap", "license": "ODbL-1.0"}, "geometry": {"type": "MultiPolygon", "coordinates": [[[[114.0605781, 22.5469817], [114.06058, 22.5468769], [114.0609267, 22.5468822], [114.0609252, 22.5469669], [114.060784, 22.5469647], [114.0607824, 22.5470521], [114.0606749, 22.5470504], [114.0606761, 22.5469832], [114.0605781, 22.5469817]]]]}}, {"type": "Feature", "id": "way/1429636196", "properties": {"tags": {"addr:housename": "雅颂居", "addr:housename:zh": "雅颂居", "building": "apartments", "building:levels": "33", "name": "7栋", "name:zh": "7栋"}, "heightStatus": "levels_only_unverified", "source": "OpenStreetMap", "license": "ODbL-1.0"}, "geometry": {"type": "MultiPolygon", "coordinates": [[[[114.0615275, 22.5467871], [114.0618616, 22.546701], [114.0618862, 22.5467826], [114.0617502, 22.5468177], [114.0617756, 22.5469018], [114.061672, 22.5469285], [114.0616524, 22.5468637], [114.061558, 22.546888], [114.0615275, 22.5467871]]]]}}, {"type": "Feature", "id": "way/1429636718", "properties": {"tags": {"building": "kindergarten"}, "heightStatus": "unknown", "source": "OpenStreetMap", "license": "ODbL-1.0"}, "geometry": {"type": "MultiPolygon", "coordinates": [[[[114.0620143, 22.5491084], [114.0620322, 22.5491084], [114.0620386, 22.5490807], [114.0620505, 22.5490546], [114.0620677, 22.549031], [114.0620894, 22.549011], [114.0621148, 22.5489951], [114.0621431, 22.548984], [114.0621431, 22.5489605], [114.0621278, 22.5489668], [114.0621111, 22.5489656], [114.0620971, 22.5489573], [114.0620891, 22.5489437], [114.0620891, 22.5489282], [114.0620971, 22.5489147], [114.0621111, 22.5489063], [114.0621278, 22.5489051], [114.0621431, 22.5489115], [114.0623, 22.5489115], [114.0623, 22.5492459], [114.0622276, 22.5492459], [114.0622276, 22.5492756], [114.0621954, 22.5492756], [114.0621826, 22.5492935], [114.062165, 22.5493073], [114.0621439, 22.5493161], [114.0621209, 22.5493191], [114.062098, 22.5493161], [114.0620769, 22.5493073], [114.0620593, 22.5492935], [114.0620465, 22.5492756], [114.0620143, 22.5492756], [114.0620143, 22.5491084]]]]}}, {"type": "Feature", "id": "way/1429636720", "properties": {"tags": {"building": "yes", "name": "会所", "name:zh": "会所"}, "heightStatus": "unknown", "source": "OpenStreetMap", "license": "ODbL-1.0"}, "geometry": {"type": "MultiPolygon", "coordinates": [[[[114.0619035, 22.5481437], [114.061906, 22.5480942], [114.0619244, 22.5480477], [114.0619569, 22.5480083], [114.0620008, 22.5479797], [114.0619774, 22.5479454], [114.0620178, 22.5479282], [114.0620609, 22.5479179], [114.0621053, 22.5479151], [114.0621495, 22.5479197], [114.062192, 22.5479317], [114.0622315, 22.5479506], [114.0622667, 22.5479758], [114.0622351, 22.5480027], [114.0622598, 22.5480294], [114.062278, 22.5480601], [114.062289, 22.5480937], [114.0622923, 22.5481286], [114.0622878, 22.5481635], [114.0622756, 22.5481967], [114.0622562, 22.5482268], [114.0622306, 22.5482527], [114.0622622, 22.5482808], [114.0622236, 22.5483087], [114.0621885, 22.5482569], [114.0621415, 22.5482807], [114.0620889, 22.5482906], [114.0620356, 22.5482855], [114.0619863, 22.5482659], [114.0619456, 22.5482336], [114.0619171, 22.5481916], [114.0619035, 22.5481437]]]]}}, {"type": "Feature", "id": "way/1429636722", "properties": {"tags": {"addr:housename": "深业花园", "addr:housename:zh": "深业花园", "building": "apartments", "building:levels": "26", "name": "C栋", "name:ja": "C棟", "name:zh": "C栋"}, "heightStatus": "levels_only_unverified", "source": "OpenStreetMap", "license": "ODbL-1.0"}, "geometry": {"type": "MultiPolygon", "coordinates": [[[[114.0605432, 22.5490746], [114.0607538, 22.548889], [114.0609669, 22.5490952], [114.0607564, 22.5492808], [114.0605432, 22.5490746]]]]}}, {"type": "Feature", "id": "way/1429636724", "properties": {"tags": {"addr:housename": "深业花园", "addr:housename:zh": "深业花园", "building": "apartments", "building:levels": "30", "name": "B1栋", "name:ja": "B1棟", "name:zh": "B1栋"}, "heightStatus": "levels_only_unverified", "source": "OpenStreetMap", "license": "ODbL-1.0"}, "geometry": {"type": "MultiPolygon", "coordinates": [[[[114.0611764, 22.5492347], [114.0612598, 22.5491698], [114.0612645, 22.5491201], [114.0612415, 22.5491183], [114.0612451, 22.5490792], [114.0613642, 22.5490887], [114.0614476, 22.5490238], [114.0615006, 22.549082], [114.0614348, 22.5491331], [114.0614327, 22.5491556], [114.0614915, 22.5491602], [114.0614803, 22.5492809], [114.0613779, 22.5492728], [114.0613827, 22.5492212], [114.0613272, 22.5492168], [114.0612294, 22.5492929], [114.0611764, 22.5492347]]]]}}, {"type": "Feature", "id": "way/1429636725", "properties": {"tags": {"addr:housename": "深业花园", "addr:housename:zh": "深业花园", "building": "apartments", "building:levels": "30", "name": "B2栋", "name:ja": "B2棟", "name:zh": "B2栋"}, "heightStatus": "levels_only_unverified", "source": "OpenStreetMap", "license": "ODbL-1.0"}, "geometry": {"type": "MultiPolygon", "coordinates": [[[[114.0614476, 22.5490238], [114.0615309, 22.5489581], [114.0615355, 22.5489084], [114.0615125, 22.5489066], [114.0615162, 22.5488676], [114.0616353, 22.548877], [114.0617187, 22.5488121], [114.0617716, 22.5488704], [114.0617059, 22.5489215], [114.0617038, 22.5489439], [114.0617626, 22.5489486], [114.0617514, 22.5490692], [114.061649, 22.5490611], [114.0616538, 22.5490096], [114.0615983, 22.5490052], [114.0615006, 22.549082], [114.0614476, 22.5490238]]]]}}, {"type": "Feature", "id": "way/1429636726", "properties": {"tags": {"addr:housename": "深业花园", "addr:housename:zh": "深业花园", "building": "apartments", "building:levels": "30", "name": "B3栋", "name:ja": "B3棟", "name:zh": "B3栋"}, "heightStatus": "levels_only_unverified", "source": "OpenStreetMap", "license": "ODbL-1.0"}, "geometry": {"type": "MultiPolygon", "coordinates": [[[[114.0617187, 22.5488121], [114.0618021, 22.5487473], [114.0618067, 22.5486976], [114.0617837, 22.5486958], [114.0617873, 22.5486567], [114.0619064, 22.5486661], [114.0619898, 22.5486013], [114.0620429, 22.5486595], [114.061977, 22.5487106], [114.061975, 22.5487331], [114.0620338, 22.5487377], [114.0620226, 22.5488584], [114.0619202, 22.5488503], [114.061925, 22.5487987], [114.0618694, 22.5487943], [114.0617716, 22.5488704], [114.0617187, 22.5488121]]]]}}, {"type": "Feature", "id": "way/1429636727", "properties": {"tags": {"addr:housename": "深业花园", "addr:housename:zh": "深业花园", "building": "apartments", "building:levels": "30", "name": "B4栋", "name:ja": "B4棟", "name:zh": "B4栋"}, "heightStatus": "levels_only_unverified", "source": "OpenStreetMap", "license": "ODbL-1.0"}, "geometry": {"type": "MultiPolygon", "coordinates": [[[[114.0619898, 22.5486013], [114.0620732, 22.5485356], [114.0620778, 22.5484859], [114.0620548, 22.5484841], [114.0620584, 22.5484451], [114.0621775, 22.5484545], [114.0622609, 22.5483896], [114.0623139, 22.5484478], [114.0622481, 22.548499], [114.0622461, 22.5485214], [114.0623049, 22.5485261], [114.0622936, 22.5486467], [114.0621913, 22.5486386], [114.062196, 22.5485871], [114.0621405, 22.5485827], [114.0620429, 22.5486595], [114.0619898, 22.5486013]]]]}}, {"type": "Feature", "id": "way/1429636728", "properties": {"tags": {"addr:housename": "深业花园", "addr:housename:zh": "深业花园", "building": "apartments", "building:levels": "12", "name": "A1栋", "name:ja": "A1棟", "name:zh": "A1栋"}, "heightStatus": "levels_only_unverified", "source": "OpenStreetMap", "license": "ODbL-1.0"}, "geometry": {"type": "MultiPolygon", "coordinates": [[[[114.0605436, 22.5486023], [114.0605932, 22.5484883], [114.0607079, 22.5485309], [114.0607422, 22.5484662], [114.0607927, 22.5484935], [114.0607622, 22.5485511], [114.060784, 22.5485592], [114.0607344, 22.5486732], [114.0607124, 22.548665], [114.0606901, 22.5487298], [114.0606345, 22.5487135], [114.0606581, 22.5486448], [114.0605436, 22.5486023]]]]}}, {"type": "Feature", "id": "way/1429636729", "properties": {"tags": {"addr:housename": "深业花园", "addr:housename:zh": "深业花园", "building": "apartments", "building:levels": "12", "name": "A2栋", "name:ja": "A2棟", "name:zh": "A2栋"}, "heightStatus": "levels_only_unverified", "source": "OpenStreetMap", "license": "ODbL-1.0"}, "geometry": {"type": "MultiPolygon", "coordinates": [[[[114.06069, 22.5483355], [114.0607731, 22.5482396], [114.0608696, 22.548311], [114.0609226, 22.5482582], [114.0609625, 22.5482977], [114.0609152, 22.5483448], [114.0609336, 22.5483584], [114.0608505, 22.5484542], [114.0608321, 22.5484406], [114.0607927, 22.5484935], [114.0607422, 22.5484662], [114.0607864, 22.5484069], [114.06069, 22.5483355]]]]}}, {"type": "Feature", "id": "way/1429636730", "properties": {"tags": {"addr:housename": "深业花园", "addr:housename:zh": "深业花园", "building": "apartments", "building:levels": "12", "name": "A3栋", "name:ja": "A3棟", "name:zh": "A3栋"}, "heightStatus": "levels_only_unverified", "source": "OpenStreetMap", "license": "ODbL-1.0"}, "geometry": {"type": "MultiPolygon", "coordinates": [[[[114.0610553, 22.5481564], [114.0611235, 22.5481213], [114.0610716, 22.5480178], [114.0611923, 22.5479662], [114.0612442, 22.5480698], [114.0613172, 22.5480444], [114.0613338, 22.5480962], [114.0612688, 22.5481189], [114.0612787, 22.5481386], [114.061158, 22.5481902], [114.0611481, 22.5481703], [114.0610837, 22.5482035], [114.0610553, 22.5481564]]]]}}, {"type": "Feature", "id": "way/1429636731", "properties": {"tags": {"addr:housename": "深业花园", "addr:housename:zh": "深业花园", "building": "apartments", "building:levels": "12", "name": "A5栋", "name:ja": "A5棟", "name:zh": "A5栋"}, "heightStatus": "levels_only_unverified", "source": "OpenStreetMap", "license": "ODbL-1.0"}, "geometry": {"type": "MultiPolygon", "coordinates": [[[[114.0616027, 22.548061], [114.061603, 22.548007], [114.0616808, 22.5480127], [114.0616994, 22.5478998], [114.0618309, 22.5479184], [114.0618122, 22.5480311], [114.0618883, 22.5480473], [114.0618752, 22.5480998], [114.0618034, 22.5480845], [114.0617998, 22.5481062], [114.0616683, 22.5480876], [114.0616719, 22.5480661], [114.0616027, 22.548061]]]]}}, {"type": "Feature", "id": "way/1429636732", "properties": {"tags": {"addr:housename": "深业花园", "addr:housename:zh": "深业花园", "building": "apartments", "building:levels": "12", "name": "A4栋", "name:ja": "A4棟", "name:zh": "A4栋"}, "heightStatus": "levels_only_unverified", "source": "OpenStreetMap", "license": "ODbL-1.0"}, "geometry": {"type": "MultiPolygon", "coordinates": [[[[114.0613172, 22.5480444], [114.0613935, 22.5480291], [114.0613761, 22.5479161], [114.0615078, 22.5478989], [114.0615251, 22.5480119], [114.061603, 22.548007], [114.0616027, 22.548061], [114.0615334, 22.5480654], [114.0615367, 22.5480869], [114.061405, 22.5481042], [114.0614017, 22.5480826], [114.0613338, 22.5480962], [114.0613172, 22.5480444]]]]}}, {"type": "Feature", "id": "way/1429639109", "properties": {"tags": {"building": "school"}, "heightStatus": "unknown", "source": "OpenStreetMap", "license": "ODbL-1.0"}, "geometry": {"type": "MultiPolygon", "coordinates": [[[[114.0595061, 22.5500635], [114.0595105, 22.5496992], [114.0600275, 22.5497046], [114.0600263, 22.5497971], [114.0599419, 22.5497963], [114.0599397, 22.5499777], [114.0600644, 22.5499743], [114.0600632, 22.5500693], [114.0595061, 22.5500635]]]]}}, {"type": "Feature", "id": "way/1429639111", "properties": {"tags": {"addr:housename": "天健世纪花园", "addr:housename:zh": "天健世纪花园", "building": "apartments", "building:levels": "10", "name": "8栋", "name:ja": "8棟", "name:zh": "8栋"}, "heightStatus": "levels_only_unverified", "source": "OpenStreetMap", "license": "ODbL-1.0"}, "geometry": {"type": "MultiPolygon", "coordinates": [[[[114.0594149, 22.5508422], [114.0594662, 22.5507955], [114.0594944, 22.5508219], [114.0595329, 22.5507868], [114.0595892, 22.5508395], [114.0596327, 22.5507999], [114.0596893, 22.5508531], [114.0596742, 22.5508668], [114.0597024, 22.5508932], [114.0596511, 22.5509399], [114.0596229, 22.5509135], [114.0595844, 22.5509486], [114.0595281, 22.5508958], [114.0594846, 22.5509354], [114.0594279, 22.5508823], [114.059443, 22.5508685], [114.0594149, 22.5508422]]]]}}, {"type": "Feature", "id": "way/1429639112", "properties": {"tags": {"addr:housename": "天健世纪花园", "addr:housename:zh": "天健世纪花园", "building": "apartments", "building:levels": "10", "name": "7栋", "name:ja": "7棟", "name:zh": "7栋"}, "heightStatus": "levels_only_unverified", "source": "OpenStreetMap", "license": "ODbL-1.0"}, "geometry": {"type": "MultiPolygon", "coordinates": [[[[114.0590964, 22.5506396], [114.0591849, 22.550559], [114.059103, 22.5504822], [114.0591881, 22.5504047], [114.0591062, 22.550328], [114.0591951, 22.5502471], [114.0591132, 22.5501702], [114.0591783, 22.5501109], [114.0592188, 22.5501488], [114.0592575, 22.5501135], [114.0593908, 22.5502385], [114.0593039, 22.5503176], [114.0593859, 22.5503945], [114.0592992, 22.5504734], [114.0593811, 22.5505501], [114.0592922, 22.550631], [114.0593741, 22.5507078], [114.0592974, 22.5507776], [114.0592398, 22.5507236], [114.0592125, 22.5507484], [114.0590964, 22.5506396]]]]}}, {"type": "Feature", "id": "way/1429639113", "properties": {"tags": {"addr:housename": "天健世纪花园", "addr:housename:zh": "天健世纪花园", "building": "apartments", "building:levels": "10", "name": "4栋", "name:ja": "4棟", "name:zh": "4栋"}, "heightStatus": "levels_only_unverified", "source": "OpenStreetMap", "license": "ODbL-1.0"}, "geometry": {"type": "MultiPolygon", "coordinates": [[[[114.0591228, 22.548359], [114.059211, 22.548289], [114.0591299, 22.5482017], [114.0592183, 22.5481316], [114.0592352, 22.5481498], [114.0593346, 22.5480709], [114.0594127, 22.5481548], [114.0593244, 22.5482248], [114.0594055, 22.5483121], [114.0592801, 22.5484116], [114.0592554, 22.548385], [114.059193, 22.5484345], [114.0591228, 22.548359]]]]}}, {"type": "Feature", "id": "way/1429639114", "properties": {"tags": {"addr:housename": "天健世纪花园", "addr:housename:zh": "天健世纪花园", "building": "apartments", "building:levels": "10", "name": "5栋", "name:ja": "5棟", "name:zh": "5栋"}, "heightStatus": "levels_only_unverified", "source": "OpenStreetMap", "license": "ODbL-1.0"}, "geometry": {"type": "MultiPolygon", "coordinates": [[[[114.0591291, 22.5489123], [114.0592176, 22.5488314], [114.0591358, 22.548755], [114.0592209, 22.5486772], [114.059139, 22.5486008], [114.0592041, 22.5485413], [114.0592447, 22.5485792], [114.0592832, 22.548544], [114.0594167, 22.5486687], [114.0593316, 22.5487465], [114.0594135, 22.548823], [114.059325, 22.5489039], [114.0594068, 22.5489803], [114.0593302, 22.5490503], [114.0592724, 22.5489963], [114.0592454, 22.5490209], [114.0591291, 22.5489123]]]]}}, {"type": "Feature", "id": "way/1429639115", "properties": {"tags": {"addr:housename": "天健世纪花园", "addr:housename:zh": "天健世纪花园", "building": "apartments", "building:levels": "26", "name": "6栋", "name:ja": "6棟", "name:zh": "6栋"}, "heightStatus": "levels_only_unverified", "source": "OpenStreetMap", "license": "ODbL-1.0"}, "geometry": {"type": "MultiPolygon", "coordinates": [[[[114.0591109, 22.549878], [114.0591643, 22.5498292], [114.0591115, 22.5497798], [114.0591453, 22.5497489], [114.0591201, 22.5497253], [114.0591644, 22.5496848], [114.0592459, 22.5497609], [114.0593282, 22.5496856], [114.0593721, 22.5497266], [114.0593466, 22.5497499], [114.0593801, 22.5497811], [114.0593266, 22.54983], [114.0593795, 22.5498793], [114.0593456, 22.5499102], [114.0593709, 22.5499338], [114.0593266, 22.5499743], [114.0592451, 22.5498982], [114.0591627, 22.5499735], [114.0591189, 22.5499326], [114.0591444, 22.5499093], [114.0591109, 22.549878]]]]}}, {"type": "Feature", "id": "way/1429639116", "properties": {"tags": {"addr:housename": "天健世纪花园", "addr:housename:zh": "天健世纪花园", "building": "apartments", "building:levels": "30", "name": "1-1栋", "name:ja": "1-1棟", "name:zh": "1-1栋"}, "heightStatus": "levels_only_unverified", "source": "OpenStreetMap", "license": "ODbL-1.0"}, "geometry": {"type": "MultiPolygon", "coordinates": [[[[114.0594295, 22.5492602], [114.0595119, 22.549185], [114.0594304, 22.5491089], [114.0594747, 22.5490684], [114.0594999, 22.549092], [114.0595338, 22.549061], [114.0595866, 22.5491104], [114.0596401, 22.5490616], [114.0596736, 22.5490928], [114.0596991, 22.5490695], [114.0597429, 22.5491104], [114.0596606, 22.5491857], [114.059742, 22.5492618], [114.0596977, 22.5493022], [114.0596725, 22.5492787], [114.0596386, 22.5493096], [114.0595858, 22.5492603], [114.0595324, 22.5493091], [114.0594989, 22.5492778], [114.0594734, 22.5493011], [114.0594295, 22.5492602]]]]}}, {"type": "Feature", "id": "way/1429639117", "properties": {"tags": {"addr:housename": "天健世纪花园", "addr:housename:zh": "天健世纪花园", "building": "apartments", "building:levels": "30", "name": "1-2栋", "name:ja": "1-2棟", "name:zh": "1-2栋"}, "heightStatus": "levels_only_unverified", "source": "OpenStreetMap", "license": "ODbL-1.0"}, "geometry": {"type": "MultiPolygon", "coordinates": [[[[114.059811, 22.5489117], [114.0598645, 22.5488629], [114.0598116, 22.5488136], [114.0598455, 22.5487826], [114.0598202, 22.5487591], [114.0598645, 22.5487186], [114.059946, 22.5487946], [114.0600284, 22.5487194], [114.0600722, 22.5487603], [114.0600467, 22.5487836], [114.0600802, 22.5488149], [114.0600268, 22.5488637], [114.0600796, 22.548913], [114.0600458, 22.548944], [114.060071, 22.5489675], [114.0600267, 22.549008], [114.0599452, 22.548932], [114.0598629, 22.5490072], [114.059819, 22.5489663], [114.0598445, 22.548943], [114.059811, 22.5489117]]]]}}, {"type": "Feature", "id": "way/1429639118", "properties": {"tags": {"addr:housename": "天健世纪花园", "addr:housename:zh": "天健世纪花园", "building": "apartments", "building:levels": "26", "name": "2栋", "name:ja": "2棟", "name:zh": "2栋"}, "heightStatus": "levels_only_unverified", "source": "OpenStreetMap", "license": "ODbL-1.0"}, "geometry": {"type": "MultiPolygon", "coordinates": [[[[114.0598582, 22.5483507], [114.0599116, 22.5483019], [114.0598587, 22.5482526], [114.0598926, 22.5482216], [114.0598674, 22.5481981], [114.0599117, 22.5481576], [114.0599932, 22.5482337], [114.0600755, 22.5481584], [114.0601193, 22.5481993], [114.0600938, 22.5482226], [114.0601273, 22.5482539], [114.0600739, 22.5483027], [114.0601268, 22.5483521], [114.0600929, 22.548383], [114.0601181, 22.5484066], [114.0600738, 22.548447], [114.0599924, 22.548371], [114.05991, 22.5484462], [114.0598662, 22.5484053], [114.0598917, 22.548382], [114.0598582, 22.5483507]]]]}}, {"type": "Feature", "id": "way/1429639119", "properties": {"tags": {"addr:housename": "天健世纪花园", "addr:housename:zh": "天健世纪花园", "building": "apartments", "building:levels": "26", "name": "3栋", "name:ja": "3棟", "name:zh": "3栋"}, "heightStatus": "levels_only_unverified", "source": "OpenStreetMap", "license": "ODbL-1.0"}, "geometry": {"type": "MultiPolygon", "coordinates": [[[[114.0594869, 22.5480149], [114.0595693, 22.5479396], [114.0594878, 22.5478635], [114.0595321, 22.5478231], [114.0595573, 22.5478466], [114.0595912, 22.5478157], [114.0596441, 22.547865], [114.0596975, 22.5478162], [114.059731, 22.5478475], [114.0597565, 22.5478242], [114.0598003, 22.5478651], [114.059718, 22.5479403], [114.0597994, 22.5480164], [114.0597551, 22.5480569], [114.0597299, 22.5480333], [114.0596961, 22.5480643], [114.0596432, 22.5480149], [114.0595898, 22.5480637], [114.0595563, 22.5480325], [114.0595308, 22.5480558], [114.0594869, 22.5480149]]]]}}, {"type": "Feature", "id": "way/1429639646", "properties": {"tags": {"building": "apartments", "building:levels": "32", "name": "省行阁", "name:zh": "省行阁"}, "heightStatus": "levels_only_unverified", "source": "OpenStreetMap", "license": "ODbL-1.0"}, "geometry": {"type": "MultiPolygon", "coordinates": [[[[114.0604804, 22.5503868], [114.0604829, 22.5502345], [114.0605523, 22.5502355], [114.0605534, 22.5501715], [114.0607183, 22.5501738], [114.0607172, 22.5502379], [114.0607866, 22.5502389], [114.060784, 22.5503911], [114.0607147, 22.5503902], [114.0607136, 22.5504542], [114.0605487, 22.5504519], [114.0605498, 22.5503878], [114.0604804, 22.5503868]]]]}}, {"type": "Feature", "id": "way/1429639647", "properties": {"tags": {"building": "apartments", "building:levels": "32", "name": "新华阁", "name:zh": "新华阁"}, "heightStatus": "levels_only_unverified", "source": "OpenStreetMap", "license": "ODbL-1.0"}, "geometry": {"type": "MultiPolygon", "coordinates": [[[[114.0604842, 22.5500295], [114.0604867, 22.5498772], [114.0605561, 22.5498782], [114.0605572, 22.5498141], [114.0607221, 22.5498165], [114.060721, 22.5498805], [114.0607904, 22.5498815], [114.0607878, 22.5500338], [114.0607185, 22.5500328], [114.0607174, 22.5500969], [114.0605525, 22.5500946], [114.0605536, 22.5500305], [114.0604842, 22.5500295]]]]}}, {"type": "Feature", "id": "way/1429639648", "properties": {"tags": {"building": "apartments", "building:levels": "32", "name": "中行阁", "name:zh": "中行阁"}, "heightStatus": "levels_only_unverified", "source": "OpenStreetMap", "license": "ODbL-1.0"}, "geometry": {"type": "MultiPolygon", "coordinates": [[[[114.0608787, 22.5498946], [114.0608812, 22.5497423], [114.0609506, 22.5497433], [114.0609517, 22.5496793], [114.0611166, 22.5496816], [114.0611155, 22.5497457], [114.0611849, 22.5497467], [114.0611823, 22.5498989], [114.061113, 22.549898], [114.0611119, 22.549962], [114.060947, 22.5499597], [114.0609481, 22.5498956], [114.0608787, 22.5498946]]]]}}, {"type": "Feature", "id": "way/1429639649", "properties": {"tags": {"building": "apartments", "building:levels": "32", "name": "中南阁", "name:zh": "中南阁"}, "heightStatus": "levels_only_unverified", "source": "OpenStreetMap", "license": "ODbL-1.0"}, "geometry": {"type": "MultiPolygon", "coordinates": [[[[114.061241, 22.5498999], [114.0612435, 22.5497476], [114.0613129, 22.5497486], [114.0613139, 22.5496845], [114.0614788, 22.5496869], [114.0614777, 22.5497509], [114.0615471, 22.5497519], [114.0615446, 22.5499042], [114.0614752, 22.5499032], [114.0614742, 22.5499673], [114.0613093, 22.5499649], [114.0613103, 22.5499009], [114.061241, 22.5498999]]]]}}, {"type": "Feature", "id": "way/1431501361", "properties": {"tags": {"building": "yes"}, "heightStatus": "unknown", "source": "OpenStreetMap", "license": "ODbL-1.0"}, "geometry": {"type": "MultiPolygon", "coordinates": [[[[114.062296, 22.5521931], [114.0623343, 22.552193], [114.0623342, 22.5521638], [114.0624197, 22.5521635], [114.0624204, 22.5523455], [114.0623138, 22.5523458], [114.0623135, 22.5522444], [114.0622962, 22.5522445], [114.062296, 22.5521931]]]]}}]}