{"type": "FeatureCollection", "features": [{"type": "Feature", "id": "way/628688456", "properties": {"tags": {"addr:city": "深圳", "addr:district": "福田", "addr:housename": "安居苑", "addr:housename:en": "Anju Court", "addr:housename:zh": "安居苑", "addr:neighbourhood": "彩田社区", "addr:postcode": "510035", "addr:province": "广东", "addr:street": "莲花路", "addr:subdistrict": "莲花街道", "building": "apartments", "building:levels": "26", "name": "紫光阁"}, "heightStatus": "levels_only_unverified", "source": "OpenStreetMap", "license": "ODbL-1.0"}, "geometry": {"type": "MultiPolygon", "coordinates": [[[[114.0552533, 22.5629374], [114.0552552, 22.5628388], [114.0553136, 22.5628398], [114.0553155, 22.5627437], [114.0554869, 22.5627466], [114.055485, 22.5628427], [114.0555434, 22.5628437], [114.0555414, 22.5629422], [114.0552533, 22.5629374]]]]}}, {"type": "Feature", "id": "way/639859202", "properties": {"tags": {"addr:city": "深圳", "addr:district": "福田", "addr:housename": "安居苑", "addr:housename:en": "Anju Court", "addr:housename:zh": "安居苑", "addr:housenumber": "1100", "addr:neighbourhood": "彩田社区", "addr:postcode": "510035", "addr:province": "广东", "addr:street": "莲花路", "addr:subdistrict": "莲花街道", "building": "apartments", "building:levels": "26", "name": "橙光阁"}, "heightStatus": "levels_only_unverified", "source": "OpenStreetMap", "license": "ODbL-1.0"}, "geometry": {"type": "MultiPolygon", "coordinates": [[[[114.0549651, 22.5629326], [114.054967, 22.562834], [114.0550254, 22.562835], [114.0550273, 22.5627389], [114.0551988, 22.5627417], [114.0551969, 22.5628379], [114.0552552, 22.5628388], [114.0552533, 22.5629374], [114.0549651, 22.5629326]]]]}}, {"type": "Feature", "id": "way/639859462", "properties": {"tags": {"addr:city": "深圳", "addr:district": "福田", "addr:housename": "安居苑", "addr:housename:en": "Anju Court", "addr:housename:zh": "安居苑", "addr:housenumber": "1100", "addr:neighbourhood": "彩田社区", "addr:postcode": "510035", "addr:province": "广东", "addr:street": "莲花路", "addr:subdistrict": "莲花街道", "building": "apartments", "building:levels": "26", "name": "A栋", "name:en": "Block A", "name:zh": "A栋"}, "heightStatus": "levels_only_unverified", "source": "OpenStreetMap", "license": "ODbL-1.0"}, "geometry": {"type": "MultiPolygon", "coordinates": [[[[114.0544985, 22.562933], [114.0544996, 22.5628779], [114.054519, 22.5628783], [114.0545197, 22.5628418], [114.0545975, 22.5628431], [114.0546002, 22.5627071], [114.0547264, 22.5627092], [114.0547237, 22.5628452], [114.0548015, 22.5628465], [114.0548008, 22.562883], [114.0548202, 22.5628833], [114.0548192, 22.5629384], [114.0547608, 22.5629374], [114.0547603, 22.5629618], [114.0545563, 22.5629584], [114.0545568, 22.562934], [114.0544985, 22.562933]]]]}}, {"type": "Feature", "id": "way/639859885", "properties": {"tags": {"building": "commercial", "name": "水源大厦", "name:en": "Shuiyuan Building", "name:zh": "水源大厦", "name:zh-Hans": "水源大厦", "name:zh-Hant": "水源大廈"}, "heightStatus": "unknown", "source": "OpenStreetMap", "license": "ODbL-1.0"}, "geometry": {"type": "MultiPolygon", "coordinates": [[[[114.055632, 22.5630085], [114.0556388, 22.5627], [114.0560685, 22.5627081], [114.0560618, 22.5630165], [114.055632, 22.5630085]]]]}}, {"type": "Feature", "id": "way/677071052", "properties": {"tags": {"addr:housename": "彩田村", "addr:housename:en": "Caitian Estate", "addr:housename:zh": "彩田村", "building": "apartments", "building:levels": "27", "name": "1栋", "name:en": "Block 1", "name:zh": "1栋"}, "heightStatus": "levels_only_unverified", "source": "OpenStreetMap", "license": "ODbL-1.0"}, "geometry": {"type": "MultiPolygon", "coordinates": [[[[114.058693, 22.5628688], [114.0586951, 22.5627802], [114.0587585, 22.5627815], [114.0587606, 22.5626947], [114.0588412, 22.5626964], [114.0588403, 22.5627335], [114.0588642, 22.562734], [114.0589004, 22.5626775], [114.0590422, 22.5627558], [114.059006, 22.5628118], [114.0590162, 22.5628306], [114.0590547, 22.5628129], [114.0590912, 22.5628808], [114.0590089, 22.5629185], [114.0590341, 22.5629654], [114.0589464, 22.5630056], [114.0589065, 22.5629313], [114.0587972, 22.5628709], [114.058693, 22.5628688]]]]}}, {"type": "Feature", "id": "way/678099506", "properties": {"tags": {"building": "yes"}, "heightStatus": "unknown", "source": "OpenStreetMap", "license": "ODbL-1.0"}, "geometry": {"type": "MultiPolygon", "coordinates": [[[[114.0594663, 22.5628258], [114.0594686, 22.562714], [114.0595467, 22.5626976], [114.0598715, 22.5627032], [114.059949, 22.5627223], [114.0599467, 22.5628342], [114.05983, 22.5628322], [114.0598295, 22.5628566], [114.0595825, 22.5628523], [114.059583, 22.5628279], [114.0594663, 22.5628258]]]]}}, {"type": "Feature", "id": "way/684494956", "properties": {"tags": {"addr:city": "深圳市", "addr:district": "福田区", "addr:housenumber": "5001", "addr:province": "广东省", "addr:street": "皇岗路", "alt_name": "无印良品酒店", "brand": "MUJI HOTEL", "brand:wikidata": "Q708789", "building": "yes", "internet_access": "wlan", "name:en": "MUJI HOTEL SHENZHEN", "name:zh": "深圳无印良品酒店", "official_name": "MUJI HOTEL SHENZHEN", "phone": "+86 755 2337 0000", "rooms": "79", "tourism": "hotel", "website": "https://hotel.muji.com/shenzhen/"}, "heightStatus": "unknown", "source": "OpenStreetMap", "license": "ODbL-1.0"}, "geometry": {"type": "MultiPolygon", "coordinates": [[[[114.0630219, 22.5600061], [114.0630383, 22.5597623], [114.0630669, 22.559322], [114.0631335, 22.559323], [114.0634119, 22.559327], [114.0634053, 22.5594904], [114.063233, 22.559489], [114.0632153, 22.5597616], [114.063207, 22.559869], [114.0631987, 22.5599753], [114.0632033, 22.5602313], [114.0634201, 22.5602331], [114.0634227, 22.5600428], [114.063549, 22.560044], [114.0635481, 22.5603993], [114.0630276, 22.5603914], [114.0630219, 22.5600061]]]]}}, {"type": "Feature", "id": "way/775816323", "properties": {"tags": {"building": "apartments", "building:levels": "62", "height": "230.4"}, "heightStatus": "height_tag_unverified", "source": "OpenStreetMap", "license": "ODbL-1.0"}, "geometry": {"type": "MultiPolygon", "coordinates": [[[[114.0629451, 22.5610194], [114.0629459, 22.5608718], [114.0634292, 22.5608739], [114.0634286, 22.5610043], [114.063229, 22.5610034], [114.0632286, 22.5610922], [114.0630572, 22.5610915], [114.0630576, 22.5610198], [114.0629451, 22.5610194]]]]}}, {"type": "Feature", "id": "way/775816324", "properties": {"tags": {"building": "apartments", "building:levels": "49", "height": "178.9"}, "heightStatus": "height_tag_unverified", "source": "OpenStreetMap", "license": "ODbL-1.0"}, "geometry": {"type": "MultiPolygon", "coordinates": [[[[114.0634686, 22.560884], [114.0639462, 22.5607896], [114.0639924, 22.5609889], [114.0637739, 22.561032], [114.063779, 22.5610537], [114.0636152, 22.561086], [114.0635983, 22.561013], [114.0635029, 22.5610319], [114.0634686, 22.560884]]]]}}, {"type": "Feature", "id": "way/1018426475", "properties": {"tags": {"building": "train_station", "building:levels": "0", "building:levels:underground": "2", "layer": "-1", "location": "underground", "name": "冬瓜岭站", "name:en": "Donggualing Station", "name:zh": "冬瓜岭站", "public_transport": "station", "start_date": "2020-08-18", "wikidata": "Q87852230", "wikimedia_commons": "Category:Donggualing Station", "wikipedia": "zh:冬瓜岭站"}, "heightStatus": "levels_only_unverified", "source": "OpenStreetMap", "license": "ODbL-1.0"}, "geometry": {"type": "MultiPolygon", "coordinates": [[[[114.0619998, 22.5628449], [114.0620088, 22.562439], [114.0622499, 22.5624436], [114.0622594, 22.5620188], [114.0622824, 22.5620192], [114.0622846, 22.5619187], [114.0620194, 22.5619137], [114.0620264, 22.5615989], [114.0621018, 22.5616003], [114.062097, 22.5618161], [114.062287, 22.5618197], [114.0622967, 22.5613856], [114.0621066, 22.561382], [114.0621032, 22.5615349], [114.0620287, 22.5615335], [114.0620416, 22.5609475], [114.0620788, 22.5609482], [114.0621161, 22.5609489], [114.0621085, 22.5612962], [114.0622989, 22.5612998], [114.0623, 22.5612479], [114.0625194, 22.5612521], [114.0625548, 22.5596571], [114.062943, 22.5596644], [114.0629401, 22.5597935], [114.0626989, 22.5597889], [114.0626652, 22.5613003], [114.062907, 22.5613049], [114.062899, 22.5616684], [114.0627977, 22.5616665], [114.0628027, 22.5614454], [114.062662, 22.5614428], [114.0626521, 22.5618891], [114.0628802, 22.5618934], [114.0628731, 22.5622138], [114.062645, 22.5622095], [114.0626319, 22.5628012], [114.0627892, 22.5628042], [114.0627897, 22.5627795], [114.0628795, 22.5627813], [114.0628688, 22.5632631], [114.062781, 22.5632614], [114.062788, 22.5629433], [114.0626288, 22.5629403], [114.0626125, 22.5636759], [114.0628402, 22.5636802], [114.0628299, 22.5641395], [114.0626021, 22.5641352], [114.0625883, 22.5647564], [114.0627993, 22.5647604], [114.0627932, 22.5650334], [114.062583, 22.5650294], [114.0625768, 22.5653052], [114.0622268, 22.5652986], [114.062245, 22.5644829], [114.0622044, 22.5644822], [114.0622196, 22.5638011], [114.0620795, 22.5637985], [114.062073, 22.5640923], [114.0620367, 22.5640916], [114.0620004, 22.5640909], [114.0620102, 22.5636512], [114.0622229, 22.5636552], [114.062247, 22.5625717], [114.0620806, 22.5625685], [114.0620744, 22.5628463], [114.0620371, 22.5628456], [114.0619998, 22.5628449]]]]}}, {"type": "Feature", "id": "way/1155977516", "properties": {"tags": {"addr:housename": "长城盛世家园一期", "addr:housename:en": "Changcheng Shengshi Jiayuan Phase 1", "addr:housename:zh": "长城盛世家园一期", "building": "apartments", "building:levels": "34", "name": "A栋", "name:en": "Block A", "name:zh": "A栋"}, "heightStatus": "levels_only_unverified", "source": "OpenStreetMap", "license": "ODbL-1.0"}, "geometry": {"type": "MultiPolygon", "coordinates": [[[[114.0611067, 22.562825], [114.0611088, 22.5626907], [114.0612255, 22.5626922], [114.0612261, 22.5626543], [114.0613694, 22.5626562], [114.0613689, 22.5626941], [114.0614976, 22.5626958], [114.0614955, 22.5628302], [114.0613668, 22.5628285], [114.0613651, 22.5629381], [114.0612217, 22.5629362], [114.0612234, 22.5628266], [114.0611067, 22.562825]]]]}}, {"type": "Feature", "id": "way/1275990708", "properties": {"tags": {"addr:housename": "莲花一村", "addr:housename:zh": "莲花一村", "building": "apartments", "building:levels": "8", "name": "46栋", "name:zh": "46栋"}, "heightStatus": "levels_only_unverified", "source": "OpenStreetMap", "license": "ODbL-1.0"}, "geometry": {"type": "MultiPolygon", "coordinates": [[[[114.0630744, 22.5548719], [114.0630868, 22.554815], [114.0631076, 22.5548171], [114.0631137, 22.5547865], [114.0631391, 22.5547922], [114.0631436, 22.554768], [114.0632113, 22.5547761], [114.0632113, 22.5547928], [114.0632375, 22.5547978], [114.0632362, 22.5548318], [114.0632737, 22.5548331], [114.0632757, 22.5548015], [114.0632999, 22.5548009], [114.0633005, 22.5547823], [114.0633756, 22.554786], [114.0633743, 22.5548027], [114.0633991, 22.554804], [114.0634018, 22.5548362], [114.0634387, 22.5548349], [114.063436, 22.5548033], [114.0634548, 22.554804], [114.0634514, 22.5547866], [114.0635312, 22.5547779], [114.0635339, 22.5547934], [114.0635587, 22.5547916], [114.06356, 22.5548219], [114.0635795, 22.5548176], [114.0635922, 22.5548789], [114.0633594, 22.5548989], [114.0632955, 22.5548982], [114.0630744, 22.5548719]]]]}}, {"type": "Feature", "id": "way/1275990714", "properties": {"tags": {"addr:housename": "莲花一村", "addr:housename:zh": "莲花一村", "building": "apartments", "building:levels": "8", "name": "45栋", "name:zh": "45栋"}, "heightStatus": "levels_only_unverified", "source": "OpenStreetMap", "license": "ODbL-1.0"}, "geometry": {"type": "MultiPolygon", "coordinates": [[[[114.063024, 22.5550965], [114.0630382, 22.5550294], [114.0630707, 22.555036], [114.0630697, 22.555043], [114.0630941, 22.5550463], [114.0630997, 22.5550313], [114.0631348, 22.5550383], [114.0631317, 22.5550519], [114.0631576, 22.5550548], [114.0631617, 22.5550369], [114.0631978, 22.5550412], [114.0631973, 22.5550613], [114.0632222, 22.5550641], [114.0632237, 22.5550543], [114.0633116, 22.5550627], [114.0633167, 22.5550519], [114.0633558, 22.5550548], [114.0633558, 22.5550702], [114.0633767, 22.5550702], [114.0633751, 22.5550571], [114.0634143, 22.5550548], [114.0634158, 22.555067], [114.0635317, 22.5550651], [114.0635322, 22.5550491], [114.0635683, 22.5550473], [114.0635708, 22.5550623], [114.0635921, 22.555059], [114.0635896, 22.5550482], [114.0636282, 22.5550397], [114.0636353, 22.5550505], [114.0636841, 22.5550397], [114.063705, 22.555112], [114.0635972, 22.5551294], [114.0636008, 22.555143], [114.0635657, 22.5551467], [114.0635601, 22.5551308], [114.0633741, 22.5551369], [114.0633731, 22.5551552], [114.0633355, 22.5551547], [114.063336, 22.5551341], [114.0631439, 22.5551214], [114.0631429, 22.5551374], [114.0631099, 22.5551331], [114.0631119, 22.5551162], [114.063024, 22.5550965]]]]}}, {"type": "Feature", "id": "way/1275990715", "properties": {"tags": {"addr:housename": "莲花一村", "addr:housename:zh": "莲花一村", "building": "apartments", "building:levels": "8", "name": "39栋", "name:zh": "39栋"}, "heightStatus": "levels_only_unverified", "source": "OpenStreetMap", "license": "ODbL-1.0"}, "geometry": {"type": "MultiPolygon", "coordinates": [[[[114.0630359, 22.5553666], [114.0630533, 22.5553673], [114.0630558, 22.5553277], [114.063077, 22.5553314], [114.0630788, 22.5553212], [114.0631531, 22.5553241], [114.0631531, 22.5553322], [114.0631739, 22.5553347], [114.0631743, 22.5553702], [114.0632226, 22.5553706], [114.0632243, 22.5553392], [114.0632451, 22.5553384], [114.0632473, 22.5553253], [114.0633195, 22.5553314], [114.0633221, 22.5553461], [114.0633411, 22.5553478], [114.0633398, 22.55538], [114.0633854, 22.5553841], [114.063392, 22.5553527], [114.0634115, 22.5553567], [114.0634168, 22.5553482], [114.0634845, 22.5553576], [114.0634831, 22.5553674], [114.0635057, 22.5553743], [114.0635004, 22.555405], [114.0635216, 22.5554103], [114.0635017, 22.5554765], [114.0632823, 22.555445], [114.0631319, 22.5554344], [114.0630368, 22.5554372], [114.0630359, 22.5553666]]]]}}, {"type": "Feature", "id": "way/1275990716", "properties": {"tags": {"addr:housename": "莲花一村", "addr:housename:zh": "莲花一村", "building": "apartments", "building:levels": "8", "name": "40栋", "name:zh": "40栋"}, "heightStatus": "levels_only_unverified", "source": "OpenStreetMap", "license": "ODbL-1.0"}, "geometry": {"type": "MultiPolygon", "coordinates": [[[[114.0636251, 22.55551], [114.0636634, 22.5554423], [114.063692, 22.5554526], [114.0637089, 22.5554337], [114.0637673, 22.5554634], [114.0637539, 22.5554795], [114.0638076, 22.5555076], [114.0638222, 22.5554903], [114.0638893, 22.5555162], [114.06388, 22.5555372], [114.063943, 22.555555], [114.0639529, 22.5555383], [114.0640253, 22.5555615], [114.0640183, 22.555575], [114.0640452, 22.5555895], [114.0640014, 22.5556634], [114.0639348, 22.5556386], [114.0639383, 22.5556305], [114.0639167, 22.5556224], [114.0639132, 22.5556348], [114.0638957, 22.5556316], [114.0639051, 22.5556111], [114.0638753, 22.5555965], [114.0638636, 22.5556176], [114.0638, 22.5555906], [114.0638029, 22.5555836], [114.0637848, 22.5555755], [114.0637807, 22.5555847], [114.063765, 22.5555793], [114.0637737, 22.5555636], [114.0637404, 22.5555496], [114.0637305, 22.5555642], [114.0637165, 22.5555593], [114.0637247, 22.5555432], [114.0636984, 22.5555335], [114.0636897, 22.5555491], [114.0636251, 22.55551]]]]}}, {"type": "Feature", "id": "way/1275990717", "properties": {"tags": {"addr:housename": "莲花一村", "addr:housename:zh": "莲花一村", "building": "apartments", "building:levels": "8", "name": "38栋", "name:zh": "38栋"}, "heightStatus": "levels_only_unverified", "source": "OpenStreetMap", "license": "ODbL-1.0"}, "geometry": {"type": "MultiPolygon", "coordinates": [[[[114.0630167, 22.5556302], [114.0630341, 22.5556309], [114.0630366, 22.5555913], [114.0630579, 22.555595], [114.0630596, 22.5555848], [114.063134, 22.5555877], [114.063134, 22.5555958], [114.0631547, 22.5555983], [114.0631552, 22.5556338], [114.0632034, 22.5556342], [114.0632052, 22.5556028], [114.063226, 22.555602], [114.0632282, 22.5555889], [114.0633003, 22.555595], [114.0633029, 22.5556097], [114.063322, 22.5556114], [114.0633206, 22.5556436], [114.0633662, 22.5556477], [114.0633728, 22.5556163], [114.0633923, 22.5556203], [114.0633976, 22.5556118], [114.0634653, 22.5556212], [114.063464, 22.555631], [114.0634865, 22.5556379], [114.0634812, 22.5556686], [114.0635025, 22.5556739], [114.0634826, 22.5557401], [114.0632631, 22.5557086], [114.0631127, 22.555698], [114.0630176, 22.5557008], [114.0630167, 22.5556302]]]]}}, {"type": "Feature", "id": "way/1275990718", "properties": {"tags": {"addr:housename": "莲花一村", "addr:housename:zh": "莲花一村", "building": "apartments", "building:levels": "8", "name": "37栋", "name:zh": "37栋"}, "heightStatus": "levels_only_unverified", "source": "OpenStreetMap", "license": "ODbL-1.0"}, "geometry": {"type": "MultiPolygon", "coordinates": [[[[114.0635775, 22.5557733], [114.0636051, 22.5557085], [114.0636378, 22.5557206], [114.0636491, 22.5557027], [114.0637171, 22.5557304], [114.0637073, 22.5557471], [114.0637635, 22.5557742], [114.0637756, 22.5557579], [114.0638427, 22.5557837], [114.0638334, 22.5558048], [114.0638964, 22.5558225], [114.0639063, 22.5558058], [114.0639747, 22.5558257], [114.0639717, 22.5558425], [114.063997, 22.55585], [114.0639814, 22.5559099], [114.0639688, 22.5559069], [114.0639548, 22.5559309], [114.0638882, 22.5559061], [114.0638917, 22.555898], [114.0638701, 22.5558899], [114.0638666, 22.5559023], [114.0638491, 22.5558991], [114.0638585, 22.5558786], [114.0638287, 22.5558641], [114.063817, 22.5558851], [114.0637534, 22.5558581], [114.0637563, 22.5558511], [114.0637382, 22.555843], [114.0637341, 22.5558522], [114.0637184, 22.5558468], [114.0637271, 22.5558312], [114.0636939, 22.5558172], [114.0636839, 22.5558317], [114.0636699, 22.5558269], [114.0636781, 22.5558107], [114.0636518, 22.555801], [114.0636431, 22.5558166], [114.0635835, 22.5557956], [114.0635894, 22.555783], [114.0635775, 22.5557733]]]]}}, {"type": "Feature", "id": "way/1275990721", "properties": {"tags": {"addr:housename": "莲花一村", "addr:housename:zh": "莲花一村", "building": "apartments", "building:levels": "8", "name": "34栋", "name:zh": "34栋"}, "heightStatus": "levels_only_unverified", "source": "OpenStreetMap", "license": "ODbL-1.0"}, "geometry": {"type": "MultiPolygon", "coordinates": [[[[114.0635197, 22.5560683], [114.0635216, 22.5559658], [114.0635553, 22.5559664], [114.0635555, 22.555959], [114.0635901, 22.5559596], [114.0635899, 22.5559708], [114.063611, 22.5559712], [114.0636112, 22.5559589], [114.0636491, 22.5559595], [114.0636489, 22.5559668], [114.0636561, 22.5559669], [114.0636559, 22.5559814], [114.0636827, 22.5559818], [114.0636811, 22.5560694], [114.0636244, 22.5560685], [114.0636249, 22.5560442], [114.0636097, 22.5560439], [114.0636093, 22.5560628], [114.0635847, 22.5560624], [114.0635851, 22.5560425], [114.0635744, 22.5560423], [114.0635739, 22.5560692], [114.0635197, 22.5560683]]]]}}, {"type": "Feature", "id": "way/1275990722", "properties": {"tags": {"addr:housename": "莲花一村", "addr:housename:zh": "莲花一村", "building": "apartments", "building:levels": "8", "name": "33栋", "name:zh": "33栋"}, "heightStatus": "levels_only_unverified", "source": "OpenStreetMap", "license": "ODbL-1.0"}, "geometry": {"type": "MultiPolygon", "coordinates": [[[[114.0632946, 22.5559958], [114.0632966, 22.5558933], [114.0633303, 22.5558938], [114.0633304, 22.5558865], [114.0633651, 22.5558871], [114.0633649, 22.5558983], [114.0633859, 22.5558986], [114.0633861, 22.5558864], [114.063424, 22.555887], [114.0634239, 22.5558942], [114.0634311, 22.5558944], [114.0634308, 22.5559088], [114.0634577, 22.5559093], [114.063456, 22.5559968], [114.0633993, 22.5559959], [114.0633998, 22.5559716], [114.0633846, 22.5559714], [114.0633843, 22.5559903], [114.0633597, 22.5559899], [114.0633601, 22.5559699], [114.0633494, 22.5559698], [114.0633488, 22.5559967], [114.0632946, 22.5559958]]]]}}, {"type": "Feature", "id": "way/1275990723", "properties": {"tags": {"addr:housename": "莲花一村", "addr:housename:zh": "莲花一村", "building": "apartments", "building:levels": "8", "name": "32栋", "name:zh": "32栋"}, "heightStatus": "levels_only_unverified", "source": "OpenStreetMap", "license": "ODbL-1.0"}, "geometry": {"type": "MultiPolygon", "coordinates": [[[[114.0630659, 22.5559346], [114.0630678, 22.5558321], [114.0631015, 22.5558327], [114.0631017, 22.5558253], [114.0631363, 22.5558259], [114.0631361, 22.5558371], [114.0631571, 22.5558374], [114.0631574, 22.5558252], [114.0631953, 22.5558258], [114.0631951, 22.5558331], [114.0632023, 22.5558332], [114.063202, 22.5558477], [114.0632289, 22.5558481], [114.0632273, 22.5559356], [114.0631706, 22.5559347], [114.063171, 22.5559105], [114.0631558, 22.5559102], [114.0631555, 22.5559291], [114.0631309, 22.5559287], [114.0631313, 22.5559088], [114.0631206, 22.5559086], [114.0631201, 22.5559355], [114.0630659, 22.5559346]]]]}}, {"type": "Feature", "id": "way/1275990724", "properties": {"tags": {"addr:housename": "莲花一村", "addr:housename:zh": "莲花一村", "building": "apartments", "building:levels": "8", "name": "35栋", "name:zh": "35栋"}, "heightStatus": "levels_only_unverified", "source": "OpenStreetMap", "license": "ODbL-1.0"}, "geometry": {"type": "MultiPolygon", "coordinates": [[[[114.0636884, 22.5562061], [114.063691, 22.5561094], [114.0637441, 22.5561106], [114.0637561, 22.556098], [114.0637579, 22.556059], [114.0637469, 22.5560586], [114.0637492, 22.5560121], [114.0638511, 22.5560163], [114.0638489, 22.5560627], [114.0638378, 22.5560623], [114.0638361, 22.5560963], [114.0638627, 22.5561118], [114.0638914, 22.5561125], [114.0638887, 22.5562108], [114.0636884, 22.5562061]]]]}}, {"type": "Feature", "id": "way/1275990725", "properties": {"tags": {"addr:housename": "莲花一村", "addr:housename:zh": "莲花一村", "building": "apartments", "building:levels": "8", "name": "29栋", "name:zh": "29栋"}, "heightStatus": "levels_only_unverified", "source": "OpenStreetMap", "license": "ODbL-1.0"}, "geometry": {"type": "MultiPolygon", "coordinates": [[[[114.0634996, 22.5564257], [114.0635034, 22.5563344], [114.0635439, 22.5563359], [114.0635539, 22.5563198], [114.0635539, 22.5562839], [114.0635452, 22.556274], [114.0635452, 22.556233], [114.0636492, 22.5562331], [114.0636492, 22.5562901], [114.0636398, 22.5563018], [114.0636391, 22.5563185], [114.0636559, 22.5563328], [114.0636899, 22.556334], [114.0636858, 22.5564324], [114.0634996, 22.5564257]]]]}}, {"type": "Feature", "id": "way/1275990726", "properties": {"tags": {"addr:housename": "莲花一村", "addr:housename:zh": "莲花一村", "building": "apartments", "building:levels": "8", "name": "31栋", "name:zh": "31栋"}, "heightStatus": "levels_only_unverified", "source": "OpenStreetMap", "license": "ODbL-1.0"}, "geometry": {"type": "MultiPolygon", "coordinates": [[[[114.0630145, 22.5563125], [114.0630183, 22.5562212], [114.0630588, 22.5562227], [114.0630689, 22.5562066], [114.0630689, 22.5561707], [114.0630602, 22.5561608], [114.0630602, 22.5561198], [114.0631641, 22.5561199], [114.0631641, 22.5561769], [114.0631547, 22.5561886], [114.063154, 22.5562053], [114.0631708, 22.5562196], [114.0632048, 22.5562208], [114.0632007, 22.5563192], [114.0630145, 22.5563125]]]]}}, {"type": "Feature", "id": "way/1275990727", "properties": {"tags": {"addr:housename": "莲花一村", "addr:housename:zh": "莲花一村", "building": "apartments", "building:levels": "8", "name": "30栋", "name:zh": "30栋"}, "heightStatus": "levels_only_unverified", "source": "OpenStreetMap", "license": "ODbL-1.0"}, "geometry": {"type": "MultiPolygon", "coordinates": [[[[114.0632642, 22.5564246], [114.063268, 22.5563333], [114.0633085, 22.5563347], [114.0633186, 22.5563186], [114.0633186, 22.5562827], [114.0633099, 22.5562728], [114.0633099, 22.5562319], [114.0634138, 22.5562319], [114.0634138, 22.5562889], [114.0634044, 22.5563007], [114.0634037, 22.5563174], [114.0634205, 22.5563317], [114.0634545, 22.5563329], [114.0634504, 22.5564312], [114.0632642, 22.5564246]]]]}}, {"type": "Feature", "id": "way/1275990746", "properties": {"tags": {"building": "yes", "building:levels": "12"}, "heightStatus": "levels_only_unverified", "source": "OpenStreetMap", "license": "ODbL-1.0"}, "geometry": {"type": "MultiPolygon", "coordinates": [[[[114.0611476, 22.5616097], [114.0611496, 22.5614774], [114.0616628, 22.561484], [114.0616608, 22.5616163], [114.0611476, 22.5616097]]]]}}, {"type": "Feature", "id": "way/1275990747", "properties": {"tags": {"building:levels": "15", "building:part": "yes"}, "heightStatus": "levels_only_unverified", "source": "OpenStreetMap", "license": "ODbL-1.0"}, "geometry": {"type": "MultiPolygon", "coordinates": [[[[114.0612448, 22.562214], [114.0612541, 22.5617987], [114.0614284, 22.561802], [114.0614276, 22.5618376], [114.0614572, 22.5618382], [114.0614496, 22.5621831], [114.0614197, 22.5621825], [114.0614189, 22.5622173], [114.0612448, 22.562214]]]]}}, {"type": "Feature", "id": "way/1275990748", "properties": {"tags": {"addr:city": "深圳市", "addr:country": "CN", "addr:district": "福田区", "addr:housenumber": "6003", "addr:neighbourhood": "彩虹社区", "addr:province": "广东省", "addr:street": "彩田北路", "addr:subdistrict": "莲花街道", "amenity": "courthouse", "building": "yes", "building:levels": "15", "name": "深圳市中级人民法院", "name:en": "Shenzhen Intermediate People's Court", "name:zh": "深圳市中级人民法院", "name:zh-Hans": "深圳市中级人民法院", "name:zh-Hant": "深圳市中級人民法院"}, "heightStatus": "levels_only_unverified", "source": "OpenStreetMap", "license": "ODbL-1.0"}, "geometry": {"type": "MultiPolygon", "coordinates": [[[[114.0612433, 22.5622948], [114.0612448, 22.562214], [114.0612541, 22.5617987], [114.0612561, 22.5617174], [114.0616405, 22.5617247], [114.0616376, 22.561858], [114.0616765, 22.561861], [114.0617191, 22.5618694], [114.0617609, 22.5618899], [114.0617947, 22.5619205], [114.0618181, 22.5619598], [114.0618282, 22.5620036], [114.0618238, 22.5620491], [114.0618051, 22.5620913], [114.0617743, 22.5621261], [114.0617338, 22.5621511], [114.0616823, 22.5621646], [114.0616307, 22.5621678], [114.0616277, 22.5623021], [114.0612433, 22.5622948]]]]}}, {"type": "Feature", "id": "way/1275990750", "properties": {"tags": {"addr:housename": "天威花园", "addr:housename:en": "Tianwei Garden", "addr:housename:zh": "天威花园", "building": "apartments", "building:levels": "23", "name": "1栋", "name:en": "Block 1", "name:zh": "1栋"}, "heightStatus": "levels_only_unverified", "source": "OpenStreetMap", "license": "ODbL-1.0"}, "geometry": {"type": "MultiPolygon", "coordinates": [[[[114.0608243, 22.5604673], [114.0608588, 22.5604507], [114.0608694, 22.5604694], [114.0609105, 22.5604496], [114.060873, 22.5603831], [114.0608955, 22.5603722], [114.0609055, 22.5603819], [114.0609568, 22.5603555], [114.060957, 22.5603032], [114.060982, 22.5603033], [114.060982, 22.5602893], [114.0610092, 22.5602893], [114.061009, 22.5603735], [114.0610444, 22.5603736], [114.0610446, 22.5602912], [114.0610726, 22.5602913], [114.0610725, 22.5603068], [114.0610974, 22.5603069], [114.0610973, 22.5603615], [114.0611482, 22.5603899], [114.0611569, 22.5603768], [114.0611819, 22.5603907], [114.0611387, 22.5604567], [114.0611546, 22.5604655], [114.06116, 22.5604572], [114.0611849, 22.5604712], [114.0611969, 22.560463], [114.0612297, 22.5604806], [114.0612058, 22.5605186], [114.0612144, 22.5605233], [114.0611815, 22.5605756], [114.0611543, 22.560561], [114.061161, 22.5605503], [114.0610884, 22.5605114], [114.0610975, 22.560497], [114.0610759, 22.5604854], [114.0610783, 22.560473], [114.0610567, 22.5604639], [114.0609782, 22.5604645], [114.0609463, 22.5604935], [114.0609545, 22.5605081], [114.0609211, 22.5605242], [114.0609129, 22.5605097], [114.0608619, 22.5605341], [114.0608243, 22.5604673]]]]}}, {"type": "Feature", "id": "way/1275990751", "properties": {"tags": {"addr:housename": "天威花园", "addr:housename:en": "Tianwei Garden", "addr:housename:zh": "天威花园", "building": "apartments", "building:levels": "20", "layer": "2", "name": "2栋", "name:en": "Block 2", "name:zh": "2栋"}, "heightStatus": "levels_only_unverified", "source": "OpenStreetMap", "license": "ODbL-1.0"}, "geometry": {"type": "MultiPolygon", "coordinates": [[[[114.0605169, 22.560817], [114.060522, 22.5607341], [114.0605802, 22.5607372], [114.0605825, 22.5607011], [114.0606019, 22.5607022], [114.0606031, 22.5606832], [114.0606262, 22.5606659], [114.0606535, 22.560655], [114.060683, 22.5606514], [114.0607079, 22.5606542], [114.0607315, 22.5606622], [114.0607524, 22.560675], [114.0607696, 22.5606919], [114.0607684, 22.5607109], [114.0607879, 22.5607119], [114.0607856, 22.560748], [114.0608439, 22.5607511], [114.0608388, 22.5608339], [114.0607805, 22.5608309], [114.0607783, 22.5608669], [114.0607589, 22.5608659], [114.0607577, 22.5608849], [114.0607385, 22.5608999], [114.0607162, 22.5609104], [114.0606918, 22.5609159], [114.0606667, 22.5609161], [114.0606378, 22.5609094], [114.060612, 22.5608957], [114.0605912, 22.5608761], [114.0605923, 22.5608571], [114.0605729, 22.5608561], [114.0605751, 22.5608201], [114.0605169, 22.560817]]]]}}, {"type": "Feature", "id": "way/1275990752", "properties": {"tags": {"addr:housename": "天威花园", "addr:housename:en": "Tianwei Garden", "addr:housename:zh": "天威花园", "building": "apartments", "building:levels": "20", "layer": "2", "name": "3栋", "name:en": "Block 3", "name:zh": "3栋"}, "heightStatus": "levels_only_unverified", "source": "OpenStreetMap", "license": "ODbL-1.0"}, "geometry": {"type": "MultiPolygon", "coordinates": [[[[114.060842, 22.561188], [114.0608465, 22.5611609], [114.0608563, 22.5611396], [114.0608713, 22.5611209], [114.0608904, 22.5611059], [114.0609128, 22.5610954], [114.0609322, 22.5611018], [114.0609387, 22.5610848], [114.0609756, 22.5610969], [114.060995, 22.561046], [114.0610798, 22.5610737], [114.0610603, 22.5611245], [114.0610972, 22.5611366], [114.0610907, 22.5611535], [114.0611101, 22.5611599], [114.0611203, 22.561181], [114.061125, 22.5612038], [114.0611239, 22.561227], [114.0611171, 22.5612493], [114.0611021, 22.561273], [114.0610807, 22.5612921], [114.0610545, 22.5613051], [114.0610351, 22.5612987], [114.0610286, 22.5613157], [114.0609917, 22.5613036], [114.0609722, 22.5613545], [114.0608875, 22.5613268], [114.060907, 22.561276], [114.0608701, 22.5612639], [114.0608766, 22.561247], [114.0608572, 22.5612406], [114.0608456, 22.5612153], [114.060842, 22.561188]]]]}}, {"type": "Feature", "id": "way/1275990753", "properties": {"tags": {"building": "retail", "building:levels": "3", "layer": "1"}, "heightStatus": "levels_only_unverified", "source": "OpenStreetMap", "license": "ODbL-1.0"}, "geometry": {"type": "MultiPolygon", "coordinates": [[[[114.0604482, 22.5607778], [114.0606941, 22.5605849], [114.0608748, 22.5606513], [114.0608624, 22.5609046], [114.0609279, 22.5610288], [114.0611756, 22.561086], [114.0611013, 22.5613491], [114.0609134, 22.561354], [114.060781, 22.5611933], [114.0604482, 22.5607778]]]]}}, {"type": "Feature", "id": "way/1275990754", "properties": {"tags": {"building": "office", "name": "深圳天威视讯技术楼"}, "heightStatus": "unknown", "source": "OpenStreetMap", "license": "ODbL-1.0"}, "geometry": {"type": "MultiPolygon", "coordinates": [[[[114.0615604, 22.5608276], [114.061562, 22.5604492], [114.0616107, 22.5604004], [114.0616506, 22.5604161], [114.0616801, 22.5604337], [114.0617073, 22.5604549], [114.0618071, 22.5604552], [114.0618059, 22.5607528], [114.0617595, 22.5607527], [114.0617592, 22.5608283], [114.0615604, 22.5608276]]]]}}, {"type": "Feature", "id": "way/1275990755", "properties": {"tags": {"addr:city": "深圳市", "addr:country": "CN", "addr:district": "福田区", "addr:housenumber": "6001", "addr:neighbourhood": "彩虹社区", "addr:province": "广东省", "addr:street": "彩田路", "addr:subdistrict": "莲花街道", "building": "office", "building:levels": "23", "building:levels:underground": "3", "building:material": "mirror", "height": "100", "name": "深圳广电文创中心", "name:en": "Shenzhen Radio & TV Cultural Creative Center", "name:zh": "深圳广电文创中心", "name:zh-Hans": "深圳广电文创中心", "name:zh-Hant": "深圳廣電文創中心"}, "heightStatus": "height_tag_unverified", "source": "OpenStreetMap", "license": "ODbL-1.0"}, "geometry": {"type": "MultiPolygon", "coordinates": [[[[114.061396, 22.5612364], [114.0613988, 22.5610389], [114.0614533, 22.5610396], [114.061454, 22.5609875], [114.0618228, 22.560992], [114.0618186, 22.5612859], [114.0617903, 22.5612855], [114.0617894, 22.5613468], [114.0615649, 22.5613441], [114.0615658, 22.5612828], [114.0614498, 22.5612814], [114.0614504, 22.561237], [114.061396, 22.5612364]]]]}}, {"type": "Feature", "id": "way/1275990762", "properties": {"tags": {"addr:city": "深圳市", "addr:country": "CN", "addr:district": "福田区", "addr:housenumber": "1001", "addr:neighbourhood": "彩虹社区", "addr:province": "广东省", "addr:street": "莲花支路", "addr:subdistrict": "莲花街道", "alt_name": "公车大厦", "building": "office", "building:levels": "24", "building:material": "mirror", "name": "公交大厦", "name:en": "Public Transport Building", "name:zh": "公交大厦", "name:zh-Hans": "公交大厦", "name:zh-Hant": "公交大廈"}, "heightStatus": "levels_only_unverified", "source": "OpenStreetMap", "license": "ODbL-1.0"}, "geometry": {"type": "MultiPolygon", "coordinates": [[[[114.0604205, 22.5622517], [114.0604256, 22.5620071], [114.0606789, 22.5620116], [114.0606738, 22.5622563], [114.0604205, 22.5622517]]]]}}, {"type": "Feature", "id": "relation/17514172", "properties": {"tags": {"building": "apartments", "building:levels": "8", "name": "润鹏花园"}, "heightStatus": "levels_only_unverified", "source": "OpenStreetMap", "license": "ODbL-1.0"}, "geometry": {"type": "MultiPolygon", "coordinates": [[[[114.058842, 22.5621166], [114.0588986, 22.5620932], [114.0588814, 22.5620576], [114.0589398, 22.5620335], [114.0589248, 22.5620024], [114.0589807, 22.5619794], [114.0589664, 22.5619499], [114.0590303, 22.5619235], [114.0590158, 22.5618937], [114.0590735, 22.5618699], [114.059061, 22.5618441], [114.0591197, 22.5618198], [114.0591068, 22.561793], [114.0591919, 22.5617578], [114.0592299, 22.5618362], [114.0592722, 22.5618187], [114.0594409, 22.5621666], [114.0593888, 22.5621881], [114.0594244, 22.5622615], [114.0593587, 22.5622887], [114.0593447, 22.5622597], [114.0592851, 22.5622844], [114.0592704, 22.5622541], [114.059214, 22.5622774], [114.0591991, 22.5622465], [114.0591392, 22.5622713], [114.0591262, 22.5622445], [114.0590576, 22.5622729], [114.0590454, 22.5622478], [114.0589837, 22.5622733], [114.0589692, 22.5622433], [114.0589143, 22.5622659], [114.058842, 22.5621166]], [[114.0589665, 22.5620704], [114.0590232, 22.562198], [114.0591266, 22.5621588], [114.0591356, 22.5621791], [114.0591995, 22.5621549], [114.0592112, 22.5621814], [114.0593229, 22.5621391], [114.0592971, 22.562081], [114.0593406, 22.5620645], [114.0592905, 22.5619517], [114.0592491, 22.5619674], [114.0592238, 22.5619106], [114.0591443, 22.5619407], [114.0591552, 22.5619653], [114.0590589, 22.5620017], [114.0590717, 22.5620306], [114.0589665, 22.5620704]]]]}}, {"type": "Feature", "id": "way/1275990765", "properties": {"tags": {"addr:housename": "莲花一村", "addr:housename:zh": "莲花一村", "building": "apartments", "building:levels": "8", "name": "26栋", "name:zh": "26栋"}, "heightStatus": "levels_only_unverified", "source": "OpenStreetMap", "license": "ODbL-1.0"}, "geometry": {"type": "MultiPolygon", "coordinates": [[[[114.0629541, 22.5569383], [114.0629558, 22.5568801], [114.0629913, 22.556881], [114.0630135, 22.5568699], [114.0629954, 22.5568392], [114.0629952, 22.5567785], [114.0630735, 22.5567783], [114.0630737, 22.5568317], [114.063099, 22.5568446], [114.0630836, 22.5568704], [114.0631072, 22.5568824], [114.0631399, 22.5568832], [114.0631381, 22.5569428], [114.0629541, 22.5569383]]]]}}, {"type": "Feature", "id": "way/1275990766", "properties": {"tags": {"addr:housename": "莲花一村", "addr:housename:zh": "莲花一村", "building": "apartments", "building:levels": "8", "name": "27栋", "name:zh": "27栋"}, "heightStatus": "levels_only_unverified", "source": "OpenStreetMap", "license": "ODbL-1.0"}, "geometry": {"type": "MultiPolygon", "coordinates": [[[[114.0630871, 22.5566414], [114.0630885, 22.5565557], [114.0631229, 22.5565562], [114.0631231, 22.5565412], [114.0631987, 22.5565423], [114.0631984, 22.5565573], [114.0632298, 22.5565577], [114.0632295, 22.5565755], [114.0632632, 22.5565759], [114.0632634, 22.5565641], [114.063341, 22.5565652], [114.0633408, 22.5565808], [114.0633817, 22.5565814], [114.063382, 22.556563], [114.0634169, 22.5565635], [114.0634171, 22.5565485], [114.0634895, 22.5565495], [114.0634892, 22.5565637], [114.0635222, 22.5565642], [114.0635224, 22.5565478], [114.0635623, 22.5565484], [114.0635625, 22.5565355], [114.0636336, 22.5565366], [114.0636334, 22.5565479], [114.0636676, 22.5565485], [114.0636666, 22.5566051], [114.0636757, 22.5566052], [114.063675, 22.5566443], [114.0635264, 22.5566419], [114.0635261, 22.5566536], [114.0633743, 22.5566513], [114.0633739, 22.556673], [114.0632244, 22.5566708], [114.0632249, 22.5566434], [114.0630871, 22.5566414]]]]}}, {"type": "Feature", "id": "way/1275990769", "properties": {"tags": {"addr:housename": "莲花一村", "addr:housename:zh": "莲花一村", "building": "apartments", "building:levels": "8", "name": "22栋", "name:zh": "22栋"}, "heightStatus": "levels_only_unverified", "source": "OpenStreetMap", "license": "ODbL-1.0"}, "geometry": {"type": "MultiPolygon", "coordinates": [[[[114.0633065, 22.5571962], [114.0633074, 22.5571112], [114.0634478, 22.5571125], [114.0634475, 22.5571357], [114.0635854, 22.557137], [114.0635852, 22.5571507], [114.0637317, 22.5571521], [114.063731, 22.5572157], [114.0637412, 22.5572158], [114.0637409, 22.5572412], [114.0635861, 22.5572397], [114.0635863, 22.5572184], [114.063445, 22.557217], [114.0634453, 22.5571975], [114.0633065, 22.5571962]]]]}}, {"type": "Feature", "id": "way/1275990770", "properties": {"tags": {"addr:housename": "莲花一村", "addr:housename:zh": "莲花一村", "building": "apartments", "building:levels": "8", "name": "25栋", "name:zh": "25栋"}, "heightStatus": "levels_only_unverified", "source": "OpenStreetMap", "license": "ODbL-1.0"}, "geometry": {"type": "MultiPolygon", "coordinates": [[[[114.0632875, 22.5569287], [114.0632879, 22.5569047], [114.0632981, 22.5569048], [114.0632993, 22.556841], [114.0634452, 22.5568434], [114.0634455, 22.5568297], [114.0635828, 22.556832], [114.0635832, 22.5568088], [114.063726, 22.5568111], [114.0637248, 22.5568717], [114.0637387, 22.556872], [114.063738, 22.5569046], [114.0635865, 22.5569021], [114.0635861, 22.5569189], [114.0634403, 22.5569165], [114.06344, 22.5569312], [114.0632875, 22.5569287]]]]}}, {"type": "Feature", "id": "way/1276338205", "properties": {"tags": {"addr:housename": "莲花一村", "addr:housename:zh": "莲花一村", "building": "apartments", "building:levels": "8", "name": "23栋", "name:zh": "23栋"}, "heightStatus": "levels_only_unverified", "source": "OpenStreetMap", "license": "ODbL-1.0"}, "geometry": {"type": "MultiPolygon", "coordinates": [[[[114.0629487, 22.55727], [114.0629504, 22.5572118], [114.0629859, 22.5572127], [114.0630081, 22.5572016], [114.06299, 22.5571709], [114.0629898, 22.5571102], [114.0630681, 22.55711], [114.0630683, 22.5571634], [114.0630936, 22.5571763], [114.0630782, 22.5572021], [114.0631018, 22.5572141], [114.0631345, 22.5572149], [114.0631327, 22.5572745], [114.0629487, 22.55727]]]]}}, {"type": "Feature", "id": "way/1276338210", "properties": {"tags": {"addr:housename": "莲花一村", "addr:housename:zh": "莲花一村", "building": "apartments", "building:levels": "8", "name": "20栋", "name:zh": "20栋"}, "heightStatus": "levels_only_unverified", "source": "OpenStreetMap", "license": "ODbL-1.0"}, "geometry": {"type": "MultiPolygon", "coordinates": [[[[114.06295, 22.5575128], [114.0629501, 22.5574426], [114.0631095, 22.5574427], [114.0631095, 22.5574281], [114.0632748, 22.5574282], [114.0632748, 22.557411], [114.0634284, 22.5574109], [114.0634284, 22.5573937], [114.0635972, 22.5573937], [114.0635972, 22.5574887], [114.0635424, 22.5574888], [114.0635424, 22.5574732], [114.0634801, 22.5574733], [114.0634801, 22.5574844], [114.0634556, 22.5574845], [114.0634556, 22.5574748], [114.0634345, 22.5574748], [114.0634346, 22.5574998], [114.0633891, 22.5574999], [114.0633891, 22.5574848], [114.0633153, 22.5574849], [114.0633153, 22.5574981], [114.0632991, 22.5574981], [114.0632991, 22.5574848], [114.0632625, 22.5574849], [114.0632626, 22.5575126], [114.063225, 22.5575127], [114.063225, 22.5575035], [114.0631558, 22.5575036], [114.0631558, 22.5575162], [114.06313, 22.5575162], [114.0631299, 22.5575016], [114.0631125, 22.5575016], [114.0631125, 22.5575305], [114.0630605, 22.5575305], [114.0630605, 22.5575161], [114.0629933, 22.5575161], [114.0629933, 22.5575284], [114.0629735, 22.5575284], [114.0629735, 22.5575128], [114.06295, 22.5575128]]]]}}, {"type": "Feature", "id": "way/1364197082", "properties": {"tags": {"building:levels": "3", "building:part": "yes"}, "heightStatus": "levels_only_unverified", "source": "OpenStreetMap", "license": "ODbL-1.0"}, "geometry": {"type": "MultiPolygon", "coordinates": [[[[114.0612433, 22.5622948], [114.0612448, 22.562214], [114.0614189, 22.5622173], [114.0614197, 22.5621825], [114.0614496, 22.5621831], [114.0614572, 22.5618382], [114.0614276, 22.5618376], [114.0614284, 22.561802], [114.0612541, 22.5617987], [114.0612561, 22.5617174], [114.0616405, 22.5617247], [114.0616376, 22.561858], [114.0616765, 22.561861], [114.0617191, 22.5618694], [114.0617609, 22.5618899], [114.0617947, 22.5619205], [114.0618181, 22.5619598], [114.0618282, 22.5620036], [114.0618238, 22.5620491], [114.0618051, 22.5620913], [114.0617743, 22.5621261], [114.0617338, 22.5621511], [114.0616823, 22.5621646], [114.0616307, 22.5621678], [114.0616277, 22.5623021], [114.0612433, 22.5622948]]]]}}, {"type": "Feature", "id": "way/1429660076", "properties": {"tags": {"addr:housename": "彩田村", "addr:housename:en": "Caitian Estate", "addr:housename:zh": "彩田村", "building": "apartments", "building:levels": "27", "name": "2栋", "name:en": "Block 2", "name:zh": "2栋"}, "heightStatus": "levels_only_unverified", "source": "OpenStreetMap", "license": "ODbL-1.0"}, "geometry": {"type": "MultiPolygon", "coordinates": [[[[114.0582946, 22.5628646], [114.0583343, 22.5627983], [114.058372, 22.5628175], [114.058383, 22.5627991], [114.0583494, 22.5627418], [114.0584948, 22.5626693], [114.0585284, 22.5627272], [114.0585523, 22.5627276], [114.0585532, 22.5626905], [114.0586338, 22.5626922], [114.0586317, 22.5627789], [114.0586951, 22.5627802], [114.058693, 22.5628688], [114.0585888, 22.5628667], [114.0584767, 22.5629226], [114.0584333, 22.5629952], [114.0583476, 22.5629514], [114.058375, 22.5629057], [114.0582946, 22.5628646]]]]}}, {"type": "Feature", "id": "way/1431501320", "properties": {"tags": {"building": "yes"}, "heightStatus": "unknown", "source": "OpenStreetMap", "license": "ODbL-1.0"}, "geometry": {"type": "MultiPolygon", "coordinates": [[[[114.0632758, 22.55987], [114.0632815, 22.5597274], [114.0634933, 22.5597346], [114.0634876, 22.5598773], [114.0632758, 22.55987]]]]}}, {"type": "Feature", "id": "way/1431501321", "properties": {"tags": {"building": "retail"}, "heightStatus": "unknown", "source": "OpenStreetMap", "license": "ODbL-1.0"}, "geometry": {"type": "MultiPolygon", "coordinates": [[[[114.0634556, 22.5596116], [114.0634883, 22.5594926], [114.0635047, 22.5594977], [114.0635792, 22.5595206], [114.0637129, 22.5595617], [114.0637907, 22.5595856], [114.0637274, 22.5598986], [114.0635873, 22.5598978], [114.0635843, 22.5598056], [114.0636473, 22.5598042], [114.0636493, 22.559673], [114.063495, 22.5596241], [114.0634556, 22.5596116]]]]}}, {"type": "Feature", "id": "way/1431501347", "properties": {"tags": {"building": "retail"}, "heightStatus": "unknown", "source": "OpenStreetMap", "license": "ODbL-1.0"}, "geometry": {"type": "MultiPolygon", "coordinates": [[[[114.0630661, 22.5589749], [114.0636326, 22.5589627], [114.0636222, 22.5590327], [114.0634871, 22.5590518], [114.0634895, 22.5591127], [114.0630712, 22.5590909], [114.0630661, 22.5589749]]]]}}, {"type": "Feature", "id": "way/1431501368", "properties": {"tags": {"building": "retail"}, "heightStatus": "unknown", "source": "OpenStreetMap", "license": "ODbL-1.0"}, "geometry": {"type": "MultiPolygon", "coordinates": [[[[114.0631335, 22.559323], [114.0631355, 22.5592502], [114.0634364, 22.5592558], [114.0634318, 22.5593461], [114.0635024, 22.5593817], [114.0635047, 22.5594977], [114.0634883, 22.5594926], [114.0634556, 22.5596116], [114.063495, 22.5596241], [114.0634933, 22.5597346], [114.0632815, 22.5597274], [114.0632758, 22.55987], [114.063207, 22.559869], [114.063233, 22.559489], [114.0634053, 22.5594904], [114.0634119, 22.559327], [114.0631335, 22.559323]]]]}}, {"type": "Feature", "id": "way/1431501369", "properties": {"tags": {"building": "retail"}, "heightStatus": "unknown", "source": "OpenStreetMap", "license": "ODbL-1.0"}, "geometry": {"type": "MultiPolygon", "coordinates": [[[[114.0635792, 22.5595206], [114.06358, 22.5593793], [114.0636636, 22.5593793], [114.0637078, 22.5594609], [114.0637129, 22.5595617], [114.0635792, 22.5595206]]]]}}, {"type": "Feature", "id": "way/1431519033", "properties": {"tags": {"building": "yes"}, "heightStatus": "unknown", "source": "OpenStreetMap", "license": "ODbL-1.0"}, "geometry": {"type": "MultiPolygon", "coordinates": [[[[114.0543528, 22.5571857], [114.0546871, 22.5571954], [114.05468, 22.5572359], [114.0547778, 22.5572365], [114.0547589, 22.5574831], [114.0546617, 22.5574825], [114.0546606, 22.5574482], [114.0546241, 22.5574488], [114.0546216, 22.5573678], [114.0543572, 22.5573138], [114.0543528, 22.5571857]]]]}}, {"type": "Feature", "id": "way/1431519034", "properties": {"tags": {"building": "yes"}, "heightStatus": "unknown", "source": "OpenStreetMap", "license": "ODbL-1.0"}, "geometry": {"type": "MultiPolygon", "coordinates": [[[[114.0543815, 22.556634], [114.0543841, 22.5565623], [114.0545452, 22.5565672], [114.0545515, 22.5563892], [114.0547009, 22.5563938], [114.0546958, 22.5565394], [114.0547849, 22.5565421], [114.0547745, 22.5568355], [114.0546024, 22.5568303], [114.0546083, 22.5566646], [114.0545595, 22.5566632], [114.0545603, 22.5566394], [114.0543815, 22.556634]]]]}}, {"type": "Feature", "id": "way/1457916145", "properties": {"tags": {"building": "yes"}, "heightStatus": "unknown", "source": "OpenStreetMap", "license": "ODbL-1.0"}, "geometry": {"type": "MultiPolygon", "coordinates": [[[[114.0613848, 22.5558736], [114.0614319, 22.5558375], [114.061518, 22.5559335], [114.0614709, 22.5559696], [114.0613848, 22.5558736]]]]}}]}