{"type": "FeatureCollection", "features": [{"type": "Feature", "id": "way/273905074", "properties": {"tags": {"amenity": "school", "building": "school", "education": "school", "name": "华新小学", "name:en": "Huaxin Primary School"}, "heightStatus": "unknown", "source": "OpenStreetMap", "license": "ODbL-1.0"}, "geometry": {"type": "MultiPolygon", "coordinates": [[[[114.0741266, 22.5602442], [114.0741326, 22.5591287], [114.0747086, 22.5591316], [114.074708, 22.5592188], [114.0747022, 22.5594885], [114.0746896, 22.5602499], [114.0741266, 22.5602442]]]]}}, {"type": "Feature", "id": "way/297348523", "properties": {"tags": {"building": "yes"}, "heightStatus": "unknown", "source": "OpenStreetMap", "license": "ODbL-1.0"}, "geometry": {"type": "MultiPolygon", "coordinates": [[[[114.0827328, 22.5623673], [114.0830717, 22.5621792], [114.0834811, 22.5627766], [114.0831395, 22.5629796], [114.0827328, 22.5623673]]]]}}, {"type": "Feature", "id": "way/398889880", "properties": {"tags": {"building": "yes", "leisure": "sports_centre"}, "heightStatus": "unknown", "source": "OpenStreetMap", "license": "ODbL-1.0"}, "geometry": {"type": "MultiPolygon", "coordinates": [[[[114.0830575, 22.5578468], [114.0830606, 22.5573571], [114.0834568, 22.5573592], [114.0834558, 22.5575304], [114.0834568, 22.5575709], [114.0834754, 22.557571], [114.0834737, 22.557849], [114.0830575, 22.5578468]]]]}}, {"type": "Feature", "id": "way/430118995", "properties": {"tags": {"addr:housename": "海馨苑", "addr:housename:en": "Haixin Court", "addr:housename:zh": "海馨苑", "building": "apartments", "building:levels": "33", "name": "1栋", "name:en": "Block 1", "name:zh": "1栋", "source": "Bing"}, "heightStatus": "levels_only_unverified", "source": "OpenStreetMap", "license": "ODbL-1.0"}, "geometry": {"type": "MultiPolygon", "coordinates": [[[[114.080472, 22.556485], [114.0804727, 22.5564271], [114.0805505, 22.5564279], [114.0805513, 22.5563597], [114.0807204, 22.5563614], [114.0807196, 22.5564297], [114.0808753, 22.5564313], [114.0808761, 22.556363], [114.0810452, 22.5563647], [114.0810444, 22.556433], [114.0811222, 22.5564338], [114.0811215, 22.5564916], [114.081102, 22.5564914], [114.0811015, 22.5565344], [114.0808157, 22.5565315], [114.0808162, 22.5564885], [114.0807773, 22.5564881], [114.0807768, 22.5565311], [114.080491, 22.5565282], [114.0804915, 22.5564852], [114.080472, 22.556485]]]]}}, {"type": "Feature", "id": "way/430118999", "properties": {"tags": {"addr:housename": "长泰花园", "addr:housename:en": "Changtai Garden", "addr:housename:zh": "长泰花园", "building": "apartments", "building:levels": "30", "name": "B栋", "name:en": "Block B", "name:zh": "B栋", "source": "Bing"}, "heightStatus": "levels_only_unverified", "source": "OpenStreetMap", "license": "ODbL-1.0"}, "geometry": {"type": "MultiPolygon", "coordinates": [[[[114.0823529, 22.5543204], [114.0824275, 22.5542875], [114.0824086, 22.554251], [114.0824722, 22.554223], [114.0824438, 22.5541681], [114.0825362, 22.5541273], [114.0825369, 22.554102], [114.082612, 22.5541037], [114.0826114, 22.554129], [114.0827016, 22.5541739], [114.0826703, 22.5542274], [114.0827323, 22.5542583], [114.0827116, 22.5542938], [114.0827844, 22.5543301], [114.0827435, 22.5544001], [114.0826223, 22.5543397], [114.0825143, 22.5543373], [114.08239, 22.5543922], [114.0823529, 22.5543204]]]]}}, {"type": "Feature", "id": "way/430119012", "properties": {"tags": {"addr:housename": "海馨苑", "addr:housename:en": "Haixin Court", "addr:housename:zh": "海馨苑", "building": "apartments", "building:levels": "33", "name": "4栋", "name:en": "Block 4", "name:zh": "4栋", "source": "Bing"}, "heightStatus": "levels_only_unverified", "source": "OpenStreetMap", "license": "ODbL-1.0"}, "geometry": {"type": "MultiPolygon", "coordinates": [[[[114.0796507, 22.5554783], [114.0796526, 22.5553166], [114.0798712, 22.5553188], [114.0798693, 22.5554805], [114.0796507, 22.5554783]]]]}}, {"type": "Feature", "id": "way/430119020", "properties": {"tags": {"addr:housename": "海馨苑", "addr:housename:en": "Haixin Court", "addr:housename:zh": "海馨苑", "building": "apartments", "building:levels": "22", "name": "7栋", "name:en": "Block 7", "name:zh": "7栋", "source": "Bing"}, "heightStatus": "levels_only_unverified", "source": "OpenStreetMap", "license": "ODbL-1.0"}, "geometry": {"type": "MultiPolygon", "coordinates": [[[[114.0797791, 22.5542962], [114.0797811, 22.5541345], [114.0804676, 22.5541415], [114.0804657, 22.5543032], [114.0797791, 22.5542962]]]]}}, {"type": "Feature", "id": "way/430119023", "properties": {"tags": {"addr:housename": "海馨苑", "addr:housename:en": "Haixin Court", "addr:housename:zh": "海馨苑", "building": "apartments", "building:levels": "33", "name": "9栋", "name:en": "Block 9", "name:zh": "9栋", "source": "Bing"}, "heightStatus": "levels_only_unverified", "source": "OpenStreetMap", "license": "ODbL-1.0"}, "geometry": {"type": "MultiPolygon", "coordinates": [[[[114.0807431, 22.5548058], [114.0809053, 22.5546516], [114.0809788, 22.5547175], [114.0810352, 22.5546639], [114.081202, 22.5548136], [114.0811319, 22.5548802], [114.0810407, 22.5547983], [114.0810136, 22.5548241], [114.0809432, 22.5548251], [114.0809152, 22.5548], [114.0808783, 22.5548352], [114.0809052, 22.5548593], [114.0808555, 22.5549066], [114.0807431, 22.5548058]]]]}}, {"type": "Feature", "id": "way/430119025", "properties": {"tags": {"addr:housename": "海馨苑", "addr:housename:en": "Haixin Court", "addr:housename:zh": "海馨苑", "building": "apartments", "building:levels": "33", "name": "5栋", "name:en": "Block 5", "name:zh": "5栋", "source": "Bing"}, "heightStatus": "levels_only_unverified", "source": "OpenStreetMap", "license": "ODbL-1.0"}, "geometry": {"type": "MultiPolygon", "coordinates": [[[[114.0792888, 22.5550567], [114.0792907, 22.554895], [114.0797313, 22.5548995], [114.0797294, 22.5550611], [114.0792888, 22.5550567]]]]}}, {"type": "Feature", "id": "way/430119033", "properties": {"tags": {"addr:housename": "海馨苑", "addr:housename:en": "Haixin Court", "addr:housename:zh": "海馨苑", "building": "apartments", "building:levels": "33", "name": "3栋", "name:en": "Block 3", "name:zh": "3栋", "source": "Bing"}, "heightStatus": "levels_only_unverified", "source": "OpenStreetMap", "license": "ODbL-1.0"}, "geometry": {"type": "MultiPolygon", "coordinates": [[[[114.0799078, 22.5557999], [114.0799097, 22.5556383], [114.0801283, 22.5556405], [114.0801264, 22.5558022], [114.0799078, 22.5557999]]]]}}, {"type": "Feature", "id": "way/430119035", "properties": {"tags": {"addr:housename": "海馨苑", "addr:housename:en": "Haixin Court", "addr:housename:zh": "海馨苑", "building": "apartments", "building:levels": "33", "name": "10栋", "name:en": "Block 10", "name:zh": "10栋", "source": "Bing"}, "heightStatus": "levels_only_unverified", "source": "OpenStreetMap", "license": "ODbL-1.0"}, "geometry": {"type": "MultiPolygon", "coordinates": [[[[114.0807289, 22.5552742], [114.080891, 22.55512], [114.0809645, 22.5551859], [114.081021, 22.5551323], [114.0811878, 22.555282], [114.0811177, 22.5553486], [114.0810264, 22.5552667], [114.0809993, 22.5552925], [114.0809289, 22.5552935], [114.080901, 22.5552684], [114.080864, 22.5553036], [114.080891, 22.5553277], [114.0808412, 22.555375], [114.0807289, 22.5552742]]]]}}, {"type": "Feature", "id": "way/430119039", "properties": {"tags": {"addr:housename": "海馨苑", "addr:housename:en": "Haixin Court", "addr:housename:zh": "海馨苑", "building": "apartments", "building:levels": "33", "name": "11栋", "name:en": "Block 11", "name:zh": "11栋", "source": "Bing"}, "heightStatus": "levels_only_unverified", "source": "OpenStreetMap", "license": "ODbL-1.0"}, "geometry": {"type": "MultiPolygon", "coordinates": [[[[114.0807161, 22.5557514], [114.0808783, 22.5555972], [114.0809518, 22.5556632], [114.0810082, 22.5556095], [114.081175, 22.5557592], [114.0811049, 22.5558258], [114.0810137, 22.5557439], [114.0809866, 22.5557697], [114.0809162, 22.5557707], [114.0808882, 22.5557456], [114.0808513, 22.5557808], [114.0808782, 22.5558049], [114.0808285, 22.5558522], [114.0807161, 22.5557514]]]]}}, {"type": "Feature", "id": "way/430119043", "properties": {"tags": {"addr:housename": "海馨苑", "addr:housename:en": "Haixin Court", "addr:housename:zh": "海馨苑", "building": "apartments", "building:levels": "22", "name": "6栋", "name:en": "Block 6", "name:zh": "6栋", "source": "Bing"}, "heightStatus": "levels_only_unverified", "source": "OpenStreetMap", "license": "ODbL-1.0"}, "geometry": {"type": "MultiPolygon", "coordinates": [[[[114.0788959, 22.5545197], [114.0790936, 22.5543835], [114.0793158, 22.5542647], [114.0795421, 22.5541742], [114.0796117, 22.5543226], [114.0793947, 22.5544094], [114.0791901, 22.5545188], [114.0790006, 22.5546493], [114.0788959, 22.5545197]]]]}}, {"type": "Feature", "id": "way/430119053", "properties": {"tags": {"building": "yes", "source": "Bing"}, "heightStatus": "unknown", "source": "OpenStreetMap", "license": "ODbL-1.0"}, "geometry": {"type": "MultiPolygon", "coordinates": [[[[114.07861, 22.5541183], [114.0786525, 22.5540884], [114.0790918, 22.5540996], [114.0791323, 22.5541912], [114.0790473, 22.5542286], [114.0789582, 22.5543726], [114.0787821, 22.5544399], [114.07861, 22.5541183]]]]}}, {"type": "Feature", "id": "way/430119057", "properties": {"tags": {"addr:housename": "海馨苑", "addr:housename:en": "Haixin Court", "addr:housename:zh": "海馨苑", "building": "apartments", "building:levels": "33", "name": "2栋", "name:en": "Block 2", "name:zh": "2栋", "source": "Bing"}, "heightStatus": "levels_only_unverified", "source": "OpenStreetMap", "license": "ODbL-1.0"}, "geometry": {"type": "MultiPolygon", "coordinates": [[[[114.0801599, 22.5560566], [114.0801606, 22.5559987], [114.0802384, 22.5559995], [114.0802392, 22.5559313], [114.0804084, 22.555933], [114.0804075, 22.5560012], [114.0804854, 22.556002], [114.0804847, 22.5560599], [114.0804652, 22.5560597], [114.0804647, 22.5561027], [114.0801789, 22.5560998], [114.0801794, 22.5560568], [114.0801599, 22.5560566]]]]}}, {"type": "Feature", "id": "way/430119070", "properties": {"tags": {"addr:housename": "海馨苑", "addr:housename:en": "Haixin Court", "addr:housename:zh": "海馨苑", "building": "apartments", "building:levels": "33", "name": "8栋", "name:en": "Block 8", "name:zh": "8栋", "source": "Bing"}, "heightStatus": "levels_only_unverified", "source": "OpenStreetMap", "license": "ODbL-1.0"}, "geometry": {"type": "MultiPolygon", "coordinates": [[[[114.0807486, 22.5542934], [114.0809107, 22.5541393], [114.0809842, 22.5542052], [114.0810407, 22.5541515], [114.0812075, 22.5543012], [114.0811374, 22.5543679], [114.0810461, 22.554286], [114.081019, 22.5543118], [114.0809486, 22.5543127], [114.0809207, 22.5542877], [114.0808837, 22.5543228], [114.0809106, 22.554347], [114.0808609, 22.5543942], [114.0807486, 22.5542934]]]]}}, {"type": "Feature", "id": "way/430119072", "properties": {"tags": {"building": "kindergarten", "source": "Bing"}, "heightStatus": "unknown", "source": "OpenStreetMap", "license": "ODbL-1.0"}, "geometry": {"type": "MultiPolygon", "coordinates": [[[[114.0828972, 22.5545637], [114.0829011, 22.5544976], [114.0830935, 22.5542834], [114.0831451, 22.554331], [114.0831494, 22.5543627], [114.0832352, 22.5543984], [114.083241, 22.554446], [114.083324, 22.5544553], [114.0833641, 22.5544844], [114.083324, 22.554647], [114.0828972, 22.5545637]]]]}}, {"type": "Feature", "id": "way/493114485", "properties": {"tags": {"building": "hospital", "name": "住院部"}, "heightStatus": "unknown", "source": "OpenStreetMap", "license": "ODbL-1.0"}, "geometry": {"type": "MultiPolygon", "coordinates": [[[[114.0806369, 22.5599874], [114.0806455, 22.5599638], [114.080674, 22.5599514], [114.0807105, 22.5599637], [114.080742, 22.5599208], [114.0808316, 22.5599571], [114.0809039, 22.5599682], [114.0809842, 22.5599644], [114.0811089, 22.5599246], [114.0811322, 22.5599644], [114.0811521, 22.5599634], [114.0811749, 22.5599743], [114.0811858, 22.5599937], [114.0811821, 22.5600158], [114.0811672, 22.5600291], [114.0811862, 22.5600741], [114.081081, 22.5601099], [114.0810636, 22.5601428], [114.0810435, 22.5601756], [114.0810144, 22.5601967], [114.0810107, 22.560281], [114.0809754, 22.5603181], [114.0809155, 22.5603397], [114.0808636, 22.5603254], [114.0808263, 22.5602968], [114.0808114, 22.5602616], [114.0808138, 22.560226], [114.0808118, 22.5601953], [114.0807775, 22.5601597], [114.0807654, 22.5601337], [114.0807594, 22.5601011], [114.0806573, 22.5600598], [114.080676, 22.5600234], [114.0806476, 22.5600072], [114.0806369, 22.5599874]]]]}}, {"type": "Feature", "id": "way/493114489", "properties": {"tags": {"building": "hospital", "name": "外科楼"}, "heightStatus": "unknown", "source": "OpenStreetMap", "license": "ODbL-1.0"}, "geometry": {"type": "MultiPolygon", "coordinates": [[[[114.0798668, 22.5603654], [114.0798683, 22.5603071], [114.079897, 22.5603074], [114.0799009, 22.559986], [114.0799338, 22.5599863], [114.0799341, 22.5599586], [114.0800411, 22.5599316], [114.080218, 22.5599147], [114.0803928, 22.5599222], [114.0804944, 22.5599354], [114.0806321, 22.5600143], [114.0806278, 22.5603767], [114.0798668, 22.5603654]]]]}}, {"type": "Feature", "id": "way/493114492", "properties": {"tags": {"addr:city": "深圳市", "addr:district": "福田区", "addr:housenumber": "3号", "addr:province": "广东省", "addr:street": "梅岗南街", "building": "hospital", "name": "深圳市急救中心", "name:en": "Shenzhen Center for Prehospital Care", "name:zh": "深圳市急救中心", "website": "https://www.szem120.com.cn"}, "heightStatus": "unknown", "source": "OpenStreetMap", "license": "ODbL-1.0"}, "geometry": {"type": "MultiPolygon", "coordinates": [[[[114.0801804, 22.5607849], [114.0802, 22.5607698], [114.0802047, 22.560542], [114.0804078, 22.5605472], [114.0804443, 22.5605131], [114.0804907, 22.5604848], [114.0805444, 22.5604716], [114.0805999, 22.5604748], [114.0806514, 22.5604943], [114.0806934, 22.5605278], [114.0807217, 22.560572], [114.0807334, 22.560625], [114.0807252, 22.5606785], [114.0806981, 22.5607264], [114.0806551, 22.5607631], [114.0806014, 22.5607845], [114.080543, 22.5607879], [114.0802892, 22.5607833], [114.0802875, 22.5608088], [114.0801809, 22.5608075], [114.0801804, 22.5607849]]]]}}, {"type": "Feature", "id": "way/493114494", "properties": {"tags": {"building": "hospital", "name": "门诊部"}, "heightStatus": "unknown", "source": "OpenStreetMap", "license": "ODbL-1.0"}, "geometry": {"type": "MultiPolygon", "coordinates": [[[[114.0801151, 22.5591808], [114.0801168, 22.5590519], [114.080514, 22.5590565], [114.0805151, 22.5589759], [114.080676, 22.5589778], [114.0806741, 22.5591189], [114.0806519, 22.5591187], [114.0806509, 22.5591925], [114.0806491, 22.5593326], [114.0806458, 22.5595757], [114.0811366, 22.5596549], [114.0810964, 22.5597961], [114.0806324, 22.5597243], [114.0805143, 22.5597243], [114.0801576, 22.5597738], [114.0801165, 22.5596351], [114.0805178, 22.5595785], [114.0805213, 22.5593225], [114.0803084, 22.55932], [114.0803073, 22.5593985], [114.0801478, 22.5593966], [114.080149, 22.5593135], [114.0802019, 22.5593141], [114.0802024, 22.5592812], [114.080146, 22.5592806], [114.0801465, 22.5592423], [114.0802851, 22.5592439], [114.0803606, 22.5592448], [114.0805221, 22.5592467], [114.0805238, 22.5591233], [114.0803606, 22.5591213], [114.0802851, 22.5591205], [114.0801898, 22.5591193], [114.080189, 22.5591817], [114.0801151, 22.5591808]]]]}}, {"type": "Feature", "id": "way/493114495", "properties": {"tags": {"building": "hospital"}, "heightStatus": "unknown", "source": "OpenStreetMap", "license": "ODbL-1.0"}, "geometry": {"type": "MultiPolygon", "coordinates": [[[[114.0802851, 22.5591205], [114.0803606, 22.5591213], [114.0803606, 22.5592448], [114.0802851, 22.5592439], [114.0802851, 22.5591205]]]]}}, {"type": "Feature", "id": "way/493114496", "properties": {"tags": {"building": "roof", "layer": "1"}, "heightStatus": "unknown", "source": "OpenStreetMap", "license": "ODbL-1.0"}, "geometry": {"type": "MultiPolygon", "coordinates": [[[[114.0807026, 22.5591931], [114.0807034, 22.5591742], [114.0807396, 22.559165], [114.0808074, 22.5591536], [114.0808567, 22.5591522], [114.0809129, 22.5591579], [114.080956, 22.5591664], [114.0809907, 22.5591764], [114.0809908, 22.5591963], [114.0807026, 22.5591931]]]]}}, {"type": "Feature", "id": "way/493114497", "properties": {"tags": {"building": "commercial", "name": "华银大厦"}, "heightStatus": "unknown", "source": "OpenStreetMap", "license": "ODbL-1.0"}, "geometry": {"type": "MultiPolygon", "coordinates": [[[[114.0796954, 22.5592342], [114.0796985, 22.5590447], [114.0797566, 22.5590455], [114.0797579, 22.5589642], [114.0797013, 22.5589634], [114.0797046, 22.5587628], [114.0799787, 22.5587666], [114.079971, 22.559238], [114.0796954, 22.5592342]]]]}}, {"type": "Feature", "id": "way/493114498", "properties": {"tags": {"building": "hospital"}, "heightStatus": "unknown", "source": "OpenStreetMap", "license": "ODbL-1.0"}, "geometry": {"type": "MultiPolygon", "coordinates": [[[[114.0796362, 22.559747], [114.0796416, 22.5594155], [114.0800695, 22.5594215], [114.080064, 22.5597529], [114.0796362, 22.559747]]]]}}, {"type": "Feature", "id": "way/493114505", "properties": {"tags": {"building": "hospital"}, "heightStatus": "unknown", "source": "OpenStreetMap", "license": "ODbL-1.0"}, "geometry": {"type": "MultiPolygon", "coordinates": [[[[114.0812212, 22.5596084], [114.081223, 22.5594556], [114.0813407, 22.5594589], [114.0814035, 22.559543], [114.0814044, 22.5596117], [114.0812212, 22.5596084]]]]}}, {"type": "Feature", "id": "way/493114506", "properties": {"tags": {"building": "hospital"}, "heightStatus": "unknown", "source": "OpenStreetMap", "license": "ODbL-1.0"}, "geometry": {"type": "MultiPolygon", "coordinates": [[[[114.0812312, 22.5598485], [114.0812353, 22.5597236], [114.0813867, 22.5597279], [114.0813876, 22.5597001], [114.0815123, 22.5597036], [114.0815111, 22.5597406], [114.0815297, 22.5597577], [114.0815359, 22.5597831], [114.0815314, 22.5598182], [114.0815164, 22.5598411], [114.0814912, 22.5598513], [114.0814642, 22.559855], [114.0812312, 22.5598485]]]]}}, {"type": "Feature", "id": "way/636736824", "properties": {"tags": {"addr:city": "深圳市", "addr:district": "福田区", "addr:housenumber": "2008号", "addr:postcode": "518029", "addr:province": "广东省", "addr:street": "笋岗西路", "building": "commercial", "name": "体育大厦", "name:zh": "体育大厦"}, "heightStatus": "unknown", "source": "OpenStreetMap", "license": "ODbL-1.0"}, "geometry": {"type": "MultiPolygon", "coordinates": [[[[114.0826666, 22.5590814], [114.0827874, 22.5589703], [114.0828108, 22.558992], [114.082812, 22.5589109], [114.0831034, 22.5589105], [114.0831034, 22.5589857], [114.0834794, 22.5589915], [114.0834794, 22.5594507], [114.0828924, 22.5594468], [114.0827899, 22.5592991], [114.0827898, 22.5591956], [114.0826666, 22.5590814]]]]}}, {"type": "Feature", "id": "way/636736825", "properties": {"tags": {"building": "commercial"}, "heightStatus": "unknown", "source": "OpenStreetMap", "license": "ODbL-1.0"}, "geometry": {"type": "MultiPolygon", "coordinates": [[[[114.0826666, 22.5590814], [114.0827874, 22.5589703], [114.0828108, 22.558992], [114.0828212, 22.5590016], [114.0831741, 22.5590046], [114.083174, 22.5590569], [114.0832084, 22.5590887], [114.0831726, 22.5591218], [114.0831716, 22.5591656], [114.0828245, 22.5591633], [114.0827898, 22.5591956], [114.0826666, 22.5590814]]]]}}, {"type": "Feature", "id": "way/691162541", "properties": {"tags": {"building": "roof", "layer": "1"}, "heightStatus": "unknown", "source": "OpenStreetMap", "license": "ODbL-1.0"}, "geometry": {"type": "MultiPolygon", "coordinates": [[[[114.0817568, 22.5573392], [114.0817661, 22.5564905], [114.0819234, 22.556492], [114.0821654, 22.5564939], [114.0821627, 22.5567812], [114.0821614, 22.556899], [114.082158, 22.557217], [114.0821567, 22.557343], [114.0821564, 22.557432], [114.0819152, 22.5574313], [114.0818448, 22.5574309], [114.0817568, 22.5573392]]]]}}, {"type": "Feature", "id": "way/691162542", "properties": {"tags": {"building": "school"}, "heightStatus": "unknown", "source": "OpenStreetMap", "license": "ODbL-1.0"}, "geometry": {"type": "MultiPolygon", "coordinates": [[[[114.0817661, 22.5564905], [114.0817678, 22.5563146], [114.0821673, 22.5563178], [114.0821654, 22.5564939], [114.0819234, 22.556492], [114.0817661, 22.5564905]]]]}}, {"type": "Feature", "id": "way/691162543", "properties": {"tags": {"building": "school", "name": "高中教学楼"}, "heightStatus": "unknown", "source": "OpenStreetMap", "license": "ODbL-1.0"}, "geometry": {"type": "MultiPolygon", "coordinates": [[[[114.0817568, 22.5573392], [114.0817661, 22.5564905], [114.0819234, 22.556492], [114.0819203, 22.5567789], [114.0821627, 22.5567812], [114.0821614, 22.556899], [114.0819198, 22.5568967], [114.0819163, 22.5572147], [114.082158, 22.557217], [114.0821567, 22.557343], [114.0817568, 22.5573392]]]]}}, {"type": "Feature", "id": "way/691162544", "properties": {"tags": {"building": "school"}, "heightStatus": "unknown", "source": "OpenStreetMap", "license": "ODbL-1.0"}, "geometry": {"type": "MultiPolygon", "coordinates": [[[[114.081915, 22.5575449], [114.0819152, 22.5574313], [114.0821564, 22.557432], [114.0821557, 22.5576775], [114.0820272, 22.5576773], [114.081915, 22.5575449]]]]}}, {"type": "Feature", "id": "way/691162554", "properties": {"tags": {"building": "yes", "man_made": "observatory", "name": "中学部天文台"}, "heightStatus": "unknown", "source": "OpenStreetMap", "license": "ODbL-1.0"}, "geometry": {"type": "MultiPolygon", "coordinates": [[[[114.0831673, 22.5566714], [114.0831703, 22.5566596], [114.0831773, 22.5566493], [114.0831876, 22.5566416], [114.0832, 22.5566375], [114.0832131, 22.5566374], [114.0832256, 22.5566413], [114.0832359, 22.5566486], [114.083243, 22.5566585], [114.0832464, 22.5566701], [114.0832455, 22.556682], [114.0832405, 22.556693], [114.083232, 22.5567019], [114.0832207, 22.5567079], [114.0832081, 22.5567102], [114.0831952, 22.5567085], [114.0831837, 22.5567032], [114.0831744, 22.5566945], [114.0831688, 22.5566835], [114.0831673, 22.5566714]]]]}}, {"type": "Feature", "id": "way/691162594", "properties": {"tags": {"addr:housename": "长泰花园", "addr:housename:en": "Changtai Garden", "addr:housename:zh": "长泰花园", "building": "apartments", "building:levels": "30", "name": "A栋", "name:en": "Block A", "name:zh": "A栋", "source": "Bing"}, "heightStatus": "levels_only_unverified", "source": "OpenStreetMap", "license": "ODbL-1.0"}, "geometry": {"type": "MultiPolygon", "coordinates": [[[[114.0819456, 22.5548381], [114.0820202, 22.5548052], [114.0820013, 22.5547687], [114.0820649, 22.5547407], [114.0820365, 22.5546858], [114.0821289, 22.554645], [114.0821296, 22.5546197], [114.0822047, 22.5546214], [114.0822041, 22.5546467], [114.0822943, 22.5546915], [114.082263, 22.5547451], [114.082325, 22.554776], [114.0823043, 22.5548115], [114.0823771, 22.5548478], [114.0823362, 22.5549178], [114.082215, 22.5548574], [114.082107, 22.554855], [114.0819827, 22.5549099], [114.0819456, 22.5548381]]]]}}, {"type": "Feature", "id": "way/771193480", "properties": {"tags": {"building": "hospital", "name": "急诊中心"}, "heightStatus": "unknown", "source": "OpenStreetMap", "license": "ODbL-1.0"}, "geometry": {"type": "MultiPolygon", "coordinates": [[[[114.0806491, 22.5593326], [114.0806509, 22.5591925], [114.0807026, 22.5591931], [114.0809908, 22.5591963], [114.0811115, 22.5591977], [114.0811096, 22.5593377], [114.0806491, 22.5593326]]]]}}, {"type": "Feature", "id": "way/772007135", "properties": {"tags": {"building": "yes"}, "heightStatus": "unknown", "source": "OpenStreetMap", "license": "ODbL-1.0"}, "geometry": {"type": "MultiPolygon", "coordinates": [[[[114.0794028, 22.5624365], [114.0796259, 22.5622595], [114.0797558, 22.5623913], [114.0796854, 22.5624423], [114.0796115, 22.5623608], [114.0795058, 22.5624444], [114.0795816, 22.562525], [114.079527, 22.5625678], [114.0794028, 22.5624365]]]]}}, {"type": "Feature", "id": "way/1215842900", "properties": {"tags": {"addr:housename": "华富村", "addr:housename:en": "Huafu Estate", "addr:housename:zh": "华富村", "building": "apartments", "building:levels": "42", "name": "11栋", "name:en": "Block 11", "name:zh": "11栋"}, "heightStatus": "levels_only_unverified", "source": "OpenStreetMap", "license": "ODbL-1.0"}, "geometry": {"type": "MultiPolygon", "coordinates": [[[[114.0771085, 22.5566851], [114.0771961, 22.5566037], [114.0772297, 22.5566345], [114.0772466, 22.5566188], [114.0772118, 22.5565869], [114.0772595, 22.5565426], [114.0774241, 22.5566936], [114.0773763, 22.5567379], [114.0773286, 22.5566941], [114.0772882, 22.5567317], [114.0774035, 22.5568375], [114.0773433, 22.5568934], [114.0772647, 22.5568213], [114.0771766, 22.5569031], [114.0771106, 22.5568425], [114.0772055, 22.5567543], [114.0772054, 22.5567185], [114.0771824, 22.5566975], [114.0771524, 22.5567253], [114.0771085, 22.5566851]]]]}}, {"type": "Feature", "id": "way/1215842901", "properties": {"tags": {"addr:housename": "华富村", "addr:housename:en": "Huafu Estate", "addr:housename:zh": "华富村", "building": "apartments", "building:levels": "50", "name": "12栋", "name:en": "Block 12", "name:zh": "12栋"}, "heightStatus": "levels_only_unverified", "source": "OpenStreetMap", "license": "ODbL-1.0"}, "geometry": {"type": "MultiPolygon", "coordinates": [[[[114.0765541, 22.556671], [114.0766416, 22.5565896], [114.0766752, 22.5566204], [114.0766921, 22.5566047], [114.0766574, 22.5565728], [114.0767051, 22.5565285], [114.0768696, 22.5566795], [114.0768219, 22.5567238], [114.0767742, 22.55668], [114.0767337, 22.5567176], [114.0768491, 22.5568234], [114.0767889, 22.5568793], [114.0767103, 22.5568072], [114.0766222, 22.556889], [114.0765561, 22.5568284], [114.0766511, 22.5567402], [114.0766509, 22.5567044], [114.076628, 22.5566833], [114.076598, 22.5567112], [114.0765541, 22.556671]]]]}}, {"type": "Feature", "id": "way/1215842902", "properties": {"tags": {"addr:housename": "华富村", "addr:housename:en": "Huafu Estate", "addr:housename:zh": "华富村", "building": "apartments", "building:levels": "43", "name": "1栋", "name:en": "Block 1", "name:zh": "1栋"}, "heightStatus": "levels_only_unverified", "source": "OpenStreetMap", "license": "ODbL-1.0"}, "geometry": {"type": "MultiPolygon", "coordinates": [[[[114.0759388, 22.5566762], [114.0761023, 22.5565243], [114.0761503, 22.5565683], [114.0761158, 22.5566004], [114.0761328, 22.556616], [114.0761662, 22.556585], [114.0762543, 22.5566658], [114.0762107, 22.5567064], [114.0761805, 22.5566787], [114.0761577, 22.5566999], [114.0761578, 22.5567356], [114.0762533, 22.5568233], [114.0761877, 22.5568843], [114.0760991, 22.556803], [114.076021, 22.5568756], [114.0759604, 22.55682], [114.076075, 22.5567135], [114.0760343, 22.5566762], [114.0759868, 22.5567203], [114.0759388, 22.5566762]]]]}}, {"type": "Feature", "id": "way/1215842903", "properties": {"tags": {"addr:housename": "华富村", "addr:housename:en": "Huafu Estate", "addr:housename:zh": "华富村", "building": "apartments", "building:levels": "50", "name": "2栋", "name:en": "Block 2", "name:zh": "2栋"}, "heightStatus": "levels_only_unverified", "source": "OpenStreetMap", "license": "ODbL-1.0"}, "geometry": {"type": "MultiPolygon", "coordinates": [[[[114.0759521, 22.5561648], [114.0761156, 22.5560128], [114.0761636, 22.5560569], [114.0761291, 22.556089], [114.0761461, 22.5561046], [114.0761795, 22.5560735], [114.0762676, 22.5561544], [114.076224, 22.5561949], [114.0761938, 22.5561672], [114.0761709, 22.5561884], [114.0761711, 22.5562242], [114.0762666, 22.5563118], [114.076201, 22.5563729], [114.0761123, 22.5562916], [114.0760342, 22.5563642], [114.0759737, 22.5563086], [114.0760882, 22.5562021], [114.0760476, 22.5561647], [114.0760001, 22.5562088], [114.0759521, 22.5561648]]]]}}, {"type": "Feature", "id": "way/1215842904", "properties": {"tags": {"addr:housename": "华富村", "addr:housename:en": "Huafu Estate", "addr:housename:zh": "华富村", "building": "apartments", "building:levels": "43", "name": "3栋", "name:en": "Block 3", "name:zh": "3栋"}, "heightStatus": "levels_only_unverified", "source": "OpenStreetMap", "license": "ODbL-1.0"}, "geometry": {"type": "MultiPolygon", "coordinates": [[[[114.0759521, 22.5555482], [114.0761156, 22.5553963], [114.0761636, 22.5554403], [114.0761291, 22.5554725], [114.0761461, 22.5554881], [114.0761795, 22.555457], [114.0762676, 22.5555379], [114.076224, 22.5555784], [114.0761938, 22.5555507], [114.0761709, 22.5555719], [114.0761711, 22.5556076], [114.0762666, 22.5556953], [114.076201, 22.5557563], [114.0761123, 22.555675], [114.0760342, 22.5557476], [114.0759737, 22.555692], [114.0760882, 22.5555855], [114.0760476, 22.5555482], [114.0760001, 22.5555923], [114.0759521, 22.5555482]]]]}}, {"type": "Feature", "id": "way/1215842905", "properties": {"tags": {"addr:housename": "华富村", "addr:housename:en": "Huafu Estate", "addr:housename:zh": "华富村", "building": "apartments", "building:levels": "50", "name": "4栋", "name:en": "Block 4", "name:zh": "4栋"}, "heightStatus": "levels_only_unverified", "source": "OpenStreetMap", "license": "ODbL-1.0"}, "geometry": {"type": "MultiPolygon", "coordinates": [[[[114.0759729, 22.5549772], [114.0761364, 22.5548253], [114.0761845, 22.5548693], [114.0761499, 22.5549015], [114.0761669, 22.5549171], [114.0762003, 22.554886], [114.0762884, 22.5549668], [114.0762448, 22.5550074], [114.0762146, 22.5549797], [114.0761918, 22.5550009], [114.0761919, 22.5550366], [114.0762875, 22.5551243], [114.0762218, 22.5551853], [114.0761332, 22.555104], [114.0760551, 22.5551766], [114.0759945, 22.555121], [114.0761091, 22.5550145], [114.0760684, 22.5549772], [114.076021, 22.5550213], [114.0759729, 22.5549772]]]]}}, {"type": "Feature", "id": "way/1215842906", "properties": {"tags": {"addr:housename": "华富村", "addr:housename:en": "Huafu Estate", "addr:housename:zh": "华富村", "building": "apartments", "building:levels": "43", "name": "5栋", "name:en": "Block 5", "name:zh": "5栋"}, "heightStatus": "levels_only_unverified", "source": "OpenStreetMap", "license": "ODbL-1.0"}, "geometry": {"type": "MultiPolygon", "coordinates": [[[[114.07599, 22.5544886], [114.0761535, 22.5543366], [114.0762015, 22.5543807], [114.076167, 22.5544128], [114.076184, 22.5544284], [114.0762174, 22.5543973], [114.0763055, 22.5544782], [114.0762619, 22.5545187], [114.0762317, 22.554491], [114.0762089, 22.5545122], [114.076209, 22.554548], [114.0763045, 22.5546356], [114.0762389, 22.5546967], [114.0761503, 22.5546153], [114.0760722, 22.5546879], [114.0760116, 22.5546323], [114.0761262, 22.5545259], [114.0760855, 22.5544885], [114.076038, 22.5545326], [114.07599, 22.5544886]]]]}}, {"type": "Feature", "id": "way/1215842907", "properties": {"tags": {"addr:housename": "华富村", "addr:housename:en": "Huafu Estate", "addr:housename:zh": "华富村", "building": "apartments", "building:levels": "43", "name": "7栋", "name:en": "Block 7", "name:zh": "7栋"}, "heightStatus": "levels_only_unverified", "source": "OpenStreetMap", "license": "ODbL-1.0"}, "geometry": {"type": "MultiPolygon", "coordinates": [[[[114.0768707, 22.5546831], [114.0769582, 22.5546017], [114.0769918, 22.5546325], [114.0770087, 22.5546168], [114.076974, 22.5545849], [114.0770217, 22.5545406], [114.0771862, 22.5546916], [114.0771385, 22.5547359], [114.0770908, 22.5546921], [114.0770503, 22.5547297], [114.0771656, 22.5548355], [114.0771054, 22.5548914], [114.0770268, 22.5548193], [114.0769388, 22.5549011], [114.0768727, 22.5548405], [114.0769676, 22.5547523], [114.0769675, 22.5547165], [114.0769446, 22.5546954], [114.0769146, 22.5547233], [114.0768707, 22.5546831]]]]}}, {"type": "Feature", "id": "way/1215842908", "properties": {"tags": {"addr:housename": "华富村", "addr:housename:en": "Huafu Estate", "addr:housename:zh": "华富村", "building": "apartments", "building:levels": "50", "name": "8栋", "name:en": "Block 8", "name:zh": "8栋"}, "heightStatus": "levels_only_unverified", "source": "OpenStreetMap", "license": "ODbL-1.0"}, "geometry": {"type": "MultiPolygon", "coordinates": [[[[114.0771067, 22.5551134], [114.0771942, 22.5550321], [114.0772278, 22.5550629], [114.0772447, 22.5550472], [114.07721, 22.5550153], [114.0772577, 22.554971], [114.0774222, 22.5551219], [114.0773745, 22.5551663], [114.0773268, 22.5551225], [114.0772863, 22.5551601], [114.0774017, 22.5552659], [114.0773415, 22.5553218], [114.0772629, 22.5552497], [114.0771748, 22.5553315], [114.0771087, 22.5552709], [114.0772037, 22.5551826], [114.0772035, 22.5551469], [114.0771806, 22.5551258], [114.0771506, 22.5551537], [114.0771067, 22.5551134]]]]}}, {"type": "Feature", "id": "way/1215842909", "properties": {"tags": {"addr:housename": "华富村", "addr:housename:en": "Huafu Estate", "addr:housename:zh": "华富村", "building": "apartments", "building:levels": "43", "name": "9栋", "name:en": "Block 9", "name:zh": "9栋"}, "heightStatus": "levels_only_unverified", "source": "OpenStreetMap", "license": "ODbL-1.0"}, "geometry": {"type": "MultiPolygon", "coordinates": [[[[114.077201, 22.5556457], [114.0772885, 22.5555643], [114.0773221, 22.5555952], [114.077339, 22.5555795], [114.0773043, 22.5555476], [114.077352, 22.5555032], [114.0775165, 22.5556542], [114.0774688, 22.5556986], [114.0774211, 22.5556547], [114.0773807, 22.5556923], [114.077496, 22.5557981], [114.0774358, 22.5558541], [114.0773572, 22.5557819], [114.0772691, 22.5558638], [114.077203, 22.5558031], [114.077298, 22.5557149], [114.0772978, 22.5556791], [114.0772749, 22.5556581], [114.0772449, 22.555686], [114.077201, 22.5556457]]]]}}, {"type": "Feature", "id": "way/1345407329", "properties": {"tags": {"building": "train_station", "building:levels": "0", "building:levels:underground": "3", "layer": "-2", "location": "underground", "name": "黄木岗站", "name:en": "Huangmugang Station", "name:zh": "黄木岗站", "public_transport": "station", "start_date": "2016-10-28", "wikidata": "Q27685067", "wikimedia_commons": "Category:Huangmugang Station", "wikipedia": "zh:黄木岗站"}, "heightStatus": "levels_only_unverified", "source": "OpenStreetMap", "license": "ODbL-1.0"}, "geometry": {"type": "MultiPolygon", "coordinates": [[[[114.0770572, 22.5579547], [114.077643, 22.5579622], [114.0776454, 22.5580741], [114.0781334, 22.558092], [114.0781342, 22.5580226], [114.0780898, 22.5580249], [114.0780841, 22.5579562], [114.0786247, 22.5579047], [114.079124, 22.5579032], [114.0791531, 22.5579525], [114.0793736, 22.5579547], [114.0793728, 22.5580472], [114.080243, 22.5580189], [114.0804393, 22.5577943], [114.0802502, 22.5575943], [114.0804102, 22.5574988], [114.0804813, 22.5575451], [114.0809376, 22.5572532], [114.081328, 22.557181], [114.0811794, 22.5570079], [114.0808611, 22.5570019], [114.0808643, 22.5569452], [114.0812044, 22.5569415], [114.081606, 22.5572451], [114.0817207, 22.5572093], [114.0819974, 22.5578741], [114.0824915, 22.5578831], [114.0824907, 22.5579077], [114.0826151, 22.5579107], [114.0826116, 22.5579883], [114.0824931, 22.5579905], [114.0824939, 22.5580569], [114.083181, 22.5581331], [114.0831828, 22.5578717], [114.0835161, 22.5578736], [114.0835142, 22.5581676], [114.0847795, 22.5581747], [114.0847814, 22.5578922], [114.0852677, 22.5578949], [114.0852658, 22.5581777], [114.0863625, 22.5581839], [114.0863639, 22.5579698], [114.0863529, 22.5579675], [114.0860293, 22.557968], [114.0860297, 22.5579089], [114.0869524, 22.557914], [114.0869519, 22.5579893], [114.086607, 22.5579873], [114.086614, 22.5583516], [114.0866128, 22.5584583], [114.0866026, 22.5586549], [114.0868729, 22.5586565], [114.0868723, 22.5587358], [114.0865037, 22.5587338], [114.0865054, 22.5584573], [114.0859541, 22.5584522], [114.0859522, 22.5587391], [114.0851006, 22.5587343], [114.0851025, 22.5584444], [114.0846536, 22.5584402], [114.0846518, 22.5587239], [114.0837627, 22.5587189], [114.0837678, 22.558432], [114.0830449, 22.5584367], [114.0830498, 22.5586971], [114.0826943, 22.5587038], [114.0826951, 22.558821], [114.0825146, 22.5589838], [114.0826567, 22.559238], [114.0825345, 22.5593042], [114.0827764, 22.5596912], [114.0826795, 22.5597403], [114.0824389, 22.5593553], [114.0821812, 22.559485], [114.0821505, 22.5594492], [114.0817692, 22.559688], [114.082094, 22.5601118], [114.081989, 22.5601685], [114.0814137, 22.559391], [114.0814945, 22.5593336], [114.0817013, 22.5596067], [114.0819461, 22.55945], [114.0815187, 22.5588553], [114.0814678, 22.5588792], [114.0810598, 22.5587203], [114.0809992, 22.5587732], [114.0809273, 22.5587255], [114.0806106, 22.5587195], [114.0806098, 22.5586509], [114.0802519, 22.5586524], [114.0802535, 22.5584733], [114.0800757, 22.5584688], [114.080079, 22.5585792], [114.0793696, 22.5585777], [114.0793728, 22.5584479], [114.0788444, 22.5584375], [114.0788428, 22.558621], [114.0782401, 22.5586225], [114.0782368, 22.5584763], [114.0781512, 22.5584748], [114.0781463, 22.5584017], [114.0776293, 22.5583882], [114.0776293, 22.5585807], [114.0771154, 22.5585852], [114.0771122, 22.5584748], [114.077521, 22.5584807], [114.0775242, 22.558039], [114.0770572, 22.5580375], [114.0770572, 22.5579547]]]]}}, {"type": "Feature", "id": "way/1367262464", "properties": {"tags": {"building": "yes"}, "heightStatus": "unknown", "source": "OpenStreetMap", "license": "ODbL-1.0"}, "geometry": {"type": "MultiPolygon", "coordinates": [[[[114.0815406, 22.5606819], [114.0815907, 22.560587], [114.0815809, 22.5605572], [114.0815755, 22.5605275], [114.081571, 22.5604912], [114.0815817, 22.5604458], [114.0816059, 22.560402], [114.0816408, 22.5603673], [114.0816837, 22.5603467], [114.0816819, 22.5602476], [114.0817373, 22.560246], [114.081748, 22.5603351], [114.0817936, 22.5603483], [114.0818258, 22.5603673], [114.081858, 22.5603913], [114.0818777, 22.5604251], [114.0818933, 22.5604569], [114.0819018, 22.5604887], [114.0819036, 22.5605267], [114.0819143, 22.5605614], [114.0819885, 22.560634], [114.0818482, 22.5608058], [114.0817141, 22.5608223], [114.0815406, 22.5606819]]]]}}, {"type": "Feature", "id": "way/1408142471", "properties": {"tags": {"building": "yes"}, "heightStatus": "unknown", "source": "OpenStreetMap", "license": "ODbL-1.0"}, "geometry": {"type": "MultiPolygon", "coordinates": [[[[114.0747108, 22.5603542], [114.0747316, 22.5594011], [114.0754577, 22.5594146], [114.0754368, 22.5603678], [114.0747108, 22.5603542]]]]}}, {"type": "Feature", "id": "way/1431501305", "properties": {"tags": {"building": "yes"}, "heightStatus": "unknown", "source": "OpenStreetMap", "license": "ODbL-1.0"}, "geometry": {"type": "MultiPolygon", "coordinates": [[[[114.0808123, 22.560793], [114.0808165, 22.5605212], [114.0811061, 22.5605249], [114.081102, 22.5607968], [114.0808123, 22.560793]]]]}}, {"type": "Feature", "id": "way/1431501306", "properties": {"tags": {"building": "yes"}, "heightStatus": "unknown", "source": "OpenStreetMap", "license": "ODbL-1.0"}, "geometry": {"type": "MultiPolygon", "coordinates": [[[[114.0793369, 22.5623694], [114.079546, 22.5622047], [114.0795921, 22.5622545], [114.079383, 22.5624193], [114.0793369, 22.5623694]]]]}}, {"type": "Feature", "id": "way/1431501307", "properties": {"tags": {"building": "yes"}, "heightStatus": "unknown", "source": "OpenStreetMap", "license": "ODbL-1.0"}, "geometry": {"type": "MultiPolygon", "coordinates": [[[[114.0793033, 22.5622875], [114.0794905, 22.5621406], [114.0795367, 22.5621908], [114.0793495, 22.5623377], [114.0793033, 22.5622875]]]]}}, {"type": "Feature", "id": "way/1431501308", "properties": {"tags": {"building": "yes"}, "heightStatus": "unknown", "source": "OpenStreetMap", "license": "ODbL-1.0"}, "geometry": {"type": "MultiPolygon", "coordinates": [[[[114.0792741, 22.5622112], [114.0794288, 22.5620805], [114.0794761, 22.5621283], [114.0793214, 22.5622589], [114.0792741, 22.5622112]]]]}}, {"type": "Feature", "id": "way/1431501309", "properties": {"tags": {"building": "yes"}, "heightStatus": "unknown", "source": "OpenStreetMap", "license": "ODbL-1.0"}, "geometry": {"type": "MultiPolygon", "coordinates": [[[[114.0792721, 22.562103], [114.0793518, 22.5620418], [114.0793989, 22.5620942], [114.0793192, 22.5621553], [114.0792721, 22.562103]]]]}}, {"type": "Feature", "id": "way/1431909319", "properties": {"tags": {"building": "construction"}, "heightStatus": "unknown", "source": "OpenStreetMap", "license": "ODbL-1.0"}, "geometry": {"type": "MultiPolygon", "coordinates": [[[[114.0778055, 22.5577283], [114.0778354, 22.5576349], [114.078027, 22.5575386], [114.0780465, 22.5575718], [114.0780729, 22.5575685], [114.078082, 22.5575316], [114.0782947, 22.5575764], [114.0783509, 22.5576588], [114.0783231, 22.5577714], [114.0780822, 22.5577207], [114.0778652, 22.5578297], [114.0778055, 22.5577283]]]]}}, {"type": "Feature", "id": "way/1431909320", "properties": {"tags": {"building": "construction", "building:levels": "65", "construction": "commercial", "height": "358.1"}, "heightStatus": "height_tag_unverified", "source": "OpenStreetMap", "license": "ODbL-1.0"}, "geometry": {"type": "MultiPolygon", "coordinates": [[[[114.0786786, 22.557402], [114.0788877, 22.5572905], [114.0790968, 22.557402], [114.0790968, 22.557625], [114.0788877, 22.5577364], [114.0786786, 22.557625], [114.0786786, 22.557402]]]]}}, {"type": "Feature", "id": "way/1431909321", "properties": {"tags": {"building": "construction"}, "heightStatus": "unknown", "source": "OpenStreetMap", "license": "ODbL-1.0"}, "geometry": {"type": "MultiPolygon", "coordinates": [[[[114.0769365, 22.5577635], [114.0769671, 22.5576168], [114.077519, 22.5577149], [114.0774884, 22.5578616], [114.0772886, 22.5578261], [114.0772976, 22.5577827], [114.0770984, 22.5577473], [114.0770893, 22.5577907], [114.0769365, 22.5577635]]]]}}, {"type": "Feature", "id": "way/1431909322", "properties": {"tags": {"building": "construction"}, "heightStatus": "unknown", "source": "OpenStreetMap", "license": "ODbL-1.0"}, "geometry": {"type": "MultiPolygon", "coordinates": [[[[114.0764064, 22.5575792], [114.0766347, 22.5575289], [114.0767063, 22.557806], [114.076478, 22.5578563], [114.0764064, 22.5575792]]]]}}, {"type": "Feature", "id": "way/1431909323", "properties": {"tags": {"building": "construction"}, "heightStatus": "unknown", "source": "OpenStreetMap", "license": "ODbL-1.0"}, "geometry": {"type": "MultiPolygon", "coordinates": [[[[114.0758711, 22.5575688], [114.0760993, 22.5575185], [114.0761709, 22.5577956], [114.0759427, 22.5578459], [114.0758711, 22.5575688]]]]}}, {"type": "Feature", "id": "way/1431909324", "properties": {"tags": {"building": "school"}, "heightStatus": "unknown", "source": "OpenStreetMap", "license": "ODbL-1.0"}, "geometry": {"type": "MultiPolygon", "coordinates": [[[[114.0786235, 22.5568853], [114.0786275, 22.5566719], [114.0792662, 22.5566821], [114.0792622, 22.5568955], [114.0786235, 22.5568853]]]]}}, {"type": "Feature", "id": "way/1431909326", "properties": {"tags": {"building": "school"}, "heightStatus": "unknown", "source": "OpenStreetMap", "license": "ODbL-1.0"}, "geometry": {"type": "MultiPolygon", "coordinates": [[[[114.077842, 22.5569575], [114.0778517, 22.5564355], [114.0784556, 22.5564451], [114.0784492, 22.5567885], [114.0786187, 22.5567912], [114.0786153, 22.5569698], [114.077842, 22.5569575]]]]}}, {"type": "Feature", "id": "way/1431909327", "properties": {"tags": {"addr:city": "深圳市", "addr:country": "CN", "addr:district": "福田区", "addr:housenumber": "8号", "addr:postcode": "518048", "addr:province": "广东省", "addr:street": "华富路", "addr:street_area": "华富街道", "addr:suburb": "华富村", "building": "school"}, "heightStatus": "unknown", "source": "OpenStreetMap", "license": "ODbL-1.0"}, "geometry": {"type": "MultiPolygon", "coordinates": [[[[114.0785289, 22.5562077], [114.0788495, 22.5559887], [114.079117, 22.5563228], [114.0787964, 22.5565418], [114.0785289, 22.5562077]]]]}}, {"type": "Feature", "id": "way/1431909331", "properties": {"tags": {"building": "kindergarten"}, "heightStatus": "unknown", "source": "OpenStreetMap", "license": "ODbL-1.0"}, "geometry": {"type": "MultiPolygon", "coordinates": [[[[114.0769917, 22.5541278], [114.0771065, 22.5540494], [114.0771825, 22.5541444], [114.0773141, 22.5540545], [114.0779888, 22.5548972], [114.077641, 22.5551347], [114.077475, 22.5549273], [114.0776773, 22.5547892], [114.0772612, 22.5542693], [114.0771602, 22.5543382], [114.0769917, 22.5541278]]]]}}, {"type": "Feature", "id": "way/1431909336", "properties": {"tags": {"addr:housename": "华富村", "addr:housename:en": "Huafu Estate", "addr:housename:zh": "华富村", "building": "apartments", "building:levels": "50", "name": "10栋", "name:en": "Block 10", "name:zh": "10栋"}, "heightStatus": "levels_only_unverified", "source": "OpenStreetMap", "license": "ODbL-1.0"}, "geometry": {"type": "MultiPolygon", "coordinates": [[[[114.0771992, 22.5561502], [114.0772867, 22.5560689], [114.0773203, 22.5560997], [114.0773372, 22.556084], [114.0773024, 22.5560521], [114.0773502, 22.5560078], [114.0775147, 22.5561587], [114.077467, 22.5562031], [114.0774192, 22.5561593], [114.0773788, 22.5561968], [114.0774941, 22.5563027], [114.0774339, 22.5563586], [114.0773553, 22.5562865], [114.0772673, 22.5563683], [114.0772012, 22.5563077], [114.0772961, 22.5562194], [114.077296, 22.5561837], [114.077273, 22.5561626], [114.077243, 22.5561905], [114.0771992, 22.5561502]]]]}}, {"type": "Feature", "id": "way/1431909337", "properties": {"tags": {"addr:housename": "华富村", "addr:housename:en": "Huafu Estate", "addr:housename:zh": "华富村", "building": "apartments", "building:levels": "50", "name": "6栋", "name:en": "Block 6", "name:zh": "6栋"}, "heightStatus": "levels_only_unverified", "source": "OpenStreetMap", "license": "ODbL-1.0"}, "geometry": {"type": "MultiPolygon", "coordinates": [[[[114.0765684, 22.5542434], [114.0767319, 22.5540914], [114.0767799, 22.5541355], [114.0767454, 22.5541676], [114.0767624, 22.5541832], [114.0767958, 22.5541522], [114.0768839, 22.554233], [114.0768403, 22.5542736], [114.0768101, 22.5542459], [114.0767873, 22.5542671], [114.0767874, 22.5543028], [114.0768829, 22.5543905], [114.0768173, 22.5544515], [114.0767287, 22.5543702], [114.0766506, 22.5544428], [114.07659, 22.5543872], [114.0767046, 22.5542807], [114.0766639, 22.5542434], [114.0766164, 22.5542875], [114.0765684, 22.5542434]]]]}}, {"type": "Feature", "id": "way/1431909342", "properties": {"tags": {"addr:housename": "长城二花园", "addr:housename:en": "Changcheng 2nd Garden", "addr:housename:zh": "长城二花园", "building": "apartments", "building:levels": "17", "name": "4栋", "name:en": "Block 4", "name:zh": "4栋"}, "heightStatus": "levels_only_unverified", "source": "OpenStreetMap", "license": "ODbL-1.0"}, "geometry": {"type": "MultiPolygon", "coordinates": [[[[114.0820722, 22.5557524], [114.0821123, 22.5556706], [114.0821987, 22.5557067], [114.0822876, 22.5557369], [114.0823787, 22.555761], [114.0824715, 22.5557789], [114.0825654, 22.5557904], [114.08266, 22.5557956], [114.0827547, 22.5557944], [114.0827557, 22.5557417], [114.0828552, 22.5557414], [114.0829545, 22.5557468], [114.0830532, 22.555758], [114.0831509, 22.5557748], [114.0832473, 22.5557973], [114.0832167, 22.5558827], [114.0831262, 22.5558619], [114.0830344, 22.5558463], [114.0829417, 22.555836], [114.0828486, 22.5558311], [114.0827553, 22.5558316], [114.0827561, 22.5558843], [114.0826578, 22.5558855], [114.082556, 22.5558799], [114.0824551, 22.5558675], [114.0823553, 22.5558483], [114.0822574, 22.5558223], [114.0821617, 22.5557899], [114.0820722, 22.5557524]]]]}}, {"type": "Feature", "id": "way/1431909344", "properties": {"tags": {"addr:housename": "长城二花园", "addr:housename:en": "Changcheng 2nd Garden", "addr:housename:zh": "长城二花园", "building": "apartments", "building:levels": "17", "name": "5栋", "name:en": "Block 5", "name:zh": "5栋"}, "heightStatus": "levels_only_unverified", "source": "OpenStreetMap", "license": "ODbL-1.0"}, "geometry": {"type": "MultiPolygon", "coordinates": [[[[114.0821469, 22.5552613], [114.082187, 22.5551795], [114.0822733, 22.5552156], [114.0823623, 22.5552458], [114.0824534, 22.5552699], [114.0825461, 22.5552878], [114.0826401, 22.5552994], [114.0827347, 22.5553046], [114.0828294, 22.5553034], [114.0828304, 22.5552507], [114.0829419, 22.5552512], [114.0830564, 22.5552589], [114.08317, 22.5552736], [114.0832823, 22.5552954], [114.0833927, 22.5553242], [114.0834977, 22.5553587], [114.0834651, 22.5554433], [114.0833632, 22.5554098], [114.0832591, 22.5553827], [114.0831532, 22.5553621], [114.0830461, 22.5553482], [114.0829382, 22.555341], [114.08283, 22.5553405], [114.0828308, 22.5553932], [114.0827325, 22.5553944], [114.0826307, 22.5553889], [114.0825298, 22.5553764], [114.08243, 22.5553572], [114.0823321, 22.5553313], [114.0822364, 22.5552988], [114.0821469, 22.5552613]]]]}}]}