{"type": "FeatureCollection", "features": [{"type": "Feature", "id": "way/1430304105", "properties": {"tags": {"building": "construction", "construction": "apartments", "height": "156"}, "heightStatus": "height_tag_unverified", "source": "OpenStreetMap", "license": "ODbL-1.0"}, "geometry": {"type": "MultiPolygon", "coordinates": [[[[114.0834789, 22.5355689], [114.0836229, 22.5355672], [114.0836242, 22.5356631], [114.0836875, 22.5356624], [114.0836887, 22.5357491], [114.0836254, 22.5357498], [114.0836283, 22.5359587], [114.0834842, 22.5359603], [114.0834789, 22.5355689]]]]}}, {"type": "Feature", "id": "way/1430304108", "properties": {"tags": {"building": "construction", "construction": "apartments", "height": "156"}, "heightStatus": "height_tag_unverified", "source": "OpenStreetMap", "license": "ODbL-1.0"}, "geometry": {"type": "MultiPolygon", "coordinates": [[[[114.0836875, 22.5356624], [114.0837507, 22.5356616], [114.0837494, 22.5355658], [114.0838935, 22.5355641], [114.0838988, 22.5359555], [114.0837548, 22.5359572], [114.0837519, 22.5357483], [114.0836887, 22.5357491], [114.0836875, 22.5356624]]]]}}, {"type": "Feature", "id": "way/1430304118", "properties": {"tags": {"building": "construction", "building:levels": "41", "construction": "apartments", "height": "129"}, "heightStatus": "height_tag_unverified", "source": "OpenStreetMap", "license": "ODbL-1.0"}, "geometry": {"type": "MultiPolygon", "coordinates": [[[[114.0833034, 22.5333091], [114.0833401, 22.5332889], [114.08333, 22.5332732], [114.0834005, 22.5332344], [114.0834161, 22.5331777], [114.0833792, 22.533198], [114.0833655, 22.5331767], [114.0833495, 22.5331854], [114.083317, 22.5331349], [114.0834029, 22.5330877], [114.0834417, 22.5331478], [114.083459, 22.5331383], [114.083437, 22.5331042], [114.0834567, 22.5330933], [114.0834415, 22.5330699], [114.0834789, 22.5330493], [114.083516, 22.5331069], [114.0835366, 22.5330956], [114.0835772, 22.5331585], [114.0835566, 22.5331698], [114.0835831, 22.5332108], [114.083526, 22.5332422], [114.0834995, 22.5332012], [114.083485, 22.5332542], [114.0835512, 22.5333568], [114.0834852, 22.5333931], [114.0834312, 22.5333093], [114.083337, 22.5333612], [114.0833034, 22.5333091]]]]}}, {"type": "Feature", "id": "way/1430304119", "properties": {"tags": {"building": "construction", "building:levels": "41", "construction": "apartments", "height": "129"}, "heightStatus": "height_tag_unverified", "source": "OpenStreetMap", "license": "ODbL-1.0"}, "geometry": {"type": "MultiPolygon", "coordinates": [[[[114.0838345, 22.5335911], [114.0838711, 22.533571], [114.083861, 22.5335553], [114.0839316, 22.5335165], [114.0839471, 22.5334598], [114.0839103, 22.53348], [114.0838965, 22.5334587], [114.0838806, 22.5334675], [114.083848, 22.533417], [114.083934, 22.5333697], [114.0839727, 22.5334298], [114.08399, 22.5334203], [114.083968, 22.5333862], [114.0839877, 22.5333754], [114.0839726, 22.5333519], [114.08401, 22.5333314], [114.0840471, 22.5333889], [114.0840677, 22.5333776], [114.0841083, 22.5334405], [114.0840877, 22.5334519], [114.0841141, 22.5334929], [114.084057, 22.5335243], [114.0840306, 22.5334833], [114.0840161, 22.5335362], [114.0840822, 22.5336388], [114.0840163, 22.5336751], [114.0839623, 22.5335914], [114.083868, 22.5336432], [114.0838345, 22.5335911]]]]}}, {"type": "Feature", "id": "way/1430304120", "properties": {"tags": {"building": "construction", "building:levels": "41", "construction": "apartments", "height": "129"}, "heightStatus": "height_tag_unverified", "source": "OpenStreetMap", "license": "ODbL-1.0"}, "geometry": {"type": "MultiPolygon", "coordinates": [[[[114.0842176, 22.5338434], [114.0842543, 22.5338232], [114.0842441, 22.5338075], [114.0843147, 22.5337687], [114.0843302, 22.533712], [114.0842934, 22.5337323], [114.0842796, 22.533711], [114.0842637, 22.5337197], [114.0842312, 22.5336692], [114.0843171, 22.533622], [114.0843559, 22.5336821], [114.0843731, 22.5336726], [114.0843511, 22.5336385], [114.0843708, 22.5336276], [114.0843557, 22.5336042], [114.0843931, 22.5335836], [114.0844302, 22.5336412], [114.0844508, 22.5336299], [114.0844914, 22.5336928], [114.0844708, 22.5337041], [114.0844972, 22.5337452], [114.0844402, 22.5337765], [114.0844137, 22.5337355], [114.0843992, 22.5337885], [114.0844653, 22.5338911], [114.0843994, 22.5339274], [114.0843454, 22.5338436], [114.0842511, 22.5338955], [114.0842176, 22.5338434]]]]}}, {"type": "Feature", "id": "way/1430304121", "properties": {"tags": {"building": "construction", "building:levels": "40", "construction": "apartments", "height": "126"}, "heightStatus": "height_tag_unverified", "source": "OpenStreetMap", "license": "ODbL-1.0"}, "geometry": {"type": "MultiPolygon", "coordinates": [[[[114.0846611, 22.5343086], [114.0846978, 22.5342884], [114.0846877, 22.5342727], [114.0847582, 22.5342339], [114.0847738, 22.5341772], [114.0847369, 22.5341975], [114.0847232, 22.5341762], [114.0847073, 22.5341849], [114.0846747, 22.5341344], [114.0847606, 22.5340872], [114.0847994, 22.5341473], [114.0848167, 22.5341378], [114.0847947, 22.5341036], [114.0848144, 22.5340928], [114.0847993, 22.5340694], [114.0848366, 22.5340488], [114.0848737, 22.5341064], [114.0848943, 22.534095], [114.0849349, 22.534158], [114.0849143, 22.5341693], [114.0849408, 22.5342103], [114.0848837, 22.5342417], [114.0848573, 22.5342007], [114.0848427, 22.5342537], [114.0849089, 22.5343563], [114.0848429, 22.5343926], [114.084789, 22.5343088], [114.0846947, 22.5343607], [114.0846611, 22.5343086]]]]}}, {"type": "Feature", "id": "way/1430304122", "properties": {"tags": {"building": "construction", "building:levels": "38", "construction": "apartments", "height": "120"}, "heightStatus": "height_tag_unverified", "source": "OpenStreetMap", "license": "ODbL-1.0"}, "geometry": {"type": "MultiPolygon", "coordinates": [[[[114.0850981, 22.534573], [114.0851348, 22.5345529], [114.0851247, 22.5345371], [114.0851952, 22.5344983], [114.0852108, 22.5344416], [114.0851739, 22.5344619], [114.0851602, 22.5344406], [114.0851443, 22.5344494], [114.0851117, 22.5343989], [114.0851976, 22.5343516], [114.0852364, 22.5344117], [114.0852537, 22.5344022], [114.0852317, 22.5343681], [114.0852514, 22.5343573], [114.0852363, 22.5343338], [114.0852736, 22.5343133], [114.0853107, 22.5343708], [114.0853313, 22.5343595], [114.0853719, 22.5344224], [114.0853513, 22.5344338], [114.0853778, 22.5344748], [114.0853207, 22.5345062], [114.0852943, 22.5344651], [114.0852797, 22.5345181], [114.0853459, 22.5346207], [114.0852799, 22.534657], [114.085226, 22.5345733], [114.0851317, 22.5346251], [114.0850981, 22.534573]]]]}}, {"type": "Feature", "id": "way/1430304123", "properties": {"tags": {"building": "construction", "building:levels": "38", "construction": "apartments", "height": "120"}, "heightStatus": "height_tag_unverified", "source": "OpenStreetMap", "license": "ODbL-1.0"}, "geometry": {"type": "MultiPolygon", "coordinates": [[[[114.0854319, 22.535025], [114.0854686, 22.5350048], [114.0854585, 22.5349891], [114.085529, 22.5349503], [114.0855446, 22.5348936], [114.0855077, 22.5349139], [114.085494, 22.5348926], [114.0854781, 22.5349013], [114.0854455, 22.5348508], [114.0855314, 22.5348036], [114.0855702, 22.5348637], [114.0855875, 22.5348542], [114.0855655, 22.5348201], [114.0855852, 22.5348092], [114.0855701, 22.5347858], [114.0856074, 22.5347652], [114.0856445, 22.5348228], [114.0856651, 22.5348115], [114.0857057, 22.5348744], [114.0856851, 22.5348857], [114.0857116, 22.5349267], [114.0856545, 22.5349581], [114.0856281, 22.5349171], [114.0856135, 22.5349701], [114.0856797, 22.5350727], [114.0856137, 22.535109], [114.0855598, 22.5350252], [114.0854655, 22.5350771], [114.0854319, 22.535025]]]]}}, {"type": "Feature", "id": "way/1430304124", "properties": {"tags": {"building": "construction", "building:levels": "49", "construction": "apartments", "height": "152"}, "heightStatus": "height_tag_unverified", "source": "OpenStreetMap", "license": "ODbL-1.0"}, "geometry": {"type": "MultiPolygon", "coordinates": [[[[114.0848606, 22.5352923], [114.0848973, 22.5352721], [114.0848872, 22.5352564], [114.0849578, 22.5352176], [114.0849733, 22.5351609], [114.0849364, 22.5351811], [114.0849227, 22.5351598], [114.0849068, 22.5351686], [114.0848742, 22.5351181], [114.0849602, 22.5350708], [114.0849989, 22.5351309], [114.0850162, 22.5351214], [114.0849942, 22.5350873], [114.0850139, 22.5350765], [114.0849988, 22.535053], [114.0850362, 22.5350325], [114.0850733, 22.53509], [114.0850939, 22.5350787], [114.0851344, 22.5351416], [114.0851139, 22.535153], [114.0851403, 22.535194], [114.0850832, 22.5352254], [114.0850568, 22.5351844], [114.0850423, 22.5352373], [114.0851084, 22.5353399], [114.0850425, 22.5353762], [114.0849885, 22.5352925], [114.0848942, 22.5353443], [114.0848606, 22.5352923]]]]}}, {"type": "Feature", "id": "way/1430304125", "properties": {"tags": {"building": "construction", "building:levels": "50", "construction": "apartments", "height": "155"}, "heightStatus": "height_tag_unverified", "source": "OpenStreetMap", "license": "ODbL-1.0"}, "geometry": {"type": "MultiPolygon", "coordinates": [[[[114.0843456, 22.5353351], [114.0844184, 22.5352717], [114.0844704, 22.5353226], [114.084485, 22.5353099], [114.0844555, 22.535281], [114.0844721, 22.5352665], [114.0844519, 22.5352466], [114.0844835, 22.535219], [114.0845333, 22.5352678], [114.0845507, 22.5352526], [114.0846051, 22.5353058], [114.0845877, 22.535321], [114.0846232, 22.5353558], [114.0845749, 22.5353979], [114.0845394, 22.5353631], [114.0845377, 22.5354178], [114.0846264, 22.5355046], [114.0845706, 22.5355533], [114.0844982, 22.5354824], [114.0844184, 22.5355519], [114.0843734, 22.5355079], [114.0844044, 22.5354808], [114.0843908, 22.5354675], [114.0844506, 22.5354154], [114.0844524, 22.535357], [114.0844212, 22.5353842], [114.0844028, 22.5353661], [114.0843893, 22.5353779], [114.0843456, 22.5353351]]]]}}, {"type": "Feature", "id": "way/1430304126", "properties": {"tags": {"building": "construction", "building:levels": "58", "construction": "apartments", "height": "180"}, "heightStatus": "height_tag_unverified", "source": "OpenStreetMap", "license": "ODbL-1.0"}, "geometry": {"type": "MultiPolygon", "coordinates": [[[[114.0839777, 22.5349683], [114.0840138, 22.5349473], [114.0840033, 22.5349318], [114.0840727, 22.5348914], [114.0840868, 22.5348344], [114.0840505, 22.5348555], [114.0840362, 22.5348345], [114.0840205, 22.5348436], [114.0839866, 22.5347939], [114.0840712, 22.5347447], [114.0841116, 22.5348039], [114.0841286, 22.534794], [114.0841057, 22.5347604], [114.0841251, 22.5347491], [114.0841094, 22.534726], [114.0841462, 22.5347046], [114.0841848, 22.5347613], [114.0842051, 22.5347495], [114.0842473, 22.5348115], [114.0842271, 22.5348233], [114.0842546, 22.5348637], [114.0841984, 22.5348964], [114.0841709, 22.534856], [114.0841578, 22.5349093], [114.0842266, 22.5350103], [114.0841617, 22.5350481], [114.0841055, 22.5349656], [114.0840126, 22.5350196], [114.0839777, 22.5349683]]]]}}, {"type": "Feature", "id": "way/1430304127", "properties": {"tags": {"building": "construction", "building:levels": "58", "construction": "apartments", "height": "180"}, "heightStatus": "height_tag_unverified", "source": "OpenStreetMap", "license": "ODbL-1.0"}, "geometry": {"type": "MultiPolygon", "coordinates": [[[[114.08352, 22.5344351], [114.0835561, 22.534414], [114.0835455, 22.5343986], [114.083615, 22.5343582], [114.0836291, 22.5343011], [114.0835927, 22.5343222], [114.0835784, 22.5343012], [114.0835628, 22.5343104], [114.0835289, 22.5342606], [114.0836135, 22.5342114], [114.0836539, 22.5342706], [114.0836709, 22.5342607], [114.083648, 22.5342271], [114.0836674, 22.5342158], [114.0836516, 22.5341927], [114.0836884, 22.5341713], [114.0837271, 22.534228], [114.0837474, 22.5342162], [114.0837896, 22.5342782], [114.0837693, 22.53429], [114.0837969, 22.5343304], [114.0837407, 22.5343631], [114.0837131, 22.5343227], [114.0837, 22.534376], [114.0837689, 22.5344771], [114.083704, 22.5345148], [114.0836478, 22.5344324], [114.0835549, 22.5344864], [114.08352, 22.5344351]]]]}}]}