{"type": "FeatureCollection", "features": [{"type": "Feature", "id": "relation/3777627", "properties": {"tags": {"building": "stadium"}, "heightStatus": "unknown", "source": "OpenStreetMap", "license": "ODbL-1.0"}, "geometry": {"type": "MultiPolygon", "coordinates": [[[[114.0858872, 22.5622377], [114.0858897, 22.5621269], [114.0859015, 22.5620046], [114.0859225, 22.5618896], [114.085949, 22.5617982], [114.0859903, 22.5616632], [114.086044, 22.561551], [114.0861096, 22.5614281], [114.0861784, 22.561327], [114.0862527, 22.5612483], [114.0863387, 22.5611756], [114.0864475, 22.5611071], [114.0865483, 22.5610637], [114.0866702, 22.5610234], [114.0867895, 22.5610036], [114.0869131, 22.5609958], [114.0870446, 22.5610091], [114.0871629, 22.5610363], [114.0872564, 22.5610741], [114.0873544, 22.5611211], [114.0874364, 22.56118], [114.0875098, 22.5612387], [114.0875838, 22.561325], [114.0876508, 22.561404], [114.087707, 22.561502], [114.087754, 22.5615999], [114.0877882, 22.5616922], [114.0878183, 22.5617907], [114.0878426, 22.5618984], [114.0878599, 22.5620159], [114.0878652, 22.5621275], [114.0878642, 22.5622451], [114.0878478, 22.5623816], [114.0878264, 22.562504], [114.0877874, 22.5626353], [114.0877472, 22.5627455], [114.0876936, 22.5628619], [114.0876372, 22.5629585], [114.0875689, 22.5630576], [114.0874941, 22.5631432], [114.0874134, 22.5632086], [114.0873034, 22.5632731], [114.0871961, 22.5633189], [114.0870821, 22.5633511], [114.0869641, 22.5633672], [114.0868539, 22.5633708], [114.0867428, 22.5633598], [114.0866421, 22.5633406], [114.086555, 22.563314], [114.0864755, 22.563279], [114.0863779, 22.5632281], [114.0862874, 22.5631664], [114.0862089, 22.5630931], [114.0861404, 22.5630103], [114.0860882, 22.5629319], [114.0860406, 22.5628469], [114.0859958, 22.5627446], [114.0859569, 22.5626427], [114.0859282, 22.5625458], [114.0859056, 22.5624484], [114.085892, 22.5623387], [114.0858872, 22.5622377]], [[114.0863159, 22.5622186], [114.0863194, 22.5622859], [114.0863273, 22.5623584], [114.0863378, 22.5624223], [114.086357, 22.5625011], [114.086381, 22.5625786], [114.0864123, 22.5626548], [114.0864419, 22.562718], [114.0864687, 22.5627646], [114.0865139, 22.5628311], [114.086546, 22.5628618], [114.0865766, 22.5628907], [114.0866091, 22.5629144], [114.0866501, 22.5629382], [114.0866993, 22.5629623], [114.086735, 22.5629754], [114.0867836, 22.562988], [114.0868238, 22.5629942], [114.0868755, 22.562998], [114.0869247, 22.562998], [114.0869777, 22.5629903], [114.0870323, 22.562976], [114.0870836, 22.5629517], [114.0871268, 22.5629274], [114.0871624, 22.5629022], [114.0871964, 22.562874], [114.0872299, 22.5628366], [114.0872631, 22.5627899], [114.08729, 22.5627424], [114.087322, 22.5626835], [114.0873431, 22.5626356], [114.0873626, 22.5625844], [114.0873799, 22.5625346], [114.0873928, 22.5624894], [114.0874032, 22.5624505], [114.0874127, 22.5624009], [114.0874201, 22.5623484], [114.0874265, 22.5622998], [114.0874305, 22.5622326], [114.0874291, 22.56216], [114.0874225, 22.5620964], [114.0874193, 22.5620531], [114.0874036, 22.561987], [114.0873885, 22.5619203], [114.0873699, 22.5618562], [114.0873478, 22.5618002], [114.0873146, 22.5617241], [114.0872867, 22.5616715], [114.0872527, 22.5616208], [114.0872038, 22.5615638], [114.0871663, 22.5615333], [114.087117, 22.5615008], [114.0870681, 22.5614781], [114.0870125, 22.561457], [114.0869584, 22.5614441], [114.086905, 22.5614388], [114.086839, 22.5614418], [114.0867803, 22.5614512], [114.0867246, 22.5614633], [114.0866747, 22.561482], [114.0866268, 22.5615121], [114.0865644, 22.561555], [114.0865208, 22.5616024], [114.0864827, 22.5616628], [114.0864476, 22.5617209], [114.0864138, 22.5617852], [114.086398, 22.5618267], [114.0863688, 22.5619059], [114.0863484, 22.5619848], [114.0863294, 22.5620696], [114.08632, 22.5621423], [114.0863159, 22.5622186]]]]}}, {"type": "Feature", "id": "way/285020282", "properties": {"tags": {"building": "grandstand"}, "heightStatus": "unknown", "source": "OpenStreetMap", "license": "ODbL-1.0"}, "geometry": {"type": "MultiPolygon", "coordinates": [[[[114.0857975, 22.5614967], [114.0858124, 22.5605816], [114.0858551, 22.5605874], [114.0859852, 22.5606931], [114.0859932, 22.5607107], [114.0859971, 22.5607337], [114.0859774, 22.56124], [114.0858357, 22.5614974], [114.0857975, 22.5614967]]]]}}, {"type": "Feature", "id": "way/285027814", "properties": {"tags": {"building": "yes", "layer": "-1", "leisure": "sports_centre", "name": "深圳游泳跳水馆", "sport": "swimming"}, "heightStatus": "unknown", "source": "OpenStreetMap", "license": "ODbL-1.0"}, "geometry": {"type": "MultiPolygon", "coordinates": [[[[114.0850864, 22.5602268], [114.0851083, 22.5591425], [114.0852392, 22.5591448], [114.0852441, 22.5588991], [114.0857197, 22.5589073], [114.0857147, 22.559153], [114.0859581, 22.5591571], [114.0859362, 22.5602414], [114.0857697, 22.5602385], [114.085766, 22.5604218], [114.0852679, 22.5604132], [114.0852717, 22.5602299], [114.0850864, 22.5602268]]]]}}, {"type": "Feature", "id": "way/285106408", "properties": {"tags": {"building": "yes"}, "heightStatus": "unknown", "source": "OpenStreetMap", "license": "ODbL-1.0"}, "geometry": {"type": "MultiPolygon", "coordinates": [[[[114.0834609, 22.5602071], [114.0837279, 22.5602131], [114.0843647, 22.5602219], [114.0843597, 22.5605312], [114.0837228, 22.5605224], [114.0836877, 22.5605175], [114.0836594, 22.5605043], [114.0836299, 22.5604746], [114.0836084, 22.5604399], [114.0835896, 22.5604077], [114.0835628, 22.5603854], [114.0835333, 22.5603656], [114.0835065, 22.5603458], [114.083485, 22.5603235], [114.0834689, 22.5602888], [114.0834609, 22.5602517], [114.0834609, 22.5602071]]]]}}, {"type": "Feature", "id": "way/430119003", "properties": {"tags": {"addr:housename": "南天二花园", "addr:housename:en": "Nantian No.2 Garden", "addr:housename:zh": "南天二花园", "building": "apartments", "building:levels": "19", "name": "4栋", "name:en": "Block 4", "name:zh": "4栋", "source": "Bing"}, "heightStatus": "levels_only_unverified", "source": "OpenStreetMap", "license": "ODbL-1.0"}, "geometry": {"type": "MultiPolygon", "coordinates": [[[[114.0881781, 22.5541571], [114.0882687, 22.5540918], [114.0883677, 22.5540306], [114.0884714, 22.5539763], [114.088579, 22.5539291], [114.0886901, 22.5538894], [114.088804, 22.5538572], [114.0889207, 22.5538326], [114.0890246, 22.553819], [114.0891185, 22.5538005], [114.0892105, 22.553776], [114.0893004, 22.5537455], [114.0893915, 22.5537076], [114.0894395, 22.5538058], [114.0893445, 22.5538454], [114.0892758, 22.5538687], [114.0892879, 22.5539042], [114.0891943, 22.5539315], [114.0891821, 22.5538958], [114.0891468, 22.5539052], [114.089045, 22.5539252], [114.0889419, 22.5539387], [114.0888341, 22.5539614], [114.0888517, 22.5540092], [114.0887856, 22.5540312], [114.0887659, 22.5539807], [114.0887283, 22.5539913], [114.0886252, 22.5540282], [114.0885253, 22.554072], [114.0884586, 22.554107], [114.0884794, 22.5541372], [114.0883964, 22.5541858], [114.0883756, 22.5541555], [114.0883371, 22.5541792], [114.0882499, 22.5542421], [114.0881781, 22.5541571]]]]}}, {"type": "Feature", "id": "way/451437429", "properties": {"tags": {"addr:housename": "百花园二期", "addr:housename:zh": "百花园二期", "building": "apartments", "building:levels": "33", "name": "海棠阁", "name:en": "Furong Tower", "name:zh": "海棠阁"}, "heightStatus": "levels_only_unverified", "source": "OpenStreetMap", "license": "ODbL-1.0"}, "geometry": {"type": "MultiPolygon", "coordinates": [[[[114.0896097, 22.5556448], [114.0896109, 22.5555471], [114.0897343, 22.5555484], [114.0897347, 22.555518], [114.0896818, 22.5555174], [114.089682, 22.5554986], [114.0896648, 22.5554985], [114.0896656, 22.5554367], [114.0898557, 22.5554386], [114.0898549, 22.5555075], [114.0898897, 22.5555199], [114.0899381, 22.5554738], [114.0900726, 22.5555942], [114.0900359, 22.5556291], [114.0900213, 22.555616], [114.089997, 22.5556391], [114.0899675, 22.5556127], [114.0899467, 22.5556325], [114.0900035, 22.5556832], [114.0899915, 22.5556947], [114.0900187, 22.5557191], [114.0899558, 22.5557792], [114.0898277, 22.5556648], [114.0898576, 22.5556363], [114.089765, 22.555619], [114.0897697, 22.5556404], [114.0897382, 22.5556462], [114.0896097, 22.5556448]]]]}}, {"type": "Feature", "id": "way/451442909", "properties": {"tags": {"addr:housename": "核电花园", "addr:housename:en": "He Dian Garden", "addr:housename:zh": "核电花园", "building": "apartments", "building:levels": "30", "name": "15栋", "name:en": "Block 15", "name:zh": "15栋"}, "heightStatus": "levels_only_unverified", "source": "OpenStreetMap", "license": "ODbL-1.0"}, "geometry": {"type": "MultiPolygon", "coordinates": [[[[114.0854918, 22.5542097], [114.0855535, 22.5541805], [114.0855603, 22.5541927], [114.0855994, 22.5541742], [114.0855921, 22.554161], [114.0855647, 22.554174], [114.0855243, 22.5541012], [114.0856519, 22.5540409], [114.0856838, 22.5540985], [114.0857195, 22.5540427], [114.0858429, 22.55411], [114.085798, 22.5541804], [114.0857714, 22.5541659], [114.0857633, 22.5541787], [114.0858011, 22.5541993], [114.0858087, 22.5541875], [114.0858684, 22.55422], [114.0858329, 22.5542756], [114.0858578, 22.5542892], [114.085827, 22.5543373], [114.0856788, 22.5542565], [114.0855256, 22.554329], [114.085498, 22.5542793], [114.0855237, 22.5542671], [114.0854918, 22.5542097]]]]}}, {"type": "Feature", "id": "way/636736826", "properties": {"tags": {"building": "yes", "leisure": "sports_centre", "sport": "swimming"}, "heightStatus": "unknown", "source": "OpenStreetMap", "license": "ODbL-1.0"}, "geometry": {"type": "MultiPolygon", "coordinates": [[[[114.0841431, 22.559846], [114.0841448, 22.5597215], [114.0842569, 22.5597229], [114.0842595, 22.5595319], [114.084158, 22.5595307], [114.0841631, 22.5591711], [114.0843092, 22.5591728], [114.0843096, 22.5591495], [114.0846003, 22.5591529], [114.0845997, 22.5591937], [114.0846307, 22.5591941], [114.0846233, 22.5597179], [114.084708, 22.5597189], [114.0847062, 22.5598413], [114.084621, 22.5598403], [114.0846165, 22.5601621], [114.0842503, 22.5601577], [114.0842547, 22.5598474], [114.0841431, 22.559846]]]]}}, {"type": "Feature", "id": "relation/9604338", "properties": {"tags": {"building": "school", "name": "初中教学楼"}, "heightStatus": "unknown", "source": "OpenStreetMap", "license": "ODbL-1.0"}, "geometry": {"type": "MultiPolygon", "coordinates": [[[[114.0831186, 22.5569095], [114.0831199, 22.5568135], [114.0831645, 22.556814], [114.083167, 22.5565551], [114.0831304, 22.5565544], [114.0831313, 22.5564637], [114.0832045, 22.5564644], [114.0832199, 22.5564527], [114.0832905, 22.5564532], [114.0833052, 22.556443], [114.0833837, 22.5564429], [114.0833994, 22.5564323], [114.0834863, 22.5564324], [114.0835058, 22.5564238], [114.0836937, 22.5564213], [114.083694, 22.5564039], [114.0837064, 22.5563937], [114.0837706, 22.5563937], [114.0837838, 22.5564072], [114.0837763, 22.5574715], [114.0836919, 22.5574705], [114.0836913, 22.5575292], [114.0834558, 22.5575304], [114.0834568, 22.5573592], [114.0835922, 22.5573592], [114.0835912, 22.5572499], [114.0831452, 22.5572453], [114.0831456, 22.5571393], [114.0831591, 22.5571396], [114.0831614, 22.5569107], [114.0831186, 22.5569095]], [[114.0832384, 22.5571316], [114.0836417, 22.5571359], [114.0836445, 22.5569144], [114.0832412, 22.5569101], [114.0832384, 22.5571316]], [[114.0832473, 22.556813], [114.0835371, 22.556816], [114.0835387, 22.5566817], [114.0835009, 22.5566813], [114.0835013, 22.5566482], [114.0835398, 22.5566486], [114.0835411, 22.5565421], [114.0834419, 22.5565411], [114.0834417, 22.5565529], [114.08335, 22.5565519], [114.0833498, 22.5565629], [114.0832504, 22.5565619], [114.0832473, 22.556813]]]]}}, {"type": "Feature", "id": "way/691162592", "properties": {"tags": {"addr:city": "深圳市", "addr:country": "CN", "addr:district": "福田区", "addr:housenumber": "8", "addr:postcode": "518028", "addr:province": "广东省", "addr:street": "百花四路", "building": "apartments", "building:levels": "17", "name": "长城大厦", "name:en": "Changcheng Building", "name:zh": "长城大厦", "residential": "apartments"}, "heightStatus": "levels_only_unverified", "source": "OpenStreetMap", "license": "ODbL-1.0"}, "geometry": {"type": "MultiPolygon", "coordinates": [[[[114.0839366, 22.5539532], [114.0839439, 22.5538456], [114.0840448, 22.5538515], [114.0841452, 22.5538627], [114.0842447, 22.5538792], [114.084343, 22.553901], [114.0844398, 22.5539279], [114.0845348, 22.5539599], [114.0845129, 22.5540154], [114.0845593, 22.5540312], [114.084593, 22.5539336], [114.0846707, 22.5539565], [114.0847464, 22.5539745], [114.0848231, 22.5539885], [114.0849006, 22.5539984], [114.0849819, 22.5540045], [114.0849724, 22.554112], [114.0848806, 22.5541047], [114.0848751, 22.5541287], [114.0848046, 22.554115], [114.0848091, 22.5540955], [114.0846923, 22.5540729], [114.0846854, 22.5540967], [114.0846158, 22.5540794], [114.0846228, 22.5540556], [114.0845576, 22.5540364], [114.0845415, 22.554077], [114.0844368, 22.5540417], [114.0844248, 22.5540747], [114.0843565, 22.5540537], [114.0843684, 22.5540206], [114.0843125, 22.5540051], [114.0842558, 22.5539925], [114.084248, 22.5540266], [114.0841776, 22.554013], [114.0841853, 22.5539789], [114.0841278, 22.5539693], [114.0840699, 22.5539629], [114.0840664, 22.5539975], [114.0839947, 22.5539914], [114.0839982, 22.5539568], [114.0839366, 22.5539532]]]]}}, {"type": "Feature", "id": "way/691162593", "properties": {"tags": {"addr:city": "深圳市", "addr:country": "CN", "addr:district": "福田区", "addr:housenumber": "7", "addr:postcode": "518028", "addr:province": "广东省", "addr:street": "百花五路", "building": "apartments", "name": "长源楼", "name:en": "Changyuan Building", "name:zh": "长源楼", "residential": "apartments"}, "heightStatus": "unknown", "source": "OpenStreetMap", "license": "ODbL-1.0"}, "geometry": {"type": "MultiPolygon", "coordinates": [[[[114.0842886, 22.5542751], [114.0843003, 22.5541729], [114.0843898, 22.5541816], [114.0844566, 22.5542412], [114.0844888, 22.5542104], [114.0845463, 22.5542617], [114.08459, 22.55422], [114.0846358, 22.5542609], [114.0846636, 22.5542344], [114.0847187, 22.5542836], [114.0847877, 22.5542878], [114.0848116, 22.5543095], [114.0845393, 22.5545659], [114.0844151, 22.5544535], [114.0844128, 22.5543919], [114.0842886, 22.5542751]]]]}}, {"type": "Feature", "id": "way/691162599", "properties": {"tags": {"building": "commercial", "name": "长城综合楼"}, "heightStatus": "unknown", "source": "OpenStreetMap", "license": "ODbL-1.0"}, "geometry": {"type": "MultiPolygon", "coordinates": [[[[114.0831831, 22.554023], [114.0833518, 22.5538763], [114.0835066, 22.5538769], [114.0836108, 22.5539791], [114.0833604, 22.5541968], [114.0831831, 22.554023]]]]}}, {"type": "Feature", "id": "way/691162602", "properties": {"tags": {"building": "kindergarten"}, "heightStatus": "unknown", "source": "OpenStreetMap", "license": "ODbL-1.0"}, "geometry": {"type": "MultiPolygon", "coordinates": [[[[114.0848648, 22.5546893], [114.0849908, 22.5545745], [114.0850331, 22.5546141], [114.0851258, 22.5545296], [114.0850866, 22.5544929], [114.0851889, 22.5543997], [114.0852402, 22.5544478], [114.0852603, 22.5544295], [114.0853514, 22.5544295], [114.0854517, 22.5545222], [114.0853158, 22.5546475], [114.0852708, 22.5546058], [114.0851102, 22.5547538], [114.0851762, 22.5548149], [114.085539, 22.5548211], [114.0856473, 22.5547234], [114.0857402, 22.5548113], [114.085613, 22.554926], [114.085115, 22.5549235], [114.0848648, 22.5546893]]]]}}, {"type": "Feature", "id": "way/691162605", "properties": {"tags": {"amenity": "community_centre", "building": "yes", "name": "白沙岭文化中心"}, "heightStatus": "unknown", "source": "OpenStreetMap", "license": "ODbL-1.0"}, "geometry": {"type": "MultiPolygon", "coordinates": [[[[114.0874453, 22.5554924], [114.0874499, 22.5554329], [114.0874941, 22.5554609], [114.0875441, 22.5554138], [114.0876268, 22.5554928], [114.0876591, 22.5554639], [114.0879755, 22.5557662], [114.0879238, 22.5558122], [114.0878987, 22.5557883], [114.0878243, 22.5558547], [114.0874453, 22.5554924]]]]}}, {"type": "Feature", "id": "way/691162610", "properties": {"tags": {"addr:housename": "百花园二期", "addr:housename:en": "Baihuayuan Phase II", "addr:housename:zh": "百花园二期", "building": "apartments", "building:levels": "33", "name": "玫瑰阁", "name:en": "Meigui Tower", "name:zh": "玫瑰阁"}, "heightStatus": "levels_only_unverified", "source": "OpenStreetMap", "license": "ODbL-1.0"}, "geometry": {"type": "MultiPolygon", "coordinates": [[[[114.0896265, 22.5550693], [114.0896277, 22.5549716], [114.0897511, 22.5549729], [114.0897515, 22.5549425], [114.0896986, 22.5549419], [114.0896988, 22.5549231], [114.0896816, 22.554923], [114.0896824, 22.5548612], [114.0898725, 22.5548631], [114.0898717, 22.554932], [114.0899065, 22.5549444], [114.0899549, 22.5548983], [114.0900894, 22.5550187], [114.0900527, 22.5550536], [114.0900381, 22.5550405], [114.0900138, 22.5550636], [114.0899843, 22.5550372], [114.0899635, 22.555057], [114.0900203, 22.5551077], [114.0900083, 22.5551192], [114.0900355, 22.5551436], [114.0899726, 22.5552037], [114.0898445, 22.5550893], [114.0898744, 22.5550608], [114.0897818, 22.5550435], [114.0897865, 22.5550649], [114.089755, 22.5550707], [114.0896265, 22.5550693]]]]}}, {"type": "Feature", "id": "way/691162611", "properties": {"tags": {"addr:housename": "百花园二期", "addr:housename:en": "Baihuayuan Phase II", "addr:housename:zh": "百花园二期", "building": "apartments", "building:levels": "33", "name": "芙蓉阁", "name:en": "Furong Tower", "name:zh": "芙蓉阁"}, "heightStatus": "levels_only_unverified", "source": "OpenStreetMap", "license": "ODbL-1.0"}, "geometry": {"type": "MultiPolygon", "coordinates": [[[[114.0896439, 22.5544963], [114.0896451, 22.5543986], [114.0897685, 22.5543999], [114.0897689, 22.5543695], [114.089716, 22.5543689], [114.0897162, 22.5543501], [114.089699, 22.55435], [114.0896998, 22.5542882], [114.0898899, 22.5542901], [114.0898891, 22.554359], [114.0899239, 22.5543714], [114.0899723, 22.5543253], [114.0901068, 22.5544457], [114.0900701, 22.5544806], [114.0900555, 22.5544675], [114.0900312, 22.5544906], [114.0900017, 22.5544642], [114.0899809, 22.554484], [114.0900377, 22.5545347], [114.0900257, 22.5545462], [114.0900529, 22.5545706], [114.08999, 22.5546307], [114.0898619, 22.5545163], [114.0898918, 22.5544878], [114.0897992, 22.5544705], [114.0898039, 22.5544919], [114.0897724, 22.5544977], [114.0896439, 22.5544963]]]]}}, {"type": "Feature", "id": "way/691162621", "properties": {"tags": {"building": "yes"}, "heightStatus": "unknown", "source": "OpenStreetMap", "license": "ODbL-1.0"}, "geometry": {"type": "MultiPolygon", "coordinates": [[[[114.0866473, 22.5550712], [114.086666, 22.554252], [114.0868876, 22.5542563], [114.0873182, 22.5546661], [114.0873087, 22.5550841], [114.0866473, 22.5550712]]]]}}, {"type": "Feature", "id": "way/718037814", "properties": {"tags": {"building": "apartments", "building:levels": "24", "name": "鹏益花园1栋", "name:en": "Block 1 / Pengyi Garden"}, "heightStatus": "levels_only_unverified", "source": "OpenStreetMap", "license": "ODbL-1.0"}, "geometry": {"type": "MultiPolygon", "coordinates": [[[[114.0902015, 22.5618224], [114.0902066, 22.5615421], [114.0905168, 22.5615469], [114.0905149, 22.5616564], [114.0904271, 22.561655], [114.090424, 22.5618258], [114.0902015, 22.5618224]]]]}}, {"type": "Feature", "id": "way/718037816", "properties": {"tags": {"building": "apartments", "building:levels": "24", "name": "鹏益花园3栋", "name:en": "Block 3 / Pengyi Garden"}, "heightStatus": "levels_only_unverified", "source": "OpenStreetMap", "license": "ODbL-1.0"}, "geometry": {"type": "MultiPolygon", "coordinates": [[[[114.0896627, 22.56286], [114.0896677, 22.5625797], [114.089978, 22.5625845], [114.089976, 22.562694], [114.0898883, 22.5626926], [114.0898851, 22.5628634], [114.0896627, 22.56286]]]]}}, {"type": "Feature", "id": "way/769200142", "properties": {"tags": {"addr:housenumber": "1", "building": "apartments", "building:levels": "25", "layer": "1", "name": "1栋"}, "heightStatus": "levels_only_unverified", "source": "OpenStreetMap", "license": "ODbL-1.0"}, "geometry": {"type": "MultiPolygon", "coordinates": [[[[114.0919007, 22.5545228], [114.0919029, 22.5544839], [114.0920044, 22.5544013], [114.0920228, 22.5543947], [114.0920291, 22.5543813], [114.0921717, 22.5543837], [114.0921778, 22.5544006], [114.0921939, 22.5544105], [114.0922751, 22.5544888], [114.0922754, 22.5545583], [114.0922168, 22.5545579], [114.0921965, 22.5545516], [114.0921274, 22.55455], [114.0921271, 22.5545631], [114.0920341, 22.5545609], [114.0920345, 22.5545481], [114.0919689, 22.5545466], [114.0919686, 22.5545605], [114.0919202, 22.5545594], [114.0919213, 22.5545233], [114.0919007, 22.5545228]]]]}}, {"type": "Feature", "id": "way/769200143", "properties": {"tags": {"addr:housenumber": "2", "building": "apartments", "building:levels": "25", "name": "2栋"}, "heightStatus": "levels_only_unverified", "source": "OpenStreetMap", "license": "ODbL-1.0"}, "geometry": {"type": "MultiPolygon", "coordinates": [[[[114.092402, 22.5544477], [114.0924038, 22.5542752], [114.0924471, 22.5542756], [114.0924473, 22.5542514], [114.0925924, 22.5542527], [114.0925921, 22.5542846], [114.0926214, 22.5542849], [114.0926217, 22.5542541], [114.0927888, 22.5542556], [114.0927883, 22.5543014], [114.0928655, 22.5543021], [114.0928646, 22.5543808], [114.0928444, 22.5543806], [114.0928442, 22.5544057], [114.0927639, 22.5544049], [114.0927646, 22.5543385], [114.0926376, 22.5543372], [114.0926368, 22.5544028], [114.0925551, 22.554402], [114.0925555, 22.5543571], [114.092493, 22.5543565], [114.092492, 22.5544485], [114.092402, 22.5544477]]]]}}, {"type": "Feature", "id": "way/813760000", "properties": {"tags": {"building": "residential"}, "heightStatus": "unknown", "source": "OpenStreetMap", "license": "ODbL-1.0"}, "geometry": {"type": "MultiPolygon", "coordinates": [[[[114.0918644, 22.5555041], [114.0918739, 22.5548031], [114.0922608, 22.5548093], [114.0922583, 22.5549341], [114.0919625, 22.5549306], [114.091961, 22.5550496], [114.0922547, 22.555053], [114.0922528, 22.5551946], [114.0921813, 22.5551938], [114.0921818, 22.555148], [114.0919559, 22.5551454], [114.0919527, 22.5553826], [114.0920603, 22.5553839], [114.0920625, 22.5552252], [114.0922416, 22.5552272], [114.0922395, 22.5553818], [114.0922916, 22.5553824], [114.0922897, 22.5555091], [114.0918644, 22.5555041]]]]}}, {"type": "Feature", "id": "way/813760001", "properties": {"tags": {"building": "apartments", "name": "65栋"}, "heightStatus": "unknown", "source": "OpenStreetMap", "license": "ODbL-1.0"}, "geometry": {"type": "MultiPolygon", "coordinates": [[[[114.0918418, 22.5558104], [114.0918445, 22.5557192], [114.0919659, 22.5557211], [114.0919657, 22.555744], [114.0919962, 22.5557442], [114.0919964, 22.555713], [114.0921043, 22.5557138], [114.092104, 22.5557476], [114.0921362, 22.5557479], [114.0921364, 22.5557235], [114.0922263, 22.5557242], [114.0922261, 22.5557486], [114.092279, 22.555749], [114.0922796, 22.5556846], [114.0923696, 22.5556853], [114.0923705, 22.5555892], [114.0924596, 22.5555899], [114.0924605, 22.5554924], [114.0925659, 22.5554932], [114.0925643, 22.5556628], [114.0924706, 22.5556621], [114.0924697, 22.5557575], [114.0923731, 22.5557568], [114.0923724, 22.5558359], [114.0923434, 22.5558357], [114.0923436, 22.5558142], [114.0922404, 22.5558134], [114.09224, 22.5558579], [114.09214, 22.5558571], [114.0921403, 22.5558198], [114.0920922, 22.5558194], [114.0920919, 22.5558516], [114.0920168, 22.555851], [114.0920172, 22.5558079], [114.0919621, 22.5558074], [114.0919616, 22.5558516], [114.0918878, 22.5558511], [114.0918882, 22.5558107], [114.0918418, 22.5558104]]]]}}, {"type": "Feature", "id": "way/813760004", "properties": {"tags": {"building": "retail", "name": "园岭中心花园商业楼"}, "heightStatus": "unknown", "source": "OpenStreetMap", "license": "ODbL-1.0"}, "geometry": {"type": "MultiPolygon", "coordinates": [[[[114.0926752, 22.5563189], [114.0927426, 22.5563197], [114.0927421, 22.5563392], [114.0927668, 22.5563396], [114.092765, 22.5564108], [114.0927752, 22.5564107], [114.0927746, 22.5565744], [114.0927975, 22.5566828], [114.0928546, 22.5567753], [114.0929084, 22.5568233], [114.0929586, 22.5568576], [114.0930138, 22.5568819], [114.0930135, 22.5568927], [114.0930891, 22.5569167], [114.0931284, 22.5569188], [114.0931283, 22.5569383], [114.0931476, 22.5569389], [114.0931468, 22.5569999], [114.0930801, 22.5569888], [114.0929796, 22.5569613], [114.0929072, 22.5569269], [114.0928255, 22.5568702], [114.0927663, 22.5568097], [114.092716, 22.5567303], [114.0926816, 22.5566219], [114.0926785, 22.5565208], [114.0926752, 22.5563189]]]]}}, {"type": "Feature", "id": "way/813760014", "properties": {"tags": {"building": "apartments", "name": "63栋"}, "heightStatus": "unknown", "source": "OpenStreetMap", "license": "ODbL-1.0"}, "geometry": {"type": "MultiPolygon", "coordinates": [[[[114.0923259, 22.5548883], [114.0923626, 22.5548921], [114.0923948, 22.5548713], [114.0923945, 22.5548381], [114.0923433, 22.5548384], [114.0923615, 22.5547676], [114.0924984, 22.5547724], [114.0925099, 22.5548393], [114.0924766, 22.5548395], [114.0924775, 22.554869], [114.0924965, 22.554894], [114.0925242, 22.5548915], [114.0925247, 22.5549684], [114.0924542, 22.5549689], [114.0924539, 22.5549346], [114.0924153, 22.5549348], [114.0924155, 22.5549604], [114.0923297, 22.5549609], [114.0923259, 22.5548883]]]]}}, {"type": "Feature", "id": "way/813760025", "properties": {"tags": {"building": "apartments", "name": "64栋"}, "heightStatus": "unknown", "source": "OpenStreetMap", "license": "ODbL-1.0"}, "geometry": {"type": "MultiPolygon", "coordinates": [[[[114.0923396, 22.5552477], [114.092372, 22.5552474], [114.0924042, 22.5552266], [114.0924051, 22.5551924], [114.0923559, 22.5551913], [114.092358, 22.555109], [114.0925239, 22.5551125], [114.0925218, 22.5551971], [114.0924876, 22.5551964], [114.0924869, 22.5552243], [114.0925059, 22.5552493], [114.0925313, 22.5552491], [114.0925321, 22.5553219], [114.0924654, 22.5553225], [114.092465, 22.5552883], [114.0924231, 22.5552887], [114.0924234, 22.5553143], [114.0923403, 22.5553151], [114.0923396, 22.5552477]]]]}}, {"type": "Feature", "id": "way/813760040", "properties": {"tags": {"building": "residential", "name": "73栋"}, "heightStatus": "unknown", "source": "OpenStreetMap", "license": "ODbL-1.0"}, "geometry": {"type": "MultiPolygon", "coordinates": [[[[114.0927318, 22.5574954], [114.0927451, 22.5574795], [114.0927445, 22.5574463], [114.0927619, 22.557446], [114.0927608, 22.5573918], [114.0927924, 22.5573913], [114.0927932, 22.5574362], [114.0928349, 22.5574356], [114.0928343, 22.5574033], [114.0928745, 22.5574027], [114.0928725, 22.557297], [114.0928988, 22.5572966], [114.0928994, 22.5573304], [114.0929786, 22.5573291], [114.0929764, 22.5572069], [114.093011, 22.5572064], [114.0930117, 22.5572457], [114.0930542, 22.5572451], [114.0930535, 22.5572094], [114.0931258, 22.5572084], [114.0931265, 22.5572487], [114.093173, 22.557248], [114.0931725, 22.557219], [114.0932126, 22.5572185], [114.0932146, 22.5573421], [114.0932934, 22.557341], [114.0932928, 22.5573067], [114.093311, 22.5573064], [114.0933127, 22.5574159], [114.0933469, 22.5574155], [114.0933473, 22.5574436], [114.0933937, 22.557443], [114.0933931, 22.5574045], [114.0934297, 22.557404], [114.0934309, 22.5574831], [114.0934514, 22.557507], [114.0934317, 22.5575214], [114.0934345, 22.5575822], [114.0933973, 22.5575837], [114.0933954, 22.5575427], [114.0933709, 22.5575436], [114.0933727, 22.5575826], [114.0933235, 22.5575845], [114.0933214, 22.5575387], [114.0932996, 22.5575255], [114.0933199, 22.5574968], [114.0933204, 22.5574516], [114.0932476, 22.5574509], [114.0932473, 22.557483], [114.0932084, 22.5574827], [114.0932088, 22.5574412], [114.0931874, 22.5574255], [114.0932124, 22.5573965], [114.0932118, 22.5573646], [114.0931425, 22.5573658], [114.0931428, 22.557378], [114.0931115, 22.5573785], [114.0931106, 22.5573313], [114.0930847, 22.5573318], [114.0930856, 22.5573754], [114.0930558, 22.5573759], [114.0930555, 22.5573606], [114.0929806, 22.5573619], [114.0929813, 22.5573972], [114.0930033, 22.5574231], [114.0929813, 22.5574391], [114.0929822, 22.5574768], [114.0929448, 22.5574776], [114.0929444, 22.5574605], [114.0928696, 22.5574619], [114.0928702, 22.5574874], [114.0928901, 22.5575114], [114.0928718, 22.5575243], [114.0928722, 22.5575636], [114.0928278, 22.557564], [114.0928275, 22.5575333], [114.0928035, 22.5575335], [114.0928038, 22.557562], [114.0927589, 22.5575624], [114.0927584, 22.5575184], [114.0927477, 22.5575013], [114.0927318, 22.5574954]]]]}}, {"type": "Feature", "id": "way/813760042", "properties": {"tags": {"building": "yes"}, "heightStatus": "unknown", "source": "OpenStreetMap", "license": "ODbL-1.0"}, "geometry": {"type": "MultiPolygon", "coordinates": [[[[114.0918748, 22.5579792], [114.0918772, 22.5578178], [114.0919917, 22.5578192], [114.0919893, 22.5579807], [114.0918748, 22.5579792]]]]}}, {"type": "Feature", "id": "way/813760043", "properties": {"tags": {"building": "residential", "name": "70栋"}, "heightStatus": "unknown", "source": "OpenStreetMap", "license": "ODbL-1.0"}, "geometry": {"type": "MultiPolygon", "coordinates": [[[[114.0918219, 22.55767], [114.0918222, 22.5576338], [114.0918827, 22.5576342], [114.091883, 22.5575945], [114.0918453, 22.5575942], [114.0918454, 22.5575881], [114.0918224, 22.557588], [114.0918228, 22.5575459], [114.0918552, 22.557546], [114.0918554, 22.5575262], [114.091895, 22.5575265], [114.0918952, 22.5575035], [114.0919783, 22.557504], [114.0919781, 22.5575257], [114.0920129, 22.5575259], [114.0920128, 22.5575405], [114.0920254, 22.5575405], [114.092025, 22.557599], [114.0919726, 22.5575987], [114.0919723, 22.5576355], [114.0920371, 22.5576359], [114.0920368, 22.5576776], [114.0920197, 22.5576775], [114.0920195, 22.5577001], [114.0919793, 22.5576998], [114.0919792, 22.5577155], [114.0919483, 22.5577153], [114.0919487, 22.5576701], [114.0919229, 22.5576699], [114.0919225, 22.5577144], [114.091875, 22.5577142], [114.0918752, 22.5577019], [114.0918494, 22.5577018], [114.0918496, 22.5576701], [114.0918219, 22.55767]]]]}}, {"type": "Feature", "id": "way/813760044", "properties": {"tags": {"building": "residential", "name": "69栋"}, "heightStatus": "unknown", "source": "OpenStreetMap", "license": "ODbL-1.0"}, "geometry": {"type": "MultiPolygon", "coordinates": [[[[114.0918268, 22.5571807], [114.0918284, 22.557101], [114.0918552, 22.5571015], [114.0918555, 22.5570834], [114.0919522, 22.5570849], [114.0919519, 22.5571042], [114.0919861, 22.5571047], [114.0919863, 22.5570865], [114.0920836, 22.5570877], [114.0920833, 22.5571073], [114.0921232, 22.5571078], [114.0921286, 22.5570889], [114.0922181, 22.5570912], [114.0922176, 22.5571081], [114.0922479, 22.5571089], [114.0922482, 22.5571003], [114.0923069, 22.557102], [114.0923073, 22.5570908], [114.0923636, 22.5570925], [114.092361, 22.5571637], [114.0923758, 22.5571806], [114.0924467, 22.5571811], [114.0924459, 22.5572672], [114.0925446, 22.557268], [114.0925437, 22.5573563], [114.0926431, 22.5573571], [114.0926416, 22.5575063], [114.0925598, 22.5575056], [114.0925608, 22.5574168], [114.0924641, 22.5574159], [114.0924651, 22.5573298], [114.0923706, 22.5573289], [114.0923716, 22.5572447], [114.0922693, 22.5572436], [114.0922702, 22.5571791], [114.0922151, 22.5571784], [114.0922144, 22.5572197], [114.0921287, 22.5572185], [114.0921294, 22.5571742], [114.0920764, 22.5571734], [114.0920756, 22.5572177], [114.0919934, 22.5572164], [114.0919942, 22.557178], [114.0919456, 22.5571771], [114.0919446, 22.5572233], [114.0918529, 22.5572217], [114.0918538, 22.5571812], [114.0918268, 22.5571807]]]]}}, {"type": "Feature", "id": "way/813760045", "properties": {"tags": {"building": "residential", "layer": "1", "name": "71栋"}, "heightStatus": "unknown", "source": "OpenStreetMap", "license": "ODbL-1.0"}, "geometry": {"type": "MultiPolygon", "coordinates": [[[[114.0918193, 22.5581385], [114.091822, 22.558045], [114.0919238, 22.5580474], [114.0919231, 22.5580706], [114.0919698, 22.5580717], [114.0919706, 22.5580441], [114.092062, 22.5580463], [114.0920614, 22.558069], [114.0921104, 22.5580702], [114.0921111, 22.5580455], [114.0921972, 22.5580476], [114.0921965, 22.5580749], [114.0922449, 22.5580761], [114.0922469, 22.5580042], [114.0923316, 22.5580063], [114.092334, 22.55792], [114.0924386, 22.5579225], [114.0924413, 22.5578272], [114.0925304, 22.5578294], [114.0925329, 22.5577385], [114.0926295, 22.5577409], [114.092625, 22.5579029], [114.0925374, 22.5579007], [114.092535, 22.5579874], [114.0924406, 22.5579851], [114.0924381, 22.5580717], [114.0923519, 22.5580697], [114.0923495, 22.5581538], [114.0922054, 22.5581503], [114.0922044, 22.5581853], [114.0921129, 22.5581831], [114.092114, 22.5581447], [114.0920714, 22.5581437], [114.0920703, 22.5581829], [114.0919782, 22.5581807], [114.0919791, 22.5581477], [114.09193, 22.5581465], [114.0919291, 22.5581794], [114.0918414, 22.5581773], [114.0918425, 22.558139], [114.0918193, 22.5581385]]]]}}, {"type": "Feature", "id": "way/909452499", "properties": {"tags": {"amenity": "fast_food", "brand": "麦当劳", "brand:en": "McDonald's", "brand:wikidata": "Q38076", "brand:wikipedia": "zh:麦当劳", "brand:zh": "麦当劳", "brand:zh-Hans": "麦当劳", "building": "yes", "cuisine": "burger", "name": "麦当劳", "name:en": "McDonald's", "name:zh": "麦当劳", "name:zh-Hans": "麦当劳", "takeaway": "yes"}, "heightStatus": "unknown", "source": "OpenStreetMap", "license": "ODbL-1.0"}, "geometry": {"type": "MultiPolygon", "coordinates": [[[[114.0843463, 22.5552452], [114.0843707, 22.5552177], [114.0844012, 22.5552408], [114.0843768, 22.5552683], [114.0843463, 22.5552452]]]]}}, {"type": "Feature", "id": "way/922785128", "properties": {"tags": {"building": "industrial", "building:levels": "6", "name": "八卦岭工业区536栋"}, "heightStatus": "levels_only_unverified", "source": "OpenStreetMap", "license": "ODbL-1.0"}, "geometry": {"type": "MultiPolygon", "coordinates": [[[[114.0918624, 22.5618882], [114.0918648, 22.5617076], [114.0919694, 22.5617088], [114.0919701, 22.5616566], [114.0921821, 22.561659], [114.0921814, 22.5617112], [114.0926239, 22.5617162], [114.0926215, 22.5618966], [114.0925366, 22.5618957], [114.0925359, 22.5619553], [114.0923269, 22.561953], [114.0923277, 22.5618934], [114.0918624, 22.5618882]]]]}}, {"type": "Feature", "id": "way/922785129", "properties": {"tags": {"building": "industrial", "building:levels": "6", "name": "八卦岭工业区535栋"}, "heightStatus": "levels_only_unverified", "source": "OpenStreetMap", "license": "ODbL-1.0"}, "geometry": {"type": "MultiPolygon", "coordinates": [[[[114.0918208, 22.5624705], [114.0918242, 22.5622428], [114.0919575, 22.5622445], [114.0919583, 22.5621895], [114.0921346, 22.5621917], [114.0921337, 22.5622468], [114.0925852, 22.5622526], [114.0925818, 22.5624801], [114.0924779, 22.5624788], [114.0924771, 22.562532], [114.0922937, 22.5625297], [114.0922945, 22.5624765], [114.0918208, 22.5624705]]]]}}, {"type": "Feature", "id": "way/922785138", "properties": {"tags": {"building": "industrial", "building:levels": "7", "name": "八卦岭工业区544栋"}, "heightStatus": "levels_only_unverified", "source": "OpenStreetMap", "license": "ODbL-1.0"}, "geometry": {"type": "MultiPolygon", "coordinates": [[[[114.0908185, 22.5627159], [114.0908219, 22.5624882], [114.0909552, 22.5624899], [114.090956, 22.5624349], [114.0911323, 22.5624371], [114.0911315, 22.5624922], [114.0915829, 22.5624979], [114.0915795, 22.5627255], [114.0914756, 22.5627242], [114.0914748, 22.5627774], [114.0912915, 22.5627751], [114.0912922, 22.5627219], [114.0908185, 22.5627159]]]]}}, {"type": "Feature", "id": "way/922785154", "properties": {"tags": {"building": "industrial", "building:levels": "4", "name": "八卦岭工业区534栋B座"}, "heightStatus": "levels_only_unverified", "source": "OpenStreetMap", "license": "ODbL-1.0"}, "geometry": {"type": "MultiPolygon", "coordinates": [[[[114.0922438, 22.5629263], [114.0922448, 22.5626382], [114.0925575, 22.562639], [114.0925566, 22.5629272], [114.0922438, 22.5629263]]]]}}, {"type": "Feature", "id": "way/927162338", "properties": {"tags": {"building": "yes", "leisure": "sports_hall", "name": "深圳体育馆", "name:en": "Shenzhen Gymnasium", "name:zh": "深圳体育馆", "start_date": "2024-10-18", "wikidata": "Q67931734", "wikipedia": "zh:深圳体育馆"}, "heightStatus": "unknown", "source": "OpenStreetMap", "license": "ODbL-1.0"}, "geometry": {"type": "MultiPolygon", "coordinates": [[[[114.0878008, 22.5598864], [114.0878054, 22.5597063], [114.0878169, 22.5595315], [114.0878227, 22.5594629], [114.0878387, 22.5593951], [114.0878635, 22.5593507], [114.087916, 22.5592901], [114.0879709, 22.5592477], [114.088045, 22.5592253], [114.0881642, 22.5592052], [114.0883274, 22.559198], [114.0885238, 22.5591971], [114.0887091, 22.5592043], [114.0888803, 22.5592181], [114.089002, 22.5592378], [114.0890669, 22.5592647], [114.089114, 22.5593004], [114.0891531, 22.5593488], [114.0891801, 22.5593993], [114.0891978, 22.559474], [114.0892067, 22.5595928], [114.0892096, 22.5597227], [114.0892073, 22.5598883], [114.0892023, 22.5600503], [114.0891912, 22.5602308], [114.089178, 22.560303], [114.0891525, 22.5603697], [114.0891062, 22.5604221], [114.0890465, 22.5604649], [114.0889667, 22.5604967], [114.0888474, 22.5605135], [114.0886653, 22.5605224], [114.0884833, 22.5605238], [114.0882813, 22.5605143], [114.0881126, 22.5605007], [114.088023, 22.5604879], [114.0879487, 22.5604594], [114.0879021, 22.5604245], [114.0878567, 22.5603687], [114.0878272, 22.5603029], [114.0878119, 22.5602368], [114.0878015, 22.5600688], [114.0878008, 22.5598864]]]]}}, {"type": "Feature", "id": "way/1205405689", "properties": {"tags": {"building": "apartments", "building:levels": "24", "name": "鹏益花园2栋", "name:en": "Block 2 / Pengyi Garden"}, "heightStatus": "levels_only_unverified", "source": "OpenStreetMap", "license": "ODbL-1.0"}, "geometry": {"type": "MultiPolygon", "coordinates": [[[[114.0897671, 22.5622031], [114.0897721, 22.5619228], [114.0900824, 22.5619276], [114.0900804, 22.5620371], [114.0899927, 22.5620357], [114.0899895, 22.5622065], [114.0897671, 22.5622031]]]]}}, {"type": "Feature", "id": "way/1271678318", "properties": {"tags": {"building": "industrial", "building:levels": "7", "name": "劳动就业大厦"}, "heightStatus": "levels_only_unverified", "source": "OpenStreetMap", "license": "ODbL-1.0"}, "geometry": {"type": "MultiPolygon", "coordinates": [[[[114.0921882, 22.5609501], [114.0922023, 22.5609216], [114.0922269, 22.5608996], [114.0922949, 22.5608976], [114.092294, 22.5608527], [114.0923438, 22.5608534], [114.0923443, 22.5608183], [114.0924008, 22.560819], [114.0924004, 22.5608517], [114.0924501, 22.5608523], [114.0924477, 22.5610163], [114.0928071, 22.5610207], [114.0928063, 22.5610731], [114.0928386, 22.5610735], [114.0928381, 22.5611104], [114.0928072, 22.56111], [114.0928063, 22.5611748], [114.092553, 22.5611716], [114.0925517, 22.5612599], [114.09238, 22.5612577], [114.0923814, 22.5611649], [114.092281, 22.5611636], [114.0922825, 22.5610654], [114.0921882, 22.5610641], [114.0921882, 22.5609501]]]]}}, {"type": "Feature", "id": "way/1271678320", "properties": {"tags": {"building": "industrial", "building:levels": "7", "name": "611栋", "name:en": "Block 611", "name:zh": "611栋"}, "heightStatus": "levels_only_unverified", "source": "OpenStreetMap", "license": "ODbL-1.0"}, "geometry": {"type": "MultiPolygon", "coordinates": [[[[114.0913872, 22.5609265], [114.0914014, 22.560898], [114.091426, 22.560876], [114.091494, 22.5608739], [114.0914931, 22.5608291], [114.0915429, 22.5608297], [114.0915434, 22.5607947], [114.0915999, 22.5607954], [114.0915994, 22.5608281], [114.0916491, 22.5608287], [114.0916468, 22.5609926], [114.0920061, 22.5609971], [114.0920054, 22.5610495], [114.0920377, 22.5610499], [114.0920371, 22.5610867], [114.0920063, 22.5610863], [114.0920053, 22.5611512], [114.0917521, 22.561148], [114.0917508, 22.5612363], [114.091579, 22.5612341], [114.0915804, 22.5611412], [114.0914801, 22.56114], [114.0914816, 22.5610418], [114.0913873, 22.5610405], [114.0913872, 22.5609265]]]]}}, {"type": "Feature", "id": "way/1271678323", "properties": {"tags": {"building": "industrial", "building:levels": "7", "name": "614栋", "name:en": "Block 614", "name:zh": "614栋"}, "heightStatus": "levels_only_unverified", "source": "OpenStreetMap", "license": "ODbL-1.0"}, "geometry": {"type": "MultiPolygon", "coordinates": [[[[114.0916758, 22.5606807], [114.0916761, 22.5605279], [114.0918889, 22.5605281], [114.091889, 22.5604582], [114.0920404, 22.5604583], [114.0920403, 22.5605307], [114.092256, 22.5605309], [114.0922559, 22.5605828], [114.092292, 22.5605828], [114.092292, 22.560632], [114.0922569, 22.5606319], [114.0922568, 22.5606815], [114.0916758, 22.5606807]]]]}}, {"type": "Feature", "id": "way/1271678324", "properties": {"tags": {"building": "industrial", "building:levels": "7", "name": "615栋", "name:en": "Block 615", "name:zh": "615栋"}, "heightStatus": "levels_only_unverified", "source": "OpenStreetMap", "license": "ODbL-1.0"}, "geometry": {"type": "MultiPolygon", "coordinates": [[[[114.0924758, 22.5607094], [114.092476, 22.5605565], [114.0926888, 22.5605568], [114.0926889, 22.5604868], [114.0928403, 22.560487], [114.0928402, 22.5605593], [114.0930559, 22.5605596], [114.0930558, 22.5606114], [114.0930919, 22.5606115], [114.0930919, 22.5606606], [114.0930568, 22.5606606], [114.0930568, 22.5607101], [114.0924758, 22.5607094]]]]}}, {"type": "Feature", "id": "way/1271678326", "properties": {"tags": {"building": "industrial", "building:levels": "7", "name": "617栋", "name:en": "Block 617", "name:zh": "617栋"}, "heightStatus": "levels_only_unverified", "source": "OpenStreetMap", "license": "ODbL-1.0"}, "geometry": {"type": "MultiPolygon", "coordinates": [[[[114.0919096, 22.5601653], [114.091911, 22.5600834], [114.0919144, 22.5600481], [114.0919223, 22.5600203], [114.0919414, 22.5600004], [114.0919622, 22.5599986], [114.0920166, 22.5600015], [114.0920175, 22.5599484], [114.092178, 22.5599506], [114.0921752, 22.5601227], [114.0925246, 22.5601276], [114.0925225, 22.5602571], [114.0924513, 22.5602568], [114.0924413, 22.5602729], [114.0922944, 22.5602709], [114.0922945, 22.560316], [114.0922911, 22.5603287], [114.0922815, 22.5603405], [114.0922678, 22.5603495], [114.0922541, 22.5603528], [114.0921135, 22.5603501], [114.0921148, 22.5602712], [114.0920056, 22.5602696], [114.0920073, 22.5601667], [114.0919096, 22.5601653]]]]}}, {"type": "Feature", "id": "way/1271678328", "properties": {"tags": {"building": "industrial", "building:levels": "7", "name": "618栋", "name:en": "Block 618", "name:zh": "618栋"}, "heightStatus": "levels_only_unverified", "source": "OpenStreetMap", "license": "ODbL-1.0"}, "geometry": {"type": "MultiPolygon", "coordinates": [[[[114.0926963, 22.5601763], [114.0926976, 22.5600944], [114.0927011, 22.5600591], [114.092709, 22.5600313], [114.092728, 22.5600114], [114.0927488, 22.5600096], [114.0928033, 22.5600125], [114.0928041, 22.5599594], [114.0929647, 22.5599616], [114.0929619, 22.5601336], [114.0933113, 22.5601386], [114.0933091, 22.5602681], [114.093238, 22.5602678], [114.093228, 22.5602839], [114.093081, 22.5602818], [114.0930811, 22.560327], [114.0930777, 22.5603396], [114.0930681, 22.5603515], [114.0930545, 22.5603605], [114.0930408, 22.5603637], [114.0929002, 22.5603611], [114.0929015, 22.5602822], [114.0927923, 22.5602806], [114.092794, 22.5601777], [114.0926963, 22.5601763]]]]}}, {"type": "Feature", "id": "way/1271678334", "properties": {"tags": {"building": "apartments", "building:levels": "33", "layer": "2", "name": "A座", "name:en": "Block A", "name:zh": "A座"}, "heightStatus": "levels_only_unverified", "source": "OpenStreetMap", "license": "ODbL-1.0"}, "geometry": {"type": "MultiPolygon", "coordinates": [[[[114.0902559, 22.5608835], [114.0903355, 22.5608349], [114.0903208, 22.5608144], [114.0906383, 22.5606253], [114.0907421, 22.5607691], [114.090665, 22.5608194], [114.0906464, 22.5607949], [114.0905737, 22.5608419], [114.0906213, 22.5609082], [114.0906455, 22.5608934], [114.090782, 22.5610839], [114.0906683, 22.5611534], [114.0906453, 22.5611213], [114.090598, 22.5611502], [114.0905106, 22.5610283], [114.0905466, 22.5610062], [114.0904392, 22.5608563], [114.0902981, 22.5609424], [114.0902559, 22.5608835]]]]}}, {"type": "Feature", "id": "way/1271678335", "properties": {"tags": {"building": "apartments", "building:levels": "33", "layer": "2", "name": "B座", "name:en": "Block B", "name:zh": "B座"}, "heightStatus": "levels_only_unverified", "source": "OpenStreetMap", "license": "ODbL-1.0"}, "geometry": {"type": "MultiPolygon", "coordinates": [[[[114.0905531, 22.5602955], [114.0906833, 22.5602104], [114.0908247, 22.5603951], [114.0908091, 22.5604054], [114.09084, 22.5604458], [114.0909065, 22.5604024], [114.0909363, 22.5604413], [114.0910495, 22.5603673], [114.0910902, 22.5604204], [114.091033, 22.5604577], [114.0910828, 22.5605227], [114.0910009, 22.5605761], [114.0910163, 22.5605962], [114.0907421, 22.5607691], [114.0906383, 22.5606253], [114.0907576, 22.5605553], [114.0905531, 22.5602955]]]]}}, {"type": "Feature", "id": "way/1271678336", "properties": {"tags": {"building": "apartments", "building:levels": "33", "name": "1栋", "name:en": "Block 1", "name:zh": "1栋"}, "heightStatus": "levels_only_unverified", "source": "OpenStreetMap", "license": "ODbL-1.0"}, "geometry": {"type": "MultiPolygon", "coordinates": [[[[114.09085, 22.5598829], [114.0909345, 22.5598427], [114.0909452, 22.5598247], [114.0909385, 22.5598031], [114.0909955, 22.5597758], [114.0910176, 22.5598204], [114.0910552, 22.5598235], [114.0910867, 22.5597746], [114.0911376, 22.5598024], [114.0911276, 22.5598161], [114.0911967, 22.5598545], [114.0911899, 22.5598637], [114.0912443, 22.5598953], [114.0912101, 22.5599566], [114.091147, 22.5599288], [114.0911256, 22.5599604], [114.091086, 22.5599418], [114.0910646, 22.5599579], [114.0910317, 22.5599647], [114.0909962, 22.5599542], [114.091023, 22.5599944], [114.0909425, 22.5600322], [114.0909278, 22.5600074], [114.0909036, 22.5600179], [114.0908822, 22.5599814], [114.0909056, 22.559969], [114.090917, 22.5599777], [114.0909566, 22.5599579], [114.0909237, 22.5599158], [114.0908802, 22.5599356], [114.09085, 22.5598829]]]]}}, {"type": "Feature", "id": "way/1271678337", "properties": {"tags": {"building": "apartments", "building:levels": "33", "name": "2栋", "name:en": "Block 2", "name:zh": "2栋"}, "heightStatus": "levels_only_unverified", "source": "OpenStreetMap", "license": "ODbL-1.0"}, "geometry": {"type": "MultiPolygon", "coordinates": [[[[114.0912944, 22.5595196], [114.0913864, 22.5594728], [114.0913937, 22.5594484], [114.091387, 22.5594267], [114.091444, 22.5593995], [114.0914661, 22.5594441], [114.0915036, 22.5594472], [114.0915352, 22.5593983], [114.0915861, 22.5594261], [114.0915761, 22.5594397], [114.0916451, 22.5594781], [114.0916384, 22.5594874], [114.0917196, 22.5595417], [114.0916842, 22.5596003], [114.0915955, 22.5595525], [114.0915741, 22.559584], [114.0915345, 22.5595655], [114.091513, 22.5595816], [114.0914802, 22.5595884], [114.0914446, 22.5595778], [114.0914561, 22.5596394], [114.0913348, 22.5596971], [114.0913131, 22.5596595], [114.0913398, 22.5596445], [114.0913262, 22.5596198], [114.0914051, 22.5595816], [114.0913722, 22.5595394], [114.0913205, 22.5595636], [114.0912944, 22.5595196]]]]}}, {"type": "Feature", "id": "way/1271678339", "properties": {"tags": {"building": "retail", "building:levels": "2", "layer": "1"}, "heightStatus": "levels_only_unverified", "source": "OpenStreetMap", "license": "ODbL-1.0"}, "geometry": {"type": "MultiPolygon", "coordinates": [[[[114.0901953, 22.5610011], [114.0906161, 22.5601721], [114.091151, 22.5604038], [114.0907301, 22.5612326], [114.0901953, 22.5610011]]]]}}, {"type": "Feature", "id": "way/1271678340", "properties": {"tags": {"building": "apartments", "building:levels": "33", "layer": "2", "name": "3栋", "name:en": "Block 3", "name:zh": "3栋"}, "heightStatus": "levels_only_unverified", "source": "OpenStreetMap", "license": "ODbL-1.0"}, "geometry": {"type": "MultiPolygon", "coordinates": [[[[114.0916839, 22.5590908], [114.0917287, 22.559064], [114.0917462, 22.5590874], [114.0917661, 22.5590777], [114.0917754, 22.5590891], [114.0917888, 22.5590799], [114.0917959, 22.5590599], [114.0917807, 22.5590395], [114.091828, 22.5590168], [114.0918484, 22.5590438], [114.0918723, 22.5590459], [114.0918945, 22.5590157], [114.0920092, 22.5590824], [114.0919999, 22.5590926], [114.0920285, 22.5591126], [114.0920425, 22.5590921], [114.0921033, 22.5590967], [114.0921626, 22.5591906], [114.0920918, 22.5591784], [114.0920237, 22.5591939], [114.0919556, 22.5591612], [114.0919385, 22.5591893], [114.0919018, 22.5591726], [114.0918842, 22.5591829], [114.0918609, 22.5591872], [114.0918294, 22.5591829], [114.0918037, 22.5591705], [114.0917885, 22.5591484], [114.0917535, 22.55915], [114.0917319, 22.559109], [114.091705, 22.5591203], [114.0916839, 22.5590908]]]]}}, {"type": "Feature", "id": "way/1271678341", "properties": {"tags": {"building": "apartments", "building:levels": "33", "layer": "2", "name": "4栋", "name:en": "Block 4", "name:zh": "4栋"}, "heightStatus": "levels_only_unverified", "source": "OpenStreetMap", "license": "ODbL-1.0"}, "geometry": {"type": "MultiPolygon", "coordinates": [[[[114.0921033, 22.5590967], [114.0921395, 22.559092], [114.0921493, 22.5591091], [114.0922815, 22.5590174], [114.0922982, 22.5590483], [114.0923237, 22.5590489], [114.0923405, 22.5590217], [114.0923928, 22.5590471], [114.0923807, 22.559065], [114.0924424, 22.5590923], [114.0924518, 22.5590762], [114.0925014, 22.5590997], [114.0924813, 22.5591276], [114.0924558, 22.5591133], [114.0924163, 22.5591771], [114.0924666, 22.5592056], [114.0924511, 22.5592273], [114.0924773, 22.559244], [114.0924531, 22.5592744], [114.0923009, 22.5591914], [114.0922768, 22.5591883], [114.092256, 22.5591753], [114.0922312, 22.5591901], [114.0922144, 22.559166], [114.0921626, 22.5591906], [114.0921033, 22.5590967]]]]}}, {"type": "Feature", "id": "way/1271678342", "properties": {"tags": {"building": "retail", "building:levels": "2", "layer": "1"}, "heightStatus": "levels_only_unverified", "source": "OpenStreetMap", "license": "ODbL-1.0"}, "geometry": {"type": "MultiPolygon", "coordinates": [[[[114.0916502, 22.5592698], [114.0916526, 22.5589959], [114.0924999, 22.5590056], [114.0924963, 22.5592785], [114.0916502, 22.5592698]]]]}}, {"type": "Feature", "id": "way/1271678344", "properties": {"tags": {"building": "apartments", "building:levels": "33", "layer": "2", "name": "5栋", "name:en": "Block 5", "name:zh": "5栋"}, "heightStatus": "levels_only_unverified", "source": "OpenStreetMap", "license": "ODbL-1.0"}, "geometry": {"type": "MultiPolygon", "coordinates": [[[[114.0927239, 22.5595058], [114.0928037, 22.5594835], [114.0928164, 22.5594649], [114.0928178, 22.5594494], [114.0928097, 22.5594302], [114.0928634, 22.5594043], [114.0928868, 22.5594394], [114.0929201, 22.5594421], [114.0929428, 22.5594054], [114.0929924, 22.5594345], [114.0929813, 22.5594534], [114.0930707, 22.559503], [114.0930793, 22.5594884], [114.0931276, 22.5594928], [114.0931826, 22.5595856], [114.0931398, 22.5595808], [114.0930986, 22.5595773], [114.0930585, 22.5595846], [114.0929995, 22.5595541], [114.0929841, 22.5595751], [114.0929546, 22.5595621], [114.0929318, 22.5595751], [114.0929009, 22.5595819], [114.0928741, 22.5595763], [114.0928413, 22.559564], [114.0928185, 22.5595714], [114.0927997, 22.5595411], [114.0927541, 22.5595534], [114.0927239, 22.5595058]]]]}}, {"type": "Feature", "id": "way/1292389267", "properties": {"tags": {"building": "train_station", "building:levels": "0", "building:levels:underground": "2", "layer": "-1", "location": "underground", "name": "体育中心站", "name:en": "Sports Center Station", "name:zh": "体育中心站", "public_transport": "station", "start_date": "2020-08-18", "wikidata": "Q96288617", "wikipedia": "zh:体育中心站"}, "heightStatus": "levels_only_unverified", "source": "OpenStreetMap", "license": "ODbL-1.0"}, "geometry": {"type": "MultiPolygon", "coordinates": [[[[114.0902101, 22.5575877], [114.0902102, 22.5575435], [114.0903623, 22.5575439], [114.0903656, 22.556421], [114.0907523, 22.5564219], [114.0907519, 22.5565561], [114.0907275, 22.556556], [114.0907272, 22.5566493], [114.0907759, 22.5566494], [114.0907752, 22.556882], [114.0907874, 22.556882], [114.0907873, 22.5569135], [114.0912116, 22.5569146], [114.0912127, 22.5565427], [114.0912849, 22.5565429], [114.0912846, 22.5566645], [114.0913138, 22.5566646], [114.0913134, 22.5568272], [114.0912981, 22.5568272], [114.0912976, 22.5570062], [114.0912097, 22.557006], [114.0912097, 22.5569847], [114.0907847, 22.5569836], [114.0907844, 22.5570805], [114.090727, 22.5570804], [114.0907243, 22.557994], [114.0907438, 22.557994], [114.0907434, 22.5581295], [114.0904941, 22.5581288], [114.0904943, 22.5580454], [114.0902424, 22.5580448], [114.0902427, 22.5579281], [114.0902138, 22.5579281], [114.0902144, 22.5577083], [114.090237, 22.5577084], [114.0902374, 22.5575877], [114.0902101, 22.5575877]]]]}}, {"type": "Feature", "id": "way/1385970097", "properties": {"tags": {"building": "residential", "name": "68栋"}, "heightStatus": "unknown", "source": "OpenStreetMap", "license": "ODbL-1.0"}, "geometry": {"type": "MultiPolygon", "coordinates": [[[[114.0918302, 22.5568518], [114.0918316, 22.5567947], [114.0918529, 22.5567952], [114.0918531, 22.5567866], [114.0919935, 22.5567897], [114.091994, 22.55677], [114.0920873, 22.5567721], [114.0920869, 22.5567869], [114.0921204, 22.5567877], [114.0921208, 22.5567706], [114.0922659, 22.556774], [114.0922674, 22.5567224], [114.0923634, 22.5567247], [114.092366, 22.556633], [114.092461, 22.5566353], [114.0924639, 22.5565551], [114.0925593, 22.5565574], [114.0925561, 22.5567054], [114.0924773, 22.5567035], [114.0924626, 22.5567135], [114.0924605, 22.5567961], [114.0923667, 22.5567941], [114.0923643, 22.5568882], [114.0922827, 22.5568864], [114.092283, 22.5568734], [114.0922269, 22.5568722], [114.0922259, 22.556913], [114.092123, 22.5569108], [114.0921239, 22.5568715], [114.0920808, 22.5568706], [114.0920798, 22.5569136], [114.091986, 22.5569117], [114.091987, 22.5568695], [114.09195, 22.5568688], [114.091949, 22.5569084], [114.0918506, 22.5569063], [114.0918519, 22.5568523], [114.0918302, 22.5568518]]]]}}, {"type": "Feature", "id": "way/1385970098", "properties": {"tags": {"building": "residential", "name": "67栋"}, "heightStatus": "unknown", "source": "OpenStreetMap", "license": "ODbL-1.0"}, "geometry": {"type": "MultiPolygon", "coordinates": [[[[114.0918352, 22.5565378], [114.0918366, 22.5564708], [114.0918728, 22.5564714], [114.0918983, 22.5564468], [114.0918987, 22.5564117], [114.0918586, 22.5564114], [114.091859, 22.5563788], [114.0918696, 22.5563789], [114.09187, 22.5563462], [114.0920139, 22.5563475], [114.0920136, 22.5563788], [114.0920231, 22.5563789], [114.0920227, 22.5564179], [114.0919872, 22.5564176], [114.0919868, 22.5564511], [114.0920137, 22.5564769], [114.0920439, 22.5564774], [114.0920425, 22.5565431], [114.0919622, 22.5565416], [114.0919629, 22.5565105], [114.0919062, 22.5565095], [114.0919056, 22.5565391], [114.0918352, 22.5565378]]]]}}, {"type": "Feature", "id": "way/1385970100", "properties": {"tags": {"building": "residential", "name": "66栋"}, "heightStatus": "unknown", "source": "OpenStreetMap", "license": "ODbL-1.0"}, "geometry": {"type": "MultiPolygon", "coordinates": [[[[114.0918387, 22.5560733], [114.0918401, 22.555998], [114.091868, 22.5559984], [114.0918683, 22.5559816], [114.0919627, 22.555983], [114.0919624, 22.5560008], [114.0920023, 22.5560013], [114.0920026, 22.5559838], [114.0921008, 22.5559852], [114.0921007, 22.5559967], [114.0921307, 22.5559971], [114.0921309, 22.5559858], [114.0922323, 22.5559872], [114.092232, 22.5560074], [114.0922578, 22.5560077], [114.0922579, 22.5560021], [114.0923092, 22.5560028], [114.0923146, 22.5559908], [114.0923725, 22.5559925], [114.0923696, 22.5560774], [114.0924677, 22.5560802], [114.0924652, 22.5561545], [114.0924816, 22.5561659], [114.0925621, 22.5561686], [114.092557, 22.5563023], [114.0925472, 22.5563183], [114.0924645, 22.5563168], [114.0924661, 22.5562377], [114.092365, 22.5562359], [114.0923667, 22.5561537], [114.0922728, 22.556152], [114.0922741, 22.5560891], [114.0922261, 22.5560882], [114.0922254, 22.5561225], [114.0921307, 22.5561208], [114.0921314, 22.5560829], [114.0920876, 22.5560822], [114.0920869, 22.5561213], [114.0919947, 22.5561197], [114.0919955, 22.5560794], [114.0919545, 22.5560788], [114.0919538, 22.5561162], [114.0918631, 22.5561147], [114.0918639, 22.5560737], [114.0918387, 22.5560733]]]]}}, {"type": "Feature", "id": "relation/19124013", "properties": {"tags": {"building": "kindergarten", "name": "深圳市基建幼儿园"}, "heightStatus": "unknown", "source": "OpenStreetMap", "license": "ODbL-1.0"}, "geometry": {"type": "MultiPolygon", "coordinates": [[[[114.0926653, 22.5561523], [114.0926685, 22.5559046], [114.0927026, 22.5558505], [114.0927643, 22.5558515], [114.0928101, 22.5558043], [114.0928548, 22.5558318], [114.0928665, 22.5558495], [114.0928995, 22.5558918], [114.0929655, 22.5558633], [114.0929474, 22.55582], [114.09304, 22.5558063], [114.0930868, 22.5558082], [114.0931635, 22.5558309], [114.0932156, 22.5558554], [114.0932495, 22.5558801], [114.0932774, 22.5559066], [114.0932986, 22.5559264], [114.0933199, 22.5559541], [114.0933393, 22.5559882], [114.093354, 22.5560176], [114.0933603, 22.5560587], [114.0933615, 22.5561013], [114.0933593, 22.5561385], [114.0933439, 22.5561808], [114.0933231, 22.5562211], [114.0932995, 22.5562599], [114.0932736, 22.5562948], [114.093238, 22.5563283], [114.0931931, 22.5563486], [114.0931439, 22.556366], [114.0930922, 22.5563804], [114.0930443, 22.5563814], [114.0929916, 22.5563779], [114.0929336, 22.5563715], [114.0928621, 22.5563339], [114.0928218, 22.5563027], [114.0926919, 22.5562958], [114.0926749, 22.5562644], [114.0926685, 22.5562103], [114.0926653, 22.5561523]], [[114.0928162, 22.5561078], [114.0928303, 22.556169], [114.0928637, 22.5562234], [114.0929133, 22.556266], [114.0929746, 22.5562928], [114.0930417, 22.5563013], [114.0931085, 22.5562907], [114.0931687, 22.5562619], [114.0932186, 22.5562154], [114.09325, 22.5561568], [114.0932599, 22.556092], [114.0932471, 22.5560276], [114.093213, 22.5559702], [114.0931611, 22.5559257], [114.0930966, 22.5558985], [114.0930262, 22.5558915], [114.0929569, 22.5559053], [114.0928959, 22.5559386], [114.0928493, 22.5559879], [114.0928227, 22.5560455], [114.0928162, 22.5561078]]]]}}, {"type": "Feature", "id": "way/1385987032", "properties": {"tags": {"building": "yes"}, "heightStatus": "unknown", "source": "OpenStreetMap", "license": "ODbL-1.0"}, "geometry": {"type": "MultiPolygon", "coordinates": [[[[114.0918937, 22.5545618], [114.0919087, 22.5542656], [114.0921821, 22.5542703], [114.0921809, 22.5543889], [114.0922825, 22.5544853], [114.0922822, 22.5545674], [114.0918937, 22.5545618]]]]}}, {"type": "Feature", "id": "way/1386000259", "properties": {"tags": {"addr:housenumber": "A", "building": "apartments", "layer": "1", "name": "四季祥和园中园A栋"}, "heightStatus": "unknown", "source": "OpenStreetMap", "license": "ODbL-1.0"}, "geometry": {"type": "MultiPolygon", "coordinates": [[[[114.0927311, 22.5548711], [114.0927324, 22.5547968], [114.0928199, 22.5547981], [114.0928216, 22.554699], [114.0929841, 22.5547013], [114.0929825, 22.5547957], [114.0930741, 22.554797], [114.0930728, 22.5548722], [114.0929734, 22.5548708], [114.0929718, 22.554969], [114.0928199, 22.5549668], [114.0928214, 22.5548724], [114.0927311, 22.5548711]]]]}}, {"type": "Feature", "id": "way/1431909339", "properties": {"tags": {"addr:housename": "长城花园", "addr:housename:en": "Changcheng Garden", "addr:housename:zh": "长城花园", "building": "apartments", "building:levels": "17", "name": "1栋", "name:en": "Block 1", "name:zh": "1栋"}, "heightStatus": "levels_only_unverified", "source": "OpenStreetMap", "license": "ODbL-1.0"}, "geometry": {"type": "MultiPolygon", "coordinates": [[[[114.0836404, 22.5577406], [114.0837373, 22.5576958], [114.0838368, 22.5576562], [114.0839385, 22.5576219], [114.0840422, 22.5575931], [114.0841476, 22.5575697], [114.0841561, 22.5576026], [114.0842401, 22.557584], [114.0842273, 22.557505], [114.0843344, 22.5574902], [114.0844423, 22.557481], [114.0845506, 22.5574776], [114.0846589, 22.5574798], [114.0847668, 22.5574878], [114.0847639, 22.5575215], [114.0848532, 22.557528], [114.0848652, 22.5574504], [114.0849696, 22.5574643], [114.0850748, 22.5574715], [114.0851802, 22.5574721], [114.0852854, 22.557466], [114.08539, 22.5574534], [114.0853947, 22.557487], [114.0854824, 22.5574749], [114.0854635, 22.5573843], [114.085567, 22.5573659], [114.0856689, 22.557341], [114.0857688, 22.5573097], [114.0858661, 22.5572721], [114.0859604, 22.5572286], [114.0860129, 22.5573249], [114.0860126, 22.557325], [114.0859147, 22.5573702], [114.0858101, 22.5574106], [114.0857027, 22.5574442], [114.0855931, 22.5574711], [114.0854856, 22.5574902], [114.0854943, 22.557548], [114.0854528, 22.5575538], [114.0854588, 22.5575911], [114.0854115, 22.5575977], [114.0854055, 22.5575603], [114.0854052, 22.5575602], [114.0852967, 22.5575734], [114.0851835, 22.5575799], [114.08507, 22.5575793], [114.0849569, 22.5575715], [114.084851, 22.5575574], [114.0848471, 22.5576018], [114.0848052, 22.5575987], [114.084802, 22.5576364], [114.0847543, 22.5576329], [114.0847576, 22.5575952], [114.0846529, 22.5575875], [114.0845513, 22.5575854], [114.0844497, 22.5575886], [114.0843484, 22.5575972], [114.0842506, 22.5576107], [114.0842622, 22.5576551], [114.0842213, 22.5576642], [114.0842309, 22.5577009], [114.0841844, 22.5577113], [114.0841748, 22.5576745], [114.0840727, 22.5576972], [114.0839754, 22.5577243], [114.0838799, 22.5577564], [114.0837865, 22.5577936], [114.0836926, 22.557837], [114.0836404, 22.5577406]]]]}}, {"type": "Feature", "id": "way/1431909340", "properties": {"tags": {"addr:housename": "长城花园", "addr:housename:en": "Changcheng Garden", "addr:housename:zh": "长城花园", "building": "apartments", "building:levels": "17", "name": "3栋", "name:en": "Block 3", "name:zh": "3栋"}, "heightStatus": "levels_only_unverified", "source": "OpenStreetMap", "license": "ODbL-1.0"}, "geometry": {"type": "MultiPolygon", "coordinates": [[[[114.0839019, 22.5564856], [114.0839257, 22.55638], [114.0840311, 22.5564033], [114.0841349, 22.556432], [114.0842367, 22.5564662], [114.0842242, 22.556498], [114.0843046, 22.556525], [114.0843379, 22.5564493], [114.0844356, 22.5564859], [114.0845357, 22.5565164], [114.0846379, 22.5565404], [114.0847416, 22.5565579], [114.0848464, 22.5565688], [114.0848423, 22.5566025], [114.0849305, 22.5566102], [114.0849358, 22.5565182], [114.0850411, 22.5565233], [114.0851465, 22.5565217], [114.0852515, 22.5565135], [114.0853558, 22.5564987], [114.085431, 22.5564833], [114.0854569, 22.5565884], [114.0853774, 22.5566047], [114.0852653, 22.5566207], [114.0851523, 22.5566295], [114.0850389, 22.5566311], [114.0849296, 22.5566258], [114.084923, 22.5566839], [114.0848812, 22.5566802], [114.0848773, 22.5567178], [114.0848297, 22.5567137], [114.0848336, 22.556676], [114.0848333, 22.5566759], [114.0847246, 22.5566646], [114.084613, 22.5566457], [114.0845031, 22.5566199], [114.0843953, 22.5565872], [114.0842989, 22.556551], [114.0842812, 22.5565958], [114.0842417, 22.5565826], [114.0842278, 22.5566181], [114.0841828, 22.556603], [114.0841968, 22.5565675], [114.0840981, 22.5565344], [114.0840007, 22.5565074], [114.0839019, 22.5564856]]]]}}, {"type": "Feature", "id": "way/1431909341", "properties": {"tags": {"addr:housename": "长城花园", "addr:housename:en": "Changcheng Garden", "addr:housename:zh": "长城花园", "building": "apartments", "building:levels": "17", "name": "2栋", "name:en": "Block 2", "name:zh": "2栋"}, "heightStatus": "levels_only_unverified", "source": "OpenStreetMap", "license": "ODbL-1.0"}, "geometry": {"type": "MultiPolygon", "coordinates": [[[[114.0840682, 22.556943], [114.0841765, 22.5569444], [114.0842846, 22.5569515], [114.084392, 22.5569642], [114.0844985, 22.5569826], [114.0844918, 22.5570159], [114.0845759, 22.5570304], [114.0845954, 22.5569507], [114.0846982, 22.5569722], [114.0848024, 22.5569871], [114.0849075, 22.5569954], [114.0850129, 22.5569971], [114.0851182, 22.5569921], [114.0851201, 22.557026], [114.0852085, 22.5570203], [114.0851974, 22.5569287], [114.0853022, 22.5569179], [114.085406, 22.5569005], [114.0855082, 22.5568766], [114.0856084, 22.5568463], [114.0857476, 22.5567943], [114.0857916, 22.5568941], [114.0856485, 22.5569476], [114.0855407, 22.5569802], [114.0854307, 22.5570059], [114.0853191, 22.5570246], [114.0852104, 22.5570358], [114.0852141, 22.5570941], [114.0851722, 22.5570968], [114.085175, 22.5571345], [114.0851273, 22.5571375], [114.0851245, 22.5570998], [114.0851242, 22.5570998], [114.0850149, 22.5571049], [114.0849015, 22.5571031], [114.0847885, 22.5570942], [114.0846764, 22.5570782], [114.0845749, 22.557057], [114.0845654, 22.5571038], [114.0845241, 22.5570967], [114.0845165, 22.5571338], [114.0844695, 22.5571257], [114.0844771, 22.5570886], [114.0843738, 22.5570708], [114.084273, 22.5570588], [114.0841716, 22.5570522], [114.08407, 22.5570509], [114.0840682, 22.556943]]]]}}, {"type": "Feature", "id": "way/1431909343", "properties": {"tags": {"addr:housename": "长城二花园", "addr:housename:en": "Changcheng 2nd Garden", "addr:housename:zh": "长城二花园", "building": "apartments", "building:levels": "17", "name": "6栋", "name:en": "Block 6", "name:zh": "6栋"}, "heightStatus": "levels_only_unverified", "source": "OpenStreetMap", "license": "ODbL-1.0"}, "geometry": {"type": "MultiPolygon", "coordinates": [[[[114.0827614, 22.5547178], [114.0828039, 22.554637], [114.0828704, 22.5546669], [114.0829388, 22.5546928], [114.0830088, 22.5547147], [114.0830802, 22.5547325], [114.0831526, 22.554746], [114.0831652, 22.5547063], [114.0832744, 22.5547309], [114.0833848, 22.5547635], [114.0834924, 22.5548032], [114.0835967, 22.5548499], [114.0836971, 22.5549032], [114.0837932, 22.554963], [114.0838818, 22.555027], [114.0838218, 22.5550978], [114.083736, 22.5550358], [114.0836456, 22.5549795], [114.0835511, 22.5549293], [114.0834531, 22.5548854], [114.0833519, 22.5548481], [114.0832481, 22.5548174], [114.0831422, 22.5547936], [114.0831333, 22.5548341], [114.0830578, 22.5548199], [114.0829805, 22.5548007], [114.0829047, 22.554777], [114.0828306, 22.5547489], [114.0827614, 22.5547178]]]]}}, {"type": "Feature", "id": "way/1431909345", "properties": {"tags": {"addr:housename": "长安花园", "addr:housename:en": "Changan Garden", "addr:housename:zh": "长安花园", "building": "apartments", "building:levels": "30", "name": "B栋", "name:en": "Block B", "name:zh": "B栋"}, "heightStatus": "levels_only_unverified", "source": "OpenStreetMap", "license": "ODbL-1.0"}, "geometry": {"type": "MultiPolygon", "coordinates": [[[[114.0845847, 22.5552315], [114.0845969, 22.5552209], [114.0845928, 22.5552053], [114.0845917, 22.5551893], [114.0845938, 22.5551734], [114.0845989, 22.5551581], [114.0845874, 22.5551467], [114.0846376, 22.555103], [114.0846821, 22.5551467], [114.0847211, 22.5551127], [114.0846767, 22.5550691], [114.0847269, 22.5550254], [114.0847385, 22.5550368], [114.0847553, 22.5550329], [114.0847727, 22.555032], [114.0847899, 22.5550339], [114.0848065, 22.5550387], [114.0848187, 22.555028], [114.084866, 22.5550744], [114.0848187, 22.5551155], [114.0848422, 22.5551384], [114.0848894, 22.5550973], [114.0849367, 22.5551436], [114.0849245, 22.5551543], [114.0849286, 22.5551699], [114.0849297, 22.5551859], [114.0849276, 22.5552018], [114.0849225, 22.5552171], [114.0849341, 22.5552284], [114.0848839, 22.5552722], [114.0848393, 22.5552286], [114.0848003, 22.5552625], [114.0848449, 22.5553062], [114.0847946, 22.5553499], [114.0847831, 22.5553385], [114.0847662, 22.5553424], [114.0847489, 22.5553434], [114.0847317, 22.5553414], [114.0847151, 22.5553367], [114.0847028, 22.5553473], [114.0846555, 22.555301], [114.0847027, 22.5552599], [114.0846792, 22.5552368], [114.084632, 22.5552779], [114.0845847, 22.5552315]]]]}}, {"type": "Feature", "id": "way/1431909346", "properties": {"tags": {"addr:housename": "长安花园", "addr:housename:en": "Changan Garden", "addr:housename:zh": "长安花园", "building": "apartments", "building:levels": "30", "name": "A栋", "name:en": "Block A", "name:zh": "A栋"}, "heightStatus": "levels_only_unverified", "source": "OpenStreetMap", "license": "ODbL-1.0"}, "geometry": {"type": "MultiPolygon", "coordinates": [[[[114.0850232, 22.555644], [114.0850355, 22.5556333], [114.0850313, 22.5556177], [114.0850302, 22.5556017], [114.0850323, 22.5555858], [114.0850375, 22.5555705], [114.0850259, 22.5555592], [114.0850761, 22.5555155], [114.0851207, 22.5555591], [114.0851597, 22.5555252], [114.0851152, 22.5554815], [114.0851655, 22.5554379], [114.085177, 22.5554492], [114.0851939, 22.5554453], [114.0852112, 22.5554444], [114.0852284, 22.5554463], [114.085245, 22.5554511], [114.0852573, 22.5554404], [114.0853046, 22.5554869], [114.0852573, 22.5555279], [114.0852807, 22.5555509], [114.0853279, 22.5555097], [114.0853752, 22.5555561], [114.085363, 22.5555667], [114.0853672, 22.5555823], [114.0853683, 22.5555983], [114.0853662, 22.5556142], [114.085361, 22.5556296], [114.0853726, 22.5556409], [114.0853224, 22.5556846], [114.0852779, 22.555641], [114.0852389, 22.555675], [114.0852834, 22.5557186], [114.0852332, 22.5557623], [114.0852216, 22.555751], [114.0852048, 22.5557548], [114.0851874, 22.5557558], [114.0851702, 22.5557539], [114.0851536, 22.5557491], [114.0851414, 22.5557598], [114.085094, 22.5557134], [114.0851413, 22.5556723], [114.0851178, 22.5556492], [114.0850705, 22.5556903], [114.0850232, 22.555644]]]]}}, {"type": "Feature", "id": "way/1431909347", "properties": {"tags": {"addr:housename": "长安花园", "addr:housename:en": "Changan Garden", "addr:housename:zh": "长安花园", "building": "apartments", "building:levels": "30", "name": "C栋", "name:en": "Block C", "name:zh": "C栋"}, "heightStatus": "levels_only_unverified", "source": "OpenStreetMap", "license": "ODbL-1.0"}, "geometry": {"type": "MultiPolygon", "coordinates": [[[[114.0856341, 22.5552941], [114.0856464, 22.5552835], [114.0856422, 22.5552679], [114.0856412, 22.5552519], [114.0856432, 22.5552359], [114.0856484, 22.5552206], [114.0856369, 22.5552093], [114.0856871, 22.5551656], [114.0857316, 22.5552092], [114.0857706, 22.5551753], [114.0857261, 22.5551317], [114.0857764, 22.555088], [114.0857879, 22.5550993], [114.0858048, 22.5550955], [114.0858221, 22.5550945], [114.0858394, 22.5550965], [114.0858559, 22.5551012], [114.0858682, 22.5550906], [114.0859155, 22.555137], [114.0858682, 22.5551781], [114.0858916, 22.555201], [114.0859388, 22.5551599], [114.0859862, 22.5552062], [114.0859739, 22.5552169], [114.0859781, 22.5552324], [114.0859792, 22.5552484], [114.0859771, 22.5552644], [114.085972, 22.5552797], [114.0859835, 22.555291], [114.0859334, 22.5553347], [114.0858888, 22.5552912], [114.0858498, 22.5553251], [114.0858943, 22.5553687], [114.0858441, 22.5554124], [114.0858326, 22.5554011], [114.0858157, 22.555405], [114.0857984, 22.5554059], [114.0857811, 22.555404], [114.0857645, 22.5553992], [114.0857523, 22.5554099], [114.085705, 22.5553635], [114.0857522, 22.5553224], [114.0857287, 22.5552994], [114.0856814, 22.5553405], [114.0856341, 22.5552941]]]]}}, {"type": "Feature", "id": "way/1431909348", "properties": {"tags": {"addr:housename": "长乐花园", "addr:housename:en": "Changle Garden", "addr:housename:zh": "长乐花园", "building": "apartments", "building:levels": "29", "name": "A座", "name:en": "Block A", "name:zh": "A座"}, "heightStatus": "levels_only_unverified", "source": "OpenStreetMap", "license": "ODbL-1.0"}, "geometry": {"type": "MultiPolygon", "coordinates": [[[[114.0862303, 22.5568064], [114.0862886, 22.5567557], [114.0862777, 22.556745], [114.0863363, 22.556694], [114.0863719, 22.5567288], [114.0863563, 22.5567423], [114.0863959, 22.5567811], [114.0865017, 22.556784], [114.0865437, 22.5567475], [114.086529, 22.5567331], [114.0865667, 22.5567003], [114.086622, 22.5567544], [114.0866103, 22.5567645], [114.0866653, 22.5568184], [114.0866253, 22.5568532], [114.0866129, 22.5568411], [114.0865439, 22.5569012], [114.0865421, 22.5569553], [114.0863445, 22.5569499], [114.0863462, 22.5568957], [114.0862811, 22.556832], [114.086268, 22.5568434], [114.0862303, 22.5568064]]]]}}, {"type": "Feature", "id": "way/1431909349", "properties": {"tags": {"addr:housename": "长乐花园", "addr:housename:en": "Changle Garden", "addr:housename:zh": "长乐花园", "building": "apartments", "building:levels": "29", "name": "B座", "name:en": "Block B", "name:zh": "B座"}, "heightStatus": "levels_only_unverified", "source": "OpenStreetMap", "license": "ODbL-1.0"}, "geometry": {"type": "MultiPolygon", "coordinates": [[[[114.0857821, 22.5563728], [114.0858404, 22.556322], [114.0858295, 22.5563113], [114.0858881, 22.5562603], [114.0859236, 22.5562951], [114.0859081, 22.5563087], [114.0859476, 22.5563475], [114.0860534, 22.5563504], [114.0860954, 22.5563138], [114.0860808, 22.5562994], [114.0861185, 22.5562666], [114.0861737, 22.5563208], [114.0861621, 22.5563309], [114.086217, 22.5563847], [114.086177, 22.5564195], [114.0861647, 22.5564074], [114.0860956, 22.5564675], [114.0860939, 22.5565216], [114.0858962, 22.5565162], [114.085898, 22.5564621], [114.0858329, 22.5563983], [114.0858198, 22.5564097], [114.0857821, 22.5563728]]]]}}, {"type": "Feature", "id": "way/1431909350", "properties": {"tags": {"addr:housename": "长乐花园", "addr:housename:en": "Changle Garden", "addr:housename:zh": "长乐花园", "building": "apartments", "building:levels": "29", "name": "C座", "name:en": "Block C", "name:zh": "C座"}, "heightStatus": "levels_only_unverified", "source": "OpenStreetMap", "license": "ODbL-1.0"}, "geometry": {"type": "MultiPolygon", "coordinates": [[[[114.0853299, 22.5559421], [114.0853882, 22.5558913], [114.0853772, 22.5558806], [114.0854359, 22.5558296], [114.0854714, 22.5558644], [114.0854558, 22.5558779], [114.0854954, 22.5559167], [114.0856012, 22.5559196], [114.0856432, 22.5558831], [114.0856285, 22.5558687], [114.0856662, 22.5558359], [114.0857215, 22.55589], [114.0857099, 22.5559001], [114.0857648, 22.555954], [114.0857248, 22.5559888], [114.0857125, 22.5559767], [114.0856434, 22.5560368], [114.0856417, 22.5560909], [114.085444, 22.5560855], [114.0854457, 22.5560314], [114.0853807, 22.5559676], [114.0853676, 22.555979], [114.0853299, 22.5559421]]]]}}, {"type": "Feature", "id": "way/1431909351", "properties": {"tags": {"addr:housename": "百花公寓", "addr:housename:en": "Baihua Apartment", "addr:housename:zh": "百花公寓", "building": "apartments", "building:levels": "32", "name": "3栋", "name:en": "Block 3", "name:zh": "3栋"}, "heightStatus": "levels_only_unverified", "source": "OpenStreetMap", "license": "ODbL-1.0"}, "geometry": {"type": "MultiPolygon", "coordinates": [[[[114.0872729, 22.5542605], [114.0873001, 22.5542353], [114.0873203, 22.5542539], [114.0873302, 22.5542447], [114.087366, 22.5542776], [114.0873795, 22.5542651], [114.0873437, 22.5542322], [114.0873536, 22.554223], [114.0873334, 22.5542044], [114.0873606, 22.5541792], [114.0873808, 22.5541978], [114.0873895, 22.5541898], [114.0874252, 22.5542227], [114.0874111, 22.5542358], [114.0874469, 22.5542688], [114.0874826, 22.5542357], [114.0874684, 22.5542226], [114.087504, 22.5541896], [114.0875127, 22.5541975], [114.0875329, 22.5541788], [114.0875602, 22.5542039], [114.08754, 22.5542226], [114.0875499, 22.5542318], [114.0875143, 22.5542648], [114.0875279, 22.5542773], [114.0875635, 22.5542443], [114.0875734, 22.5542534], [114.0875936, 22.5542347], [114.0876209, 22.5542598], [114.0876007, 22.5542785], [114.0876094, 22.5542865], [114.0875738, 22.5543195], [114.0875596, 22.5543065], [114.0875239, 22.5543396], [114.0875597, 22.5543725], [114.0875739, 22.5543594], [114.0876097, 22.5543923], [114.087601, 22.5544003], [114.0876213, 22.5544189], [114.0875941, 22.5544441], [114.0875738, 22.5544255], [114.0875639, 22.5544347], [114.0875281, 22.5544018], [114.0875147, 22.5544143], [114.0875504, 22.5544472], [114.0875405, 22.5544564], [114.0875608, 22.554475], [114.0875336, 22.5545002], [114.0875133, 22.5544816], [114.0875047, 22.5544896], [114.0874689, 22.5544567], [114.0874831, 22.5544436], [114.0874473, 22.5544106], [114.0874116, 22.5544437], [114.0874258, 22.5544568], [114.0873902, 22.5544898], [114.0873815, 22.5544819], [114.0873613, 22.5545006], [114.087334, 22.5544755], [114.0873542, 22.5544568], [114.0873442, 22.5544476], [114.0873799, 22.5544146], [114.0873663, 22.5544021], [114.0873307, 22.5544352], [114.0873207, 22.554426], [114.0873005, 22.5544447], [114.0872732, 22.5544196], [114.0872934, 22.5544009], [114.0872848, 22.5543929], [114.0873204, 22.5543599], [114.0873346, 22.554373], [114.0873703, 22.5543399], [114.0873344, 22.5543069], [114.0873203, 22.5543201], [114.0872845, 22.5542872], [114.0872931, 22.5542791], [114.0872729, 22.5542605]]]]}}, {"type": "Feature", "id": "way/1431909354", "properties": {"tags": {"addr:housename": "百花公寓", "addr:housename:en": "Baihua Apartment", "addr:housename:zh": "百花公寓", "building": "apartments", "building:levels": "28", "name": "5栋", "name:en": "Block 5", "name:zh": "5栋"}, "heightStatus": "levels_only_unverified", "source": "OpenStreetMap", "license": "ODbL-1.0"}, "geometry": {"type": "MultiPolygon", "coordinates": [[[[114.0867368, 22.5564245], [114.0868114, 22.5563611], [114.0867473, 22.5562969], [114.0867907, 22.55626], [114.0868319, 22.5563013], [114.0868662, 22.5562721], [114.0868699, 22.5561878], [114.0869203, 22.5561897], [114.0869166, 22.556274], [114.0869477, 22.5562752], [114.0869514, 22.5561914], [114.0870018, 22.5561934], [114.0869981, 22.5562771], [114.0870297, 22.5563088], [114.0870744, 22.5562708], [114.0871143, 22.5563109], [114.0870447, 22.55637], [114.0871134, 22.5564389], [114.0870674, 22.5564781], [114.087045, 22.5564557], [114.0869929, 22.5565], [114.0869449, 22.5564519], [114.0869036, 22.5564503], [114.0868515, 22.5564946], [114.0868035, 22.5564465], [114.0867792, 22.5564671], [114.0867368, 22.5564245]]]]}}, {"type": "Feature", "id": "way/1431909355", "properties": {"tags": {"addr:housename": "百花公寓", "addr:housename:en": "Baihua Apartment", "addr:housename:zh": "百花公寓", "building": "apartments", "building:levels": "28", "name": "4栋", "name:en": "Block 4", "name:zh": "4栋"}, "heightStatus": "levels_only_unverified", "source": "OpenStreetMap", "license": "ODbL-1.0"}, "geometry": {"type": "MultiPolygon", "coordinates": [[[[114.0872076, 22.5559827], [114.0872822, 22.5559192], [114.0872181, 22.555855], [114.0872615, 22.5558181], [114.0873026, 22.5558594], [114.0873369, 22.5558302], [114.0873397, 22.5557692], [114.0873901, 22.5557711], [114.0873855, 22.5558742], [114.0874166, 22.5558754], [114.0874212, 22.5557723], [114.0874716, 22.5557742], [114.0874689, 22.5558353], [114.0875005, 22.5558669], [114.0875452, 22.5558289], [114.0875851, 22.555869], [114.0875155, 22.5559281], [114.0875842, 22.555997], [114.0875381, 22.5560362], [114.0875158, 22.5560138], [114.0874637, 22.5560581], [114.0874157, 22.55601], [114.0873743, 22.5560084], [114.0873222, 22.5560527], [114.0872742, 22.5560046], [114.08725, 22.5560252], [114.0872076, 22.5559827]]]]}}, {"type": "Feature", "id": "way/1431909356", "properties": {"tags": {"addr:city": "深圳市", "addr:country": "CN", "addr:district": "福田区", "addr:housenumber": "5", "addr:postcode": "518048", "addr:province": "广东省", "addr:street": "百花二路", "building": "retail", "name": "百花新天地商业城", "name:en": "Baihua New World Commercial Centre", "name:zh": "百花新天地商业城", "shop": "mall", "source": "Bing"}, "heightStatus": "unknown", "source": "OpenStreetMap", "license": "ODbL-1.0"}, "geometry": {"type": "MultiPolygon", "coordinates": [[[[114.0887885, 22.5547986], [114.08879, 22.554758], [114.0887994, 22.5547182], [114.0888164, 22.5546807], [114.0888404, 22.5546467], [114.0889982, 22.5544944], [114.0889984, 22.554408], [114.0894662, 22.5544093], [114.0894627, 22.5554622], [114.0893925, 22.555462], [114.0891527, 22.5552299], [114.0891545, 22.5551594], [114.0891153, 22.5551938], [114.0888307, 22.5549127], [114.0888092, 22.5548773], [114.088795, 22.5548388], [114.0887885, 22.5547986]]]]}}, {"type": "Feature", "id": "way/1431909358", "properties": {"tags": {"addr:housename": "百花园一期", "addr:housename:en": "Baihuayuan Phase I", "addr:housename:zh": "百花园一期", "building": "apartments", "building:levels": "29", "name": "3栋", "name:en": "Block 3", "name:zh": "3栋"}, "heightStatus": "levels_only_unverified", "source": "OpenStreetMap", "license": "ODbL-1.0"}, "geometry": {"type": "MultiPolygon", "coordinates": [[[[114.0894272, 22.5575245], [114.0894302, 22.5574566], [114.0895163, 22.5574598], [114.0895174, 22.5574353], [114.0894313, 22.5574321], [114.0894343, 22.5573641], [114.0894565, 22.557365], [114.0894571, 22.5573511], [114.0894806, 22.557352], [114.089495, 22.5573664], [114.0895204, 22.5573674], [114.0895215, 22.5573439], [114.0895071, 22.5573294], [114.0895081, 22.5573078], [114.0895231, 22.5573083], [114.089524, 22.5572879], [114.0895976, 22.5572907], [114.089594, 22.5573702], [114.0896056, 22.5573706], [114.0896171, 22.5573711], [114.0896206, 22.5572915], [114.0896942, 22.5572944], [114.0896933, 22.5573148], [114.0897083, 22.5573154], [114.0897074, 22.5573371], [114.0896917, 22.5573504], [114.0896907, 22.5573739], [114.0897161, 22.5573749], [114.0897318, 22.5573616], [114.0897552, 22.5573625], [114.0897546, 22.5573763], [114.0897768, 22.5573772], [114.0897737, 22.5574451], [114.0896876, 22.5574418], [114.0896865, 22.5574663], [114.0897726, 22.5574696], [114.0897696, 22.5575376], [114.0897474, 22.5575367], [114.0897468, 22.5575506], [114.0897233, 22.5575497], [114.0897089, 22.5575352], [114.0896835, 22.5575343], [114.0896824, 22.5575578], [114.0896968, 22.5575722], [114.0896959, 22.5575939], [114.0896808, 22.5575933], [114.0896799, 22.5576138], [114.0896064, 22.557611], [114.0896099, 22.5575315], [114.0895984, 22.557531], [114.0895868, 22.5575306], [114.0895833, 22.5576101], [114.0895097, 22.5576073], [114.0895106, 22.5575868], [114.0894956, 22.5575863], [114.0894966, 22.5575646], [114.0895122, 22.5575513], [114.0895133, 22.5575278], [114.0894878, 22.5575268], [114.0894722, 22.5575401], [114.0894487, 22.5575392], [114.0894493, 22.5575254], [114.0894272, 22.5575245]]]]}}, {"type": "Feature", "id": "way/1431909359", "properties": {"tags": {"addr:housename": "百花园一期", "addr:housename:en": "Baihuayuan Phase I", "addr:housename:zh": "百花园一期", "building": "apartments", "building:levels": "29", "name": "1栋", "name:en": "Block 1", "name:zh": "1栋"}, "heightStatus": "levels_only_unverified", "source": "OpenStreetMap", "license": "ODbL-1.0"}, "geometry": {"type": "MultiPolygon", "coordinates": [[[[114.0897872, 22.5566341], [114.0898658, 22.5565674], [114.0897938, 22.5564952], [114.0898152, 22.5564769], [114.089833, 22.5564947], [114.0898774, 22.556457], [114.0898802, 22.5563924], [114.0899545, 22.5563953], [114.0899513, 22.5564682], [114.0899681, 22.5564689], [114.0899714, 22.5563959], [114.0900456, 22.5563987], [114.0900428, 22.5564633], [114.0900836, 22.5565043], [114.0901029, 22.5564879], [114.0901227, 22.5565077], [114.0900445, 22.5565742], [114.0901168, 22.5566467], [114.090058, 22.5566967], [114.0899757, 22.5566142], [114.0899307, 22.5566125], [114.0898414, 22.5566884], [114.0897872, 22.5566341]]]]}}, {"type": "Feature", "id": "way/1431909360", "properties": {"tags": {"addr:housename": "百花园一期", "addr:housename:en": "Baihuayuan Phase I", "addr:housename:zh": "百花园一期", "building": "apartments", "building:levels": "29", "name": "2栋", "name:en": "Block 2", "name:zh": "2栋"}, "heightStatus": "levels_only_unverified", "source": "OpenStreetMap", "license": "ODbL-1.0"}, "geometry": {"type": "MultiPolygon", "coordinates": [[[[114.0897781, 22.5571552], [114.0898566, 22.5570885], [114.0897846, 22.5570162], [114.0898061, 22.556998], [114.0898238, 22.5570158], [114.0898682, 22.556978], [114.0898711, 22.5569135], [114.0899454, 22.5569163], [114.0899421, 22.5569893], [114.089959, 22.55699], [114.0899622, 22.556917], [114.0900365, 22.5569198], [114.0900336, 22.5569843], [114.0900745, 22.5570253], [114.0900938, 22.557009], [114.0901135, 22.5570288], [114.0900353, 22.5570953], [114.0901076, 22.5571678], [114.0900489, 22.5572178], [114.0899666, 22.5571352], [114.0899216, 22.5571335], [114.0898322, 22.5572095], [114.0897781, 22.5571552]]]]}}, {"type": "Feature", "id": "way/1431909361", "properties": {"tags": {"addr:housename": "南天一花园", "addr:housename:en": "Nantian No.1 Garden", "addr:housename:zh": "南天一花园", "building": "apartments", "building:levels": "17", "name": "3栋", "name:en": "Block 3", "name:zh": "3栋"}, "heightStatus": "levels_only_unverified", "source": "OpenStreetMap", "license": "ODbL-1.0"}, "geometry": {"type": "MultiPolygon", "coordinates": [[[[114.0879897, 22.556376], [114.0880427, 22.55628], [114.0881381, 22.5563249], [114.0882373, 22.5563623], [114.0883395, 22.5563919], [114.0884441, 22.5564135], [114.0885502, 22.5564269], [114.0886572, 22.556432], [114.0887642, 22.5564289], [114.0888707, 22.5564174], [114.0889757, 22.5563979], [114.0890708, 22.5563717], [114.0891672, 22.5563499], [114.0892647, 22.5563324], [114.089363, 22.5563194], [114.0894618, 22.5563108], [114.089561, 22.5563066], [114.0895662, 22.5564143], [114.0894699, 22.5564183], [114.0893768, 22.5564264], [114.0892841, 22.5564387], [114.0891923, 22.5564552], [114.0891014, 22.5564758], [114.0890039, 22.5565026], [114.0888889, 22.556524], [114.0887729, 22.5565365], [114.088656, 22.5565399], [114.0885392, 22.5565343], [114.0884234, 22.5565196], [114.0883093, 22.5564961], [114.0881977, 22.5564638], [114.0880895, 22.556423], [114.0879897, 22.556376]]]]}}, {"type": "Feature", "id": "way/1431909362", "properties": {"tags": {"addr:housename": "南天一花园", "addr:housename:en": "Nantian No.1 Garden", "addr:housename:zh": "南天一花园", "building": "apartments", "building:levels": "17", "name": "1栋", "name:en": "Block 1", "name:zh": "1栋"}, "heightStatus": "levels_only_unverified", "source": "OpenStreetMap", "license": "ODbL-1.0"}, "geometry": {"type": "MultiPolygon", "coordinates": [[[[114.0870778, 22.5571397], [114.0871626, 22.5570657], [114.0872388, 22.5571401], [114.0873177, 22.5572056], [114.087402, 22.5572651], [114.0874913, 22.5573181], [114.0875849, 22.5573643], [114.0876822, 22.5574033], [114.0877827, 22.557435], [114.0878856, 22.5574591], [114.0879902, 22.5574755], [114.088097, 22.557484], [114.0884227, 22.5574912], [114.0885376, 22.5574989], [114.0886534, 22.5575153], [114.0887673, 22.5575403], [114.0888787, 22.5575737], [114.0889868, 22.5576154], [114.089091, 22.5576649], [114.0891898, 22.5577216], [114.0891281, 22.5578132], [114.0890333, 22.5577587], [114.0889376, 22.5577132], [114.0888382, 22.5576749], [114.0887357, 22.5576442], [114.088631, 22.5576212], [114.0885245, 22.5576061], [114.0884171, 22.5575989], [114.0880905, 22.5575917], [114.0879754, 22.5575825], [114.0878614, 22.5575647], [114.0877494, 22.5575384], [114.0876401, 22.5575039], [114.0875341, 22.5574614], [114.0874321, 22.5574111], [114.0873349, 22.5573534], [114.0872431, 22.5572887], [114.0871572, 22.5572173], [114.0870778, 22.5571397]]]]}}, {"type": "Feature", "id": "way/1431909363", "properties": {"tags": {"addr:housename": "南天一花园", "addr:housename:en": "Nantian No.1 Garden", "addr:housename:zh": "南天一花园", "building": "apartments", "building:levels": "17", "name": "2栋", "name:en": "Block 2", "name:zh": "2栋"}, "heightStatus": "levels_only_unverified", "source": "OpenStreetMap", "license": "ODbL-1.0"}, "geometry": {"type": "MultiPolygon", "coordinates": [[[[114.0875432, 22.5567559], [114.0876138, 22.5566701], [114.0877021, 22.556732], [114.0877915, 22.5567848], [114.0878852, 22.5568308], [114.0879826, 22.5568697], [114.0880831, 22.5569012], [114.0881861, 22.5569251], [114.0882908, 22.5569412], [114.0883965, 22.5569495], [114.0885026, 22.5569499], [114.0886155, 22.5569419], [114.088723, 22.5569383], [114.0888314, 22.5569406], [114.0889395, 22.5569488], [114.0890469, 22.5569627], [114.0891533, 22.5569825], [114.0892549, 22.5570071], [114.0892252, 22.5571114], [114.0891269, 22.5570875], [114.0890273, 22.557069], [114.0889266, 22.557056], [114.0888253, 22.5570483], [114.0887237, 22.5570462], [114.0886221, 22.5570495], [114.0885069, 22.5570577], [114.0883913, 22.5570573], [114.0882762, 22.5570482], [114.0881622, 22.5570307], [114.0880501, 22.5570047], [114.0879407, 22.5569704], [114.0878346, 22.5569281], [114.0877325, 22.556878], [114.0876352, 22.5568205], [114.0875432, 22.5567559]]]]}}, {"type": "Feature", "id": "way/1550166197", "properties": {"tags": {"building": "yes"}, "heightStatus": "unknown", "source": "OpenStreetMap", "license": "ODbL-1.0"}, "geometry": {"type": "MultiPolygon", "coordinates": [[[[114.0851256, 22.5628231], [114.0851261, 22.562634], [114.0854412, 22.5626347], [114.0854408, 22.5627557], [114.0855167, 22.5627558], [114.0855169, 22.5627005], [114.0856143, 22.5627008], [114.0856138, 22.5628912], [114.0852176, 22.5628903], [114.0852178, 22.5628234], [114.0851256, 22.5628231]]]]}}]}