{"type": "FeatureCollection", "features": [{"type": "Feature", "id": "way/170231845", "properties": {"tags": {"building": "yes"}, "heightStatus": "unknown", "source": "OpenStreetMap", "license": "ODbL-1.0"}, "geometry": {"type": "MultiPolygon", "coordinates": [[[[114.0971035, 22.5537623], [114.0971047, 22.5536587], [114.0971067, 22.5536411], [114.097112, 22.5536259], [114.0971244, 22.5536176], [114.0971415, 22.553614], [114.0977976, 22.5536201], [114.097797, 22.553683], [114.0976949, 22.553682], [114.0976692, 22.5537049], [114.0971915, 22.5537004], [114.0971908, 22.5537631], [114.0971035, 22.5537623]]]]}}, {"type": "Feature", "id": "way/247967135", "properties": {"tags": {"building": "yes"}, "heightStatus": "unknown", "source": "OpenStreetMap", "license": "ODbL-1.0"}, "geometry": {"type": "MultiPolygon", "coordinates": [[[[114.0960113, 22.5458015], [114.096012, 22.5457222], [114.0960586, 22.5457225], [114.096059, 22.5456823], [114.0960135, 22.545682], [114.096014, 22.5456296], [114.0961057, 22.5456302], [114.0961063, 22.5455655], [114.0964706, 22.5455683], [114.0964703, 22.5456013], [114.0964685, 22.545805], [114.0960113, 22.5458015]]]]}}, {"type": "Feature", "id": "way/247967138", "properties": {"tags": {"building": "yes"}, "heightStatus": "unknown", "source": "OpenStreetMap", "license": "ODbL-1.0"}, "geometry": {"type": "MultiPolygon", "coordinates": [[[[114.0961924, 22.5451933], [114.0961941, 22.5450654], [114.0962375, 22.5450595], [114.0962389, 22.5449577], [114.0962917, 22.5449574], [114.0962953, 22.5448638], [114.0964745, 22.5448658], [114.0966252, 22.5448675], [114.0966254, 22.5449143], [114.0966945, 22.5449138], [114.0966941, 22.544967], [114.0967968, 22.5449679], [114.0967946, 22.5451364], [114.0967502, 22.5451372], [114.0967512, 22.5452232], [114.0966862, 22.5452234], [114.0966842, 22.5453172], [114.0963703, 22.5453137], [114.0963709, 22.5452795], [114.096277, 22.5452775], [114.0962782, 22.545196], [114.0961924, 22.5451933]]]]}}, {"type": "Feature", "id": "way/247967140", "properties": {"tags": {"building": "yes"}, "heightStatus": "unknown", "source": "OpenStreetMap", "license": "ODbL-1.0"}, "geometry": {"type": "MultiPolygon", "coordinates": [[[[114.095477, 22.5458376], [114.0954822, 22.5455563], [114.0958811, 22.5455626], [114.0958787, 22.5456959], [114.0955806, 22.5456912], [114.0955798, 22.5457341], [114.095962, 22.5457401], [114.09596, 22.5458453], [114.095477, 22.5458376]]]]}}, {"type": "Feature", "id": "way/527641743", "properties": {"tags": {"building": "yes", "office": "political_party"}, "heightStatus": "unknown", "source": "OpenStreetMap", "license": "ODbL-1.0"}, "geometry": {"type": "MultiPolygon", "coordinates": [[[[114.092954, 22.5464633], [114.0929575, 22.5462028], [114.0930874, 22.5462037], [114.0937121, 22.5462077], [114.0938188, 22.5462095], [114.0938134, 22.5464776], [114.0931633, 22.5464665], [114.092954, 22.5464633]]]]}}, {"type": "Feature", "id": "way/527641744", "properties": {"tags": {"building": "yes", "office": "political_party"}, "heightStatus": "unknown", "source": "OpenStreetMap", "license": "ODbL-1.0"}, "geometry": {"type": "MultiPolygon", "coordinates": [[[[114.093162, 22.5465324], [114.0931633, 22.5464665], [114.0938134, 22.5464776], [114.0938188, 22.5462095], [114.0937121, 22.5462077], [114.0937149, 22.5460679], [114.0938133, 22.5460696], [114.0938147, 22.5460033], [114.0940842, 22.5460079], [114.0940805, 22.5461941], [114.0941697, 22.5461956], [114.0941626, 22.5465494], [114.093162, 22.5465324]]]]}}, {"type": "Feature", "id": "way/527641746", "properties": {"tags": {"building": "yes"}, "heightStatus": "unknown", "source": "OpenStreetMap", "license": "ODbL-1.0"}, "geometry": {"type": "MultiPolygon", "coordinates": [[[[114.093144, 22.5470934], [114.093146, 22.5470109], [114.0931991, 22.547012], [114.093206, 22.5467312], [114.0933399, 22.546734], [114.0933318, 22.5470635], [114.0933729, 22.5470643], [114.093372, 22.5470982], [114.093144, 22.5470934]]]]}}, {"type": "Feature", "id": "way/527641747", "properties": {"tags": {"building": "yes"}, "heightStatus": "unknown", "source": "OpenStreetMap", "license": "ODbL-1.0"}, "geometry": {"type": "MultiPolygon", "coordinates": [[[[114.0927493, 22.5476314], [114.0927528, 22.5474999], [114.0929273, 22.5472411], [114.0931311, 22.5473584], [114.093138, 22.547348], [114.0934398, 22.5475214], [114.0934182, 22.5475535], [114.0936503, 22.5476869], [114.0936094, 22.5477475], [114.0935956, 22.5477396], [114.0935195, 22.5478527], [114.0930798, 22.5476005], [114.0930544, 22.5476383], [114.0927493, 22.5476314]]]]}}, {"type": "Feature", "id": "way/629936158", "properties": {"tags": {"addr:city": "深圳市", "addr:district": "福田区", "addr:housenumber": "1011号", "addr:province": "广东省", "addr:street": "红荔路", "alt_name": "深圳图书馆第一代馆舍", "amenity": "library", "building": "yes", "loc_name": "市少儿图书馆", "name": "深圳少年儿童图书馆", "name:en": "Shenzhen Children's Library", "name:zh": "深圳少年儿童图书馆", "opening_hours": "Tu-Su 09:00-21:00", "short_name": "深圳少儿图书馆", "website": "https://www.szclib.org.cn", "wikidata": "Q67932227", "wikipedia": "zh:深圳少年儿童图书馆"}, "heightStatus": "unknown", "source": "OpenStreetMap", "license": "ODbL-1.0"}, "geometry": {"type": "MultiPolygon", "coordinates": [[[[114.0937882, 22.5506539], [114.0939495, 22.5506539], [114.0939697, 22.5506932], [114.0944288, 22.5506973], [114.0944333, 22.5507511], [114.0945923, 22.5507511], [114.0945901, 22.5506104], [114.0947469, 22.5506145], [114.0947469, 22.5507449], [114.0947312, 22.5507552], [114.0947335, 22.5507966], [114.0948119, 22.5508007], [114.0948119, 22.5509207], [114.0946797, 22.5509186], [114.094673, 22.5510717], [114.0948454, 22.5510696], [114.0948499, 22.5512744], [114.094608, 22.5512703], [114.0946058, 22.5513034], [114.0943863, 22.5513013], [114.094384, 22.5512579], [114.0939069, 22.5512538], [114.0939159, 22.5508235], [114.0939495, 22.5508235], [114.0939495, 22.5507862], [114.0937927, 22.5507842], [114.0937882, 22.5506539]]]]}}, {"type": "Feature", "id": "way/664026063", "properties": {"tags": {"building": "yes"}, "heightStatus": "unknown", "source": "OpenStreetMap", "license": "ODbL-1.0"}, "geometry": {"type": "MultiPolygon", "coordinates": [[[[114.0930686, 22.5510734], [114.0930824, 22.5507566], [114.0932868, 22.5507694], [114.0932868, 22.5510798], [114.0930686, 22.5510734]]]]}}, {"type": "Feature", "id": "way/664026064", "properties": {"tags": {"building": "yes"}, "heightStatus": "unknown", "source": "OpenStreetMap", "license": "ODbL-1.0"}, "geometry": {"type": "MultiPolygon", "coordinates": [[[[114.0930686, 22.5503726], [114.0932764, 22.5503663], [114.0932834, 22.5504462], [114.0930686, 22.550443], [114.0930686, 22.5503726]]]]}}, {"type": "Feature", "id": "way/664026065", "properties": {"tags": {"building": "yes"}, "heightStatus": "unknown", "source": "OpenStreetMap", "license": "ODbL-1.0"}, "geometry": {"type": "MultiPolygon", "coordinates": [[[[114.0930686, 22.5503151], [114.093072, 22.5502127], [114.0933492, 22.5502255], [114.0933492, 22.5503151], [114.0930686, 22.5503151]]]]}}, {"type": "Feature", "id": "way/664026066", "properties": {"tags": {"building": "yes"}, "heightStatus": "unknown", "source": "OpenStreetMap", "license": "ODbL-1.0"}, "geometry": {"type": "MultiPolygon", "coordinates": [[[[114.0930824, 22.5500943], [114.0934115, 22.5500943], [114.0934115, 22.5501743], [114.0930824, 22.5501743], [114.0930824, 22.5500943]]]]}}, {"type": "Feature", "id": "way/664026067", "properties": {"tags": {"building": "yes"}, "heightStatus": "unknown", "source": "OpenStreetMap", "license": "ODbL-1.0"}, "geometry": {"type": "MultiPolygon", "coordinates": [[[[114.0930789, 22.5500431], [114.0930893, 22.5499535], [114.0934531, 22.5499631], [114.0934496, 22.5500431], [114.0930789, 22.5500431]]]]}}, {"type": "Feature", "id": "way/664026068", "properties": {"tags": {"building": "yes"}, "heightStatus": "unknown", "source": "OpenStreetMap", "license": "ODbL-1.0"}, "geometry": {"type": "MultiPolygon", "coordinates": [[[[114.0930677, 22.5497751], [114.0930765, 22.5494871], [114.0938058, 22.5495061], [114.0937969, 22.5497942], [114.0930677, 22.5497751]]]]}}, {"type": "Feature", "id": "way/664026069", "properties": {"tags": {"building": "residential", "building:levels": "6"}, "heightStatus": "levels_only_unverified", "source": "OpenStreetMap", "license": "ODbL-1.0"}, "geometry": {"type": "MultiPolygon", "coordinates": [[[[114.0934407, 22.5492865], [114.0934422, 22.5491999], [114.0935544, 22.5492015], [114.093555, 22.549163], [114.0936663, 22.5491646], [114.0936657, 22.5492038], [114.0937645, 22.5492052], [114.093763, 22.54929], [114.0937348, 22.5492896], [114.0937344, 22.5493134], [114.0934747, 22.5493097], [114.093475, 22.549287], [114.0934407, 22.5492865]]]]}}, {"type": "Feature", "id": "way/664026078", "properties": {"tags": {"building": "residential", "building:levels": "7"}, "heightStatus": "levels_only_unverified", "source": "OpenStreetMap", "license": "ODbL-1.0"}, "geometry": {"type": "MultiPolygon", "coordinates": [[[[114.0946059, 22.5487424], [114.0947809, 22.5487423], [114.0947809, 22.5488656], [114.0946059, 22.5488655], [114.0946059, 22.5487424]]]]}}, {"type": "Feature", "id": "way/664026082", "properties": {"tags": {"building": "residential", "building:levels": "2"}, "heightStatus": "levels_only_unverified", "source": "OpenStreetMap", "license": "ODbL-1.0"}, "geometry": {"type": "MultiPolygon", "coordinates": [[[[114.094024, 22.5481861], [114.0940241, 22.548082], [114.0941153, 22.548082], [114.0941153, 22.5481093], [114.0941435, 22.5481093], [114.0941395, 22.5481217], [114.0941905, 22.5481217], [114.0941905, 22.548206], [114.0941287, 22.548206], [114.0941287, 22.5481861], [114.094024, 22.5481861]]]]}}, {"type": "Feature", "id": "way/664026083", "properties": {"tags": {"building": "residential", "building:levels": "2"}, "heightStatus": "levels_only_unverified", "source": "OpenStreetMap", "license": "ODbL-1.0"}, "geometry": {"type": "MultiPolygon", "coordinates": [[[[114.0941837, 22.5483179], [114.094184, 22.5482142], [114.0942745, 22.5482144], [114.0942744, 22.5482417], [114.0942999, 22.5482417], [114.0942998, 22.548253], [114.0943507, 22.5482531], [114.0943504, 22.5483382], [114.0942881, 22.5483381], [114.0942882, 22.5483181], [114.0941837, 22.5483179]]]]}}, {"type": "Feature", "id": "way/664026088", "properties": {"tags": {"building": "residential", "building:levels": "2"}, "heightStatus": "levels_only_unverified", "source": "OpenStreetMap", "license": "ODbL-1.0"}, "geometry": {"type": "MultiPolygon", "coordinates": [[[[114.0946315, 22.5477582], [114.0946316, 22.547654], [114.0947229, 22.547654], [114.0947229, 22.5476814], [114.094751, 22.5476814], [114.094747, 22.5476938], [114.0947979, 22.5476938], [114.0947979, 22.547778], [114.0947362, 22.547778], [114.0947362, 22.5477582], [114.0946315, 22.5477582]]]]}}, {"type": "Feature", "id": "way/664026089", "properties": {"tags": {"building": "residential", "building:levels": "7"}, "heightStatus": "levels_only_unverified", "source": "OpenStreetMap", "license": "ODbL-1.0"}, "geometry": {"type": "MultiPolygon", "coordinates": [[[[114.0952236, 22.5477976], [114.0952435, 22.5477395], [114.0954367, 22.5477959], [114.0954307, 22.5478136], [114.0955364, 22.5478445], [114.0955149, 22.5479071], [114.0954945, 22.5479012], [114.0954882, 22.5479197], [114.0954053, 22.5478955], [114.0953993, 22.5479132], [114.095295, 22.5478828], [114.0953032, 22.5478589], [114.0952267, 22.5478365], [114.0952385, 22.547802], [114.0952236, 22.5477976]]]]}}, {"type": "Feature", "id": "way/665895634", "properties": {"tags": {"building": "residential"}, "heightStatus": "unknown", "source": "OpenStreetMap", "license": "ODbL-1.0"}, "geometry": {"type": "MultiPolygon", "coordinates": [[[[114.0971616, 22.5454329], [114.0971633, 22.5453278], [114.0974702, 22.545332], [114.0974685, 22.545437], [114.0971616, 22.5454329]]]]}}, {"type": "Feature", "id": "way/665895635", "properties": {"tags": {"building": "residential"}, "heightStatus": "unknown", "source": "OpenStreetMap", "license": "ODbL-1.0"}, "geometry": {"type": "MultiPolygon", "coordinates": [[[[114.0971775, 22.5451499], [114.097178, 22.5450355], [114.0974746, 22.5450365], [114.0974742, 22.5451509], [114.0971775, 22.5451499]]]]}}, {"type": "Feature", "id": "way/668890136", "properties": {"tags": {"building": "residential", "building:levels": "6"}, "heightStatus": "levels_only_unverified", "source": "OpenStreetMap", "license": "ODbL-1.0"}, "geometry": {"type": "MultiPolygon", "coordinates": [[[[114.0931357, 22.5483475], [114.0931377, 22.5482826], [114.0932029, 22.5482844], [114.0932034, 22.5482668], [114.0933527, 22.5482708], [114.093352, 22.548294], [114.0934227, 22.5482958], [114.0934207, 22.5483573], [114.0933901, 22.5483565], [114.0933891, 22.548389], [114.0931727, 22.5483832], [114.0931738, 22.5483486], [114.0931357, 22.5483475]]]]}}, {"type": "Feature", "id": "way/671193805", "properties": {"tags": {"building": "yes"}, "heightStatus": "unknown", "source": "OpenStreetMap", "license": "ODbL-1.0"}, "geometry": {"type": "MultiPolygon", "coordinates": [[[[114.0934479, 22.5475003], [114.093497, 22.5474282], [114.0937224, 22.547559], [114.0936737, 22.5476306], [114.0936244, 22.547602], [114.0936065, 22.5476284], [114.0935573, 22.5475998], [114.0935748, 22.547574], [114.0934479, 22.5475003]]]]}}, {"type": "Feature", "id": "way/705704792", "properties": {"tags": {"amenity": "shelter", "building": "yes", "name": "荔香阁", "name:zh-Hans": "荔香阁"}, "heightStatus": "unknown", "source": "OpenStreetMap", "license": "ODbL-1.0"}, "geometry": {"type": "MultiPolygon", "coordinates": [[[[114.0979102, 22.5495523], [114.0980484, 22.549549], [114.0980516, 22.5496623], [114.0979134, 22.5496656], [114.0979102, 22.5495523]]]]}}, {"type": "Feature", "id": "way/763943208", "properties": {"tags": {"building": "residential", "building:levels": "6"}, "heightStatus": "levels_only_unverified", "source": "OpenStreetMap", "license": "ODbL-1.0"}, "geometry": {"type": "MultiPolygon", "coordinates": [[[[114.0937996, 22.5492965], [114.093801, 22.54921], [114.0939132, 22.5492116], [114.0939139, 22.549173], [114.0940252, 22.5491746], [114.0940245, 22.5492138], [114.0941233, 22.5492152], [114.0941219, 22.5493001], [114.0940937, 22.5492997], [114.0940933, 22.5493234], [114.0938335, 22.5493197], [114.0938339, 22.549297], [114.0937996, 22.5492965]]]]}}, {"type": "Feature", "id": "way/763943209", "properties": {"tags": {"building": "residential", "building:levels": "6"}, "heightStatus": "levels_only_unverified", "source": "OpenStreetMap", "license": "ODbL-1.0"}, "geometry": {"type": "MultiPolygon", "coordinates": [[[[114.0940928, 22.5491415], [114.0940943, 22.5490549], [114.0942064, 22.5490566], [114.0942071, 22.549018], [114.0943184, 22.5490196], [114.0943178, 22.5490588], [114.0944165, 22.5490602], [114.0944151, 22.549145], [114.0943869, 22.5491446], [114.0943865, 22.5491684], [114.0941267, 22.5491647], [114.0941271, 22.549142], [114.0940928, 22.5491415]]]]}}, {"type": "Feature", "id": "way/763943210", "properties": {"tags": {"building": "residential", "building:levels": "6"}, "heightStatus": "levels_only_unverified", "source": "OpenStreetMap", "license": "ODbL-1.0"}, "geometry": {"type": "MultiPolygon", "coordinates": [[[[114.0942162, 22.5489024], [114.0942176, 22.5488159], [114.0943298, 22.5488175], [114.0943305, 22.5487789], [114.0944418, 22.5487806], [114.0944411, 22.5488197], [114.0945399, 22.5488211], [114.0945385, 22.548906], [114.0945103, 22.5489056], [114.0945099, 22.5489293], [114.0942501, 22.5489256], [114.0942505, 22.5489029], [114.0942162, 22.5489024]]]]}}, {"type": "Feature", "id": "way/763943211", "properties": {"tags": {"building": "residential", "building:levels": "6"}, "heightStatus": "levels_only_unverified", "source": "OpenStreetMap", "license": "ODbL-1.0"}, "geometry": {"type": "MultiPolygon", "coordinates": [[[[114.0940079, 22.5486746], [114.0940093, 22.548588], [114.0941215, 22.5485896], [114.0941222, 22.5485511], [114.0942335, 22.5485527], [114.0942328, 22.5485918], [114.0943316, 22.5485933], [114.0943302, 22.5486781], [114.094302, 22.5486777], [114.0943016, 22.5487014], [114.0940418, 22.5486977], [114.0940422, 22.5486751], [114.0940079, 22.5486746]]]]}}, {"type": "Feature", "id": "way/763943212", "properties": {"tags": {"building": "residential", "building:levels": "6"}, "heightStatus": "levels_only_unverified", "source": "OpenStreetMap", "license": "ODbL-1.0"}, "geometry": {"type": "MultiPolygon", "coordinates": [[[[114.0937167, 22.5484785], [114.0937181, 22.5483919], [114.0938303, 22.5483935], [114.0938309, 22.548355], [114.0939423, 22.5483566], [114.0939416, 22.5483957], [114.0940404, 22.5483972], [114.0940389, 22.548482], [114.0940108, 22.5484816], [114.0940104, 22.5485053], [114.0937506, 22.5485016], [114.093751, 22.5484789], [114.0937167, 22.5484785]]]]}}, {"type": "Feature", "id": "way/763943213", "properties": {"tags": {"building": "residential", "building:levels": "6"}, "heightStatus": "levels_only_unverified", "source": "OpenStreetMap", "license": "ODbL-1.0"}, "geometry": {"type": "MultiPolygon", "coordinates": [[[[114.0935225, 22.5487231], [114.093524, 22.5486366], [114.0936362, 22.5486382], [114.0936368, 22.5485996], [114.0937481, 22.5486012], [114.0937475, 22.5486404], [114.0938462, 22.5486418], [114.0938448, 22.5487267], [114.0938166, 22.5487263], [114.0938162, 22.54875], [114.0935564, 22.5487463], [114.0935568, 22.5487236], [114.0935225, 22.5487231]]]]}}, {"type": "Feature", "id": "way/763943214", "properties": {"tags": {"building": "residential", "building:levels": "6"}, "heightStatus": "levels_only_unverified", "source": "OpenStreetMap", "license": "ODbL-1.0"}, "geometry": {"type": "MultiPolygon", "coordinates": [[[[114.0932799, 22.5490014], [114.0932813, 22.5489149], [114.0933935, 22.5489165], [114.0933941, 22.5488779], [114.0935054, 22.5488795], [114.0935048, 22.5489187], [114.0936036, 22.5489201], [114.0936021, 22.549005], [114.0935739, 22.5490046], [114.0935735, 22.5490283], [114.0933138, 22.5490246], [114.0933141, 22.5490019], [114.0932799, 22.5490014]]]]}}, {"type": "Feature", "id": "way/763943215", "properties": {"tags": {"building": "residential", "building:levels": "6"}, "heightStatus": "levels_only_unverified", "source": "OpenStreetMap", "license": "ODbL-1.0"}, "geometry": {"type": "MultiPolygon", "coordinates": [[[[114.0930776, 22.5492816], [114.0930791, 22.549195], [114.0931912, 22.5491966], [114.0931919, 22.5491581], [114.0933032, 22.5491597], [114.0933025, 22.5491988], [114.0934013, 22.5492003], [114.0933999, 22.5492851], [114.0933717, 22.5492847], [114.0933713, 22.5493084], [114.0931115, 22.5493047], [114.0931119, 22.5492821], [114.0930776, 22.5492816]]]]}}, {"type": "Feature", "id": "way/763943216", "properties": {"tags": {"building": "residential", "building:levels": "7"}, "heightStatus": "levels_only_unverified", "source": "OpenStreetMap", "license": "ODbL-1.0"}, "geometry": {"type": "MultiPolygon", "coordinates": [[[[114.0948022, 22.5486076], [114.0949772, 22.5486076], [114.0949772, 22.5487308], [114.0948022, 22.5487308], [114.0948022, 22.5486076]]]]}}, {"type": "Feature", "id": "way/763943217", "properties": {"tags": {"building": "residential", "building:levels": "7"}, "heightStatus": "levels_only_unverified", "source": "OpenStreetMap", "license": "ODbL-1.0"}, "geometry": {"type": "MultiPolygon", "coordinates": [[[[114.0946162, 22.5484676], [114.0947911, 22.5484675], [114.0947911, 22.5485907], [114.0946162, 22.5485907], [114.0946162, 22.5484676]]]]}}, {"type": "Feature", "id": "way/763943218", "properties": {"tags": {"building": "residential", "building:levels": "7"}, "heightStatus": "levels_only_unverified", "source": "OpenStreetMap", "license": "ODbL-1.0"}, "geometry": {"type": "MultiPolygon", "coordinates": [[[[114.0944301, 22.5483013], [114.094605, 22.5483013], [114.0946051, 22.5484245], [114.0944301, 22.5484245], [114.0944301, 22.5483013]]]]}}, {"type": "Feature", "id": "way/763943219", "properties": {"tags": {"building": "residential", "building:levels": "2"}, "heightStatus": "levels_only_unverified", "source": "OpenStreetMap", "license": "ODbL-1.0"}, "geometry": {"type": "MultiPolygon", "coordinates": [[[[114.0942479, 22.5478922], [114.0943392, 22.5478922], [114.0943392, 22.5479194], [114.0943674, 22.5479194], [114.0943634, 22.5479318], [114.0944144, 22.5479319], [114.0944144, 22.5480162], [114.0943526, 22.5480161], [114.0943526, 22.5479963], [114.0942479, 22.5479962], [114.0942479, 22.5478922]]]]}}, {"type": "Feature", "id": "way/763943220", "properties": {"tags": {"building": "residential", "building:levels": "2"}, "heightStatus": "levels_only_unverified", "source": "OpenStreetMap", "license": "ODbL-1.0"}, "geometry": {"type": "MultiPolygon", "coordinates": [[[[114.0944076, 22.5481281], [114.0944078, 22.5480243], [114.0944983, 22.5480245], [114.0944983, 22.5480518], [114.0945237, 22.5480519], [114.0945237, 22.5480631], [114.0945745, 22.5480632], [114.0945743, 22.5481484], [114.094512, 22.5481482], [114.094512, 22.5481283], [114.0944076, 22.5481281]]]]}}, {"type": "Feature", "id": "way/763943221", "properties": {"tags": {"building": "residential", "building:levels": "2"}, "heightStatus": "levels_only_unverified", "source": "OpenStreetMap", "license": "ODbL-1.0"}, "geometry": {"type": "MultiPolygon", "coordinates": [[[[114.0944046, 22.5477231], [114.0944959, 22.5477231], [114.0944959, 22.5477503], [114.094524, 22.5477503], [114.09452, 22.5477627], [114.0945711, 22.5477628], [114.094571, 22.5478471], [114.0945093, 22.547847], [114.0945093, 22.5478272], [114.0944046, 22.5478271], [114.0944046, 22.5477231]]]]}}, {"type": "Feature", "id": "way/763943222", "properties": {"tags": {"building": "residential", "building:levels": "2"}, "heightStatus": "levels_only_unverified", "source": "OpenStreetMap", "license": "ODbL-1.0"}, "geometry": {"type": "MultiPolygon", "coordinates": [[[[114.0945642, 22.547959], [114.0945645, 22.5478552], [114.094655, 22.5478554], [114.0946549, 22.5478827], [114.0946804, 22.5478828], [114.0946804, 22.547894], [114.0947312, 22.5478941], [114.094731, 22.5479793], [114.0946687, 22.5479791], [114.0946687, 22.5479592], [114.0945642, 22.547959]]]]}}, {"type": "Feature", "id": "way/763943223", "properties": {"tags": {"building": "residential", "building:levels": "7"}, "heightStatus": "levels_only_unverified", "source": "OpenStreetMap", "license": "ODbL-1.0"}, "geometry": {"type": "MultiPolygon", "coordinates": [[[[114.0951021, 22.5480512], [114.095122, 22.547993], [114.0953153, 22.5480495], [114.0953093, 22.5480672], [114.0954149, 22.548098], [114.0953935, 22.5481607], [114.0953731, 22.5481547], [114.0953668, 22.5481733], [114.0952839, 22.5481491], [114.0952778, 22.5481667], [114.0951736, 22.5481363], [114.0951818, 22.5481124], [114.0951053, 22.5480901], [114.0951171, 22.5480556], [114.0951021, 22.5480512]]]]}}, {"type": "Feature", "id": "way/763943224", "properties": {"tags": {"building": "residential", "building:levels": "7"}, "heightStatus": "levels_only_unverified", "source": "OpenStreetMap", "license": "ODbL-1.0"}, "geometry": {"type": "MultiPolygon", "coordinates": [[[[114.095155, 22.5474708], [114.0951749, 22.5474126], [114.0953682, 22.5474691], [114.0953621, 22.5474868], [114.0954678, 22.5475176], [114.0954464, 22.5475803], [114.095426, 22.5475743], [114.0954196, 22.5475929], [114.0953367, 22.5475687], [114.0953307, 22.5475863], [114.0952265, 22.5475559], [114.0952346, 22.547532], [114.0951582, 22.5475097], [114.09517, 22.5474752], [114.095155, 22.5474708]]]]}}, {"type": "Feature", "id": "way/768475237", "properties": {"tags": {"building": "yes"}, "heightStatus": "unknown", "source": "OpenStreetMap", "license": "ODbL-1.0"}, "geometry": {"type": "MultiPolygon", "coordinates": [[[[114.0932295, 22.5539797], [114.0932324, 22.5536714], [114.093894, 22.5536767], [114.0938911, 22.553985], [114.0932295, 22.5539797]]]]}}, {"type": "Feature", "id": "way/771790254", "properties": {"tags": {"amenity": "parking", "building": "yes", "name": "园东停车场", "parking": "multi-storey"}, "heightStatus": "unknown", "source": "OpenStreetMap", "license": "ODbL-1.0"}, "geometry": {"type": "MultiPolygon", "coordinates": [[[[114.0961707, 22.5538664], [114.0961757, 22.5535331], [114.0962221, 22.5535337], [114.0961997, 22.5535111], [114.0961856, 22.5534841], [114.0961812, 22.5534545], [114.096187, 22.553425], [114.0962023, 22.5533986], [114.0962258, 22.5533779], [114.096255, 22.5533649], [114.0962871, 22.5533609], [114.096319, 22.5533662], [114.0963475, 22.5533804], [114.0963655, 22.553398], [114.0963649, 22.5533614], [114.0966742, 22.5533659], [114.0966741, 22.553401], [114.0966942, 22.5533865], [114.0967234, 22.5533735], [114.0967555, 22.5533695], [114.0967874, 22.5533748], [114.096816, 22.553389], [114.0968384, 22.5534106], [114.0968525, 22.5534376], [114.0968568, 22.5534673], [114.0968511, 22.5534967], [114.0968357, 22.5535231], [114.0968123, 22.5535438], [114.0968523, 22.5535442], [114.0968473, 22.5538751], [114.0961707, 22.5538664]]]]}}, {"type": "Feature", "id": "relation/10704444", "properties": {"tags": {"addr:city": "深圳市", "addr:district": "福田区", "addr:housenumber": "1号", "addr:province": "广东省", "addr:street": "红荔路", "amenity": "community_centre", "building": "yes", "name": "深圳市青年宫", "name:en": "Shenzhen Youth Palace", "name:zh": "深圳市青年宫"}, "heightStatus": "unknown", "source": "OpenStreetMap", "license": "ODbL-1.0"}, "geometry": {"type": "MultiPolygon", "coordinates": [[[[114.097889, 22.5516589], [114.0979038, 22.5508889], [114.0990763, 22.5509081], [114.0990614, 22.5516782], [114.097889, 22.5516589]], [[114.0982237, 22.5513663], [114.098499, 22.5513701], [114.098498, 22.5514297], [114.098823, 22.551434], [114.0988256, 22.5512715], [114.0985114, 22.5512672], [114.0985129, 22.5511763], [114.0982268, 22.5511723], [114.0982237, 22.5513663]]]]}}, {"type": "Feature", "id": "way/771863439", "properties": {"tags": {"building": "commercial", "name": "银荔大厦"}, "heightStatus": "unknown", "source": "OpenStreetMap", "license": "ODbL-1.0"}, "geometry": {"type": "MultiPolygon", "coordinates": [[[[114.0986904, 22.5506992], [114.0986932, 22.5503613], [114.0990852, 22.550364], [114.0990823, 22.550702], [114.0986904, 22.5506992]]]]}}, {"type": "Feature", "id": "way/771863440", "properties": {"tags": {"building": "commercial", "name": "银盛大厦"}, "heightStatus": "unknown", "source": "OpenStreetMap", "license": "ODbL-1.0"}, "geometry": {"type": "MultiPolygon", "coordinates": [[[[114.0973668, 22.5516519], [114.0973721, 22.5511901], [114.097664, 22.551193], [114.0976622, 22.5513444], [114.097477, 22.5513425], [114.0974751, 22.551509], [114.0976517, 22.5515107], [114.0976501, 22.5516547], [114.0973668, 22.5516519]]]]}}, {"type": "Feature", "id": "way/771863441", "properties": {"tags": {"amenity": "community_centre", "building": "yes"}, "heightStatus": "unknown", "source": "OpenStreetMap", "license": "ODbL-1.0"}, "geometry": {"type": "MultiPolygon", "coordinates": [[[[114.0982359, 22.5506464], [114.0982377, 22.5505856], [114.0982459, 22.5505398], [114.0982628, 22.5504879], [114.0982913, 22.550437], [114.0983246, 22.5503943], [114.0983648, 22.5503552], [114.0983844, 22.5503709], [114.0984157, 22.5503528], [114.0984549, 22.5503407], [114.0984863, 22.5503407], [114.0985085, 22.5503455], [114.0985244, 22.550356], [114.0985364, 22.5503727], [114.098539, 22.5503934], [114.0985364, 22.5504197], [114.0985252, 22.5504468], [114.0985192, 22.5504603], [114.0985976, 22.5505423], [114.0985502, 22.5505941], [114.0985364, 22.5506227], [114.0985356, 22.5506562], [114.0985339, 22.5506809], [114.0985227, 22.5507039], [114.0985037, 22.5507199], [114.0984761, 22.5507262], [114.0984675, 22.5507262], [114.098458, 22.5507549], [114.0984356, 22.5507493], [114.0983994, 22.5507533], [114.0983666, 22.5507692], [114.0983408, 22.5507891], [114.0983166, 22.5507756], [114.0982877, 22.5507932], [114.0982663, 22.5507541], [114.0982464, 22.5507047], [114.0982359, 22.5506464]]]]}}, {"type": "Feature", "id": "way/771863442", "properties": {"tags": {"building": "yes"}, "heightStatus": "unknown", "source": "OpenStreetMap", "license": "ODbL-1.0"}, "geometry": {"type": "MultiPolygon", "coordinates": [[[[114.0974144, 22.5510861], [114.0974171, 22.5509433], [114.097712, 22.5509482], [114.0977092, 22.5510909], [114.0974144, 22.5510861]]]]}}, {"type": "Feature", "id": "way/813759932", "properties": {"tags": {"building": "yes", "name": "1栋"}, "heightStatus": "unknown", "source": "OpenStreetMap", "license": "ODbL-1.0"}, "geometry": {"type": "MultiPolygon", "coordinates": [[[[114.0987022, 22.5520701], [114.0991609, 22.5520675], [114.0991616, 22.5521699], [114.0987029, 22.5521725], [114.0987022, 22.5520701]]]]}}, {"type": "Feature", "id": "way/813759933", "properties": {"tags": {"building": "yes", "name": "7栋"}, "heightStatus": "unknown", "source": "OpenStreetMap", "license": "ODbL-1.0"}, "geometry": {"type": "MultiPolygon", "coordinates": [[[[114.0981477, 22.5521623], [114.0981491, 22.5520653], [114.0986256, 22.5520714], [114.0986241, 22.5521684], [114.0981477, 22.5521623]]]]}}, {"type": "Feature", "id": "way/813759934", "properties": {"tags": {"building": "yes", "name": "12栋"}, "heightStatus": "unknown", "source": "OpenStreetMap", "license": "ODbL-1.0"}, "geometry": {"type": "MultiPolygon", "coordinates": [[[[114.097569, 22.5522174], [114.0975712, 22.5520579], [114.0980732, 22.5520638], [114.0980709, 22.552227], [114.0979229, 22.5522252], [114.0979235, 22.5521807], [114.0978515, 22.5521799], [114.0978509, 22.5522278], [114.0977093, 22.5522261], [114.09771, 22.5521774], [114.0976349, 22.5521765], [114.0976344, 22.5522182], [114.097569, 22.5522174]]]]}}, {"type": "Feature", "id": "way/813759935", "properties": {"tags": {"building": "yes", "name": "18栋"}, "heightStatus": "unknown", "source": "OpenStreetMap", "license": "ODbL-1.0"}, "geometry": {"type": "MultiPolygon", "coordinates": [[[[114.0971408, 22.5522215], [114.0971426, 22.552142], [114.0971791, 22.5521427], [114.0971769, 22.5520566], [114.0974866, 22.5520597], [114.0974843, 22.552164], [114.097537, 22.552165], [114.0975356, 22.5522278], [114.0974886, 22.5522269], [114.0974894, 22.5521927], [114.0974151, 22.5521913], [114.0974143, 22.5522268], [114.0972767, 22.5522243], [114.0972776, 22.5521804], [114.0972088, 22.5521791], [114.0972079, 22.5522228], [114.0971408, 22.5522215]]]]}}, {"type": "Feature", "id": "way/813759937", "properties": {"tags": {"building": "residential", "name": "6栋"}, "heightStatus": "unknown", "source": "OpenStreetMap", "license": "ODbL-1.0"}, "geometry": {"type": "MultiPolygon", "coordinates": [[[[114.0986584, 22.5535158], [114.0986611, 22.5534059], [114.0991294, 22.5534157], [114.0991267, 22.5535256], [114.0986584, 22.5535158]]]]}}, {"type": "Feature", "id": "way/813759938", "properties": {"tags": {"building": "residential", "name": "11栋"}, "heightStatus": "unknown", "source": "OpenStreetMap", "license": "ODbL-1.0"}, "geometry": {"type": "MultiPolygon", "coordinates": [[[[114.0981225, 22.5535061], [114.0981241, 22.5533986], [114.0985901, 22.5534047], [114.0985885, 22.5535121], [114.0981225, 22.5535061]]]]}}, {"type": "Feature", "id": "way/813759939", "properties": {"tags": {"building": "residential", "name": "5栋"}, "heightStatus": "unknown", "source": "OpenStreetMap", "license": "ODbL-1.0"}, "geometry": {"type": "MultiPolygon", "coordinates": [[[[114.0986539, 22.5532744], [114.0986545, 22.5531675], [114.0991315, 22.5531699], [114.0991309, 22.5532767], [114.0986539, 22.5532744]]]]}}, {"type": "Feature", "id": "way/813759940", "properties": {"tags": {"building": "residential", "name": "3栋"}, "heightStatus": "unknown", "source": "OpenStreetMap", "license": "ODbL-1.0"}, "geometry": {"type": "MultiPolygon", "coordinates": [[[[114.0986799, 22.5527131], [114.0986815, 22.5526056], [114.0991492, 22.5526113], [114.0991477, 22.5527189], [114.0986799, 22.5527131]]]]}}, {"type": "Feature", "id": "way/813759941", "properties": {"tags": {"building": "residential", "name": "9栋"}, "heightStatus": "unknown", "source": "OpenStreetMap", "license": "ODbL-1.0"}, "geometry": {"type": "MultiPolygon", "coordinates": [[[[114.0981339, 22.5527017], [114.0981355, 22.5526002], [114.0986102, 22.5526064], [114.0986086, 22.552708], [114.0981339, 22.5527017]]]]}}, {"type": "Feature", "id": "way/813759942", "properties": {"tags": {"building": "residential", "name": "10栋"}, "heightStatus": "unknown", "source": "OpenStreetMap", "license": "ODbL-1.0"}, "geometry": {"type": "MultiPolygon", "coordinates": [[[[114.0981283, 22.5532685], [114.0981303, 22.5531623], [114.0986128, 22.5531701], [114.0986108, 22.5532763], [114.0981283, 22.5532685]]]]}}, {"type": "Feature", "id": "way/813759943", "properties": {"tags": {"building": "residential", "name": "15栋"}, "heightStatus": "unknown", "source": "OpenStreetMap", "license": "ODbL-1.0"}, "geometry": {"type": "MultiPolygon", "coordinates": [[[[114.0977349, 22.5529574], [114.0977366, 22.5528388], [114.0980577, 22.5528428], [114.098056, 22.5529613], [114.0977349, 22.5529574]]]]}}, {"type": "Feature", "id": "way/813759944", "properties": {"tags": {"building": "residential", "name": "14栋"}, "heightStatus": "unknown", "source": "OpenStreetMap", "license": "ODbL-1.0"}, "geometry": {"type": "MultiPolygon", "coordinates": [[[[114.0977279, 22.5526975], [114.0977295, 22.5526011], [114.0980604, 22.552606], [114.0980588, 22.5527023], [114.0977279, 22.5526975]]]]}}, {"type": "Feature", "id": "way/813759945", "properties": {"tags": {"building": "residential", "name": "13栋"}, "heightStatus": "unknown", "source": "OpenStreetMap", "license": "ODbL-1.0"}, "geometry": {"type": "MultiPolygon", "coordinates": [[[[114.0975972, 22.5524751], [114.0975988, 22.5523608], [114.0980656, 22.5523665], [114.0980639, 22.5524808], [114.0975972, 22.5524751]]]]}}, {"type": "Feature", "id": "way/813759946", "properties": {"tags": {"building": "residential", "name": "19栋"}, "heightStatus": "unknown", "source": "OpenStreetMap", "license": "ODbL-1.0"}, "geometry": {"type": "MultiPolygon", "coordinates": [[[[114.0971329, 22.552463], [114.0971352, 22.5523546], [114.097451, 22.5523602], [114.0974488, 22.5524685], [114.0971329, 22.552463]]]]}}, {"type": "Feature", "id": "way/813759947", "properties": {"tags": {"building": "residential", "name": "20栋"}, "heightStatus": "unknown", "source": "OpenStreetMap", "license": "ODbL-1.0"}, "geometry": {"type": "MultiPolygon", "coordinates": [[[[114.097124, 22.5526974], [114.0971247, 22.552597], [114.0975829, 22.5525999], [114.0975822, 22.5527003], [114.097124, 22.5526974]]]]}}, {"type": "Feature", "id": "way/813759948", "properties": {"tags": {"building": "residential", "name": "21栋"}, "heightStatus": "unknown", "source": "OpenStreetMap", "license": "ODbL-1.0"}, "geometry": {"type": "MultiPolygon", "coordinates": [[[[114.0971088, 22.5529481], [114.0971104, 22.552834], [114.0975889, 22.5528397], [114.0975873, 22.5529539], [114.0971088, 22.5529481]]]]}}, {"type": "Feature", "id": "way/813759949", "properties": {"tags": {"building": "residential", "name": "2栋"}, "heightStatus": "unknown", "source": "OpenStreetMap", "license": "ODbL-1.0"}, "geometry": {"type": "MultiPolygon", "coordinates": [[[[114.0987407, 22.5524854], [114.0987409, 22.5523966], [114.0987873, 22.5523967], [114.0987876, 22.5523106], [114.0989083, 22.5523109], [114.098908, 22.552403], [114.0990128, 22.5524032], [114.099013, 22.5523156], [114.0990944, 22.5523158], [114.0990941, 22.5524052], [114.0991467, 22.5524054], [114.0991465, 22.5524797], [114.0990957, 22.5524796], [114.0990958, 22.5524444], [114.0990208, 22.5524442], [114.0990207, 22.5524892], [114.0988924, 22.5524889], [114.0988926, 22.5524343], [114.0988058, 22.5524341], [114.0988056, 22.5524855], [114.0987407, 22.5524854]]]]}}, {"type": "Feature", "id": "way/813759950", "properties": {"tags": {"building": "residential", "name": "8栋"}, "heightStatus": "unknown", "source": "OpenStreetMap", "license": "ODbL-1.0"}, "geometry": {"type": "MultiPolygon", "coordinates": [[[[114.0981516, 22.5524737], [114.0981519, 22.5523849], [114.0981984, 22.552385], [114.0981986, 22.5522989], [114.0983193, 22.5522992], [114.098319, 22.5523913], [114.0984239, 22.5523916], [114.0984241, 22.5523039], [114.0985054, 22.5523041], [114.0985051, 22.5523935], [114.0985578, 22.5523936], [114.0985575, 22.5524681], [114.0985068, 22.5524679], [114.0985069, 22.5524327], [114.0984318, 22.5524325], [114.0984317, 22.5524775], [114.0983035, 22.5524771], [114.0983037, 22.5524226], [114.0982168, 22.5524223], [114.0982167, 22.5524739], [114.0981516, 22.5524737]]]]}}, {"type": "Feature", "id": "way/813759951", "properties": {"tags": {"building": "residential", "name": "4栋"}, "heightStatus": "unknown", "source": "OpenStreetMap", "license": "ODbL-1.0"}, "geometry": {"type": "MultiPolygon", "coordinates": [[[[114.0987335, 22.55304], [114.0987338, 22.5529513], [114.0987802, 22.5529514], [114.0987804, 22.5528653], [114.0989011, 22.5528655], [114.0989009, 22.5529576], [114.0990057, 22.5529579], [114.0990059, 22.5528703], [114.0990872, 22.5528705], [114.099087, 22.5529599], [114.0991396, 22.55296], [114.0991394, 22.5530344], [114.0990886, 22.5530343], [114.0990887, 22.552999], [114.0990137, 22.5529988], [114.0990135, 22.5530439], [114.0988853, 22.5530436], [114.0988854, 22.5529889], [114.0987986, 22.5529887], [114.0987985, 22.5530402], [114.0987335, 22.55304]]]]}}, {"type": "Feature", "id": "way/813759952", "properties": {"tags": {"building": "residential", "name": "16栋"}, "heightStatus": "unknown", "source": "OpenStreetMap", "license": "ODbL-1.0"}, "geometry": {"type": "MultiPolygon", "coordinates": [[[[114.097623, 22.5532631], [114.0976232, 22.5531744], [114.0976696, 22.5531745], [114.0976699, 22.5530883], [114.0977905, 22.5530886], [114.0977903, 22.5531807], [114.0978951, 22.553181], [114.0978953, 22.5530934], [114.0979766, 22.5530936], [114.0979764, 22.553183], [114.098029, 22.5531831], [114.0980288, 22.5532575], [114.097978, 22.5532573], [114.0979781, 22.5532221], [114.0979031, 22.5532219], [114.097903, 22.553267], [114.0977747, 22.5532666], [114.0977749, 22.553212], [114.0976881, 22.5532118], [114.0976879, 22.5532633], [114.097623, 22.5532631]]]]}}, {"type": "Feature", "id": "way/813759953", "properties": {"tags": {"building": "residential", "name": "22栋"}, "heightStatus": "unknown", "source": "OpenStreetMap", "license": "ODbL-1.0"}, "geometry": {"type": "MultiPolygon", "coordinates": [[[[114.0971049, 22.5532558], [114.0971067, 22.5531617], [114.0971776, 22.5531629], [114.0971792, 22.553077], [114.097266, 22.5530784], [114.0972643, 22.5531716], [114.09736, 22.5531732], [114.0973617, 22.5530831], [114.0974544, 22.5530846], [114.0974528, 22.5531718], [114.0975046, 22.5531727], [114.097503, 22.5532583], [114.097442, 22.5532573], [114.0974427, 22.5532216], [114.097375, 22.5532205], [114.0973741, 22.5532649], [114.097243, 22.5532628], [114.0972441, 22.5532074], [114.0971705, 22.5532062], [114.0971695, 22.5532568], [114.0971049, 22.5532558]]]]}}, {"type": "Feature", "id": "way/813759955", "properties": {"tags": {"building": "residential", "name": "17栋"}, "heightStatus": "unknown", "source": "OpenStreetMap", "license": "ODbL-1.0"}, "geometry": {"type": "MultiPolygon", "coordinates": [[[[114.0976308, 22.5534979], [114.0976329, 22.5533909], [114.0979552, 22.5533962], [114.0979531, 22.5535032], [114.0976308, 22.5534979]]]]}}, {"type": "Feature", "id": "way/813759956", "properties": {"tags": {"building": "residential", "name": "23栋"}, "heightStatus": "unknown", "source": "OpenStreetMap", "license": "ODbL-1.0"}, "geometry": {"type": "MultiPolygon", "coordinates": [[[[114.0971132, 22.5534875], [114.0971151, 22.5533857], [114.0975904, 22.5533931], [114.0975885, 22.553495], [114.0971132, 22.5534875]]]]}}, {"type": "Feature", "id": "way/813759957", "properties": {"tags": {"building": "yes"}, "heightStatus": "unknown", "source": "OpenStreetMap", "license": "ODbL-1.0"}, "geometry": {"type": "MultiPolygon", "coordinates": [[[[114.0966722, 22.5532486], [114.0966735, 22.553185], [114.0967331, 22.5531861], [114.0967317, 22.5532497], [114.0966722, 22.5532486]]]]}}, {"type": "Feature", "id": "way/813759958", "properties": {"tags": {"building": "yes"}, "heightStatus": "unknown", "source": "OpenStreetMap", "license": "ODbL-1.0"}, "geometry": {"type": "MultiPolygon", "coordinates": [[[[114.0964219, 22.553245], [114.0964227, 22.553186], [114.0966289, 22.5531882], [114.0966282, 22.5532471], [114.0964219, 22.553245]]]]}}, {"type": "Feature", "id": "way/813759963", "properties": {"tags": {"addr:housenumber": "30", "building": "apartments", "name": "30栋"}, "heightStatus": "unknown", "source": "OpenStreetMap", "license": "ODbL-1.0"}, "geometry": {"type": "MultiPolygon", "coordinates": [[[[114.0950884, 22.5524737], [114.0950898, 22.5523302], [114.0956397, 22.5523346], [114.0956386, 22.5524405], [114.0952053, 22.552437], [114.095205, 22.5524747], [114.0950884, 22.5524737]]]]}}, {"type": "Feature", "id": "way/813759964", "properties": {"tags": {"addr:housenumber": "33", "building": "apartments", "name": "33栋"}, "heightStatus": "unknown", "source": "OpenStreetMap", "license": "ODbL-1.0"}, "geometry": {"type": "MultiPolygon", "coordinates": [[[[114.0953472, 22.5528908], [114.0953485, 22.5527821], [114.0957519, 22.5527854], [114.0957507, 22.552896], [114.0953472, 22.5528908]]]]}}, {"type": "Feature", "id": "way/813759969", "properties": {"tags": {"building": "kindergarten", "name": "深圳市第四幼儿园"}, "heightStatus": "unknown", "source": "OpenStreetMap", "license": "ODbL-1.0"}, "geometry": {"type": "MultiPolygon", "coordinates": [[[[114.0932613, 22.5528141], [114.0932635, 22.5526203], [114.0936982, 22.5526245], [114.0936959, 22.5528184], [114.0932613, 22.5528141]]]]}}, {"type": "Feature", "id": "way/813759972", "properties": {"tags": {"amenity": "restaurant", "building": "yes"}, "heightStatus": "unknown", "source": "OpenStreetMap", "license": "ODbL-1.0"}, "geometry": {"type": "MultiPolygon", "coordinates": [[[[114.0961594, 22.5530211], [114.096162, 22.552909], [114.0962115, 22.55291], [114.0962176, 22.5526492], [114.0963012, 22.5526508], [114.0962954, 22.5529011], [114.0963795, 22.5529028], [114.0963781, 22.5529627], [114.0964488, 22.5529641], [114.0964474, 22.5530258], [114.0965686, 22.5530282], [114.0965695, 22.5529912], [114.0966254, 22.5529923], [114.0966268, 22.5529331], [114.0966912, 22.5529344], [114.0966883, 22.5530589], [114.0968545, 22.5530622], [114.0968518, 22.5531783], [114.0964184, 22.5531698], [114.0964193, 22.5531291], [114.0963553, 22.5531278], [114.0963577, 22.553025], [114.0961594, 22.5530211]]]]}}, {"type": "Feature", "id": "way/813759976", "properties": {"tags": {"addr:housenumber": "37", "building": "apartments", "name": "37栋"}, "heightStatus": "unknown", "source": "OpenStreetMap", "license": "ODbL-1.0"}, "geometry": {"type": "MultiPolygon", "coordinates": [[[[114.0957374, 22.5537729], [114.0957479, 22.5531195], [114.0958185, 22.5531204], [114.0958179, 22.5531591], [114.0959165, 22.5531604], [114.0959109, 22.5535058], [114.0958065, 22.5535044], [114.0958049, 22.5536001], [114.0959039, 22.5536015], [114.0959019, 22.5537271], [114.095805, 22.5537258], [114.0958042, 22.5537738], [114.0957374, 22.5537729]]]]}}, {"type": "Feature", "id": "way/813759977", "properties": {"tags": {"addr:housenumber": "42", "building": "apartments", "name": "42栋"}, "heightStatus": "unknown", "source": "OpenStreetMap", "license": "ODbL-1.0"}, "geometry": {"type": "MultiPolygon", "coordinates": [[[[114.0951639, 22.5537015], [114.0951656, 22.5536121], [114.095335, 22.5536149], [114.0953332, 22.5537073], [114.0952904, 22.5537066], [114.095289, 22.5537802], [114.0953251, 22.5537808], [114.0953237, 22.5538555], [114.0951708, 22.553853], [114.0951721, 22.5537845], [114.0952139, 22.5537852], [114.0952154, 22.5537023], [114.0951639, 22.5537015]]]]}}, {"type": "Feature", "id": "way/813759979", "properties": {"tags": {"addr:housenumber": "45", "building": "apartments", "name": "45栋"}, "heightStatus": "unknown", "source": "OpenStreetMap", "license": "ODbL-1.0"}, "geometry": {"type": "MultiPolygon", "coordinates": [[[[114.0947649, 22.5537974], [114.0947652, 22.553695], [114.0948637, 22.5536952], [114.0948634, 22.5538046], [114.094899, 22.5538047], [114.0948989, 22.5538789], [114.0948357, 22.5538788], [114.0948355, 22.5539479], [114.0951712, 22.553949], [114.0951725, 22.5539597], [114.0952191, 22.55396], [114.0952189, 22.5540332], [114.0951993, 22.5540332], [114.0951992, 22.5540538], [114.0951671, 22.5540538], [114.0951672, 22.554032], [114.0951021, 22.5540319], [114.095102, 22.5540528], [114.0950688, 22.5540527], [114.0950689, 22.5540405], [114.0950352, 22.5540404], [114.0950352, 22.554052], [114.095025, 22.554052], [114.0950251, 22.5540248], [114.0949324, 22.5540246], [114.0949324, 22.5540493], [114.0949056, 22.5540493], [114.0949056, 22.5540399], [114.0948626, 22.5540399], [114.0948626, 22.5540219], [114.0947935, 22.5540218], [114.0947937, 22.5539374], [114.0947673, 22.5539373], [114.0947675, 22.5538588], [114.0948316, 22.5538589], [114.0948318, 22.5537975], [114.0947649, 22.5537974]]]]}}, {"type": "Feature", "id": "way/813759980", "properties": {"tags": {"addr:housenumber": "39", "building": "apartments", "name": "39栋"}, "heightStatus": "unknown", "source": "OpenStreetMap", "license": "ODbL-1.0"}, "geometry": {"type": "MultiPolygon", "coordinates": [[[[114.0947865, 22.5532367], [114.0947886, 22.5531463], [114.0948136, 22.5531468], [114.0948154, 22.5530664], [114.0948792, 22.5530676], [114.0948798, 22.553043], [114.0952011, 22.5530493], [114.0951988, 22.5531507], [114.0948633, 22.5531442], [114.0948612, 22.5532381], [114.0947865, 22.5532367]]]]}}, {"type": "Feature", "id": "way/813759981", "properties": {"tags": {"addr:housenumber": "38", "building": "apartments", "name": "38栋"}, "heightStatus": "unknown", "source": "OpenStreetMap", "license": "ODbL-1.0"}, "geometry": {"type": "MultiPolygon", "coordinates": [[[[114.0953542, 22.5531511], [114.0953554, 22.5530507], [114.0956371, 22.5530535], [114.095636, 22.5531539], [114.0953542, 22.5531511]]]]}}, {"type": "Feature", "id": "way/813759982", "properties": {"tags": {"addr:housenumber": "40", "building": "apartments", "name": "40栋"}, "heightStatus": "unknown", "source": "OpenStreetMap", "license": "ODbL-1.0"}, "geometry": {"type": "MultiPolygon", "coordinates": [[[[114.0951686, 22.5534023], [114.095229, 22.5534026], [114.095228, 22.5533204], [114.0951689, 22.5533199], [114.0951697, 22.553238], [114.0953346, 22.5532393], [114.0953338, 22.5533251], [114.0952923, 22.5533248], [114.0952915, 22.5534049], [114.0953389, 22.5534053], [114.0953381, 22.5534835], [114.095169, 22.5534831], [114.0951686, 22.5534023]]]]}}, {"type": "Feature", "id": "way/813759983", "properties": {"tags": {"building": "school"}, "heightStatus": "unknown", "source": "OpenStreetMap", "license": "ODbL-1.0"}, "geometry": {"type": "MultiPolygon", "coordinates": [[[[114.0932747, 22.5531162], [114.0932748, 22.553042], [114.0934256, 22.5530422], [114.0934255, 22.5531165], [114.0932747, 22.5531162]]]]}}, {"type": "Feature", "id": "way/1239038560", "properties": {"tags": {"building": "office", "name": "深圳市信访局", "office": "government"}, "heightStatus": "unknown", "source": "OpenStreetMap", "license": "ODbL-1.0"}, "geometry": {"type": "MultiPolygon", "coordinates": [[[[114.0943067, 22.5454334], [114.0943155, 22.5450037], [114.0947695, 22.5450116], [114.0947607, 22.5454413], [114.0943067, 22.5454334]]]]}}, {"type": "Feature", "id": "way/1239038561", "properties": {"tags": {"building": "office"}, "heightStatus": "unknown", "source": "OpenStreetMap", "license": "ODbL-1.0"}, "geometry": {"type": "MultiPolygon", "coordinates": [[[[114.0942864, 22.5460707], [114.0942898, 22.5458097], [114.0943789, 22.5458106], [114.0945946, 22.5459723], [114.0945933, 22.5460741], [114.0942864, 22.5460707]]]]}}, {"type": "Feature", "id": "way/1239038562", "properties": {"tags": {"building": "yes"}, "heightStatus": "unknown", "source": "OpenStreetMap", "license": "ODbL-1.0"}, "geometry": {"type": "MultiPolygon", "coordinates": [[[[114.0946338, 22.5461103], [114.0946357, 22.545976], [114.0949307, 22.5459796], [114.0949342, 22.545729], [114.0950098, 22.54573], [114.0950053, 22.5460525], [114.0947183, 22.5460491], [114.0947175, 22.5461113], [114.0946338, 22.5461103]]]]}}, {"type": "Feature", "id": "way/1239038565", "properties": {"tags": {"building": "office"}, "heightStatus": "unknown", "source": "OpenStreetMap", "license": "ODbL-1.0"}, "geometry": {"type": "MultiPolygon", "coordinates": [[[[114.0944899, 22.5461604], [114.0949467, 22.5461455], [114.0949521, 22.5462849], [114.0947802, 22.5462905], [114.0947867, 22.5464617], [114.0945938, 22.5464963], [114.0945467, 22.5464524], [114.0945456, 22.5464216], [114.0945295, 22.5464221], [114.094527, 22.5463569], [114.0944975, 22.5463579], [114.0944899, 22.5461604]]]]}}, {"type": "Feature", "id": "way/1252773716", "properties": {"tags": {"building": "residential"}, "heightStatus": "unknown", "source": "OpenStreetMap", "license": "ODbL-1.0"}, "geometry": {"type": "MultiPolygon", "coordinates": [[[[114.0974965, 22.5455908], [114.0975213, 22.5453055], [114.0977341, 22.5453214], [114.0977273, 22.5453996], [114.0976139, 22.5453912], [114.0975959, 22.5455982], [114.0974965, 22.5455908]]]]}}, {"type": "Feature", "id": "way/1283291796", "properties": {"tags": {"building": "train_station", "building:levels": "0", "building:levels:underground": "3", "layer": "-1", "location": "underground", "name": "红岭站", "name:en": "Hongling Station", "name:zh": "红岭站", "public_transport": "station", "start_date": "2011-06-28", "wikidata": "Q5895901", "wikipedia": "zh:红岭站"}, "heightStatus": "levels_only_unverified", "source": "OpenStreetMap", "license": "ODbL-1.0"}, "geometry": {"type": "MultiPolygon", "coordinates": [[[[114.0947449, 22.5519228], [114.0947466, 22.5517401], [114.0978426, 22.5517461], [114.0978384, 22.5515056], [114.097934, 22.5515043], [114.0979367, 22.551674], [114.097895, 22.5516745], [114.0978963, 22.5517454], [114.0987197, 22.5517476], [114.0987171, 22.5516381], [114.0987268, 22.5516381], [114.0987264, 22.5515588], [114.0990608, 22.5512992], [114.0991104, 22.5512613], [114.099155, 22.5512618], [114.099154, 22.551164], [114.0992089, 22.5511633], [114.0992105, 22.5512627], [114.0992926, 22.5512616], [114.0992785, 22.5503815], [114.0992615, 22.5503818], [114.099259, 22.5502202], [114.0991281, 22.550222], [114.099127, 22.5501575], [114.0990494, 22.5501585], [114.0990485, 22.5500978], [114.0990835, 22.5500974], [114.0990812, 22.5499545], [114.0991248, 22.5499539], [114.0991233, 22.5498574], [114.0992111, 22.5498562], [114.0992119, 22.5499044], [114.099184, 22.5499048], [114.0991845, 22.5499375], [114.0991976, 22.5499373], [114.0991985, 22.5499906], [114.0992107, 22.5499905], [114.0992114, 22.5500347], [114.0992584, 22.550034], [114.0992582, 22.5500257], [114.0993876, 22.550024], [114.0993912, 22.5502472], [114.0995064, 22.5502456], [114.0995139, 22.5507117], [114.0995647, 22.550711], [114.0995612, 22.5504956], [114.0995781, 22.5504954], [114.0995754, 22.5503289], [114.099611, 22.5503284], [114.099618, 22.5507641], [114.0995034, 22.5507657], [114.099515, 22.5514944], [114.0995259, 22.5514942], [114.0995274, 22.5515913], [114.0995684, 22.5515907], [114.099567, 22.5515046], [114.0996303, 22.5515037], [114.0996328, 22.5516592], [114.0997346, 22.552079], [114.0996741, 22.5520796], [114.0995613, 22.5516613], [114.0995278, 22.5516606], [114.099528, 22.5516729], [114.0992542, 22.5516766], [114.099254, 22.5516667], [114.0992113, 22.5516673], [114.0992112, 22.5516584], [114.0990944, 22.55166], [114.0990945, 22.5516677], [114.0992031, 22.5516662], [114.099204, 22.5517241], [114.0992057, 22.5517241], [114.0992053, 22.5519558], [114.0996551, 22.5520813], [114.0996372, 22.5521415], [114.0992226, 22.5520218], [114.0989826, 22.5520244], [114.098982, 22.551988], [114.0985665, 22.5519937], [114.0985658, 22.5519483], [114.0989228, 22.5519435], [114.0989225, 22.5519258], [114.0978821, 22.5519328], [114.0978823, 22.5519857], [114.097457, 22.551985], [114.0974576, 22.5519411], [114.0978292, 22.5519402], [114.0978293, 22.5519284], [114.0969373, 22.5519276], [114.0969332, 22.5521438], [114.0968831, 22.5521449], [114.0968864, 22.5519283], [114.0947449, 22.5519228]]]]}}, {"type": "Feature", "id": "way/1363506061", "properties": {"tags": {"building": "yes"}, "heightStatus": "unknown", "source": "OpenStreetMap", "license": "ODbL-1.0"}, "geometry": {"type": "MultiPolygon", "coordinates": [[[[114.0960505, 22.5500214], [114.0961973, 22.5499285], [114.096236, 22.5499806], [114.0960891, 22.5500734], [114.0960505, 22.5500214]]]]}}, {"type": "Feature", "id": "way/1363506065", "properties": {"tags": {"building": "yes"}, "heightStatus": "unknown", "source": "OpenStreetMap", "license": "ODbL-1.0"}, "geometry": {"type": "MultiPolygon", "coordinates": [[[[114.0959166, 22.5493097], [114.096036, 22.5492961], [114.0960512, 22.5494095], [114.0959318, 22.5494231], [114.0959166, 22.5493097]]]]}}, {"type": "Feature", "id": "way/1363506067", "properties": {"tags": {"building": "yes"}, "heightStatus": "unknown", "source": "OpenStreetMap", "license": "ODbL-1.0"}, "geometry": {"type": "MultiPolygon", "coordinates": [[[[114.0957969, 22.5495799], [114.0958258, 22.5494974], [114.0959251, 22.5495272], [114.0958961, 22.5496096], [114.0957969, 22.5495799]]]]}}, {"type": "Feature", "id": "way/1363506074", "properties": {"tags": {"building": "yes"}, "heightStatus": "unknown", "source": "OpenStreetMap", "license": "ODbL-1.0"}, "geometry": {"type": "MultiPolygon", "coordinates": [[[[114.0973283, 22.5476254], [114.0973305, 22.5475538], [114.0974669, 22.5475574], [114.0974679, 22.5475245], [114.0975853, 22.5475276], [114.0975836, 22.5475833], [114.0974665, 22.5475802], [114.097465, 22.547629], [114.0973283, 22.5476254]]]]}}, {"type": "Feature", "id": "way/1363506075", "properties": {"tags": {"building": "yes"}, "heightStatus": "unknown", "source": "OpenStreetMap", "license": "ODbL-1.0"}, "geometry": {"type": "MultiPolygon", "coordinates": [[[[114.0973949, 22.547761], [114.0973977, 22.547667], [114.0975466, 22.5476707], [114.0975438, 22.5477647], [114.0973949, 22.547761]]]]}}, {"type": "Feature", "id": "relation/19034067", "properties": {"tags": {"building": "yes", "name": "机关食堂"}, "heightStatus": "unknown", "source": "OpenStreetMap", "license": "ODbL-1.0"}, "geometry": {"type": "MultiPolygon", "coordinates": [[[[114.0927493, 22.5476314], [114.0927528, 22.5474999], [114.0929273, 22.5472411], [114.0931311, 22.5473584], [114.093138, 22.547348], [114.0934398, 22.5475214], [114.0934182, 22.5475535], [114.0936503, 22.5476869], [114.0936094, 22.5477475], [114.0935956, 22.5477396], [114.0935195, 22.5478527], [114.0930798, 22.5476005], [114.0930544, 22.5476383], [114.0927493, 22.5476314]], [[114.0928165, 22.5475574], [114.0929689, 22.547562], [114.0929881, 22.5475332], [114.092886, 22.5474751], [114.0929828, 22.54733], [114.0929515, 22.5473122], [114.092818, 22.5475123], [114.0928165, 22.5475574]]]]}}, {"type": "Feature", "id": "way/1385987034", "properties": {"tags": {"addr:housenumber": "32", "building": "apartments", "name": "32栋"}, "heightStatus": "unknown", "source": "OpenStreetMap", "license": "ODbL-1.0"}, "geometry": {"type": "MultiPolygon", "coordinates": [[[[114.0932157, 22.5522334], [114.0932172, 22.5521487], [114.0933439, 22.5521505], [114.0933424, 22.5522416], [114.0933716, 22.552242], [114.0933701, 22.5523402], [114.0933072, 22.5523394], [114.0933066, 22.552382], [114.0933842, 22.552383], [114.0933845, 22.5523583], [114.093482, 22.5523595], [114.0934817, 22.5523822], [114.0935187, 22.5523826], [114.093519, 22.5523616], [114.0936178, 22.5523625], [114.0936175, 22.5523852], [114.0936555, 22.5523855], [114.0936557, 22.5523668], [114.0937501, 22.5523675], [114.0937499, 22.5523926], [114.0937806, 22.5523929], [114.0937802, 22.5524395], [114.093768, 22.5524394], [114.0937677, 22.5524893], [114.0937076, 22.5524889], [114.0937077, 22.552474], [114.0936892, 22.5524739], [114.0936891, 22.5524887], [114.093652, 22.5524884], [114.093652, 22.5524819], [114.0936216, 22.5524817], [114.0936215, 22.5524901], [114.093584, 22.5524898], [114.0935842, 22.5524694], [114.0935501, 22.5524692], [114.0935499, 22.5524883], [114.0935184, 22.5524881], [114.0935185, 22.5524761], [114.0934823, 22.5524758], [114.0934822, 22.5524842], [114.0934475, 22.5524838], [114.0934476, 22.5524698], [114.0934154, 22.5524694], [114.0934151, 22.5524861], [114.0933774, 22.5524856], [114.0933776, 22.5524771], [114.0933591, 22.5524769], [114.0933592, 22.5524668], [114.0932513, 22.5524653], [114.0932528, 22.5523778], [114.0932222, 22.5523774], [114.0932236, 22.5522922], [114.0932909, 22.5522932], [114.0932919, 22.5522345], [114.0932157, 22.5522334]]]]}}, {"type": "Feature", "id": "way/1385987035", "properties": {"tags": {"addr:housenumber": "36", "building": "apartments", "name": "36栋"}, "heightStatus": "unknown", "source": "OpenStreetMap", "license": "ODbL-1.0"}, "geometry": {"type": "MultiPolygon", "coordinates": [[[[114.0937939, 22.5527932], [114.0937947, 22.552696], [114.0938605, 22.5526964], [114.0938609, 22.5526459], [114.0937986, 22.5526454], [114.0937994, 22.552553], [114.0939131, 22.5525538], [114.0939124, 22.5526399], [114.0939429, 22.5526401], [114.093942, 22.5527381], [114.0938719, 22.5527376], [114.0938714, 22.5527993], [114.0938998, 22.5527995], [114.0938998, 22.552794], [114.093958, 22.5527945], [114.0939582, 22.5527648], [114.094059, 22.5527657], [114.0940588, 22.5527878], [114.0940929, 22.5527881], [114.0940931, 22.5527702], [114.0941888, 22.5527711], [114.0941885, 22.5527973], [114.0942153, 22.5527975], [114.0942142, 22.5528938], [114.0941458, 22.5528932], [114.094146, 22.5528734], [114.0941206, 22.5528731], [114.0941204, 22.5528932], [114.0940875, 22.5528929], [114.0940876, 22.5528864], [114.0940539, 22.5528861], [114.0940538, 22.5528946], [114.0940139, 22.5528942], [114.0940141, 22.5528767], [114.0939901, 22.5528765], [114.0939899, 22.5528962], [114.0939501, 22.5528959], [114.0939502, 22.5528847], [114.093931, 22.5528846], [114.093931, 22.5528788], [114.093826, 22.552878], [114.0938268, 22.5527935], [114.0937939, 22.5527932]]]]}}, {"type": "Feature", "id": "way/1385987036", "properties": {"tags": {"addr:housenumber": "35", "building": "apartments", "name": "35栋"}, "heightStatus": "unknown", "source": "OpenStreetMap", "license": "ODbL-1.0"}, "geometry": {"type": "MultiPolygon", "coordinates": [[[[114.0942882, 22.5528945], [114.0942887, 22.5527982], [114.0943155, 22.5527983], [114.0943157, 22.5527721], [114.0944114, 22.5527726], [114.0944113, 22.5527904], [114.0944454, 22.5527906], [114.0944455, 22.5527685], [114.0945463, 22.5527691], [114.0945461, 22.5527988], [114.0946042, 22.5527991], [114.0946041, 22.5528046], [114.0946326, 22.5528048], [114.0946331, 22.5527432], [114.0945629, 22.5527427], [114.0945638, 22.5526446], [114.0945942, 22.5526448], [114.094595, 22.5525588], [114.0947087, 22.5525597], [114.0947079, 22.5526521], [114.0946456, 22.5526516], [114.0946452, 22.5527022], [114.094711, 22.5527027], [114.0947101, 22.5527999], [114.0946773, 22.5527997], [114.0946766, 22.5528842], [114.0945716, 22.5528835], [114.0945715, 22.5528893], [114.0945523, 22.5528892], [114.0945522, 22.5529003], [114.0945124, 22.5529001], [114.0945125, 22.5528804], [114.0944886, 22.5528802], [114.0944885, 22.5528977], [114.0944486, 22.5528975], [114.0944486, 22.552889], [114.0944149, 22.5528888], [114.0944149, 22.5528954], [114.094382, 22.5528952], [114.0943822, 22.5528751], [114.0943567, 22.552875], [114.0943566, 22.5528948], [114.0942882, 22.5528945]]]]}}, {"type": "Feature", "id": "way/1385987037", "properties": {"tags": {"addr:housenumber": "31", "building": "apartments", "name": "31栋"}, "heightStatus": "unknown", "source": "OpenStreetMap", "license": "ODbL-1.0"}, "geometry": {"type": "MultiPolygon", "coordinates": [[[[114.0938421, 22.5524516], [114.0938445, 22.5523595], [114.0938668, 22.55236], [114.0938676, 22.5523321], [114.0939535, 22.5523341], [114.0939527, 22.5523648], [114.0940016, 22.552366], [114.0940025, 22.5523362], [114.0940874, 22.5523383], [114.0940865, 22.5523691], [114.0941406, 22.5523705], [114.0941416, 22.5523375], [114.0942277, 22.5523397], [114.0942269, 22.5523643], [114.0942528, 22.552365], [114.0942519, 22.5523922], [114.0942994, 22.5523935], [114.0943004, 22.5523645], [114.0943597, 22.5523654], [114.0943573, 22.5524864], [114.0942737, 22.5524854], [114.094275, 22.5524437], [114.0942385, 22.5524427], [114.094238, 22.5524599], [114.0941991, 22.5524589], [114.0941997, 22.5524387], [114.094167, 22.5524378], [114.0941664, 22.552457], [114.0941301, 22.552456], [114.0941304, 22.552444], [114.0940981, 22.5524432], [114.0940978, 22.5524546], [114.0940614, 22.5524538], [114.0940618, 22.5524387], [114.0940372, 22.5524381], [114.0940366, 22.5524587], [114.0939924, 22.5524577], [114.0939926, 22.5524465], [114.0939592, 22.5524458], [114.093959, 22.5524544], [114.0939264, 22.5524537], [114.0939269, 22.552435], [114.0939028, 22.5524345], [114.0939024, 22.5524529], [114.0938421, 22.5524516]]]]}}, {"type": "Feature", "id": "way/1385987038", "properties": {"tags": {"building": "apartments", "layer": "1", "name": "荔湖花苑"}, "heightStatus": "unknown", "source": "OpenStreetMap", "license": "ODbL-1.0"}, "geometry": {"type": "MultiPolygon", "coordinates": [[[[114.0944808, 22.5521699], [114.0944823, 22.552093], [114.0945383, 22.5520939], [114.0945401, 22.5520015], [114.0945631, 22.5520019], [114.0945634, 22.5519877], [114.0946657, 22.5519894], [114.0946654, 22.5520024], [114.0946978, 22.552003], [114.0946959, 22.5520966], [114.0948109, 22.5520985], [114.0948129, 22.5520014], [114.0948349, 22.5520018], [114.0948352, 22.5519887], [114.0949495, 22.5519906], [114.0949493, 22.5520022], [114.0949772, 22.5520026], [114.0949754, 22.5520938], [114.0950318, 22.5520948], [114.0950302, 22.5521768], [114.0949768, 22.5521759], [114.0949751, 22.5522624], [114.0949451, 22.5522619], [114.0949448, 22.552276], [114.0948299, 22.5522741], [114.0948301, 22.5522638], [114.0948019, 22.5522633], [114.0948035, 22.5521816], [114.0947011, 22.5521799], [114.0946995, 22.5522608], [114.0946712, 22.5522603], [114.094671, 22.5522672], [114.0945574, 22.5522654], [114.0945577, 22.5522528], [114.0945314, 22.5522524], [114.094533, 22.5521708], [114.0944808, 22.5521699]]]]}}, {"type": "Feature", "id": "way/1385987039", "properties": {"tags": {"building": "yes"}, "heightStatus": "unknown", "source": "OpenStreetMap", "license": "ODbL-1.0"}, "geometry": {"type": "MultiPolygon", "coordinates": [[[[114.0944685, 22.552272], [114.0944794, 22.5520021], [114.0945141, 22.5519826], [114.09501, 22.5519896], [114.0950404, 22.5520177], [114.0950337, 22.5522806], [114.0944685, 22.552272]]]]}}, {"type": "Feature", "id": "way/1385987040", "properties": {"tags": {"addr:housenumber": "28", "building": "apartments", "layer": "1", "name": "28栋"}, "heightStatus": "unknown", "source": "OpenStreetMap", "license": "ODbL-1.0"}, "geometry": {"type": "MultiPolygon", "coordinates": [[[[114.0933162, 22.5520014], [114.0933166, 22.5519771], [114.0933572, 22.5519777], [114.0933575, 22.5519587], [114.0934307, 22.5519597], [114.0934294, 22.5519888], [114.0934923, 22.5519897], [114.0934928, 22.5519609], [114.093571, 22.5519619], [114.0935706, 22.5519878], [114.0936273, 22.5519886], [114.0936277, 22.551959], [114.0937134, 22.5519601], [114.093713, 22.5519876], [114.0937441, 22.551988], [114.0937434, 22.5520311], [114.0937247, 22.5520308], [114.0937239, 22.5520772], [114.0936793, 22.5520766], [114.0936796, 22.5520567], [114.0936309, 22.552056], [114.0936305, 22.5520779], [114.0935481, 22.5520767], [114.0935484, 22.5520577], [114.0934984, 22.552057], [114.093498, 22.5520779], [114.0934089, 22.5520766], [114.0934092, 22.5520578], [114.093383, 22.5520574], [114.0933827, 22.5520768], [114.0933351, 22.5520761], [114.0933363, 22.5520017], [114.0933162, 22.5520014]]]]}}, {"type": "Feature", "id": "way/1385987041", "properties": {"tags": {"building": "retail"}, "heightStatus": "unknown", "source": "OpenStreetMap", "license": "ODbL-1.0"}, "geometry": {"type": "MultiPolygon", "coordinates": [[[[114.0933103, 22.5520782], [114.0933126, 22.5519174], [114.0937522, 22.5519228], [114.09375, 22.5520835], [114.0933103, 22.5520782]]]]}}, {"type": "Feature", "id": "way/1385987042", "properties": {"tags": {"addr:housenumber": "27", "building": "apartments", "layer": "1", "name": "27栋"}, "heightStatus": "unknown", "source": "OpenStreetMap", "license": "ODbL-1.0"}, "geometry": {"type": "MultiPolygon", "coordinates": [[[[114.0938191, 22.5519826], [114.0938523, 22.5519825], [114.0938526, 22.5519636], [114.0939258, 22.5519647], [114.0939253, 22.5519932], [114.0939871, 22.5519942], [114.0939876, 22.5519654], [114.0940664, 22.5519666], [114.0940659, 22.5519972], [114.0941157, 22.5519979], [114.0941162, 22.551967], [114.094204, 22.5519683], [114.0942034, 22.5520029], [114.0942496, 22.5520036], [114.0942502, 22.5519723], [114.0943411, 22.5519737], [114.0943407, 22.5519961], [114.094364, 22.5519965], [114.0943631, 22.5520433], [114.0943467, 22.5520431], [114.094346, 22.5520836], [114.0943104, 22.552083], [114.0943107, 22.5520695], [114.094257, 22.5520686], [114.0942567, 22.5520838], [114.0941825, 22.5520826], [114.0941828, 22.5520647], [114.0941274, 22.5520638], [114.094127, 22.5520841], [114.0940422, 22.5520827], [114.0940426, 22.5520636], [114.0939945, 22.5520628], [114.0939941, 22.5520837], [114.0939034, 22.5520822], [114.0939038, 22.5520633], [114.0938788, 22.5520629], [114.0938785, 22.5520822], [114.0938298, 22.5520814], [114.0938312, 22.5520068], [114.0938195, 22.5520069], [114.0938191, 22.5519826]]]]}}, {"type": "Feature", "id": "way/1385987043", "properties": {"tags": {"building": "retail"}, "heightStatus": "unknown", "source": "OpenStreetMap", "license": "ODbL-1.0"}, "geometry": {"type": "MultiPolygon", "coordinates": [[[[114.0938152, 22.552088], [114.0938172, 22.5519232], [114.0943687, 22.5519287], [114.0943667, 22.5520934], [114.0938152, 22.552088]]]]}}, {"type": "Feature", "id": "way/1385987045", "properties": {"tags": {"addr:housenumber": "34", "building": "apartments", "name": "34栋"}, "heightStatus": "unknown", "source": "OpenStreetMap", "license": "ODbL-1.0"}, "geometry": {"type": "MultiPolygon", "coordinates": [[[[114.0947846, 22.5527985], [114.0947866, 22.5527063], [114.0948421, 22.5527074], [114.0948435, 22.5526458], [114.0947855, 22.5526447], [114.0947875, 22.5525564], [114.0948961, 22.5525585], [114.0948942, 22.5526443], [114.094921, 22.5526448], [114.094919, 22.5527335], [114.0948588, 22.5527323], [114.0948573, 22.5527986], [114.0949419, 22.5528002], [114.0949425, 22.5527734], [114.0950364, 22.5527752], [114.0950359, 22.5527951], [114.0950786, 22.5527959], [114.0950792, 22.5527691], [114.0951781, 22.552771], [114.0951775, 22.5527951], [114.0952043, 22.5527956], [114.0952032, 22.5528467], [114.0951939, 22.5528465], [114.0951928, 22.5528939], [114.0948074, 22.5528867], [114.0948093, 22.5527989], [114.0947846, 22.5527985]]]]}}, {"type": "Feature", "id": "way/1385987046", "properties": {"tags": {"building": "retail"}, "heightStatus": "unknown", "source": "OpenStreetMap", "license": "ODbL-1.0"}, "geometry": {"type": "MultiPolygon", "coordinates": [[[[114.0951397, 22.5521864], [114.0951431, 22.5519709], [114.0957216, 22.5519786], [114.0957213, 22.5519994], [114.0958867, 22.5520016], [114.0958853, 22.5520967], [114.095955, 22.5520976], [114.0959534, 22.5521973], [114.0957671, 22.5521948], [114.0951397, 22.5521864]]]]}}, {"type": "Feature", "id": "way/1385987047", "properties": {"tags": {"addr:housenumber": "26", "building": "apartments", "layer": "1", "name": "26栋"}, "heightStatus": "unknown", "source": "OpenStreetMap", "license": "ODbL-1.0"}, "geometry": {"type": "MultiPolygon", "coordinates": [[[[114.0952123, 22.5521103], [114.0952149, 22.5520017], [114.0953674, 22.5520049], [114.095367, 22.5520215], [114.0953647, 22.5521135], [114.0952123, 22.5521103]]]]}}, {"type": "Feature", "id": "way/1385987048", "properties": {"tags": {"addr:housenumber": "25", "building": "apartments", "layer": "1", "name": "25栋"}, "heightStatus": "unknown", "source": "OpenStreetMap", "license": "ODbL-1.0"}, "geometry": {"type": "MultiPolygon", "coordinates": [[[[114.0954749, 22.5521111], [114.0954776, 22.5520025], [114.09563, 22.5520056], [114.0956274, 22.5521142], [114.0954749, 22.5521111]]]]}}, {"type": "Feature", "id": "way/1385987049", "properties": {"tags": {"addr:housenumber": "24", "building": "apartments", "layer": "1", "name": "24栋"}, "heightStatus": "unknown", "source": "OpenStreetMap", "license": "ODbL-1.0"}, "geometry": {"type": "MultiPolygon", "coordinates": [[[[114.095729, 22.5521131], [114.0957316, 22.5520045], [114.0958841, 22.5520077], [114.0958814, 22.5521163], [114.095729, 22.5521131]]]]}}, {"type": "Feature", "id": "way/1385987050", "properties": {"tags": {"building": "retail", "name": "29栋"}, "heightStatus": "unknown", "source": "OpenStreetMap", "license": "ODbL-1.0"}, "geometry": {"type": "MultiPolygon", "coordinates": [[[[114.0957577, 22.5529022], [114.0957671, 22.5521948], [114.0959534, 22.5521973], [114.0959468, 22.5529041], [114.0957577, 22.5529022]]]]}}, {"type": "Feature", "id": "way/1385987051", "properties": {"tags": {"building": "apartments", "layer": "1"}, "heightStatus": "unknown", "source": "OpenStreetMap", "license": "ODbL-1.0"}, "geometry": {"type": "MultiPolygon", "coordinates": [[[[114.0958089, 22.5526397], [114.0958109, 22.5525184], [114.0959438, 22.5525202], [114.0959419, 22.5526415], [114.0958089, 22.5526397]]]]}}, {"type": "Feature", "id": "way/1385987052", "properties": {"tags": {"building": "apartments", "layer": "1"}, "heightStatus": "unknown", "source": "OpenStreetMap", "license": "ODbL-1.0"}, "geometry": {"type": "MultiPolygon", "coordinates": [[[[114.0958079, 22.5528634], [114.0958098, 22.5527422], [114.0959427, 22.552744], [114.0959408, 22.5528652], [114.0958079, 22.5528634]]]]}}, {"type": "Feature", "id": "way/1385987053", "properties": {"tags": {"building": "apartments", "layer": "1"}, "heightStatus": "unknown", "source": "OpenStreetMap", "license": "ODbL-1.0"}, "geometry": {"type": "MultiPolygon", "coordinates": [[[[114.0958101, 22.5524207], [114.095812, 22.5522995], [114.095945, 22.5523013], [114.095943, 22.5524225], [114.0958101, 22.5524207]]]]}}, {"type": "Feature", "id": "relation/19124197", "properties": {"tags": {"building": "school"}, "heightStatus": "unknown", "source": "OpenStreetMap", "license": "ODbL-1.0"}, "geometry": {"type": "MultiPolygon", "coordinates": [[[[114.0932198, 22.5535508], [114.0932228, 22.553464], [114.0936854, 22.5534669], [114.0936873, 22.553135], [114.0934778, 22.553133], [114.0934789, 22.5530327], [114.0940412, 22.5530383], [114.0940407, 22.5530884], [114.0942545, 22.5530931], [114.0942554, 22.5530305], [114.0946924, 22.5530394], [114.0946869, 22.5532652], [114.0945507, 22.5532624], [114.0945503, 22.5532806], [114.0944655, 22.5532788], [114.0944665, 22.5532389], [114.094508, 22.5532398], [114.0945102, 22.5531473], [114.0942527, 22.5531421], [114.0940401, 22.5531383], [114.0940393, 22.553211], [114.0939018, 22.5532096], [114.0938994, 22.5535781], [114.0937609, 22.5535767], [114.0937611, 22.5535561], [114.0932198, 22.5535508]]]]}}, {"type": "Feature", "id": "way/1409983117", "properties": {"tags": {"building": "apartments", "name": "43栋"}, "heightStatus": "unknown", "source": "OpenStreetMap", "license": "ODbL-1.0"}, "geometry": {"type": "MultiPolygon", "coordinates": [[[[114.0942724, 22.553768], [114.094273, 22.5536639], [114.0946873, 22.5536657], [114.0946868, 22.5537699], [114.0942724, 22.553768]]]]}}, {"type": "Feature", "id": "way/1409983153", "properties": {"tags": {"addr:housenumber": "46", "building": "apartments", "name": "46栋"}, "heightStatus": "unknown", "source": "OpenStreetMap", "license": "ODbL-1.0"}, "geometry": {"type": "MultiPolygon", "coordinates": [[[[114.0939945, 22.553778], [114.093995, 22.5537033], [114.0941059, 22.5537039], [114.0941054, 22.5537887], [114.0941391, 22.5537889], [114.0941384, 22.5538913], [114.0940781, 22.553891], [114.0940779, 22.5539336], [114.0946087, 22.5539364], [114.0946081, 22.554034], [114.0940257, 22.5540309], [114.0940263, 22.553936], [114.0939969, 22.5539358], [114.0939975, 22.5538477], [114.0940578, 22.553848], [114.0940583, 22.5537784], [114.0939945, 22.553778]]]]}}, {"type": "Feature", "id": "way/1410001495", "properties": {"tags": {"addr:housenumber": "41", "building": "apartments", "name": "41栋"}, "heightStatus": "unknown", "source": "OpenStreetMap", "license": "ODbL-1.0"}, "geometry": {"type": "MultiPolygon", "coordinates": [[[[114.0947722, 22.5534788], [114.0947734, 22.5533997], [114.0951628, 22.5534029], [114.0951609, 22.5534829], [114.0947722, 22.5534788]]]]}}, {"type": "Feature", "id": "way/1473802576", "properties": {"tags": {"building": "yes"}, "heightStatus": "unknown", "source": "OpenStreetMap", "license": "ODbL-1.0"}, "geometry": {"type": "MultiPolygon", "coordinates": [[[[114.0961708, 22.5532562], [114.0961725, 22.55315], [114.0963385, 22.5531523], [114.0963368, 22.5532585], [114.0961708, 22.5532562]]]]}}, {"type": "Feature", "id": "way/1473879085", "properties": {"tags": {"amenity": "shelter", "building": "yes", "layer": "1", "name": "迎风皎月", "shelter_type": "gazebo"}, "heightStatus": "unknown", "source": "OpenStreetMap", "license": "ODbL-1.0"}, "geometry": {"type": "MultiPolygon", "coordinates": [[[[114.0984524, 22.5454906], [114.0987188, 22.5454798], [114.0987206, 22.5455184], [114.0987213, 22.5455328], [114.0984549, 22.5455436], [114.0984543, 22.5455304], [114.0984524, 22.5454906]]]]}}]}