{"type": "FeatureCollection", "features": [{"type": "Feature", "id": "way/235150405", "properties": {"tags": {"building": "commercial", "name": "天利中央广场"}, "heightStatus": "unknown", "source": "OpenStreetMap", "license": "ODbL-1.0"}, "geometry": {"type": "MultiPolygon", "coordinates": [[[[113.9286917, 22.521263], [113.9292011, 22.5212045], [113.9296302, 22.5211552], [113.9297203, 22.5218244], [113.9293932, 22.521862], [113.9289388, 22.5219143], [113.9287818, 22.5219323], [113.9286917, 22.521263]]]]}}, {"type": "Feature", "id": "way/235150406", "properties": {"tags": {"building": "yes", "building:levels": "4", "height": "25", "layer": "1", "name": "保利文化广场", "shop": "mall"}, "heightStatus": "height_tag_unverified", "source": "OpenStreetMap", "license": "ODbL-1.0"}, "geometry": {"type": "MultiPolygon", "coordinates": [[[[113.9320659, 22.5195651], [113.9323628, 22.5195294], [113.932507, 22.5195121], [113.9328252, 22.5194738], [113.9330884, 22.5194421], [113.933259, 22.5200177], [113.9333533, 22.5200077], [113.9334384, 22.5199968], [113.93352, 22.5199873], [113.934638, 22.5198575], [113.9348123, 22.5203622], [113.933661, 22.5204974], [113.9335712, 22.5205076], [113.933478, 22.5205178], [113.9323636, 22.5206479], [113.9320659, 22.5195651]]]]}}, {"type": "Feature", "id": "way/235150407", "properties": {"tags": {"addr:city": "深圳市", "addr:district": "南山区", "addr:place": "保利文化广场D区", "addr:province": "广东省", "addr:street": "后海滨路", "amenity": "theatre", "building": "yes", "height": "35.8", "name": "深圳保利剧院", "name:en": "Poly Theater", "name:zh": "深圳保利剧院", "operator": "保利剧院管理有限公司", "website": "https://www.polytheatre.com/business-theatre-view.php?id=91", "wikidata": "Q117360792", "wikimedia_commons": "Category:Poly Theatre, Shenzhen"}, "heightStatus": "height_tag_unverified", "source": "OpenStreetMap", "license": "ODbL-1.0"}, "geometry": {"type": "MultiPolygon", "coordinates": [[[[113.9333666, 22.5194487], [113.9333754, 22.5193654], [113.9334212, 22.519273], [113.9335009, 22.5191896], [113.9336062, 22.5191231], [113.9337097, 22.5190795], [113.9338092, 22.5190573], [113.9340157, 22.5190548], [113.9343725, 22.5190573], [113.934459, 22.5192919], [113.9345609, 22.5195685], [113.9339809, 22.5197411], [113.9338755, 22.5197607], [113.9337706, 22.5197606], [113.9336843, 22.5197472], [113.9336027, 22.5197196], [113.9335293, 22.5196797], [113.9334558, 22.519628], [113.9334007, 22.5195698], [113.933376, 22.519517], [113.9333666, 22.5194487]]]]}}, {"type": "Feature", "id": "way/235150410", "properties": {"tags": {"building": "commercial", "name": "海岸城东座"}, "heightStatus": "unknown", "source": "OpenStreetMap", "license": "ODbL-1.0"}, "geometry": {"type": "MultiPolygon", "coordinates": [[[[113.9324019, 22.520839], [113.9328992, 22.5207817], [113.9334753, 22.5207153], [113.9335239, 22.5210752], [113.9335669, 22.5213931], [113.9329825, 22.5214603], [113.9326242, 22.5215016], [113.9326152, 22.5214333], [113.9325546, 22.5214398], [113.9324019, 22.520839]]]]}}, {"type": "Feature", "id": "way/235150412", "properties": {"tags": {"building": "commercial", "name": "天利中央广场"}, "heightStatus": "unknown", "source": "OpenStreetMap", "license": "ODbL-1.0"}, "geometry": {"type": "MultiPolygon", "coordinates": [[[[113.9299109, 22.5211226], [113.9299548, 22.5211177], [113.930783, 22.5210253], [113.9309325, 22.5210087], [113.9310117, 22.5216271], [113.9309718, 22.5216315], [113.9309768, 22.5216704], [113.9305967, 22.5217118], [113.9305927, 22.5216798], [113.9304064, 22.5217001], [113.9304105, 22.5217327], [113.930028, 22.5217743], [113.9300244, 22.5217464], [113.9299913, 22.52175], [113.9299109, 22.5211226]]]]}}, {"type": "Feature", "id": "way/235151190", "properties": {"tags": {"building": "commercial", "name": "海岸城西座"}, "heightStatus": "unknown", "source": "OpenStreetMap", "license": "ODbL-1.0"}, "geometry": {"type": "MultiPolygon", "coordinates": [[[[113.931226, 22.5209754], [113.9313087, 22.5209663], [113.9319831, 22.520887], [113.9320128, 22.5208832], [113.9321475, 22.5213584], [113.9321709, 22.5214407], [113.9322024, 22.5215521], [113.9313259, 22.5216464], [113.931226, 22.5209754]]]]}}, {"type": "Feature", "id": "way/238021561", "properties": {"tags": {"building": "yes"}, "heightStatus": "unknown", "source": "OpenStreetMap", "license": "ODbL-1.0"}, "geometry": {"type": "MultiPolygon", "coordinates": [[[[113.9286436, 22.5267589], [113.9287179, 22.5266685], [113.9289223, 22.5268125], [113.9288492, 22.5269033], [113.9286436, 22.5267589]]]]}}, {"type": "Feature", "id": "way/238021562", "properties": {"tags": {"building": "yes"}, "heightStatus": "unknown", "source": "OpenStreetMap", "license": "ODbL-1.0"}, "geometry": {"type": "MultiPolygon", "coordinates": [[[[113.9289223, 22.5268125], [113.9291862, 22.5267094], [113.9292358, 22.5268178], [113.9289719, 22.5269209], [113.9289223, 22.5268125]]]]}}, {"type": "Feature", "id": "way/238021564", "properties": {"tags": {"building": "yes"}, "heightStatus": "unknown", "source": "OpenStreetMap", "license": "ODbL-1.0"}, "geometry": {"type": "MultiPolygon", "coordinates": [[[[113.9276538, 22.5261481], [113.9277176, 22.5261632], [113.9277526, 22.5261762], [113.9277819, 22.5261917], [113.9278356, 22.5262276], [113.9278892, 22.5262648], [113.9279536, 22.5263317], [113.9281547, 22.5265893], [113.9281199, 22.5266537], [113.928064, 22.5266775], [113.9279928, 22.5265493], [113.9279681, 22.5265597], [113.9277766, 22.5263317], [113.927731, 22.5262994], [113.927688, 22.5262821], [113.9276538, 22.5261481]]]]}}, {"type": "Feature", "id": "way/238451320", "properties": {"tags": {"building": "yes"}, "heightStatus": "unknown", "source": "OpenStreetMap", "license": "ODbL-1.0"}, "geometry": {"type": "MultiPolygon", "coordinates": [[[[113.9280336, 22.518216], [113.9280973, 22.5181354], [113.9284004, 22.5180667], [113.9285294, 22.5185525], [113.9294538, 22.518343], [113.9295205, 22.5185938], [113.9293569, 22.5186309], [113.9292412, 22.5186571], [113.9282129, 22.5188904], [113.9280336, 22.518216]]]]}}, {"type": "Feature", "id": "way/238451323", "properties": {"tags": {"building": "yes"}, "heightStatus": "unknown", "source": "OpenStreetMap", "license": "ODbL-1.0"}, "geometry": {"type": "MultiPolygon", "coordinates": [[[[113.9291781, 22.5188042], [113.9292738, 22.518783], [113.9292412, 22.5186571], [113.9293569, 22.5186309], [113.9293723, 22.5186902], [113.929539, 22.5186532], [113.9296608, 22.5191218], [113.9292825, 22.5192057], [113.9291781, 22.5188042]]]]}}, {"type": "Feature", "id": "way/238452454", "properties": {"tags": {"building": "yes"}, "heightStatus": "unknown", "source": "OpenStreetMap", "license": "ODbL-1.0"}, "geometry": {"type": "MultiPolygon", "coordinates": [[[[113.9288239, 22.5183186], [113.9293493, 22.5181962], [113.9293739, 22.5182862], [113.9288485, 22.5184087], [113.9288239, 22.5183186]]]]}}, {"type": "Feature", "id": "way/238452455", "properties": {"tags": {"building": "yes"}, "heightStatus": "unknown", "source": "OpenStreetMap", "license": "ODbL-1.0"}, "geometry": {"type": "MultiPolygon", "coordinates": [[[[113.9282249, 22.5189458], [113.929042, 22.518757], [113.9290587, 22.5188307], [113.9282439, 22.5190154], [113.9282284, 22.5189581], [113.9282249, 22.5189458]]]]}}, {"type": "Feature", "id": "way/238452456", "properties": {"tags": {"building": "yes"}, "heightStatus": "unknown", "source": "OpenStreetMap", "license": "ODbL-1.0"}, "geometry": {"type": "MultiPolygon", "coordinates": [[[[113.9281046, 22.5189866], [113.9282284, 22.5189581], [113.9282439, 22.5190154], [113.9282591, 22.5190715], [113.9281353, 22.5191001], [113.9281046, 22.5189866]]]]}}, {"type": "Feature", "id": "way/238452457", "properties": {"tags": {"building": "yes"}, "heightStatus": "unknown", "source": "OpenStreetMap", "license": "ODbL-1.0"}, "geometry": {"type": "MultiPolygon", "coordinates": [[[[113.9281353, 22.5191001], [113.9282591, 22.5190715], [113.9290731, 22.5188831], [113.9290587, 22.5188307], [113.9291781, 22.5188042], [113.9292825, 22.5192057], [113.9291676, 22.5192314], [113.9291565, 22.519187], [113.9282208, 22.5194065], [113.9281353, 22.5191001]]]]}}, {"type": "Feature", "id": "way/246094006", "properties": {"tags": {"building": "school", "building:levels": "5"}, "heightStatus": "levels_only_unverified", "source": "OpenStreetMap", "license": "ODbL-1.0"}, "geometry": {"type": "MultiPolygon", "coordinates": [[[[113.9285803, 22.5258538], [113.9287445, 22.5258154], [113.9287342, 22.5257776], [113.9287824, 22.5257578], [113.9288787, 22.5259536], [113.9288613, 22.5259607], [113.9286707, 22.5260399], [113.9285803, 22.5258538]]]]}}, {"type": "Feature", "id": "way/246094007", "properties": {"tags": {"building": "school"}, "heightStatus": "unknown", "source": "OpenStreetMap", "license": "ODbL-1.0"}, "geometry": {"type": "MultiPolygon", "coordinates": [[[[113.9280688, 22.5259505], [113.9280692, 22.5259214], [113.928081, 22.5258913], [113.9281068, 22.525868], [113.9285581, 22.5257645], [113.92872, 22.5257249], [113.9287342, 22.5257776], [113.9287445, 22.5258154], [113.9285803, 22.5258538], [113.9283363, 22.5259108], [113.9282694, 22.5259265], [113.9280748, 22.525972], [113.9280688, 22.5259505]]]]}}, {"type": "Feature", "id": "way/246094010", "properties": {"tags": {"building": "school"}, "heightStatus": "unknown", "source": "OpenStreetMap", "license": "ODbL-1.0"}, "geometry": {"type": "MultiPolygon", "coordinates": [[[[113.9282694, 22.5259265], [113.9283363, 22.5259108], [113.9284529, 22.5261304], [113.9283873, 22.5261576], [113.9282694, 22.5259265]]]]}}, {"type": "Feature", "id": "way/246094011", "properties": {"tags": {"building": "school"}, "heightStatus": "unknown", "source": "OpenStreetMap", "license": "ODbL-1.0"}, "geometry": {"type": "MultiPolygon", "coordinates": [[[[113.9283308, 22.5262425], [113.9283379, 22.5262116], [113.9283574, 22.5261847], [113.9283873, 22.5261576], [113.9284529, 22.5261304], [113.9286707, 22.5260399], [113.9288613, 22.5259607], [113.9289119, 22.5260647], [113.9283433, 22.526301], [113.9283334, 22.5262774], [113.9283308, 22.5262425]]]]}}, {"type": "Feature", "id": "way/246094012", "properties": {"tags": {"building": "school"}, "heightStatus": "unknown", "source": "OpenStreetMap", "license": "ODbL-1.0"}, "geometry": {"type": "MultiPolygon", "coordinates": [[[[113.9285196, 22.5256305], [113.9286815, 22.5255909], [113.92872, 22.5257249], [113.9285581, 22.5257645], [113.9285196, 22.5256305]]]]}}, {"type": "Feature", "id": "way/246751404", "properties": {"tags": {"building": "commercial", "building:levels": "22", "name": "闽泰大厦", "name:zh": "闽泰大厦", "name:zh-Hans": "闽泰大厦", "name:zh-Hant": "閩泰大廈"}, "heightStatus": "levels_only_unverified", "source": "OpenStreetMap", "license": "ODbL-1.0"}, "geometry": {"type": "MultiPolygon", "coordinates": [[[[113.9319836, 22.5234662], [113.9324015, 22.523423], [113.9324301, 22.523659], [113.9320121, 22.5237021], [113.9319836, 22.5234662]]]]}}, {"type": "Feature", "id": "way/246751989", "properties": {"tags": {"building": "retail", "building:levels": "2"}, "heightStatus": "levels_only_unverified", "source": "OpenStreetMap", "license": "ODbL-1.0"}, "geometry": {"type": "MultiPolygon", "coordinates": [[[[113.9316939, 22.5181172], [113.9317205, 22.5180671], [113.9319266, 22.5180195], [113.9319961, 22.518277], [113.9320887, 22.5183331], [113.9321108, 22.5183287], [113.9321334, 22.5182464], [113.9335381, 22.5179093], [113.9335615, 22.5179934], [113.9336385, 22.5179757], [113.9336697, 22.5178983], [113.9335961, 22.5176319], [113.9337815, 22.5175895], [113.9338498, 22.5176071], [113.9339553, 22.5179961], [113.9339244, 22.5180618], [113.9318787, 22.5185324], [113.9318003, 22.518504], [113.9316939, 22.5181172]]]]}}, {"type": "Feature", "id": "way/246751993", "properties": {"tags": {"building": "yes"}, "heightStatus": "unknown", "source": "OpenStreetMap", "license": "ODbL-1.0"}, "geometry": {"type": "MultiPolygon", "coordinates": [[[[113.9289039, 22.5238341], [113.9290458, 22.5236961], [113.9293997, 22.5240066], [113.9292579, 22.5241446], [113.9289039, 22.5238341]]]]}}, {"type": "Feature", "id": "way/247357816", "properties": {"tags": {"building": "yes"}, "heightStatus": "unknown", "source": "OpenStreetMap", "license": "ODbL-1.0"}, "geometry": {"type": "MultiPolygon", "coordinates": [[[[113.9282161, 22.5268973], [113.9283108, 22.5268465], [113.9283827, 22.5269595], [113.928298, 22.5270157], [113.9282161, 22.5268973]]]]}}, {"type": "Feature", "id": "way/249520146", "properties": {"tags": {"building:levels": "33", "building:material": "glass", "building:part": "yes", "height": "170"}, "heightStatus": "height_tag_unverified", "source": "OpenStreetMap", "license": "ODbL-1.0"}, "geometry": {"type": "MultiPolygon", "coordinates": [[[[113.9288996, 22.5216224], [113.929354, 22.5215703], [113.9293932, 22.521862], [113.9289388, 22.5219143], [113.9288996, 22.5216224]]]]}}, {"type": "Feature", "id": "way/249529379", "properties": {"tags": {"building": "yes"}, "heightStatus": "unknown", "source": "OpenStreetMap", "license": "ODbL-1.0"}, "geometry": {"type": "MultiPolygon", "coordinates": [[[[113.92784, 22.5238946], [113.9279662, 22.5238611], [113.9279359, 22.5237588], [113.9280282, 22.5237355], [113.9281124, 22.5240193], [113.9280201, 22.5240427], [113.9279883, 22.5239353], [113.9278625, 22.5239666], [113.92784, 22.5238946]]]]}}, {"type": "Feature", "id": "way/249529383", "properties": {"tags": {"building": "apartments"}, "heightStatus": "unknown", "source": "OpenStreetMap", "license": "ODbL-1.0"}, "geometry": {"type": "MultiPolygon", "coordinates": [[[[113.9275503, 22.5234933], [113.9279583, 22.5233955], [113.928016, 22.5236007], [113.927608, 22.5236985], [113.9275503, 22.5234933]]]]}}, {"type": "Feature", "id": "way/249529385", "properties": {"tags": {"addr:city": "深圳市", "addr:district": "南山区", "addr:housenumber": "13号", "addr:postcode": "518054", "addr:province": "广东省", "addr:street": "海德三道", "brand": "Kempinski", "brand:wikidata": "Q671990", "brand:wikipedia": "en:Kempinski", "building": "yes", "internet_access": "yes", "layer": "1", "name": "深圳凯宾斯基酒店", "name:en": "Kempinski Hotel Shenzhen", "name:zh": "深圳凯宾斯基酒店", "name:zh-Hans": "深圳凯宾斯基酒店", "name:zh-Hant": "深圳凱賓斯基酒店", "rooms": "384", "stars": "5", "tourism": "hotel", "website": "https://www.kempinski.com/zh-cn/shenzhen/hotel-shenzhen/"}, "heightStatus": "unknown", "source": "OpenStreetMap", "license": "ODbL-1.0"}, "geometry": {"type": "MultiPolygon", "coordinates": [[[[113.933736, 22.5207187], [113.9337503, 22.520683], [113.9342287, 22.5206268], [113.9344333, 22.5206027], [113.9345345, 22.5206011], [113.9346393, 22.5206222], [113.9347252, 22.5206543], [113.9348249, 22.5207054], [113.9349069, 22.520767], [113.9349782, 22.5208518], [113.9350285, 22.52096], [113.9350591, 22.5210589], [113.9350733, 22.5211406], [113.934774, 22.5211737], [113.9347887, 22.5213917], [113.9344176, 22.5214132], [113.9344051, 22.5212276], [113.9343086, 22.5212461], [113.9339698, 22.5213005], [113.9339618, 22.5212582], [113.9338139, 22.5212358], [113.933736, 22.5207187]]]]}}, {"type": "Feature", "id": "way/249529389", "properties": {"tags": {"building": "hotel", "building:levels": "25", "layer": "2"}, "heightStatus": "levels_only_unverified", "source": "OpenStreetMap", "license": "ODbL-1.0"}, "geometry": {"type": "MultiPolygon", "coordinates": [[[[113.9338139, 22.5212358], [113.93383, 22.5211763], [113.9338568, 22.5211261], [113.9338917, 22.5210839], [113.9339346, 22.5210443], [113.9339829, 22.521022], [113.9340473, 22.5209972], [113.9341063, 22.5209873], [113.9341733, 22.5209898], [113.9342511, 22.5210047], [113.9343128, 22.5210319], [113.9343665, 22.5210772], [113.9344121, 22.5211391], [113.9343006, 22.5212036], [113.9343086, 22.5212461], [113.9339698, 22.5213005], [113.9339618, 22.5212582], [113.9338139, 22.5212358]]]]}}, {"type": "Feature", "id": "way/249530620", "properties": {"tags": {"building": "yes"}, "heightStatus": "unknown", "source": "OpenStreetMap", "license": "ODbL-1.0"}, "geometry": {"type": "MultiPolygon", "coordinates": [[[[113.9329143, 22.5236429], [113.9330266, 22.523633], [113.9330617, 22.5239706], [113.9329493, 22.5239805], [113.9329143, 22.5236429]]]]}}, {"type": "Feature", "id": "way/376393435", "properties": {"tags": {"addr:city": "深圳市", "addr:district": "南山区", "addr:housenumber": "88号", "addr:postcode": "518054", "addr:province": "广东省", "addr:street": "海德一道", "building": "commercial", "building:colour": "#778c9a", "building:levels": "5", "building:material": "mirror", "height": "33"}, "heightStatus": "height_tag_unverified", "source": "OpenStreetMap", "license": "ODbL-1.0"}, "geometry": {"type": "MultiPolygon", "coordinates": [[[[113.9288747, 22.5203578], [113.928878, 22.52034], [113.928887, 22.5203287], [113.9289015, 22.5203187], [113.9289263, 22.52031], [113.9289946, 22.5202975], [113.9291944, 22.520272], [113.9292666, 22.520265], [113.9292987, 22.520266], [113.9293299, 22.5202747], [113.929346, 22.5202964], [113.9293564, 22.5203279], [113.9293678, 22.520394], [113.9293812, 22.5204838], [113.929387, 22.5205385], [113.9293847, 22.5205738], [113.9293766, 22.5205999], [113.9293561, 22.5206162], [113.9293233, 22.5206275], [113.9292846, 22.5206333], [113.9292415, 22.5206398], [113.9290489, 22.5206644], [113.9290247, 22.5206653], [113.9289892, 22.5206668], [113.928959, 22.5206631], [113.9289369, 22.5206516], [113.9289184, 22.5206307], [113.9289117, 22.5206123], [113.9289058, 22.5205867], [113.9288984, 22.5205438], [113.9288838, 22.5204459], [113.928877, 22.5203942], [113.9288747, 22.5203578]]]]}}, {"type": "Feature", "id": "way/376393436", "properties": {"tags": {"addr:city": "深圳市", "addr:district": "南山区", "addr:housenumber": "88号", "addr:postcode": "518054", "addr:province": "广东省", "addr:street": "海德一道", "building": "commercial", "building:colour": "#778c9a", "building:levels": "61", "building:material": "mirror", "height": "300.8", "name": "A座", "official_name": "中洲控股中心A座", "roof:colour": "#f5ecdd"}, "heightStatus": "height_tag_unverified", "source": "OpenStreetMap", "license": "ODbL-1.0"}, "geometry": {"type": "MultiPolygon", "coordinates": [[[[113.9282222, 22.5204202], [113.9282247, 22.5203932], [113.9282332, 22.5203709], [113.928251, 22.520356], [113.9282783, 22.520345], [113.9283236, 22.520336], [113.9283715, 22.520329], [113.928428, 22.5203223], [113.9284845, 22.5203156], [113.928539, 22.5203114], [113.9285886, 22.5203113], [113.9286141, 22.5203149], [113.9286378, 22.5203239], [113.9286519, 22.5203397], [113.9286646, 22.5203653], [113.9286746, 22.5204075], [113.9286832, 22.5204577], [113.9286972, 22.5205588], [113.9287019, 22.5206086], [113.928705, 22.520656], [113.9287026, 22.5206814], [113.9286917, 22.5207029], [113.9286752, 22.5207176], [113.9286554, 22.5207255], [113.9286025, 22.5207352], [113.928543, 22.520743], [113.928484, 22.52075], [113.928426, 22.5207569], [113.9283753, 22.5207614], [113.9283358, 22.520763], [113.9283043, 22.5207591], [113.9282839, 22.5207495], [113.9282687, 22.5207352], [113.928259, 22.5207118], [113.9282495, 22.5206668], [113.9282416, 22.5206208], [113.9282279, 22.5205219], [113.9282231, 22.5204714], [113.9282222, 22.5204202]]]]}}, {"type": "Feature", "id": "way/376393437", "properties": {"tags": {"addr:city": "深圳市", "addr:district": "南山区", "addr:housenumber": "88号", "addr:postcode": "518054", "addr:province": "广东省", "addr:street": "海德一道", "building": "commercial", "building:colour": "#778c9a", "building:levels": "34", "building:material": "mirror", "height": "157.6", "name": "B座", "official_name": "中洲控股中心B座", "roof:colour": "#f5ecdd"}, "heightStatus": "height_tag_unverified", "source": "OpenStreetMap", "license": "ODbL-1.0"}, "geometry": {"type": "MultiPolygon", "coordinates": [[[[113.9289297, 22.5207794], [113.9289313, 22.5207654], [113.9289387, 22.5207534], [113.9289554, 22.5207429], [113.9289901, 22.5207344], [113.9290348, 22.5207267], [113.9292943, 22.5206932], [113.9293388, 22.5206879], [113.9293751, 22.5206858], [113.9293951, 22.5206896], [113.9294057, 22.5206996], [113.9294134, 22.5207162], [113.9294189, 22.5207391], [113.9294308, 22.5208171], [113.9294426, 22.5208952], [113.9294433, 22.5209162], [113.9294402, 22.5209352], [113.9294312, 22.5209481], [113.929417, 22.520957], [113.9293795, 22.5209652], [113.9293362, 22.5209712], [113.9292042, 22.5209869], [113.9290746, 22.5210023], [113.9290349, 22.5210065], [113.9289987, 22.5210055], [113.9289815, 22.5210016], [113.9289687, 22.5209945], [113.9289599, 22.5209799], [113.9289554, 22.5209582], [113.9289317, 22.520802], [113.9289297, 22.5207794]]]]}}, {"type": "Feature", "id": "way/473300414", "properties": {"tags": {"building": "school", "building:levels": "5"}, "heightStatus": "levels_only_unverified", "source": "OpenStreetMap", "license": "ODbL-1.0"}, "geometry": {"type": "MultiPolygon", "coordinates": [[[[113.9294914, 22.5180729], [113.9297178, 22.5180164], [113.9297243, 22.5180387], [113.92973, 22.5180583], [113.9301638, 22.51795], [113.930203, 22.5180838], [113.9298744, 22.5181658], [113.9298462, 22.5180694], [113.9297395, 22.518096], [113.9298137, 22.51835], [113.9302326, 22.5182455], [113.9302691, 22.5183704], [113.9299423, 22.5184519], [113.9299215, 22.5183804], [113.9298305, 22.5184031], [113.929899, 22.5186377], [113.9303314, 22.51853], [113.9303716, 22.5186679], [113.9300272, 22.5187537], [113.9300062, 22.5186819], [113.9299196, 22.5187035], [113.9299879, 22.5189373], [113.9299118, 22.5189563], [113.9299034, 22.5189275], [113.9297396, 22.5189684], [113.9296857, 22.5187841], [113.9298011, 22.5187553], [113.9297908, 22.51872], [113.9298302, 22.5187101], [113.9297867, 22.5185614], [113.9296491, 22.5185957], [113.9295545, 22.5182725], [113.9296844, 22.5182401], [113.9296585, 22.5181518], [113.9295243, 22.5181853], [113.9294914, 22.5180729]]]]}}, {"type": "Feature", "id": "way/522136905", "properties": {"tags": {"addr:city": "深圳市", "addr:district": "南山区", "addr:housenumber": "2378", "addr:province": "广东省", "addr:street": "后海大道", "building": "commercial", "building:levels": "23", "building:material": "glass", "height": "100", "name": "芒果网大厦", "name:zh": "芒果网大厦", "name:zh-Hans": "芒果网大厦", "name:zh-Hant": "芒果網大廈"}, "heightStatus": "height_tag_unverified", "source": "OpenStreetMap", "license": "ODbL-1.0"}, "geometry": {"type": "MultiPolygon", "coordinates": [[[[113.9302934, 22.5268855], [113.9306179, 22.5267635], [113.9307674, 22.5271029], [113.9304429, 22.5272249], [113.9302934, 22.5268855]]]]}}, {"type": "Feature", "id": "way/522136907", "properties": {"tags": {"addr:city": "深圳市", "addr:district": "南山区", "addr:housenumber": "3398", "addr:province": "广东省", "addr:street": "滨海大道", "building": "commercial", "building:levels": "14", "building:levels:underground": "4", "height": "100", "name": "赛西科技大厦"}, "heightStatus": "height_tag_unverified", "source": "OpenStreetMap", "license": "ODbL-1.0"}, "geometry": {"type": "MultiPolygon", "coordinates": [[[[113.9312804, 22.5252685], [113.931731, 22.5252634], [113.9317354, 22.5255941], [113.931737, 22.5257172], [113.9312864, 22.5257223], [113.9312848, 22.5255991], [113.9312804, 22.5252685]]]]}}, {"type": "Feature", "id": "way/522136908", "properties": {"tags": {"addr:city": "深圳市", "addr:district": "南山区", "addr:housenumber": "3388", "addr:province": "广东省", "addr:street": "滨海大道", "building": "commercial", "building:levels": "25", "building:levels:underground": "3", "height": "100", "name": "三诺智慧大厦"}, "heightStatus": "height_tag_unverified", "source": "OpenStreetMap", "license": "ODbL-1.0"}, "geometry": {"type": "MultiPolygon", "coordinates": [[[[113.9319945, 22.52518], [113.9320739, 22.5251785], [113.9324825, 22.5251727], [113.9324891, 22.5255696], [113.9324915, 22.5256997], [113.9320038, 22.525707], [113.9319945, 22.52518]]]]}}, {"type": "Feature", "id": "way/522136909", "properties": {"tags": {"building:levels": "44", "building:material": "mirror", "building:part": "commercial", "height": "202.4"}, "heightStatus": "height_tag_unverified", "source": "OpenStreetMap", "license": "ODbL-1.0"}, "geometry": {"type": "MultiPolygon", "coordinates": [[[[113.9328419, 22.5251722], [113.9328472, 22.5251532], [113.9328601, 22.5251427], [113.9328821, 22.5251399], [113.9331531, 22.5251387], [113.9331757, 22.525145], [113.9331921, 22.5251579], [113.9332034, 22.5251756], [113.9332919, 22.5254887], [113.933293, 22.5255057], [113.9332895, 22.5255198], [113.9332785, 22.5255287], [113.9332611, 22.5255311], [113.9328791, 22.5255316], [113.9328613, 22.5255261], [113.9328526, 22.5255182], [113.932847, 22.5255015], [113.9328419, 22.5251722]]]]}}, {"type": "Feature", "id": "way/522138040", "properties": {"tags": {"building": "commercial", "building:levels": "11", "building:material": "metal", "layer": "2", "name": "4D", "official_name": "深圳市软件产业基地4栋D座", "ref": "4D"}, "heightStatus": "levels_only_unverified", "source": "OpenStreetMap", "license": "ODbL-1.0"}, "geometry": {"type": "MultiPolygon", "coordinates": [[[[113.9318437, 22.5259309], [113.9324294, 22.5259194], [113.9324346, 22.5261436], [113.9324366, 22.5262158], [113.932166, 22.5262203], [113.9318505, 22.5262265], [113.9318437, 22.5259309]]]]}}, {"type": "Feature", "id": "way/522138041", "properties": {"tags": {"building": "commercial", "building:levels": "11", "building:material": "metal", "layer": "2", "name": "4A", "name:en": "4A", "name:zh": "4A", "official_name": "深圳市软件产业基地4栋A座", "ref": "4A"}, "heightStatus": "levels_only_unverified", "source": "OpenStreetMap", "license": "ODbL-1.0"}, "geometry": {"type": "MultiPolygon", "coordinates": [[[[113.9317216, 22.5265451], [113.932173, 22.5265366], [113.9322733, 22.5265355], [113.9322759, 22.5268064], [113.9322796, 22.5269743], [113.9317314, 22.5269845], [113.9317216, 22.5265451]]]]}}, {"type": "Feature", "id": "way/522138045", "properties": {"tags": {"building": "commercial", "building:colour": "grey", "building:levels": "2", "building:material": "plaster", "name": "深圳市软件产业基地3栋", "name:zh": "深圳市软件产业基地3栋", "name:zh-Hans": "深圳市软件产业基地3栋", "name:zh-Hant": "深圳市軟體產業基地3棟"}, "heightStatus": "levels_only_unverified", "source": "OpenStreetMap", "license": "ODbL-1.0"}, "geometry": {"type": "MultiPolygon", "coordinates": [[[[113.9312179, 22.5263869], [113.9315907, 22.5261456], [113.9316068, 22.5268428], [113.9313305, 22.5267238], [113.9313289, 22.5265506], [113.9312194, 22.5265515], [113.9312179, 22.5263869]]]]}}, {"type": "Feature", "id": "way/522138049", "properties": {"tags": {"addr:city": "深圳市", "addr:district": "南山区", "addr:housenumber": "1002", "addr:province": "广东省", "addr:street": "高新南九道", "building": "commercial", "building:levels": "25", "height": "100", "name": "A8音乐大厦", "name:en": "A8 Music Building", "name:zh": "A8音乐大厦"}, "heightStatus": "height_tag_unverified", "source": "OpenStreetMap", "license": "ODbL-1.0"}, "geometry": {"type": "MultiPolygon", "coordinates": [[[[113.9335485, 22.5251445], [113.9339013, 22.5251347], [113.9340509, 22.5251322], [113.9342074, 22.5256498], [113.9338846, 22.5256561], [113.9338322, 22.5254844], [113.9336517, 22.5254848], [113.9335485, 22.5251445]]]]}}, {"type": "Feature", "id": "way/533466799", "properties": {"tags": {"addr:city": "深圳市", "addr:district": "南山区", "addr:housenumber": "3378", "addr:province": "广东省", "addr:street": "滨海大道", "building": "commercial", "building:levels": "30", "building:levels:underground": "4", "height": "130", "name": "盈峰大厦", "old_name": "易思博软件大厦"}, "heightStatus": "height_tag_unverified", "source": "OpenStreetMap", "license": "ODbL-1.0"}, "geometry": {"type": "MultiPolygon", "coordinates": [[[[113.9342713, 22.5251147], [113.9344806, 22.5251095], [113.9348578, 22.5251001], [113.9348692, 22.5254903], [113.934873, 22.5256206], [113.9344381, 22.5256314], [113.9342713, 22.5251147]]]]}}, {"type": "Feature", "id": "way/533466800", "properties": {"tags": {"building:levels": "30", "building:material": "mirror", "building:part": "yes", "height": "130"}, "heightStatus": "height_tag_unverified", "source": "OpenStreetMap", "license": "ODbL-1.0"}, "geometry": {"type": "MultiPolygon", "coordinates": [[[[113.9344806, 22.5251095], [113.9348578, 22.5251001], [113.9348692, 22.5254903], [113.9345275, 22.5254989], [113.9344806, 22.5251095]]]]}}, {"type": "Feature", "id": "way/533466801", "properties": {"tags": {"building:levels": "34", "building:material": "mirror", "building:part": "yes", "height": "162.9"}, "heightStatus": "height_tag_unverified", "source": "OpenStreetMap", "license": "ODbL-1.0"}, "geometry": {"type": "MultiPolygon", "coordinates": [[[[113.9358124, 22.5251256], [113.9358134, 22.5251191], [113.9358176, 22.5251139], [113.9358252, 22.5251116], [113.9362129, 22.5251083], [113.9362204, 22.5251099], [113.9362245, 22.5251148], [113.9362263, 22.5251223], [113.9362298, 22.5254776], [113.9362267, 22.5254841], [113.9362221, 22.5254885], [113.9362159, 22.5254904], [113.9358299, 22.5254936], [113.9358239, 22.5254914], [113.9358189, 22.5254873], [113.9358158, 22.5254809], [113.9358124, 22.5251256]]]]}}, {"type": "Feature", "id": "way/533466808", "properties": {"tags": {"building": "commercial", "building:levels": "11", "building:material": "metal", "layer": "2", "name": "5E", "name:en": "5E", "name:zh": "5E", "official_name": "深圳市软件产业基地5栋E座", "ref": "5E"}, "heightStatus": "levels_only_unverified", "source": "OpenStreetMap", "license": "ODbL-1.0"}, "geometry": {"type": "MultiPolygon", "coordinates": [[[[113.9338496, 22.5258961], [113.9343405, 22.5258862], [113.9344541, 22.5262576], [113.9344746, 22.5263248], [113.9342149, 22.5263282], [113.933989, 22.5263311], [113.9338496, 22.5258961]]]]}}, {"type": "Feature", "id": "way/533466809", "properties": {"tags": {"building": "commercial", "building:levels": "11", "building:material": "metal", "layer": "2", "name": "5A", "name:en": "5A", "name:zh": "5A", "official_name": "深圳市软件产业基地5栋A座", "ref": "5A"}, "heightStatus": "levels_only_unverified", "source": "OpenStreetMap", "license": "ODbL-1.0"}, "geometry": {"type": "MultiPolygon", "coordinates": [[[[113.9341144, 22.5267226], [113.9346057, 22.5267159], [113.9346206, 22.5267606], [113.9346758, 22.5269268], [113.9341822, 22.5269342], [113.9341144, 22.5267226]]]]}}, {"type": "Feature", "id": "way/533466810", "properties": {"tags": {"building": "commercial", "building:levels": "11", "building:material": "metal", "layer": "2", "name": "5B", "name:en": "5B", "name:zh": "5B", "official_name": "深圳市软件产业基地5栋B座", "ref": "5B"}, "heightStatus": "levels_only_unverified", "source": "OpenStreetMap", "license": "ODbL-1.0"}, "geometry": {"type": "MultiPolygon", "coordinates": [[[[113.9348227, 22.5267212], [113.9350083, 22.5267173], [113.9353353, 22.5267119], [113.9355404, 22.5267076], [113.9355412, 22.5267412], [113.9355452, 22.5269217], [113.934885, 22.5269342], [113.934833, 22.5267565], [113.9348227, 22.5267212]]]]}}, {"type": "Feature", "id": "relation/7662981", "properties": {"tags": {"building": "commercial", "layer": "1", "name": "深圳市软件产业基地5栋", "name:zh": "深圳市软件产业基地5栋", "name:zh-Hans": "深圳市软件产业基地5栋", "name:zh-Hant": "深圳市軟體產業基地5棟", "ref": "5"}, "heightStatus": "unknown", "source": "OpenStreetMap", "license": "ODbL-1.0"}, "geometry": {"type": "MultiPolygon", "coordinates": [[[[113.9338496, 22.5258961], [113.9343405, 22.5258862], [113.9344781, 22.5258856], [113.934551, 22.5260938], [113.9347955, 22.5260888], [113.9347917, 22.525869], [113.935521, 22.5258581], [113.9355248, 22.526078], [113.9355354, 22.5264734], [113.9357776, 22.5264669], [113.936258, 22.526454], [113.9362665, 22.5268976], [113.9357889, 22.526907], [113.9357835, 22.5267357], [113.9355412, 22.5267412], [113.9355452, 22.5269217], [113.934885, 22.5269342], [113.934833, 22.5267565], [113.9346206, 22.5267606], [113.9346758, 22.5269268], [113.9341822, 22.5269342], [113.9341144, 22.5267226], [113.933989, 22.5263311], [113.9338496, 22.5258961]], [[113.9342149, 22.5263282], [113.9343164, 22.526625], [113.9348314, 22.526617], [113.9348256, 22.5262508], [113.9344541, 22.5262576], [113.9344746, 22.5263248], [113.9342149, 22.5263282]], [[113.9350003, 22.5261311], [113.9350026, 22.5263061], [113.9353266, 22.5263024], [113.9353243, 22.5261274], [113.9350003, 22.5261311]], [[113.9350051, 22.5265502], [113.9350083, 22.5267173], [113.9353353, 22.5267119], [113.935332, 22.5265448], [113.9350051, 22.5265502]]]]}}, {"type": "Feature", "id": "way/533466814", "properties": {"tags": {"addr:housenumber": "5D", "building": "commercial", "building:levels": "11", "building:material": "metal", "layer": "2", "name": "5D", "name:en": "5D", "name:zh": "5D", "official_name": "深圳市软件产业基地5栋D座", "ref": "5D"}, "heightStatus": "levels_only_unverified", "source": "OpenStreetMap", "license": "ODbL-1.0"}, "geometry": {"type": "MultiPolygon", "coordinates": [[[[113.9347917, 22.525869], [113.935521, 22.5258581], [113.9355248, 22.526078], [113.9347955, 22.5260888], [113.9347917, 22.525869]]]]}}, {"type": "Feature", "id": "way/533466815", "properties": {"tags": {"building": "commercial", "building:levels": "11", "building:material": "metal", "layer": "2", "name": "5C", "official_name": "深圳市软件产业基地5栋C座", "ref": "5C"}, "heightStatus": "levels_only_unverified", "source": "OpenStreetMap", "license": "ODbL-1.0"}, "geometry": {"type": "MultiPolygon", "coordinates": [[[[113.9357776, 22.5264669], [113.936258, 22.526454], [113.9362665, 22.5268976], [113.9357889, 22.526907], [113.9357835, 22.5267357], [113.9357776, 22.5264669]]]]}}, {"type": "Feature", "id": "way/533466817", "properties": {"tags": {"building": "commercial", "building:levels": "11", "building:material": "metal", "layer": "2", "name": "4B", "name:en": "4B", "name:zh": "4B", "official_name": "深圳市软件产业基地4栋B座", "ref": "4B"}, "heightStatus": "levels_only_unverified", "source": "OpenStreetMap", "license": "ODbL-1.0"}, "geometry": {"type": "MultiPolygon", "coordinates": [[[[113.9328585, 22.5269649], [113.9328596, 22.5267993], [113.9328612, 22.5267423], [113.9328941, 22.5267417], [113.9333477, 22.5267345], [113.9336091, 22.5267303], [113.9336789, 22.5269476], [113.9328585, 22.5269649]]]]}}, {"type": "Feature", "id": "way/533466818", "properties": {"tags": {"building": "commercial", "building:levels": "11", "building:material": "metal", "layer": "2", "name": "4C", "name:en": "4C", "name:zh": "4C", "official_name": "深圳市软件产业基地4栋C座", "ref": "4C"}, "heightStatus": "levels_only_unverified", "source": "OpenStreetMap", "license": "ODbL-1.0"}, "geometry": {"type": "MultiPolygon", "coordinates": [[[[113.9325973, 22.5259203], [113.9333612, 22.5259058], [113.9334269, 22.5261243], [113.9326022, 22.5261404], [113.9325973, 22.5259203]]]]}}, {"type": "Feature", "id": "relation/7662982", "properties": {"tags": {"building": "commercial", "layer": "1", "name": "深圳市软件产业基地4栋", "name:zh": "深圳市软件产业基地4栋", "name:zh-Hans": "深圳市软件产业基地4栋", "name:zh-Hant": "深圳市軟體產業基地4棟", "ref": "4"}, "heightStatus": "unknown", "source": "OpenStreetMap", "license": "ODbL-1.0"}, "geometry": {"type": "MultiPolygon", "coordinates": [[[[113.9317216, 22.5265451], [113.932173, 22.5265366], [113.932166, 22.5262203], [113.9318505, 22.5262265], [113.9318437, 22.5259309], [113.9324294, 22.5259194], [113.9324346, 22.5261436], [113.9326022, 22.5261404], [113.9325973, 22.5259203], [113.9333612, 22.5259058], [113.9334269, 22.5261243], [113.9336091, 22.5267303], [113.9336789, 22.5269476], [113.9328585, 22.5269649], [113.9328596, 22.5267993], [113.9322759, 22.5268064], [113.9322796, 22.5269743], [113.9317314, 22.5269845], [113.9317216, 22.5265451]], [[113.9323967, 22.5262916], [113.932402, 22.5265803], [113.9327204, 22.5265754], [113.9327152, 22.5262867], [113.9323967, 22.5262916]], [[113.9328918, 22.5265925], [113.9328941, 22.5267417], [113.9333477, 22.5267345], [113.9333007, 22.5265881], [113.9328918, 22.5265925]], [[113.9328939, 22.5262232], [113.9328959, 22.5263433], [113.9332396, 22.5263385], [113.9331902, 22.5262191], [113.9328939, 22.5262232]]]]}}, {"type": "Feature", "id": "way/533466827", "properties": {"tags": {"addr:housenumber": "6", "building": "commercial", "building:levels": "9", "building:material": "metal", "ref": "6"}, "heightStatus": "levels_only_unverified", "source": "OpenStreetMap", "license": "ODbL-1.0"}, "geometry": {"type": "MultiPolygon", "coordinates": [[[[113.9356856, 22.5258913], [113.9362527, 22.5258838], [113.9362561, 22.5261056], [113.935689, 22.5261131], [113.9356856, 22.5258913]]]]}}, {"type": "Feature", "id": "way/533466844", "properties": {"tags": {"building": "yes"}, "heightStatus": "unknown", "source": "OpenStreetMap", "license": "ODbL-1.0"}, "geometry": {"type": "MultiPolygon", "coordinates": [[[[113.9365943, 22.5252025], [113.9368052, 22.5251968], [113.9368179, 22.525599], [113.936607, 22.5256047], [113.9365943, 22.5252025]]]]}}, {"type": "Feature", "id": "way/601101655", "properties": {"tags": {"building": "yes", "building:colour": "#b59580", "building:levels": "5", "building:min_level": "2", "height": "35", "layer": "1", "min_height": "14", "roof:colour": "grey"}, "heightStatus": "height_tag_unverified", "source": "OpenStreetMap", "license": "ODbL-1.0"}, "geometry": {"type": "MultiPolygon", "coordinates": [[[[113.9300579, 22.5255397], [113.9300743, 22.5252434], [113.9303422, 22.5252455], [113.9305683, 22.5252473], [113.9306141, 22.525367], [113.9304994, 22.5253445], [113.9301342, 22.5252728], [113.9300728, 22.5255394], [113.9302831, 22.5256016], [113.9306505, 22.5256737], [113.9307348, 22.5256903], [113.9307551, 22.5256943], [113.9306909, 22.5261166], [113.9305879, 22.5264299], [113.9302343, 22.5265167], [113.9301771, 22.5262226], [113.9302942, 22.5262825], [113.9305043, 22.5263898], [113.9306405, 22.5261634], [113.9305052, 22.5260741], [113.9304575, 22.5260498], [113.9301264, 22.5258808], [113.9301185, 22.5258768], [113.9300579, 22.5255397]]]]}}, {"type": "Feature", "id": "way/610402679", "properties": {"tags": {"building": "apartments", "name": "7栋", "name:zh": "7栋", "name:zh-Hans": "7栋", "name:zh-Hant": "7棟"}, "heightStatus": "unknown", "source": "OpenStreetMap", "license": "ODbL-1.0"}, "geometry": {"type": "MultiPolygon", "coordinates": [[[[113.931433, 22.5239124], [113.9315081, 22.5238408], [113.9315196, 22.5238511], [113.9315381, 22.5238334], [113.9315042, 22.523803], [113.9315565, 22.5237532], [113.9316111, 22.5238021], [113.9316799, 22.5238012], [113.9317312, 22.5237523], [113.931797, 22.5238112], [113.9317643, 22.5238423], [113.9317839, 22.5238599], [113.9317741, 22.5238693], [113.9318275, 22.5239171], [113.9317733, 22.5239687], [113.9317774, 22.5239724], [113.9317181, 22.5240289], [113.931665, 22.5239813], [113.9316813, 22.5239658], [113.9316047, 22.5239669], [113.931623, 22.5239832], [113.9315361, 22.5240659], [113.9314944, 22.5240285], [113.9315199, 22.5240043], [113.9314639, 22.5239541], [113.9314715, 22.5239468], [113.931433, 22.5239124]]]]}}, {"type": "Feature", "id": "way/610402681", "properties": {"tags": {"building": "apartments", "name": "西2栋", "name:zh": "西2栋", "name:zh-Hans": "西2栋", "name:zh-Hant": "西2棟"}, "heightStatus": "unknown", "source": "OpenStreetMap", "license": "ODbL-1.0"}, "geometry": {"type": "MultiPolygon", "coordinates": [[[[113.9294947, 22.5229799], [113.9295672, 22.522897], [113.9295299, 22.5228699], [113.9295931, 22.522798], [113.9296496, 22.5228403], [113.9297137, 22.5228341], [113.929763, 22.522778], [113.9298439, 22.5228387], [113.9298102, 22.522877], [113.9298971, 22.5229421], [113.9297964, 22.5230569], [113.9297263, 22.5230043], [113.929745, 22.5229779], [113.9297297, 22.5229688], [113.9296573, 22.5229763], [113.9296449, 22.5229877], [113.9296703, 22.5230111], [113.9296168, 22.5230717], [113.9294947, 22.5229799]]]]}}, {"type": "Feature", "id": "way/610402684", "properties": {"tags": {"building": "apartments", "name": "6栋", "name:zh": "6栋", "name:zh-Hans": "6栋", "name:zh-Hant": "6棟"}, "heightStatus": "unknown", "source": "OpenStreetMap", "license": "ODbL-1.0"}, "geometry": {"type": "MultiPolygon", "coordinates": [[[[113.9308882, 22.5239134], [113.9309247, 22.5238796], [113.930943, 22.5238965], [113.9309856, 22.5238572], [113.9309155, 22.5237925], [113.93097, 22.5237421], [113.9310424, 22.523809], [113.9311078, 22.5238087], [113.9311772, 22.5237446], [113.9312297, 22.5237931], [113.9311747, 22.5238439], [113.9312463, 22.52391], [113.9312602, 22.5238971], [113.9312863, 22.5239213], [113.9312042, 22.5239972], [113.9312394, 22.5240297], [113.9311903, 22.5240751], [113.9311041, 22.5239955], [113.9311056, 22.5239941], [113.9310496, 22.523995], [113.9309646, 22.5240735], [113.9309267, 22.5240385], [113.9309752, 22.5239938], [113.9308882, 22.5239134]]]]}}, {"type": "Feature", "id": "way/610402686", "properties": {"tags": {"building": "apartments", "name": "5栋", "name:zh": "5栋", "name:zh-Hans": "5栋", "name:zh-Hant": "5棟"}, "heightStatus": "unknown", "source": "OpenStreetMap", "license": "ODbL-1.0"}, "geometry": {"type": "MultiPolygon", "coordinates": [[[[113.9303538, 22.5239193], [113.9303904, 22.5238855], [113.9304087, 22.5239024], [113.9304512, 22.5238631], [113.9303812, 22.5237983], [113.9304356, 22.523748], [113.9305081, 22.5238149], [113.9305734, 22.5238146], [113.9306428, 22.5237505], [113.9306953, 22.523799], [113.9306403, 22.5238497], [113.9307119, 22.5239159], [113.9307258, 22.523903], [113.930752, 22.5239272], [113.9306698, 22.524003], [113.930705, 22.5240356], [113.9306559, 22.5240809], [113.9305698, 22.5240013], [113.9305713, 22.524], [113.9305153, 22.5240009], [113.9304303, 22.5240794], [113.9303924, 22.5240444], [113.9304408, 22.5239996], [113.9303538, 22.5239193]]]]}}, {"type": "Feature", "id": "way/610402688", "properties": {"tags": {"building": "apartments", "name": "3栋", "name:zh": "3栋", "name:zh-Hans": "3栋", "name:zh-Hant": "3棟"}, "heightStatus": "unknown", "source": "OpenStreetMap", "license": "ODbL-1.0"}, "geometry": {"type": "MultiPolygon", "coordinates": [[[[113.929585, 22.5233879], [113.9297199, 22.5232581], [113.929759, 22.5232928], [113.9297949, 22.5232583], [113.9299449, 22.5233913], [113.9298779, 22.5234557], [113.9299284, 22.5235005], [113.9299294, 22.5235013], [113.9298678, 22.5235606], [113.9297856, 22.5234939], [113.9297886, 22.523491], [113.9297884, 22.5234774], [113.9297387, 22.5234781], [113.9297389, 22.5234916], [113.9297442, 22.523496], [113.9296721, 22.5235583], [113.9296132, 22.5235098], [113.9296659, 22.5234598], [113.929585, 22.5233879]]]]}}, {"type": "Feature", "id": "way/610402690", "properties": {"tags": {"building": "apartments", "name": "4栋", "name:zh": "4栋", "name:zh-Hans": "4栋", "name:zh-Hant": "4棟"}, "heightStatus": "unknown", "source": "OpenStreetMap", "license": "ODbL-1.0"}, "geometry": {"type": "MultiPolygon", "coordinates": [[[[113.9296343, 22.5239194], [113.9297692, 22.5237896], [113.9298083, 22.5238243], [113.9298442, 22.5237898], [113.9299942, 22.5239228], [113.9299272, 22.5239872], [113.9299777, 22.524032], [113.9299787, 22.5240328], [113.9299171, 22.5240921], [113.9298349, 22.5240254], [113.9298379, 22.5240225], [113.9298377, 22.5240089], [113.929788, 22.5240096], [113.9297882, 22.5240231], [113.9297935, 22.5240275], [113.9297215, 22.5240898], [113.9296625, 22.5240413], [113.9297152, 22.5239913], [113.9296343, 22.5239194]]]]}}, {"type": "Feature", "id": "way/610402693", "properties": {"tags": {"building": "apartments", "name": "东2栋", "name:zh": "东2栋", "name:zh-Hans": "东2栋", "name:zh-Hant": "東2棟"}, "heightStatus": "unknown", "source": "OpenStreetMap", "license": "ODbL-1.0"}, "geometry": {"type": "MultiPolygon", "coordinates": [[[[113.9300015, 22.522861], [113.9300243, 22.5228519], [113.9300573, 22.5228439], [113.9301081, 22.5228352], [113.930178, 22.5228245], [113.9302658, 22.5228188], [113.9303704, 22.5228217], [113.9304911, 22.5228369], [113.9306267, 22.5228679], [113.9307709, 22.5229246], [113.9309337, 22.5229981], [113.93091, 22.5230469], [113.9309407, 22.5230611], [113.9309195, 22.5231002], [113.9308948, 22.5230907], [113.9308847, 22.5231117], [113.9308871, 22.5231131], [113.9308931, 22.5231171], [113.9309016, 22.5231241], [113.9309111, 22.5231339], [113.9309204, 22.5231469], [113.9309281, 22.523163], [113.9309328, 22.5231823], [113.9309333, 22.523205], [113.9309323, 22.523235], [113.9309297, 22.5232499], [113.9309149, 22.5232647], [113.9308918, 22.5232777], [113.9308699, 22.5232833], [113.9308313, 22.523286], [113.9307989, 22.5232763], [113.9307722, 22.5232573], [113.9307507, 22.5232323], [113.9307341, 22.5232046], [113.9307219, 22.5231774], [113.9307138, 22.5231539], [113.9307092, 22.5231374], [113.9307238, 22.5230993], [113.9306146, 22.5230488], [113.9305148, 22.5230135], [113.9304151, 22.5229926], [113.9303089, 22.5229894], [113.9302217, 22.5229885], [113.9301468, 22.522993], [113.9300882, 22.523], [113.9300501, 22.5230064], [113.9300365, 22.5230092], [113.9300015, 22.522861]]]]}}, {"type": "Feature", "id": "way/694152192", "properties": {"tags": {"addr:city": "深圳市", "addr:district": "南山区", "addr:housenumber": "33号", "addr:postcode": "518054", "addr:province": "广东省", "addr:street": "海天二路", "building": "commercial", "building:colour": "#4e5c6f", "building:levels": "50", "building:material": "mirror", "height": "245.8", "name": "南塔", "name:en": "South Tower", "name:zh": "南塔", "name:zh-Hans": "南塔", "name:zh-Hant": "南塔", "official_name": "腾讯滨海大厦南塔", "start_date": "2017-11-28"}, "heightStatus": "height_tag_unverified", "source": "OpenStreetMap", "license": "ODbL-1.0"}, "geometry": {"type": "MultiPolygon", "coordinates": [[[[113.9300728, 22.5255394], [113.9301342, 22.5252728], [113.9304994, 22.5253445], [113.9306141, 22.525367], [113.9307719, 22.525398], [113.9310418, 22.525451], [113.9309808, 22.5257159], [113.9307551, 22.5256943], [113.9307348, 22.5256903], [113.9306505, 22.5256737], [113.9302831, 22.5256016], [113.9300728, 22.5255394]]]]}}, {"type": "Feature", "id": "way/694152193", "properties": {"tags": {"addr:city": "深圳市", "addr:district": "南山区", "addr:housenumber": "33号", "addr:postcode": "518054", "addr:province": "广东省", "addr:street": "海天二路", "building": "commercial", "building:colour": "#4e5c6f", "building:levels": "38", "building:material": "mirror", "height": "194.8", "name": "北塔", "name:en": "North Tower", "name:zh": "北塔", "name:zh-Hans": "北塔", "name:zh-Hant": "北塔", "official_name": "腾讯滨海大厦北塔", "start_date": "2017-11-28"}, "heightStatus": "height_tag_unverified", "source": "OpenStreetMap", "license": "ODbL-1.0"}, "geometry": {"type": "MultiPolygon", "coordinates": [[[[113.9298306, 22.526044], [113.9299683, 22.5258152], [113.9301185, 22.5258768], [113.9301264, 22.5258808], [113.9304575, 22.5260498], [113.9305052, 22.5260741], [113.9306405, 22.5261634], [113.9305043, 22.5263898], [113.9302942, 22.5262825], [113.9301771, 22.5262226], [113.9300967, 22.5261812], [113.9298306, 22.526044]]]]}}, {"type": "Feature", "id": "way/737149475", "properties": {"tags": {"addr:housenumber": "7", "building": "commercial", "building:levels": "5", "ref": "7"}, "heightStatus": "levels_only_unverified", "source": "OpenStreetMap", "license": "ODbL-1.0"}, "geometry": {"type": "MultiPolygon", "coordinates": [[[[113.9367142, 22.5265271], [113.9367166, 22.5264953], [113.9367222, 22.526471], [113.9367349, 22.5264523], [113.9367526, 22.5264353], [113.936776, 22.5264234], [113.9368012, 22.5264181], [113.9370725, 22.5264198], [113.9370893, 22.5264271], [113.9371025, 22.5264345], [113.9371087, 22.5264467], [113.9371105, 22.526463], [113.9371043, 22.5264815], [113.9370813, 22.5265341], [113.9370494, 22.5265822], [113.9370059, 22.5266256], [113.936949, 22.5266601], [113.9369002, 22.5266795], [113.9368504, 22.5266916], [113.9368154, 22.5266926], [113.9367863, 22.5266848], [113.9367634, 22.5266705], [113.9367392, 22.5266437], [113.9367251, 22.5266084], [113.9367173, 22.526564], [113.9367142, 22.5265271]]]]}}, {"type": "Feature", "id": "way/737149476", "properties": {"tags": {"building:levels": "25", "building:material": "mirror", "building:part": "commercial", "height": "100"}, "heightStatus": "height_tag_unverified", "source": "OpenStreetMap", "license": "ODbL-1.0"}, "geometry": {"type": "MultiPolygon", "coordinates": [[[[113.9335485, 22.5251445], [113.9339013, 22.5251347], [113.9340092, 22.5254839], [113.9338322, 22.5254844], [113.9336517, 22.5254848], [113.9335485, 22.5251445]]]]}}, {"type": "Feature", "id": "way/737149481", "properties": {"tags": {"addr:city": "深圳市", "addr:district": "南山区", "addr:housenumber": "1001", "addr:province": "广东省", "addr:street": "高新南九道", "building": "commercial", "building:levels": "44", "height": "202.4", "name": "深圳湾创业投资大厦", "ref": "3", "wikidata": "Q24036201"}, "heightStatus": "height_tag_unverified", "source": "OpenStreetMap", "license": "ODbL-1.0"}, "geometry": {"type": "MultiPolygon", "coordinates": [[[[113.9327162, 22.5251546], [113.9328472, 22.5251532], [113.9328601, 22.5251427], [113.9328821, 22.5251399], [113.9331531, 22.5251387], [113.9331757, 22.525145], [113.9331921, 22.5251579], [113.9332034, 22.5251756], [113.9332919, 22.5254887], [113.933293, 22.5255057], [113.9332949, 22.525656], [113.9327228, 22.5256623], [113.9327162, 22.5251546]]]]}}, {"type": "Feature", "id": "way/737426462", "properties": {"tags": {"addr:city": "深圳市", "addr:district": "南山区", "addr:housenumber": "1698", "addr:province": "广东省", "addr:street": "海德三道", "building": "commercial", "building:levels": "31", "building:material": "mirror", "height": "130", "name": "航天科技广场B座", "name:zh": "航天科技广场B座", "name:zh-Hans": "航天科技广场B座", "name:zh-Hant": "航太科技廣場B座"}, "heightStatus": "height_tag_unverified", "source": "OpenStreetMap", "license": "ODbL-1.0"}, "geometry": {"type": "MultiPolygon", "coordinates": [[[[113.9368927, 22.5219285], [113.9373855, 22.5218126], [113.937458, 22.5220754], [113.9369651, 22.5221913], [113.9368927, 22.5219285]]]]}}, {"type": "Feature", "id": "way/737426463", "properties": {"tags": {"addr:city": "深圳市", "addr:district": "南山区", "addr:housenumber": "1698", "addr:province": "广东省", "addr:street": "海德三道", "building": "commercial", "building:levels": "6", "building:material": "mirror"}, "heightStatus": "levels_only_unverified", "source": "OpenStreetMap", "license": "ODbL-1.0"}, "geometry": {"type": "MultiPolygon", "coordinates": [[[[113.9365154, 22.5220173], [113.9368927, 22.5219285], [113.9369651, 22.5221913], [113.937458, 22.5220754], [113.9375264, 22.5223234], [113.9371329, 22.5224158], [113.9368346, 22.5224859], [113.936656, 22.5225279], [113.9365154, 22.5220173]]]]}}, {"type": "Feature", "id": "way/737426464", "properties": {"tags": {"addr:city": "深圳市", "addr:district": "南山区", "addr:housenumber": "1698", "addr:province": "广东省", "addr:street": "海德三道", "alt_name:en": "CASC International Center A", "building": "commercial", "building:levels": "50", "building:material": "mirror", "height": "232.10", "name": "航天科技广场A座", "name:en": "CASC International Center North Tower", "wikidata": "Q28873284"}, "heightStatus": "height_tag_unverified", "source": "OpenStreetMap", "license": "ODbL-1.0"}, "geometry": {"type": "MultiPolygon", "coordinates": [[[[113.9368353, 22.5226847], [113.9368866, 22.5226725], [113.9371847, 22.5226018], [113.9372401, 22.5225887], [113.9373564, 22.5230073], [113.9369517, 22.5231033], [113.9368353, 22.5226847]]]]}}, {"type": "Feature", "id": "way/737426474", "properties": {"tags": {"building": "commercial", "building:levels": "32", "height": "163", "name": "鹏润达商业广场西座", "ref": "A"}, "heightStatus": "height_tag_unverified", "source": "OpenStreetMap", "license": "ODbL-1.0"}, "geometry": {"type": "MultiPolygon", "coordinates": [[[[113.9360118, 22.5212558], [113.9364504, 22.5211498], [113.9365433, 22.5214798], [113.9361918, 22.5215647], [113.936084, 22.5215041], [113.9360118, 22.5212558]]]]}}, {"type": "Feature", "id": "way/737426475", "properties": {"tags": {"building": "commercial", "building:levels": "32", "height": "163", "name": "深圳海德酒店", "ref": "B", "tourism": "hotel"}, "heightStatus": "height_tag_unverified", "source": "OpenStreetMap", "license": "ODbL-1.0"}, "geometry": {"type": "MultiPolygon", "coordinates": [[[[113.9368909, 22.5210457], [113.9373295, 22.5209398], [113.9374224, 22.5212679], [113.9369837, 22.5213738], [113.9368909, 22.5210457]]]]}}, {"type": "Feature", "id": "way/737426476", "properties": {"tags": {"building:levels": "10", "building:part": "yes"}, "heightStatus": "levels_only_unverified", "source": "OpenStreetMap", "license": "ODbL-1.0"}, "geometry": {"type": "MultiPolygon", "coordinates": [[[[113.935836, 22.5209254], [113.9358957, 22.5209127], [113.9372395, 22.5206297], [113.9373295, 22.5209398], [113.9368909, 22.5210457], [113.9369837, 22.5213738], [113.9365433, 22.5214798], [113.9364504, 22.5211498], [113.9360118, 22.5212558], [113.9359519, 22.5212695], [113.935836, 22.5209254]]]]}}, {"type": "Feature", "id": "way/737426477", "properties": {"tags": {"building": "commercial"}, "heightStatus": "unknown", "source": "OpenStreetMap", "license": "ODbL-1.0"}, "geometry": {"type": "MultiPolygon", "coordinates": [[[[113.935836, 22.5209254], [113.9358957, 22.5209127], [113.93586, 22.5206703], [113.9371233, 22.5205274], [113.937228, 22.5205846], [113.9372395, 22.5206297], [113.9373295, 22.5209398], [113.9368909, 22.5210457], [113.9369837, 22.5213738], [113.9365433, 22.5214798], [113.9364504, 22.5211498], [113.9360118, 22.5212558], [113.9359519, 22.5212695], [113.935836, 22.5209254]]]]}}, {"type": "Feature", "id": "way/775462995", "properties": {"tags": {"building": "yes", "building:colour": "#b59580", "building:levels": "25", "building:min_level": "21", "height": "121.8", "layer": "2", "min_height": "95.8", "roof:colour": "grey"}, "heightStatus": "height_tag_unverified", "source": "OpenStreetMap", "license": "ODbL-1.0"}, "geometry": {"type": "MultiPolygon", "coordinates": [[[[113.9300629, 22.5255393], [113.9300998, 22.5252464], [113.9305012, 22.525337], [113.9304994, 22.5253445], [113.9301342, 22.5252728], [113.9300728, 22.5255394], [113.9302831, 22.5256016], [113.9306505, 22.5256737], [113.930646, 22.5261705], [113.9305077, 22.5264334], [113.9302908, 22.5262885], [113.9302942, 22.5262825], [113.9305043, 22.5263898], [113.9306405, 22.5261634], [113.9305052, 22.5260741], [113.9304575, 22.5260498], [113.9301264, 22.5258808], [113.9300629, 22.5255393]]]]}}, {"type": "Feature", "id": "way/775462996", "properties": {"tags": {"building": "yes", "building:levels": "2", "building:material": "glass", "height": "14"}, "heightStatus": "height_tag_unverified", "source": "OpenStreetMap", "license": "ODbL-1.0"}, "geometry": {"type": "MultiPolygon", "coordinates": [[[[113.9301185, 22.5258768], [113.9302008, 22.5257392], [113.9302831, 22.5256016], [113.9306505, 22.5256737], [113.9307348, 22.5256903], [113.93062, 22.5258822], [113.9305052, 22.5260741], [113.9304575, 22.5260498], [113.9301264, 22.5258808], [113.9301185, 22.5258768]]]]}}, {"type": "Feature", "id": "way/775462997", "properties": {"tags": {"building": "yes", "building:colour": "#b59580", "building:levels": "37", "building:min_level": "34", "height": "175.8", "layer": "3", "min_height": "152.8", "roof:colour": "grey"}, "heightStatus": "height_tag_unverified", "source": "OpenStreetMap", "license": "ODbL-1.0"}, "geometry": {"type": "MultiPolygon", "coordinates": [[[[113.9298076, 22.5260498], [113.9298503, 22.5259655], [113.9299236, 22.5258207], [113.9300862, 22.5257216], [113.9302831, 22.5256016], [113.9306505, 22.5256737], [113.9307348, 22.5256903], [113.9307551, 22.5256943], [113.9309808, 22.5257159], [113.9310418, 22.525451], [113.9307719, 22.525398], [113.930792, 22.5253914], [113.9310685, 22.5254258], [113.9310366, 22.5257053], [113.9304575, 22.5260498], [113.9301264, 22.5258808], [113.9301185, 22.5258768], [113.9299683, 22.5258152], [113.9298306, 22.526044], [113.9300967, 22.5261812], [113.9300616, 22.5261978], [113.9298076, 22.5260498]]]]}}, {"type": "Feature", "id": "relation/10744156", "properties": {"tags": {"building": "retail", "building:levels": "5", "building:material": "concrete", "building:min_level": "1", "height": "30", "layer": "1", "min_height": "6"}, "heightStatus": "height_tag_unverified", "source": "OpenStreetMap", "license": "ODbL-1.0"}, "geometry": {"type": "MultiPolygon", "coordinates": [[[[113.9297596, 22.5200497], [113.929824, 22.519968], [113.9306711, 22.51976], [113.9308126, 22.5197431], [113.9308874, 22.519734], [113.9309791, 22.5197231], [113.9310576, 22.5197137], [113.9310506, 22.5196624], [113.9315159, 22.5195632], [113.9315869, 22.5196034], [113.9316617, 22.5196453], [113.9317903, 22.5200985], [113.9313149, 22.5201518], [113.9311202, 22.5201733], [113.9310398, 22.5201829], [113.9309491, 22.5201938], [113.9308729, 22.5202029], [113.9307356, 22.5202194], [113.9307375, 22.5202632], [113.9307472, 22.5203351], [113.9304536, 22.5203683], [113.9304456, 22.5204124], [113.9304429, 22.5204525], [113.930443, 22.5205067], [113.9304483, 22.5205547], [113.930489, 22.520882], [113.9303738, 22.5208956], [113.9299822, 22.5209417], [113.9299286, 22.5209058], [113.929875, 22.5208698], [113.9297894, 22.5202614], [113.9297596, 22.5200497]]]]}}, {"type": "Feature", "id": "way/775709337", "properties": {"tags": {"building": "yes", "building:colour": "#778c9a", "building:material": "mirror", "height": "30", "min_height": "6", "roof:colour": "#778c9a"}, "heightStatus": "height_tag_unverified", "source": "OpenStreetMap", "license": "ODbL-1.0"}, "geometry": {"type": "MultiPolygon", "coordinates": [[[[113.9290247, 22.5206653], [113.9290489, 22.5206644], [113.9292415, 22.5206398], [113.9292846, 22.5206333], [113.9292943, 22.5206932], [113.9290348, 22.5207267], [113.9290247, 22.5206653]]]]}}, {"type": "Feature", "id": "way/775709338", "properties": {"tags": {"building": "yes", "building:colour": "#778c9a", "building:material": "mirror", "height": "30", "min_height": "6", "roof:colour": "#778c9a"}, "heightStatus": "height_tag_unverified", "source": "OpenStreetMap", "license": "ODbL-1.0"}, "geometry": {"type": "MultiPolygon", "coordinates": [[[[113.9286646, 22.5203653], [113.928878, 22.52034], [113.9288747, 22.5203578], [113.928877, 22.5203942], [113.9288838, 22.5204459], [113.9288984, 22.5205438], [113.9289058, 22.5205867], [113.9289117, 22.5206123], [113.9289184, 22.5206307], [113.928705, 22.520656], [113.9287019, 22.5206086], [113.9286972, 22.5205588], [113.9286832, 22.5204577], [113.9286746, 22.5204075], [113.9286646, 22.5203653]]]]}}, {"type": "Feature", "id": "way/775709451", "properties": {"tags": {"building": "yes"}, "heightStatus": "unknown", "source": "OpenStreetMap", "license": "ODbL-1.0"}, "geometry": {"type": "MultiPolygon", "coordinates": [[[[113.9292333, 22.5198431], [113.9293031, 22.5198352], [113.9293294, 22.5200332], [113.9292596, 22.5200412], [113.9292333, 22.5198431]]]]}}, {"type": "Feature", "id": "way/775709452", "properties": {"tags": {"building": "yes"}, "heightStatus": "unknown", "source": "OpenStreetMap", "license": "ODbL-1.0"}, "geometry": {"type": "MultiPolygon", "coordinates": [[[[113.9289517, 22.5198785], [113.9292104, 22.519849], [113.92922, 22.5199209], [113.9289613, 22.5199504], [113.9289517, 22.5198785]]]]}}, {"type": "Feature", "id": "way/775709498", "properties": {"tags": {"building": "commercial", "building:levels": "28", "name": "有线信息传输大厦", "name:zh": "有线信息传输大厦", "name:zh-Hans": "有线信息传输大厦", "name:zh-Hant": "有線資訊傳輸大廈"}, "heightStatus": "levels_only_unverified", "source": "OpenStreetMap", "license": "ODbL-1.0"}, "geometry": {"type": "MultiPolygon", "coordinates": [[[[113.9320526, 22.5238904], [113.9324803, 22.5238576], [113.9325028, 22.5241081], [113.9320723, 22.52411], [113.9320526, 22.5238904]]]]}}, {"type": "Feature", "id": "relation/10744155", "properties": {"tags": {"building": "retail", "building:levels": "1", "building:material": "concrete", "height": "6"}, "heightStatus": "height_tag_unverified", "source": "OpenStreetMap", "license": "ODbL-1.0"}, "geometry": {"type": "MultiPolygon", "coordinates": [[[[113.9297596, 22.5200497], [113.929824, 22.519968], [113.9306711, 22.51976], [113.9307033, 22.5199897], [113.9307356, 22.5202194], [113.9307375, 22.5202632], [113.9307472, 22.5203351], [113.9308535, 22.5203229], [113.9308558, 22.5203997], [113.9308531, 22.5204894], [113.9308455, 22.5205709], [113.9308278, 22.5206625], [113.9307999, 22.5207573], [113.930759, 22.5208502], [113.930489, 22.520882], [113.9303738, 22.5208956], [113.9299822, 22.5209417], [113.9299286, 22.5209058], [113.929875, 22.5208698], [113.9297894, 22.5202614], [113.9297596, 22.5200497]]]]}}, {"type": "Feature", "id": "way/780355006", "properties": {"tags": {"building:levels": "14", "building:material": "mirror", "building:part": "yes", "height": "100"}, "heightStatus": "height_tag_unverified", "source": "OpenStreetMap", "license": "ODbL-1.0"}, "geometry": {"type": "MultiPolygon", "coordinates": [[[[113.9312804, 22.5252685], [113.931731, 22.5252634], [113.9317354, 22.5255941], [113.9312848, 22.5255991], [113.9312804, 22.5252685]]]]}}, {"type": "Feature", "id": "way/780355007", "properties": {"tags": {"building:levels": "25", "building:material": "mirror", "building:part": "yes", "height": "100"}, "heightStatus": "height_tag_unverified", "source": "OpenStreetMap", "license": "ODbL-1.0"}, "geometry": {"type": "MultiPolygon", "coordinates": [[[[113.9320739, 22.5251785], [113.9324825, 22.5251727], [113.9324891, 22.5255696], [113.9320805, 22.5255754], [113.9320739, 22.5251785]]]]}}, {"type": "Feature", "id": "way/785873826", "properties": {"tags": {"building:levels": "32", "building:material": "glass", "building:part": "yes", "height": "160"}, "heightStatus": "height_tag_unverified", "source": "OpenStreetMap", "license": "ODbL-1.0"}, "geometry": {"type": "MultiPolygon", "coordinates": [[[[113.9305558, 22.5213947], [113.9309378, 22.5213526], [113.9309718, 22.5216315], [113.9309768, 22.5216704], [113.9305967, 22.5217118], [113.9305927, 22.5216798], [113.9305558, 22.5213947]]]]}}, {"type": "Feature", "id": "way/785873827", "properties": {"tags": {"building:levels": "32", "building:material": "glass", "building:part": "yes", "height": "160"}, "heightStatus": "height_tag_unverified", "source": "OpenStreetMap", "license": "ODbL-1.0"}, "geometry": {"type": "MultiPolygon", "coordinates": [[[[113.9299887, 22.5214567], [113.9303698, 22.5214147], [113.9304064, 22.5217001], [113.9304105, 22.5217327], [113.930028, 22.5217743], [113.9300244, 22.5217464], [113.9299887, 22.5214567]]]]}}, {"type": "Feature", "id": "way/785873828", "properties": {"tags": {"building:levels": "7", "building:material": "glass", "building:part": "yes"}, "heightStatus": "levels_only_unverified", "source": "OpenStreetMap", "license": "ODbL-1.0"}, "geometry": {"type": "MultiPolygon", "coordinates": [[[[113.9299109, 22.5211226], [113.9299548, 22.5211177], [113.930783, 22.5210253], [113.9309325, 22.5210087], [113.9310117, 22.5216271], [113.9309718, 22.5216315], [113.9309378, 22.5213526], [113.9305558, 22.5213947], [113.9305927, 22.5216798], [113.9304064, 22.5217001], [113.9303698, 22.5214147], [113.9299887, 22.5214567], [113.9300244, 22.5217464], [113.9299913, 22.52175], [113.9299109, 22.5211226]]]]}}, {"type": "Feature", "id": "way/785873829", "properties": {"tags": {"building:levels": "7", "building:material": "glass", "building:part": "yes"}, "heightStatus": "levels_only_unverified", "source": "OpenStreetMap", "license": "ODbL-1.0"}, "geometry": {"type": "MultiPolygon", "coordinates": [[[[113.9286917, 22.521263], [113.9292011, 22.5212045], [113.9296302, 22.5211552], [113.9297203, 22.5218244], [113.9293932, 22.521862], [113.929354, 22.5215703], [113.9288996, 22.5216224], [113.9289388, 22.5219143], [113.9287818, 22.5219323], [113.9286917, 22.521263]]]]}}, {"type": "Feature", "id": "way/785873830", "properties": {"tags": {"building:levels": "32", "building:material": "glass", "building:part": "yes", "height": "155"}, "heightStatus": "height_tag_unverified", "source": "OpenStreetMap", "license": "ODbL-1.0"}, "geometry": {"type": "MultiPolygon", "coordinates": [[[[113.9313992, 22.5212939], [113.9318646, 22.5211582], [113.9320752, 22.5212236], [113.9320893, 22.5213601], [113.9321475, 22.5213584], [113.9321709, 22.5214407], [113.9316862, 22.5215441], [113.9314491, 22.5214687], [113.931447, 22.5213644], [113.9313992, 22.5213642], [113.9313992, 22.5212939]]]]}}, {"type": "Feature", "id": "way/785873831", "properties": {"tags": {"building:levels": "24", "building:material": "glass", "building:part": "yes", "height": "100"}, "heightStatus": "height_tag_unverified", "source": "OpenStreetMap", "license": "ODbL-1.0"}, "geometry": {"type": "MultiPolygon", "coordinates": [[[[113.9329397, 22.5211423], [113.9335239, 22.5210752], [113.9335669, 22.5213931], [113.9329825, 22.5214603], [113.9329397, 22.5211423]]]]}}, {"type": "Feature", "id": "way/785873832", "properties": {"tags": {"building:levels": "4", "building:material": "glass", "building:part": "yes"}, "heightStatus": "levels_only_unverified", "source": "OpenStreetMap", "license": "ODbL-1.0"}, "geometry": {"type": "MultiPolygon", "coordinates": [[[[113.9324019, 22.520839], [113.9328992, 22.5207817], [113.9334753, 22.5207153], [113.9335239, 22.5210752], [113.9329397, 22.5211423], [113.9325819, 22.5211827], [113.9326152, 22.5214333], [113.9325546, 22.5214398], [113.9324019, 22.520839]]]]}}, {"type": "Feature", "id": "way/785873833", "properties": {"tags": {"building:levels": "15", "building:material": "glass", "building:part": "yes", "height": "60"}, "heightStatus": "height_tag_unverified", "source": "OpenStreetMap", "license": "ODbL-1.0"}, "geometry": {"type": "MultiPolygon", "coordinates": [[[[113.9325819, 22.5211827], [113.9329397, 22.5211423], [113.9329825, 22.5214603], [113.9326242, 22.5215016], [113.9326152, 22.5214333], [113.9325819, 22.5211827]]]]}}, {"type": "Feature", "id": "way/786105226", "properties": {"tags": {"building:levels": "4", "building:material": "glass", "building:part": "yes"}, "heightStatus": "levels_only_unverified", "source": "OpenStreetMap", "license": "ODbL-1.0"}, "geometry": {"type": "MultiPolygon", "coordinates": [[[[113.931226, 22.5209754], [113.9313087, 22.5209663], [113.9319831, 22.520887], [113.9320128, 22.5208832], [113.9321475, 22.5213584], [113.9320893, 22.5213601], [113.9320752, 22.5212236], [113.9318646, 22.5211582], [113.9313992, 22.5212939], [113.9313992, 22.5213642], [113.931447, 22.5213644], [113.9314491, 22.5214687], [113.9316862, 22.5215441], [113.9321709, 22.5214407], [113.9322024, 22.5215521], [113.9313259, 22.5216464], [113.931226, 22.5209754]]]]}}, {"type": "Feature", "id": "way/1053686806", "properties": {"tags": {"access": "no", "amenity": "parking", "building": "yes", "building:levels": "9", "bus": "yes", "height": "45.7", "parking": "multi-storey"}, "heightStatus": "height_tag_unverified", "source": "OpenStreetMap", "license": "ODbL-1.0"}, "geometry": {"type": "MultiPolygon", "coordinates": [[[[113.9329948, 22.5239839], [113.933526, 22.5239335], [113.9335336, 22.5240025], [113.9335544, 22.5240006], [113.9335654, 22.5240993], [113.9330134, 22.5241516], [113.9329948, 22.5239839]]]]}}, {"type": "Feature", "id": "way/1125377848", "properties": {"tags": {"amenity": "shelter", "building": "yes"}, "heightStatus": "unknown", "source": "OpenStreetMap", "license": "ODbL-1.0"}, "geometry": {"type": "MultiPolygon", "coordinates": [[[[113.9305471, 22.5188268], [113.9309987, 22.5187159], [113.9310206, 22.5187923], [113.9305697, 22.5189034], [113.9305503, 22.5188374], [113.9305471, 22.5188268]]]]}}, {"type": "Feature", "id": "way/1125377852", "properties": {"tags": {"amenity": "bicycle_parking", "bicycle_parking": "shed", "building": "yes"}, "heightStatus": "unknown", "source": "OpenStreetMap", "license": "ODbL-1.0"}, "geometry": {"type": "MultiPolygon", "coordinates": [[[[113.9304056, 22.5188736], [113.9305503, 22.5188374], [113.9305697, 22.5189034], [113.930425, 22.5189397], [113.9304056, 22.5188736]]]]}}, {"type": "Feature", "id": "way/1164455821", "properties": {"tags": {"building": "yes", "office": "government"}, "heightStatus": "unknown", "source": "OpenStreetMap", "license": "ODbL-1.0"}, "geometry": {"type": "MultiPolygon", "coordinates": [[[[113.9287483, 22.5228663], [113.9292342, 22.5228163], [113.9292627, 22.5230526], [113.9287768, 22.5231025], [113.9287483, 22.5228663]]]]}}, {"type": "Feature", "id": "way/1167684437", "properties": {"tags": {"building": "yes"}, "heightStatus": "unknown", "source": "OpenStreetMap", "license": "ODbL-1.0"}, "geometry": {"type": "MultiPolygon", "coordinates": [[[[113.9284593, 22.5264614], [113.9290205, 22.5262287], [113.9290704, 22.5263313], [113.9285092, 22.526564], [113.9284593, 22.5264614]]]]}}, {"type": "Feature", "id": "way/1190750254", "properties": {"tags": {"building": "retail", "building:levels": "4", "height": "24", "layer": "1", "name": "后海汇", "name:en": "Houhai Harbour", "name:zh": "后海汇", "shop": "mall"}, "heightStatus": "height_tag_unverified", "source": "OpenStreetMap", "license": "ODbL-1.0"}, "geometry": {"type": "MultiPolygon", "coordinates": [[[[113.9353267, 22.519367], [113.9356996, 22.5192549], [113.9358892, 22.5191979], [113.9358328, 22.5190379], [113.9359818, 22.5189931], [113.9359616, 22.5189359], [113.9362082, 22.5188619], [113.9361747, 22.5187666], [113.9363658, 22.5187092], [113.9363831, 22.5187586], [113.9366688, 22.5186729], [113.9366849, 22.5187189], [113.9367949, 22.5190321], [113.9366279, 22.5191169], [113.9362666, 22.5193004], [113.9363878, 22.5196314], [113.9358919, 22.5199], [113.9358611, 22.5199169], [113.9358336, 22.5199321], [113.9355557, 22.5200169], [113.9353559, 22.5194498], [113.9353267, 22.519367]]]]}}, {"type": "Feature", "id": "way/1190750255", "properties": {"tags": {"architect": "KPF", "building": "commercial", "building:levels": "42", "building:material": "mirror", "height": "203.5", "layer": "2", "name": "联想后海中心A座"}, "heightStatus": "height_tag_unverified", "source": "OpenStreetMap", "license": "ODbL-1.0"}, "geometry": {"type": "MultiPolygon", "coordinates": [[[[113.9352058, 22.5190277], [113.9355808, 22.5189157], [113.9357709, 22.518859], [113.9358328, 22.5190379], [113.9358892, 22.5191979], [113.9356996, 22.5192549], [113.9357288, 22.5193385], [113.9353559, 22.5194498], [113.9353267, 22.519367], [113.9352058, 22.5190277]]]]}}, {"type": "Feature", "id": "way/1190750256", "properties": {"tags": {"architect": "KPF", "building": "commercial", "building:levels": "28", "building:material": "mirror", "height": "132.7", "layer": "2", "name": "联想后海中心B座"}, "heightStatus": "height_tag_unverified", "source": "OpenStreetMap", "license": "ODbL-1.0"}, "geometry": {"type": "MultiPolygon", "coordinates": [[[[113.9362387, 22.5192245], [113.9366004, 22.519039], [113.9366279, 22.5191169], [113.9367949, 22.5190321], [113.9369072, 22.5193501], [113.9367415, 22.5194399], [113.9363878, 22.5196314], [113.9362666, 22.5193004], [113.9362387, 22.5192245]]]]}}, {"type": "Feature", "id": "way/1190750257", "properties": {"tags": {"building:levels": "42", "building:material": "mirror", "building:part": "yes", "height": "203.5"}, "heightStatus": "height_tag_unverified", "source": "OpenStreetMap", "license": "ODbL-1.0"}, "geometry": {"type": "MultiPolygon", "coordinates": [[[[113.9352058, 22.5190277], [113.9355808, 22.5189157], [113.9356996, 22.5192549], [113.9353267, 22.519367], [113.9352058, 22.5190277]]]]}}, {"type": "Feature", "id": "way/1190750258", "properties": {"tags": {"building:levels": "42", "building:material": "mirror", "building:min_level": "32", "building:part": "yes", "height": "203.5", "min_height": "146"}, "heightStatus": "height_tag_unverified", "source": "OpenStreetMap", "license": "ODbL-1.0"}, "geometry": {"type": "MultiPolygon", "coordinates": [[[[113.9353267, 22.519367], [113.9356996, 22.5192549], [113.9357288, 22.5193385], [113.9353559, 22.5194498], [113.9353267, 22.519367]]]]}}, {"type": "Feature", "id": "way/1190750259", "properties": {"tags": {"building:levels": "32", "building:material": "mirror", "building:part": "yes", "height": "146"}, "heightStatus": "height_tag_unverified", "source": "OpenStreetMap", "license": "ODbL-1.0"}, "geometry": {"type": "MultiPolygon", "coordinates": [[[[113.9355808, 22.5189157], [113.9357709, 22.518859], [113.9358328, 22.5190379], [113.9358892, 22.5191979], [113.9356996, 22.5192549], [113.9355808, 22.5189157]]]]}}, {"type": "Feature", "id": "way/1190750260", "properties": {"tags": {"building:levels": "28", "building:material": "mirror", "building:part": "yes", "height": "132.7"}, "heightStatus": "height_tag_unverified", "source": "OpenStreetMap", "license": "ODbL-1.0"}, "geometry": {"type": "MultiPolygon", "coordinates": [[[[113.9362666, 22.5193004], [113.9366279, 22.5191169], [113.9367415, 22.5194399], [113.9363878, 22.5196314], [113.9362666, 22.5193004]]]]}}, {"type": "Feature", "id": "way/1190750261", "properties": {"tags": {"building:levels": "28", "building:material": "mirror", "building:min_level": "21", "building:part": "yes", "height": "132.7", "min_height": "100"}, "heightStatus": "height_tag_unverified", "source": "OpenStreetMap", "license": "ODbL-1.0"}, "geometry": {"type": "MultiPolygon", "coordinates": [[[[113.9362387, 22.5192245], [113.9366004, 22.519039], [113.9366279, 22.5191169], [113.9362666, 22.5193004], [113.9362387, 22.5192245]]]]}}, {"type": "Feature", "id": "way/1190750262", "properties": {"tags": {"building:levels": "21", "building:material": "mirror", "building:part": "yes", "height": "100"}, "heightStatus": "height_tag_unverified", "source": "OpenStreetMap", "license": "ODbL-1.0"}, "geometry": {"type": "MultiPolygon", "coordinates": [[[[113.9366279, 22.5191169], [113.9367949, 22.5190321], [113.9369072, 22.5193501], [113.9367415, 22.5194399], [113.9366279, 22.5191169]]]]}}, {"type": "Feature", "id": "way/1190750266", "properties": {"tags": {"building": "retail", "building:levels": "4", "name": "后海汇24街区"}, "heightStatus": "levels_only_unverified", "source": "OpenStreetMap", "license": "ODbL-1.0"}, "geometry": {"type": "MultiPolygon", "coordinates": [[[[113.9357821, 22.5180623], [113.93647, 22.5178922], [113.9365712, 22.5182198], [113.9359038, 22.5183968], [113.9357821, 22.5180623]]]]}}, {"type": "Feature", "id": "way/1190750267", "properties": {"tags": {"building": "retail", "building:levels": "3", "name": "后海汇24街区"}, "heightStatus": "levels_only_unverified", "source": "OpenStreetMap", "license": "ODbL-1.0"}, "geometry": {"type": "MultiPolygon", "coordinates": [[[[113.9349984, 22.5184289], [113.9350869, 22.5182338], [113.9355921, 22.5181091], [113.9357174, 22.5184473], [113.9350668, 22.5186207], [113.9349984, 22.5184289]]]]}}, {"type": "Feature", "id": "way/1190795439", "properties": {"tags": {"building:levels": "5", "building:part": "yes"}, "heightStatus": "levels_only_unverified", "source": "OpenStreetMap", "license": "ODbL-1.0"}, "geometry": {"type": "MultiPolygon", "coordinates": [[[[113.93586, 22.5206703], [113.9371233, 22.5205274], [113.937228, 22.5205846], [113.9372395, 22.5206297], [113.9358957, 22.5209127], [113.93586, 22.5206703]]]]}}, {"type": "Feature", "id": "way/1190795447", "properties": {"tags": {"building": "retail", "building:levels": "10", "height": "56"}, "heightStatus": "height_tag_unverified", "source": "OpenStreetMap", "license": "ODbL-1.0"}, "geometry": {"type": "MultiPolygon", "coordinates": [[[[113.9367125, 22.5178541], [113.9373575, 22.5176981], [113.937442, 22.5179959], [113.9374558, 22.5180445], [113.937706, 22.5189267], [113.9373928, 22.5190931], [113.9373623, 22.5191094], [113.9373333, 22.5191248], [113.9372236, 22.5191831], [113.9370977, 22.5192135], [113.9367125, 22.5178541]]]]}}, {"type": "Feature", "id": "way/1190795456", "properties": {"tags": {"building": "yes", "building:levels": "6", "building:material": "mirror", "building:min_level": "2", "layer": "1"}, "heightStatus": "levels_only_unverified", "source": "OpenStreetMap", "license": "ODbL-1.0"}, "geometry": {"type": "MultiPolygon", "coordinates": [[[[113.9368346, 22.5224859], [113.9371329, 22.5224158], [113.9371847, 22.5226018], [113.9368866, 22.5226725], [113.9368346, 22.5224859]]]]}}, {"type": "Feature", "id": "way/1190833394", "properties": {"tags": {"building": "commercial"}, "heightStatus": "unknown", "source": "OpenStreetMap", "license": "ODbL-1.0"}, "geometry": {"type": "MultiPolygon", "coordinates": [[[[113.9369874, 22.5233505], [113.9373252, 22.5232628], [113.9373921, 22.5234699], [113.9371353, 22.5236166], [113.9370777, 22.523549], [113.9370232, 22.5234512], [113.9369874, 22.5233505]]]]}}, {"type": "Feature", "id": "way/1302813576", "properties": {"tags": {"building:levels": "23", "building:material": "mirror", "building:part": "yes", "height": "100"}, "heightStatus": "height_tag_unverified", "source": "OpenStreetMap", "license": "ODbL-1.0"}, "geometry": {"type": "MultiPolygon", "coordinates": [[[[113.9352024, 22.5251402], [113.9352085, 22.5251322], [113.9355362, 22.5251265], [113.9355427, 22.5251322], [113.9355505, 22.5255171], [113.9355425, 22.5255242], [113.9352184, 22.5255298], [113.9352101, 22.5255224], [113.9352024, 22.5251402]]]]}}, {"type": "Feature", "id": "way/1302813577", "properties": {"tags": {"addr:city": "深圳市", "addr:district": "南山区", "addr:housenumber": "3368", "addr:province": "广东省", "addr:street": "滨海大道", "building": "commercial", "building:levels": "23", "building:levels:underground": "4", "height": "100", "name": "数字音频大厦", "old_name": "广晟科创中心"}, "heightStatus": "height_tag_unverified", "source": "OpenStreetMap", "license": "ODbL-1.0"}, "geometry": {"type": "MultiPolygon", "coordinates": [[[[113.9350591, 22.5251348], [113.9352085, 22.5251322], [113.9355362, 22.5251265], [113.9355427, 22.5251322], [113.9355505, 22.5255171], [113.9355532, 22.5256511], [113.9350698, 22.5256595], [113.9350591, 22.5251348]]]]}}, {"type": "Feature", "id": "way/1302813578", "properties": {"tags": {"building:levels": "5", "building:material": "mirror", "building:part": "yes"}, "heightStatus": "levels_only_unverified", "source": "OpenStreetMap", "license": "ODbL-1.0"}, "geometry": {"type": "MultiPolygon", "coordinates": [[[[113.9342713, 22.5251147], [113.9344806, 22.5251095], [113.9345275, 22.5254989], [113.9348692, 22.5254903], [113.934873, 22.5256206], [113.9344381, 22.5256314], [113.9342713, 22.5251147]]]]}}, {"type": "Feature", "id": "way/1302813579", "properties": {"tags": {"building:levels": "5", "building:material": "glass", "building:part": "yes"}, "heightStatus": "levels_only_unverified", "source": "OpenStreetMap", "license": "ODbL-1.0"}, "geometry": {"type": "MultiPolygon", "coordinates": [[[[113.9350591, 22.5251348], [113.9352085, 22.5251322], [113.9352024, 22.5251402], [113.9352101, 22.5255224], [113.9352184, 22.5255298], [113.9355425, 22.5255242], [113.9355505, 22.5255171], [113.9355532, 22.5256511], [113.9350698, 22.5256595], [113.9350591, 22.5251348]]]]}}, {"type": "Feature", "id": "way/1302813580", "properties": {"tags": {"building:levels": "4", "building:material": "mirror", "building:part": "yes"}, "heightStatus": "levels_only_unverified", "source": "OpenStreetMap", "license": "ODbL-1.0"}, "geometry": {"type": "MultiPolygon", "coordinates": [[[[113.9327162, 22.5251546], [113.9328472, 22.5251532], [113.9328419, 22.5251722], [113.932847, 22.5255015], [113.9328526, 22.5255182], [113.9328613, 22.5255261], [113.9328791, 22.5255316], [113.9332611, 22.5255311], [113.9332785, 22.5255287], [113.9332895, 22.5255198], [113.933293, 22.5255057], [113.9332949, 22.525656], [113.9327228, 22.5256623], [113.9327162, 22.5251546]]]]}}, {"type": "Feature", "id": "way/1302813581", "properties": {"tags": {"building:levels": "5", "building:material": "mirror", "building:part": "yes"}, "heightStatus": "levels_only_unverified", "source": "OpenStreetMap", "license": "ODbL-1.0"}, "geometry": {"type": "MultiPolygon", "coordinates": [[[[113.9338322, 22.5254844], [113.9340092, 22.5254839], [113.9339013, 22.5251347], [113.9340509, 22.5251322], [113.9342074, 22.5256498], [113.9338846, 22.5256561], [113.9338322, 22.5254844]]]]}}, {"type": "Feature", "id": "way/1302813582", "properties": {"tags": {"building:levels": "5", "building:material": "mirror", "building:part": "yes"}, "heightStatus": "levels_only_unverified", "source": "OpenStreetMap", "license": "ODbL-1.0"}, "geometry": {"type": "MultiPolygon", "coordinates": [[[[113.9319945, 22.52518], [113.9320739, 22.5251785], [113.9320805, 22.5255754], [113.9324891, 22.5255696], [113.9324915, 22.5256997], [113.9320038, 22.525707], [113.9319945, 22.52518]]]]}}, {"type": "Feature", "id": "way/1302813583", "properties": {"tags": {"building:levels": "5", "building:material": "mirror", "building:part": "yes"}, "heightStatus": "levels_only_unverified", "source": "OpenStreetMap", "license": "ODbL-1.0"}, "geometry": {"type": "MultiPolygon", "coordinates": [[[[113.9312848, 22.5255991], [113.9317354, 22.5255941], [113.931737, 22.5257172], [113.9312864, 22.5257223], [113.9312848, 22.5255991]]]]}}, {"type": "Feature", "id": "way/1302813584", "properties": {"tags": {"addr:city": "深圳市", "addr:district": "南山区", "addr:housenumber": "3366", "addr:province": "广东省", "addr:street": "滨海大道", "building": "commercial", "building:levels": "34", "height": "162.9", "name": "高技术示范大厦", "old_name": "荣超后海大厦"}, "heightStatus": "height_tag_unverified", "source": "OpenStreetMap", "license": "ODbL-1.0"}, "geometry": {"type": "MultiPolygon", "coordinates": [[[[113.9358124, 22.5251256], [113.9358134, 22.5251191], [113.9358176, 22.5251139], [113.9358252, 22.5251116], [113.9362129, 22.5251083], [113.9362204, 22.5251099], [113.9362245, 22.5251148], [113.9362263, 22.5251223], [113.9362298, 22.5254776], [113.936231, 22.5255947], [113.9362292, 22.5256013], [113.9362239, 22.5256069], [113.9362172, 22.5256095], [113.9358317, 22.5256127], [113.9358241, 22.5256105], [113.9358185, 22.5256048], [113.935817, 22.5255978], [113.9358158, 22.5254809], [113.9358124, 22.5251256]]]]}}, {"type": "Feature", "id": "way/1302813585", "properties": {"tags": {"building:levels": "5", "building:material": "mirror", "building:part": "yes"}, "heightStatus": "levels_only_unverified", "source": "OpenStreetMap", "license": "ODbL-1.0"}, "geometry": {"type": "MultiPolygon", "coordinates": [[[[113.9358158, 22.5254809], [113.9358189, 22.5254873], [113.9358239, 22.5254914], [113.9358299, 22.5254936], [113.9362159, 22.5254904], [113.9362221, 22.5254885], [113.9362267, 22.5254841], [113.9362298, 22.5254776], [113.936231, 22.5255947], [113.9362292, 22.5256013], [113.9362239, 22.5256069], [113.9362172, 22.5256095], [113.9358317, 22.5256127], [113.9358241, 22.5256105], [113.9358185, 22.5256048], [113.935817, 22.5255978], [113.9358158, 22.5254809]]]]}}, {"type": "Feature", "id": "way/1303697028", "properties": {"tags": {"building:levels": "4", "building:part": "yes", "height": "24"}, "heightStatus": "height_tag_unverified", "source": "OpenStreetMap", "license": "ODbL-1.0"}, "geometry": {"type": "MultiPolygon", "coordinates": [[[[113.9353267, 22.519367], [113.9356996, 22.5192549], [113.9358892, 22.5191979], [113.9358328, 22.5190379], [113.9359818, 22.5189931], [113.9359616, 22.5189359], [113.9362082, 22.5188619], [113.9366849, 22.5187189], [113.9367949, 22.5190321], [113.9366279, 22.5191169], [113.9362666, 22.5193004], [113.9363878, 22.5196314], [113.9358919, 22.5199], [113.9358611, 22.5199169], [113.9358336, 22.5199321], [113.9355557, 22.5200169], [113.9353559, 22.5194498], [113.9353267, 22.519367]]]]}}, {"type": "Feature", "id": "way/1303697029", "properties": {"tags": {"building:levels": "4", "building:part": "yes", "height": "23"}, "heightStatus": "height_tag_unverified", "source": "OpenStreetMap", "license": "ODbL-1.0"}, "geometry": {"type": "MultiPolygon", "coordinates": [[[[113.9361747, 22.5187666], [113.9363658, 22.5187092], [113.9363831, 22.5187586], [113.9366688, 22.5186729], [113.9366849, 22.5187189], [113.9362082, 22.5188619], [113.9361747, 22.5187666]]]]}}, {"type": "Feature", "id": "way/1353712812", "properties": {"tags": {"building": "apartments", "building:levels": "18", "layer": "1"}, "heightStatus": "levels_only_unverified", "source": "OpenStreetMap", "license": "ODbL-1.0"}, "geometry": {"type": "MultiPolygon", "coordinates": [[[[113.9316974, 22.5181195], [113.9317779, 22.5181008], [113.9317822, 22.5181165], [113.9318263, 22.5181062], [113.9318106, 22.518049], [113.9319042, 22.5180271], [113.9319659, 22.5182524], [113.9319441, 22.5182575], [113.9319522, 22.5182873], [113.9319975, 22.5183147], [113.9320073, 22.5183009], [113.932059, 22.5183322], [113.9320522, 22.5183418], [113.9320804, 22.5183588], [113.9322121, 22.5183278], [113.9322072, 22.5183101], [113.932185, 22.5183154], [113.932165, 22.5182427], [113.9323277, 22.5182044], [113.9323462, 22.5182713], [113.9323155, 22.5182785], [113.932322, 22.518302], [113.9324151, 22.5182801], [113.93242, 22.5182981], [113.9325277, 22.5182728], [113.9325183, 22.5182388], [113.9324858, 22.5182464], [113.9324646, 22.5181695], [113.9326397, 22.5181283], [113.932661, 22.5182056], [113.9326309, 22.5182127], [113.9326401, 22.518246], [113.932815, 22.5182049], [113.9328058, 22.5181716], [113.9327634, 22.5181816], [113.9327421, 22.5181044], [113.9329266, 22.518061], [113.9329479, 22.5181385], [113.9329076, 22.5181479], [113.9329167, 22.5181807], [113.9330997, 22.5181377], [113.9330906, 22.5181049], [113.9330622, 22.5181116], [113.9330408, 22.5180342], [113.933205, 22.5179956], [113.9332264, 22.5180734], [113.9331981, 22.51808], [113.933207, 22.5181122], [113.933399, 22.518067], [113.933394, 22.5180487], [113.9333587, 22.518057], [113.9333369, 22.5179778], [113.9335134, 22.5179362], [113.9335345, 22.5180131], [113.9335063, 22.5180197], [113.933512, 22.5180405], [113.9336658, 22.5180043], [113.9336864, 22.5179719], [113.9336756, 22.5179661], [113.9337059, 22.5179185], [113.933718, 22.517925], [113.9337359, 22.5178968], [113.9337269, 22.5178624], [113.9337039, 22.5178676], [113.9336405, 22.5176275], [113.9337358, 22.517606], [113.9337548, 22.517678], [113.9337772, 22.517673], [113.9337671, 22.5176348], [113.9338486, 22.5176163], [113.9338916, 22.5177783], [113.9338089, 22.5177971], [113.9338003, 22.5177646], [113.9337819, 22.5177688], [113.9338044, 22.5178524], [113.9338325, 22.517846], [113.9338647, 22.5179759], [113.9337833, 22.517995], [113.9338054, 22.5180778], [113.9320007, 22.5184923], [113.9319803, 22.518415], [113.9318761, 22.5184389], [113.9318355, 22.5182913], [113.9318723, 22.5182828], [113.9318563, 22.5182239], [113.9318163, 22.5182331], [113.9318221, 22.5182546], [113.9317395, 22.5182739], [113.9316974, 22.5181195]]]]}}, {"type": "Feature", "id": "way/1354393304", "properties": {"tags": {"building": "yes", "name": "中国南方电网南山营业厅", "name:zh": "中国南方电网南山营业厅", "name:zh-Hans": "中国南方电网南山营业厅", "name:zh-Hant": "中國南方電網南山營業廳", "office": "energy_supplier"}, "heightStatus": "unknown", "source": "OpenStreetMap", "license": "ODbL-1.0"}, "geometry": {"type": "MultiPolygon", "coordinates": [[[[113.9287799, 22.5232812], [113.9288896, 22.5232665], [113.9288963, 22.5233088], [113.9293073, 22.5232537], [113.9293407, 22.5234655], [113.9288199, 22.5235355], [113.9287799, 22.5232812]]]]}}, {"type": "Feature", "id": "way/1354399507", "properties": {"tags": {"building": "yes"}, "heightStatus": "unknown", "source": "OpenStreetMap", "license": "ODbL-1.0"}, "geometry": {"type": "MultiPolygon", "coordinates": [[[[113.9343039, 22.5235574], [113.9343797, 22.5235493], [113.9343924, 22.523656], [113.9345889, 22.5236361], [113.9345761, 22.5235283], [113.9346479, 22.5235215], [113.9346837, 22.5238527], [113.934776, 22.5238442], [113.9347689, 22.5237687], [113.934778, 22.523768], [113.9347525, 22.5235812], [113.9348155, 22.5235549], [113.9347324, 22.5234447], [113.9347686, 22.5234118], [113.9348028, 22.5234316], [113.9347938, 22.5234433], [113.934801, 22.523448], [113.9348175, 22.5234248], [113.9348343, 22.5233765], [113.9348343, 22.5233233], [113.9348242, 22.5232985], [113.9348866, 22.5232703], [113.9348812, 22.5232601], [113.9349639, 22.5232325], [113.9349677, 22.5232433], [113.9350832, 22.5231961], [113.9350911, 22.5232126], [113.935077, 22.5232198], [113.9350965, 22.5232687], [113.9351072, 22.5233208], [113.9351069, 22.5234106], [113.9350168, 22.5234043], [113.9350137, 22.5234422], [113.9349258, 22.5234369], [113.9349141, 22.5234679], [113.9350499, 22.5235335], [113.935078, 22.523471], [113.9351612, 22.5234954], [113.9351749, 22.5234428], [113.9351816, 22.5233778], [113.9351823, 22.5232954], [113.9351709, 22.5232384], [113.9351474, 22.523174], [113.9351292, 22.5231307], [113.9351951, 22.5231071], [113.9353837, 22.5236292], [113.9353453, 22.523641], [113.9354036, 22.5238572], [113.9354412, 22.5238559], [113.935476, 22.5239482], [113.9354132, 22.5239523], [113.9354131, 22.5239257], [113.9354268, 22.5239256], [113.9354265, 22.5238775], [113.9354059, 22.5238779], [113.935407, 22.5239309], [113.9352442, 22.5239441], [113.935246, 22.5239631], [113.9348047, 22.5240099], [113.9348035, 22.5239941], [113.9343582, 22.5240399], [113.9343394, 22.5239155], [113.9343549, 22.5239142], [113.9343039, 22.5235574]]]]}}, {"type": "Feature", "id": "way/1354399508", "properties": {"tags": {"building": "yes"}, "heightStatus": "unknown", "source": "OpenStreetMap", "license": "ODbL-1.0"}, "geometry": {"type": "MultiPolygon", "coordinates": [[[[113.9336139, 22.5236571], [113.9339828, 22.5236246], [113.9339773, 22.5235716], [113.9339478, 22.5235729], [113.9339317, 22.5233697], [113.9341222, 22.5233573], [113.9341377, 22.5235517], [113.9340743, 22.523556], [113.9340768, 22.5236412], [113.9340532, 22.5236416], [113.9340548, 22.5236691], [113.933976, 22.5236732], [113.9339787, 22.5237091], [113.9337225, 22.5237252], [113.9337453, 22.5239495], [113.9342684, 22.5238987], [113.9342764, 22.5239829], [113.9338392, 22.5240288], [113.9336541, 22.5240275], [113.9336139, 22.5236571]]]]}}, {"type": "Feature", "id": "way/1354399513", "properties": {"tags": {"building": "yes"}, "heightStatus": "unknown", "source": "OpenStreetMap", "license": "ODbL-1.0"}, "geometry": {"type": "MultiPolygon", "coordinates": [[[[113.9311, 22.5230798], [113.9311638, 22.5230591], [113.9311413, 22.5230052], [113.931153, 22.523001], [113.9311396, 22.5229628], [113.9311523, 22.522959], [113.9311416, 22.522912], [113.9312173, 22.5228983], [113.9313441, 22.5228915], [113.9313457, 22.5229409], [113.9313574, 22.5229405], [113.9313572, 22.522981], [113.9313429, 22.5229811], [113.9313431, 22.522995], [113.9313313, 22.522995], [113.9313313, 22.5230002], [113.9313054, 22.5230001], [113.9313052, 22.5230102], [113.9312993, 22.5230101], [113.931299, 22.5230299], [113.9313049, 22.52303], [113.9313049, 22.5230349], [113.9313151, 22.5230349], [113.9313152, 22.5230402], [113.9314494, 22.5230439], [113.9315294, 22.5230562], [113.9315354, 22.5230228], [113.9315209, 22.523019], [113.9315255, 22.5229971], [113.9315129, 22.5229953], [113.9315181, 22.5229577], [113.931534, 22.5229599], [113.9315432, 22.5229056], [113.9318643, 22.5229997], [113.9318597, 22.5230129], [113.9319885, 22.5230761], [113.9320837, 22.5231566], [113.9321615, 22.5232582], [113.9321735, 22.5233833], [113.9320083, 22.5233945], [113.9320039, 22.5233393], [113.931959, 22.5233406], [113.9319547, 22.5233305], [113.9319442, 22.5233344], [113.9319187, 22.523314], [113.931843, 22.5232489], [113.9317149, 22.5231988], [113.9315794, 22.5231411], [113.9314527, 22.5231306], [113.9313209, 22.5231238], [113.9312455, 22.5231269], [113.9311268, 22.5231504], [113.9311, 22.5230798]]]]}}, {"type": "Feature", "id": "relation/18713385", "properties": {"tags": {"building": "yes"}, "heightStatus": "unknown", "source": "OpenStreetMap", "license": "ODbL-1.0"}, "geometry": {"type": "MultiPolygon", "coordinates": [[[[113.9299186, 22.5237881], [113.9299196, 22.5237109], [113.9301372, 22.5237132], [113.9302532, 22.5236042], [113.930309, 22.5236517], [113.9303546, 22.523608], [113.9304127, 22.5236606], [113.9302561, 22.523807], [113.9302952, 22.5238432], [113.9302712, 22.5238653], [113.9302658, 22.5238598], [113.9302262, 22.5239011], [113.9302658, 22.5239337], [113.9302024, 22.5239992], [113.9301373, 22.5239452], [113.9301493, 22.5239331], [113.9299709, 22.5237875], [113.9299186, 22.5237881]], [[113.9300593, 22.5238193], [113.9301579, 22.5239042], [113.9302423, 22.5238243], [113.9302061, 22.5237877], [113.9300868, 22.5237877], [113.9300593, 22.5238193]]]]}}, {"type": "Feature", "id": "relation/10744154", "properties": {"tags": {"building": "retail", "building:levels": "1", "building:material": "concrete", "height": "6"}, "heightStatus": "height_tag_unverified", "source": "OpenStreetMap", "license": "ODbL-1.0"}, "geometry": {"type": "MultiPolygon", "coordinates": [[[[113.9310506, 22.5196624], [113.9315159, 22.5195632], [113.9315869, 22.5196034], [113.9316617, 22.5196453], [113.9317903, 22.5200985], [113.9318397, 22.520273], [113.9319591, 22.5206939], [113.9318946, 22.5207013], [113.9316928, 22.5207233], [113.9316477, 22.5207282], [113.9314007, 22.520755], [113.9311973, 22.5207772], [113.9311834, 22.520669], [113.9311794, 22.5206378], [113.9311259, 22.5202179], [113.9311202, 22.5201733], [113.9310889, 22.5199435], [113.9310576, 22.5197137], [113.9310506, 22.5196624]]]]}}, {"type": "Feature", "id": "way/1441576185", "properties": {"tags": {"building": "commercial"}, "heightStatus": "unknown", "source": "OpenStreetMap", "license": "ODbL-1.0"}, "geometry": {"type": "MultiPolygon", "coordinates": [[[[113.9309931, 22.5183244], [113.9311682, 22.5182628], [113.9311831, 22.5182613], [113.9311985, 22.5182628], [113.9312112, 22.518268], [113.9312225, 22.5182762], [113.9312339, 22.5182911], [113.9312454, 22.5183148], [113.9312639, 22.5183528], [113.9312806, 22.5183933], [113.9312966, 22.5184364], [113.9313079, 22.5184757], [113.9313175, 22.5185171], [113.9313298, 22.5185685], [113.9313365, 22.5186088], [113.9313367, 22.5186266], [113.9313338, 22.5186446], [113.9313273, 22.518655], [113.9313185, 22.5186652], [113.9313063, 22.5186732], [113.9312971, 22.5186788], [113.9312827, 22.5186836], [113.9311092, 22.518714], [113.9309931, 22.5183244]]]]}}, {"type": "Feature", "id": "way/1498932037", "properties": {"tags": {"building": "school"}, "heightStatus": "unknown", "source": "OpenStreetMap", "license": "ODbL-1.0"}, "geometry": {"type": "MultiPolygon", "coordinates": [[[[113.9350107, 22.5226632], [113.935168, 22.5226448], [113.9351747, 22.5227242], [113.9351275, 22.5227297], [113.9351674, 22.5230087], [113.9350458, 22.5230215], [113.9350107, 22.5226632]]]]}}]}