{"type": "FeatureCollection", "features": [{"type": "Feature", "id": "way/220653223", "properties": {"tags": {"building:levels": "23", "building:material": "glass", "building:part": "yes", "height": "99.4"}, "heightStatus": "height_tag_unverified", "source": "OpenStreetMap", "license": "ODbL-1.0"}, "geometry": {"type": "MultiPolygon", "coordinates": [[[[113.9276726, 22.5437091], [113.9277811, 22.5435533], [113.9278948, 22.5434765], [113.9280657, 22.5434788], [113.9282812, 22.5434816], [113.9283452, 22.5435478], [113.9283452, 22.5437574], [113.9282425, 22.54381], [113.9280639, 22.5438106], [113.928039, 22.5438107], [113.927884, 22.5438112], [113.9278841, 22.5437823], [113.9277605, 22.5437828], [113.9277301, 22.5437829], [113.9276726, 22.5437091]]]]}}, {"type": "Feature", "id": "way/220653226", "properties": {"tags": {"addr:city": "深圳市", "addr:country": "CN", "addr:district": "南山区", "addr:housenumber": "9998", "addr:neighbourhood": "麻岭社区", "addr:postcode": "518057", "addr:province": "广东省", "addr:street": "深南大道", "addr:subdistrict": "粤海街道", "building": "commercial", "building:colour": "#a1b4c3", "building:levels": "25", "building:material": "glass", "height": "95.9", "name": "万利达科技大厦", "name:en": "Wanlida Technology Building", "name:zh": "万利达科技大厦", "name:zh-Hans": "万利达科技大厦", "name:zh-Hant": "萬利達科技大廈", "smoking": "no"}, "heightStatus": "height_tag_unverified", "source": "OpenStreetMap", "license": "ODbL-1.0"}, "geometry": {"type": "MultiPolygon", "coordinates": [[[[113.9285675, 22.5439477], [113.9285701, 22.543739], [113.9285749, 22.5433516], [113.9289083, 22.5433552], [113.9292417, 22.5433587], [113.9292369, 22.5437461], [113.9289038, 22.5437426], [113.9288172, 22.5437416], [113.9288146, 22.5439503], [113.9285675, 22.5439477]]]]}}, {"type": "Feature", "id": "way/230847098", "properties": {"tags": {"building": "university", "building:levels": "5", "layer": "1", "name": "C座", "name:zh": "C座", "name:zh-Hans": "C座", "name:zh-Hant": "C座"}, "heightStatus": "levels_only_unverified", "source": "OpenStreetMap", "license": "ODbL-1.0"}, "geometry": {"type": "MultiPolygon", "coordinates": [[[[113.9311119, 22.5362826], [113.9311261, 22.5362103], [113.9311304, 22.5361888], [113.9311656, 22.5360104], [113.9311998, 22.5358377], [113.9313863, 22.535869], [113.9315067, 22.5358894], [113.9317467, 22.5359299], [113.9317141, 22.5360934], [113.9316739, 22.5362969], [113.9316585, 22.5363749], [113.9315395, 22.5363548], [113.9315547, 22.536278], [113.9315947, 22.5360752], [113.9312588, 22.5360186], [113.9312221, 22.5362046], [113.9312036, 22.5362982], [113.9311119, 22.5362826]]]]}}, {"type": "Feature", "id": "way/230847099", "properties": {"tags": {"building": "university", "building:levels": "5", "name": "D座", "name:zh": "D座", "name:zh-Hans": "D座", "name:zh-Hant": "D座"}, "heightStatus": "levels_only_unverified", "source": "OpenStreetMap", "license": "ODbL-1.0"}, "geometry": {"type": "MultiPolygon", "coordinates": [[[[113.9310809, 22.5364395], [113.9310956, 22.5363647], [113.9311119, 22.5362826], [113.9312036, 22.5362982], [113.9315395, 22.5363548], [113.9316585, 22.5363749], [113.9316274, 22.5365317], [113.9310809, 22.5364395]]]]}}, {"type": "Feature", "id": "way/230847103", "properties": {"tags": {"building": "university", "building:levels": "2", "building:material": "concrete", "name": "科技楼", "name:en": "Science and Technology Building", "name:zh": "科技楼", "name:zh-Hans": "科技楼", "name:zh-Hant": "科技樓", "official_name": "深圳大学科技楼", "start_date": "2004"}, "heightStatus": "levels_only_unverified", "source": "OpenStreetMap", "license": "ODbL-1.0"}, "geometry": {"type": "MultiPolygon", "coordinates": [[[[113.9311594, 22.538473], [113.9311654, 22.5379132], [113.931299, 22.5379144], [113.9320285, 22.5379209], [113.9322007, 22.5379225], [113.9321948, 22.5384824], [113.9316567, 22.5384775], [113.9311594, 22.538473]]]]}}, {"type": "Feature", "id": "way/230847105", "properties": {"tags": {"air_conditioning": "yes", "amenity": "library", "building": "university", "building:levels": "6", "internet_access": "wlan", "name": "图书馆北馆", "name:zh": "图书馆北馆", "name:zh-Hans": "图书馆北馆", "name:zh-Hant": "圖書館北館"}, "heightStatus": "levels_only_unverified", "source": "OpenStreetMap", "license": "ODbL-1.0"}, "geometry": {"type": "MultiPolygon", "coordinates": [[[[113.9302215, 22.5366335], [113.930312, 22.5362119], [113.9303324, 22.5361089], [113.9306406, 22.5361646], [113.9309178, 22.5362146], [113.9308936, 22.5363289], [113.9308069, 22.5367391], [113.9302215, 22.5366335]]]]}}, {"type": "Feature", "id": "way/230847108", "properties": {"tags": {"amenity": "restaurant", "building": "yes", "fast_food": "cafeteria", "name": "教工餐厅", "name:zh": "教工餐厅", "name:zh-Hans": "教工餐厅", "name:zh-Hant": "教工餐廳"}, "heightStatus": "unknown", "source": "OpenStreetMap", "license": "ODbL-1.0"}, "geometry": {"type": "MultiPolygon", "coordinates": [[[[113.9290163, 22.5375291], [113.9291296, 22.5372784], [113.929443, 22.5374], [113.9293288, 22.5376499], [113.9292477, 22.5376185], [113.9290163, 22.5375291]]]]}}, {"type": "Feature", "id": "way/230956722", "properties": {"tags": {"building": "yes", "height": "13", "leisure": "sports_centre", "name": "元平体育馆", "name:en": "Yuanping Gymnasium", "name:zh": "元平体育馆", "name:zh-Hans": "元平体育馆", "name:zh-Hant": "元平體育館"}, "heightStatus": "height_tag_unverified", "source": "OpenStreetMap", "license": "ODbL-1.0"}, "geometry": {"type": "MultiPolygon", "coordinates": [[[[113.9332493, 22.5391342], [113.9332935, 22.5389958], [113.9333294, 22.5390055], [113.9334869, 22.5385119], [113.9334503, 22.5385019], [113.9334957, 22.5383596], [113.9343197, 22.5385837], [113.9342761, 22.5387202], [113.9342412, 22.5387107], [113.9340829, 22.5392072], [113.9341185, 22.5392168], [113.9340733, 22.5393584], [113.9332493, 22.5391342]]]]}}, {"type": "Feature", "id": "way/230956723", "properties": {"tags": {"building": "yes", "leisure": "sports_hall", "name": "游泳馆", "name:zh": "游泳馆", "name:zh-Hans": "游泳馆", "name:zh-Hant": "游泳館", "sport": "swimming"}, "heightStatus": "unknown", "source": "OpenStreetMap", "license": "ODbL-1.0"}, "geometry": {"type": "MultiPolygon", "coordinates": [[[[113.9334185, 22.5397853], [113.9334217, 22.5395308], [113.9341316, 22.5395383], [113.9341285, 22.5397929], [113.9334185, 22.5397853]]]]}}, {"type": "Feature", "id": "way/230956725", "properties": {"tags": {"building": "yes"}, "heightStatus": "unknown", "source": "OpenStreetMap", "license": "ODbL-1.0"}, "geometry": {"type": "MultiPolygon", "coordinates": [[[[113.9292071, 22.5378232], [113.9292477, 22.5376185], [113.9293288, 22.5376499], [113.9293064, 22.5377093], [113.9296122, 22.5377613], [113.9295934, 22.5378827], [113.9292071, 22.5378232]]]]}}, {"type": "Feature", "id": "way/230956727", "properties": {"tags": {"building": "yes"}, "heightStatus": "unknown", "source": "OpenStreetMap", "license": "ODbL-1.0"}, "geometry": {"type": "MultiPolygon", "coordinates": [[[[113.9351426, 22.541364], [113.9352136, 22.541329], [113.9352431, 22.5413835], [113.9352726, 22.5414405], [113.9353048, 22.5414925], [113.935345, 22.541552], [113.9353906, 22.541604], [113.9354362, 22.5416536], [113.9354818, 22.5416981], [113.9355247, 22.5417378], [113.9355837, 22.5417824], [113.9356481, 22.541827], [113.9355971, 22.5418914], [113.9355899, 22.5418863], [113.9355251, 22.5418414], [113.9354661, 22.5417969], [113.9354232, 22.5417572], [113.9353776, 22.5417127], [113.935332, 22.5416631], [113.9352865, 22.5416111], [113.9352463, 22.5415517], [113.9352141, 22.5414997], [113.9351846, 22.5414428], [113.9351551, 22.5413883], [113.9351426, 22.541364]]]]}}, {"type": "Feature", "id": "relation/3097097", "properties": {"tags": {"building": "university", "name": "六合苑"}, "heightStatus": "unknown", "source": "OpenStreetMap", "license": "ODbL-1.0"}, "geometry": {"type": "MultiPolygon", "coordinates": [[[[113.9294962, 22.5376079], [113.9295993, 22.5373785], [113.9301488, 22.5375892], [113.9300457, 22.5378186], [113.9294962, 22.5376079]], [[113.929641, 22.5375683], [113.929977, 22.5376963], [113.930006, 22.5376315], [113.92967, 22.5375034], [113.929641, 22.5375683]]]]}}, {"type": "Feature", "id": "way/230957349", "properties": {"tags": {"building": "yes", "leisure": "sports_centre", "name": "小球馆", "name:zh": "小球馆", "name:zh-Hans": "小球馆", "name:zh-Hant": "小球館"}, "heightStatus": "unknown", "source": "OpenStreetMap", "license": "ODbL-1.0"}, "geometry": {"type": "MultiPolygon", "coordinates": [[[[113.9330541, 22.5406891], [113.9330624, 22.540301], [113.9338041, 22.5403147], [113.9337958, 22.5407026], [113.9330541, 22.5406891]]]]}}, {"type": "Feature", "id": "way/231066362", "properties": {"tags": {"building": "yes"}, "heightStatus": "unknown", "source": "OpenStreetMap", "license": "ODbL-1.0"}, "geometry": {"type": "MultiPolygon", "coordinates": [[[[113.9282456, 22.5374145], [113.9282981, 22.5374096], [113.9283032, 22.5374566], [113.9282507, 22.5374614], [113.9282456, 22.5374145]]]]}}, {"type": "Feature", "id": "way/231066365", "properties": {"tags": {"building": "university", "name": "国际会议厅"}, "heightStatus": "unknown", "source": "OpenStreetMap", "license": "ODbL-1.0"}, "geometry": {"type": "MultiPolygon", "coordinates": [[[[113.9282685, 22.537132], [113.9284242, 22.5371178], [113.9284298, 22.5370342], [113.928474, 22.5370497], [113.9285127, 22.5370653], [113.9285518, 22.5370882], [113.9285846, 22.5371112], [113.9286062, 22.5371335], [113.9286281, 22.5371634], [113.9286386, 22.5371937], [113.9286454, 22.5372269], [113.9286485, 22.5372597], [113.9286483, 22.5372905], [113.9286456, 22.5373174], [113.9286362, 22.5373499], [113.9286201, 22.5373906], [113.9285039, 22.5373995], [113.9285107, 22.537463], [113.9283059, 22.5374817], [113.9283032, 22.5374566], [113.9282981, 22.5374096], [113.9282685, 22.537132]]]]}}, {"type": "Feature", "id": "way/231066366", "properties": {"tags": {"building": "yes"}, "heightStatus": "unknown", "source": "OpenStreetMap", "license": "ODbL-1.0"}, "geometry": {"type": "MultiPolygon", "coordinates": [[[[113.928338, 22.5379518], [113.9285985, 22.5379308], [113.9286196, 22.5381528], [113.928359, 22.5381739], [113.9283454, 22.5380301], [113.9283403, 22.5379768], [113.928338, 22.5379518]]]]}}, {"type": "Feature", "id": "way/231066367", "properties": {"tags": {"building": "yes"}, "heightStatus": "unknown", "source": "OpenStreetMap", "license": "ODbL-1.0"}, "geometry": {"type": "MultiPolygon", "coordinates": [[[[113.9283052, 22.5379797], [113.9283403, 22.5379768], [113.9283454, 22.5380301], [113.9283102, 22.538033], [113.9283052, 22.5379797]]]]}}, {"type": "Feature", "id": "relation/3099297", "properties": {"tags": {"building": "university", "name": "师范学院A楼"}, "heightStatus": "unknown", "source": "OpenStreetMap", "license": "ODbL-1.0"}, "geometry": {"type": "MultiPolygon", "coordinates": [[[[113.9278777, 22.5374225], [113.9282431, 22.5373898], [113.9282456, 22.5374145], [113.9282507, 22.5374614], [113.9283052, 22.5379797], [113.9283102, 22.538033], [113.9283127, 22.5380541], [113.9279473, 22.5380868], [113.9279396, 22.5380133], [113.9278777, 22.5374225]], [[113.9279788, 22.5375162], [113.9279924, 22.537652], [113.9281933, 22.5376349], [113.9281798, 22.5374991], [113.9279788, 22.5375162]], [[113.9280028, 22.5378331], [113.9280164, 22.5379693], [113.9282177, 22.5379521], [113.9282041, 22.537816], [113.9280028, 22.5378331]]]]}}, {"type": "Feature", "id": "way/231067701", "properties": {"tags": {"building": "university", "name": "师范学院B楼"}, "heightStatus": "unknown", "source": "OpenStreetMap", "license": "ODbL-1.0"}, "geometry": {"type": "MultiPolygon", "coordinates": [[[[113.9276969, 22.5368507], [113.9277992, 22.536842], [113.9280216, 22.5368237], [113.9280934, 22.5368181], [113.9280791, 22.536664], [113.9280692, 22.5365574], [113.9280633, 22.5364953], [113.9280588, 22.5364456], [113.9280567, 22.5364236], [113.928172, 22.5364161], [113.9281938, 22.5366197], [113.9282109, 22.5367804], [113.928231, 22.5369686], [113.9281773, 22.5369728], [113.9281225, 22.536977], [113.9280156, 22.5369854], [113.9279074, 22.5369956], [113.9278284, 22.537003], [113.9278412, 22.5371161], [113.9278622, 22.5373155], [113.9277536, 22.5373229], [113.9276969, 22.5368507]]]]}}, {"type": "Feature", "id": "way/231067702", "properties": {"tags": {"building": "yes"}, "heightStatus": "unknown", "source": "OpenStreetMap", "license": "ODbL-1.0"}, "geometry": {"type": "MultiPolygon", "coordinates": [[[[113.9278412, 22.5371161], [113.92792, 22.5371093], [113.9280282, 22.537099], [113.9281348, 22.5370894], [113.9281558, 22.5372891], [113.9278622, 22.5373155], [113.9278412, 22.5371161]]]]}}, {"type": "Feature", "id": "way/231067703", "properties": {"tags": {"building": "yes"}, "heightStatus": "unknown", "source": "OpenStreetMap", "license": "ODbL-1.0"}, "geometry": {"type": "MultiPolygon", "coordinates": [[[[113.9279074, 22.5369956], [113.9280156, 22.5369854], [113.9280282, 22.537099], [113.92792, 22.5371093], [113.9279074, 22.5369956]]]]}}, {"type": "Feature", "id": "way/231067707", "properties": {"tags": {"building": "yes"}, "heightStatus": "unknown", "source": "OpenStreetMap", "license": "ODbL-1.0"}, "geometry": {"type": "MultiPolygon", "coordinates": [[[[113.9281225, 22.536977], [113.9281773, 22.5369728], [113.9281817, 22.5370214], [113.9281269, 22.5370256], [113.9281225, 22.536977]]]]}}, {"type": "Feature", "id": "way/231067708", "properties": {"tags": {"building": "yes"}, "heightStatus": "unknown", "source": "OpenStreetMap", "license": "ODbL-1.0"}, "geometry": {"type": "MultiPolygon", "coordinates": [[[[113.9277843, 22.5366879], [113.9280067, 22.5366695], [113.9280216, 22.5368237], [113.9277992, 22.536842], [113.9277843, 22.5366879]]]]}}, {"type": "Feature", "id": "way/231067848", "properties": {"tags": {"building": "yes"}, "heightStatus": "unknown", "source": "OpenStreetMap", "license": "ODbL-1.0"}, "geometry": {"type": "MultiPolygon", "coordinates": [[[[113.9281938, 22.5366197], [113.9282335, 22.5366254], [113.9282575, 22.5366326], [113.9282793, 22.5366441], [113.9282963, 22.5366573], [113.9283141, 22.5366731], [113.9283286, 22.5366913], [113.9283376, 22.5367091], [113.9283426, 22.5367288], [113.9283429, 22.5367437], [113.9283371, 22.5367567], [113.9283254, 22.5367691], [113.9283056, 22.5367793], [113.9282879, 22.5367833], [113.9282686, 22.5367853], [113.9282444, 22.5367846], [113.9282109, 22.5367804], [113.9281938, 22.5366197]]]]}}, {"type": "Feature", "id": "way/231067851", "properties": {"tags": {"building": "yes"}, "heightStatus": "unknown", "source": "OpenStreetMap", "license": "ODbL-1.0"}, "geometry": {"type": "MultiPolygon", "coordinates": [[[[113.9278247, 22.5363602], [113.9280066, 22.5363439], [113.928018, 22.5364488], [113.9280225, 22.5364984], [113.9280294, 22.5365608], [113.9278474, 22.5365771], [113.9278247, 22.5363602]]]]}}, {"type": "Feature", "id": "way/231067853", "properties": {"tags": {"building": "yes"}, "heightStatus": "unknown", "source": "OpenStreetMap", "license": "ODbL-1.0"}, "geometry": {"type": "MultiPolygon", "coordinates": [[[[113.928018, 22.5364488], [113.9280588, 22.5364456], [113.9280633, 22.5364953], [113.9280225, 22.5364984], [113.928018, 22.5364488]]]]}}, {"type": "Feature", "id": "way/231214214", "properties": {"tags": {"building": "dormitory", "building:levels": "6", "height": "18", "name": "红榴斋", "smoking": "no"}, "heightStatus": "height_tag_unverified", "source": "OpenStreetMap", "license": "ODbL-1.0"}, "geometry": {"type": "MultiPolygon", "coordinates": [[[[113.9319324, 22.5370118], [113.9319664, 22.5369544], [113.9321356, 22.5370366], [113.9323072, 22.5369647], [113.9323341, 22.5370217], [113.9321702, 22.5370918], [113.9321682, 22.5371811], [113.9320927, 22.5371803], [113.9320939, 22.5370899], [113.9319324, 22.5370118]]]]}}, {"type": "Feature", "id": "way/231214216", "properties": {"tags": {"building": "dormitory", "building:levels": "6", "height": "18", "name": "山茶斋", "smoking": "no"}, "heightStatus": "height_tag_unverified", "source": "OpenStreetMap", "license": "ODbL-1.0"}, "geometry": {"type": "MultiPolygon", "coordinates": [[[[113.932493, 22.5370759], [113.9325261, 22.53702], [113.9326949, 22.537102], [113.9328661, 22.5370304], [113.9328921, 22.5370857], [113.9327286, 22.5371557], [113.9327266, 22.5372446], [113.9326529, 22.5372439], [113.9326542, 22.5371538], [113.932493, 22.5370759]]]]}}, {"type": "Feature", "id": "way/231405992", "properties": {"tags": {"building": "yes"}, "heightStatus": "unknown", "source": "OpenStreetMap", "license": "ODbL-1.0"}, "geometry": {"type": "MultiPolygon", "coordinates": [[[[113.9288672, 22.5384625], [113.9289562, 22.5383899], [113.9294772, 22.5389357], [113.9293881, 22.5390082], [113.9288672, 22.5384625]]]]}}, {"type": "Feature", "id": "way/231405994", "properties": {"tags": {"building": "yes"}, "heightStatus": "unknown", "source": "OpenStreetMap", "license": "ODbL-1.0"}, "geometry": {"type": "MultiPolygon", "coordinates": [[[[113.9292869, 22.5392275], [113.9295497, 22.5390168], [113.929893, 22.539382], [113.9296998, 22.5395369], [113.9296606, 22.5394951], [113.9295891, 22.5395491], [113.9295724, 22.5395318], [113.929523, 22.5394789], [113.929669, 22.5393623], [113.9295258, 22.5392061], [113.9293772, 22.5393236], [113.9293585, 22.5393035], [113.9292869, 22.5392275]]]]}}, {"type": "Feature", "id": "way/231405996", "properties": {"tags": {"building": "yes"}, "heightStatus": "unknown", "source": "OpenStreetMap", "license": "ODbL-1.0"}, "geometry": {"type": "MultiPolygon", "coordinates": [[[[113.9292648, 22.5393782], [113.9293585, 22.5393035], [113.9293772, 22.5393236], [113.929523, 22.5394789], [113.9295724, 22.5395318], [113.9294784, 22.5396067], [113.9292648, 22.5393782]]]]}}, {"type": "Feature", "id": "way/231406104", "properties": {"tags": {"building": "apartments", "building:levels": "3", "layer": "1", "name": "汇文楼H4号楼", "name:en": "Huiwen Building H4", "name:ms": "H4", "name:zh": "汇文楼H4号楼"}, "heightStatus": "levels_only_unverified", "source": "OpenStreetMap", "license": "ODbL-1.0"}, "geometry": {"type": "MultiPolygon", "coordinates": [[[[113.9291905, 22.5403999], [113.9291936, 22.5403515], [113.9291965, 22.5403396], [113.9292002, 22.5403243], [113.9292096, 22.5402995], [113.9292243, 22.5402716], [113.9292445, 22.540245], [113.9292727, 22.5402239], [113.9293035, 22.5402103], [113.9293319, 22.5402006], [113.9293584, 22.5401953], [113.9293706, 22.5401929], [113.9294037, 22.5401912], [113.9294339, 22.5401949], [113.9294627, 22.5402018], [113.9294913, 22.5402128], [113.9295048, 22.5402214], [113.9295175, 22.5402296], [113.9295383, 22.5402506], [113.9295568, 22.5402744], [113.9295697, 22.5402984], [113.9295784, 22.5403246], [113.9295845, 22.5403562], [113.9295884, 22.5404017], [113.9294671, 22.540401], [113.9294667, 22.5405087], [113.9293943, 22.540508], [113.9293947, 22.540401], [113.9291905, 22.5403999]]]]}}, {"type": "Feature", "id": "relation/3105896", "properties": {"tags": {"building": "apartments", "building:levels": "6", "layer": "1", "name": "汇文楼H5号楼", "name:en": "Huiwen Building H5", "name:zh": "汇文楼H5号楼"}, "heightStatus": "levels_only_unverified", "source": "OpenStreetMap", "license": "ODbL-1.0"}, "geometry": {"type": "MultiPolygon", "coordinates": [[[[113.928594, 22.5406144], [113.9285954, 22.5404996], [113.929139, 22.5405053], [113.9293943, 22.540508], [113.9294667, 22.5405087], [113.9295184, 22.5405087], [113.9295166, 22.5406262], [113.9294736, 22.5406248], [113.9294722, 22.5407456], [113.9295159, 22.5407462], [113.9295148, 22.5408402], [113.9287893, 22.5408327], [113.9287906, 22.5407236], [113.9288825, 22.5407247], [113.9288838, 22.5406178], [113.928594, 22.5406144]], [[113.9289522, 22.5407256], [113.9293619, 22.5407305], [113.9293634, 22.5406235], [113.9289538, 22.5406186], [113.9289522, 22.5407256]]]]}}, {"type": "Feature", "id": "relation/3105897", "properties": {"tags": {"building": "university", "building:levels": "6", "layer": "1", "name": "文科楼办公区", "name:zh": "文科楼办公区", "name:zh-Hans": "文科楼办公区", "name:zh-Hant": "文科樓辦公區"}, "heightStatus": "levels_only_unverified", "source": "OpenStreetMap", "license": "ODbL-1.0"}, "geometry": {"type": "MultiPolygon", "coordinates": [[[[113.9292719, 22.5411423], [113.9292738, 22.540999], [113.9299875, 22.5410068], [113.9300537, 22.5410078], [113.9300512, 22.5411948], [113.9300503, 22.5412547], [113.930239, 22.5412567], [113.9302408, 22.5411153], [113.930358, 22.5411165], [113.9303542, 22.5414148], [113.9296426, 22.5414071], [113.9296459, 22.5411464], [113.9292719, 22.5411423]], [[113.9296741, 22.5413386], [113.9298686, 22.5413397], [113.9298696, 22.5411875], [113.9296751, 22.5411864], [113.9296741, 22.5413386]]]]}}, {"type": "Feature", "id": "way/231406258", "properties": {"tags": {"building": "apartments", "building:levels": "6", "name": "汇文楼H1号楼", "name:en": "Huiwen Building H1", "name:ms": "H1", "name:zh": "汇文楼H1号楼"}, "heightStatus": "levels_only_unverified", "source": "OpenStreetMap", "license": "ODbL-1.0"}, "geometry": {"type": "MultiPolygon", "coordinates": [[[[113.9302408, 22.5411153], [113.930245, 22.540967], [113.9304154, 22.540846], [113.9304434, 22.5408264], [113.9307665, 22.5405972], [113.9308043, 22.5405704], [113.9309276, 22.5404829], [113.9310096, 22.5405816], [113.9303576, 22.5410438], [113.930358, 22.5411165], [113.9302408, 22.5411153]]]]}}, {"type": "Feature", "id": "way/231406259", "properties": {"tags": {"building": "apartments", "building:levels": "8", "layer": "1", "name": "汇文楼H3号楼", "name:en": "Huiwen Building H3", "name:ms": "H3", "name:zh": "汇文楼H3号楼"}, "heightStatus": "levels_only_unverified", "source": "OpenStreetMap", "license": "ODbL-1.0"}, "geometry": {"type": "MultiPolygon", "coordinates": [[[[113.9295166, 22.5406262], [113.9295184, 22.5405087], [113.9297514, 22.5405117], [113.9298091, 22.5404715], [113.930362, 22.5400861], [113.9304785, 22.5400049], [113.9306825, 22.5402546], [113.9305669, 22.5403352], [113.93043, 22.5401677], [113.9297679, 22.5406294], [113.9295166, 22.5406262]]]]}}, {"type": "Feature", "id": "way/231406260", "properties": {"tags": {"amenity": "restaurant", "building": "yes", "fast_food": "cafeteria"}, "heightStatus": "unknown", "source": "OpenStreetMap", "license": "ODbL-1.0"}, "geometry": {"type": "MultiPolygon", "coordinates": [[[[113.9298748, 22.5409712], [113.9298773, 22.5407476], [113.9301188, 22.54075], [113.9301149, 22.540976], [113.9300531, 22.5409757], [113.9300537, 22.5410078], [113.9299875, 22.5410068], [113.9299881, 22.5409711], [113.9298748, 22.5409712]]]]}}, {"type": "Feature", "id": "way/231572980", "properties": {"tags": {"building": "dormitory", "name": "风槐斋", "name:zh": "风槐斋", "name:zh-Hans": "风槐斋", "name:zh-Hant": "風槐齋"}, "heightStatus": "unknown", "source": "OpenStreetMap", "license": "ODbL-1.0"}, "geometry": {"type": "MultiPolygon", "coordinates": [[[[113.9337517, 22.536353], [113.9338549, 22.5360037], [113.9343418, 22.535969], [113.9343498, 22.5361263], [113.933953, 22.536132], [113.9338858, 22.5363802], [113.9337517, 22.536353]]]]}}, {"type": "Feature", "id": "way/231664852", "properties": {"tags": {"building": "yes"}, "heightStatus": "unknown", "source": "OpenStreetMap", "license": "ODbL-1.0"}, "geometry": {"type": "MultiPolygon", "coordinates": [[[[113.9348432, 22.5376005], [113.9349605, 22.5375046], [113.9351426, 22.5376948], [113.9350589, 22.5377632], [113.9350344, 22.5377394], [113.9350014, 22.5377657], [113.9349821, 22.5377683], [113.9349624, 22.5377663], [113.9349452, 22.537756], [113.9349374, 22.5377368], [113.9349376, 22.5377203], [113.9349434, 22.5377051], [113.9348432, 22.5376005]]]]}}, {"type": "Feature", "id": "way/231664853", "properties": {"tags": {"building": "university", "name": "艺术邨", "name:zh": "艺术邨", "name:zh-Hans": "艺术邨", "name:zh-Hant": "艺术邨"}, "heightStatus": "unknown", "source": "OpenStreetMap", "license": "ODbL-1.0"}, "geometry": {"type": "MultiPolygon", "coordinates": [[[[113.9344776, 22.5380488], [113.93455, 22.5379918], [113.9346224, 22.5380042], [113.9346921, 22.5379993], [113.9346921, 22.5379596], [113.9347485, 22.5379175], [113.9348021, 22.537915], [113.9348799, 22.5378605], [113.9349121, 22.5378903], [113.9349845, 22.5378506], [113.9350784, 22.538029], [113.9349657, 22.5381454], [113.9349014, 22.5381355], [113.9348263, 22.5381553], [113.9347833, 22.5382049], [113.93466, 22.5381108], [113.9346224, 22.5381083], [113.9346117, 22.5381578], [113.9345873, 22.5381546], [113.9345781, 22.5381988], [113.9344856, 22.5381851], [113.934499, 22.5381108], [113.9344776, 22.5380488]]]]}}, {"type": "Feature", "id": "relation/3108559", "properties": {"tags": {"building": "dormitory", "building:levels": "6", "height": "18", "name": "凌霄斋", "name:zh": "凌霄斋", "name:zh-Hans": "凌霄斋", "name:zh-Hant": "凌霄齋", "smoking": "no"}, "heightStatus": "height_tag_unverified", "source": "OpenStreetMap", "license": "ODbL-1.0"}, "geometry": {"type": "MultiPolygon", "coordinates": [[[[113.9327345, 22.5364705], [113.9327594, 22.5363516], [113.9327914, 22.5363574], [113.9328017, 22.5363055], [113.9330021, 22.5363403], [113.9329952, 22.5363746], [113.9330318, 22.5363809], [113.932998, 22.536543], [113.9329627, 22.536536], [113.9329554, 22.5365715], [113.9327543, 22.5365357], [113.9327675, 22.5364767], [113.9327345, 22.5364705]], [[113.9328213, 22.536464], [113.9329614, 22.536487], [113.9329744, 22.5364193], [113.9328343, 22.5363963], [113.9328213, 22.536464]]]]}}, {"type": "Feature", "id": "way/231676801", "properties": {"tags": {"amenity": "fuel", "brand": "中国石化", "brand:en": "Sinopec", "brand:wikidata": "Q831445", "brand:zh": "中国石化", "building": "yes", "fuel:diesel": "yes", "fuel:octane_92": "yes", "fuel:octane_95": "yes", "fuel:octane_98": "yes", "name": "中国石化特发加油站", "name:en": "Sinopec", "name:zh": "中国石化"}, "heightStatus": "unknown", "source": "OpenStreetMap", "license": "ODbL-1.0"}, "geometry": {"type": "MultiPolygon", "coordinates": [[[[113.9369603, 22.5419288], [113.9369847, 22.5416896], [113.9371669, 22.5417054], [113.9371425, 22.5419447], [113.9369603, 22.5419288]]]]}}, {"type": "Feature", "id": "way/231768591", "properties": {"tags": {"amenity": "fuel", "brand": "中国石化", "brand:en": "Sinopec", "brand:wikidata": "Q831445", "brand:zh": "中国石化", "building": "yes", "fuel:diesel": "yes", "fuel:octane_92": "yes", "fuel:octane_95": "yes", "fuel:octane_98": "yes", "name": "中国石化特发加油站", "name:en": "Sinopec", "name:zh": "中国石化"}, "heightStatus": "unknown", "source": "OpenStreetMap", "license": "ODbL-1.0"}, "geometry": {"type": "MultiPolygon", "coordinates": [[[[113.9310073, 22.5417246], [113.9310811, 22.5416612], [113.9311528, 22.5417337], [113.9311572, 22.541788], [113.931317, 22.5417929], [113.931313, 22.5419637], [113.9310598, 22.5419586], [113.931064, 22.5417852], [113.9310073, 22.5417246]]]]}}, {"type": "Feature", "id": "way/231796434", "properties": {"tags": {"building": "dormitory", "building:levels": "6", "height": "18", "name": "海桐斋", "name:zh": "海桐斋", "name:zh-Hans": "海桐斋", "name:zh-Hant": "海桐齋", "smoking": "no"}, "heightStatus": "height_tag_unverified", "source": "OpenStreetMap", "license": "ODbL-1.0"}, "geometry": {"type": "MultiPolygon", "coordinates": [[[[113.9321371, 22.5366252], [113.9321478, 22.5365707], [113.9322919, 22.5365923], [113.9322969, 22.5365665], [113.9323963, 22.5365808], [113.9323864, 22.5366361], [113.9323672, 22.536634], [113.9323543, 22.536702], [113.9324884, 22.5367243], [113.9324784, 22.5367779], [113.9322765, 22.5367442], [113.9322942, 22.5366495], [113.9321371, 22.5366252]]]]}}, {"type": "Feature", "id": "way/231796435", "properties": {"tags": {"building": "dormitory", "building:levels": "6", "height": "18", "name": "米兰斋", "name:zh": "米兰斋", "name:zh-Hans": "米兰斋", "name:zh-Hant": "米蘭齋", "smoking": "no"}, "heightStatus": "height_tag_unverified", "source": "OpenStreetMap", "license": "ODbL-1.0"}, "geometry": {"type": "MultiPolygon", "coordinates": [[[[113.9325729, 22.5368022], [113.932583, 22.5367502], [113.9327294, 22.5367739], [113.9327538, 22.5366465], [113.932814, 22.5366574], [113.9328062, 22.5366956], [113.9329671, 22.5367229], [113.9329547, 22.536777], [113.9328037, 22.5367527], [113.9327874, 22.5368393], [113.9325729, 22.5368022]]]]}}, {"type": "Feature", "id": "way/231796436", "properties": {"tags": {"building": "dormitory", "building:levels": "6", "height": "18", "name": "桃李斋", "name:zh": "桃李斋", "name:zh-Hans": "桃李斋", "name:zh-Hant": "桃李齋", "smoking": "no"}, "heightStatus": "height_tag_unverified", "source": "OpenStreetMap", "license": "ODbL-1.0"}, "geometry": {"type": "MultiPolygon", "coordinates": [[[[113.9322578, 22.5364048], [113.9322689, 22.5363467], [113.9324176, 22.5363738], [113.9324268, 22.5362983], [113.9324979, 22.5363118], [113.9325019, 22.5362896], [113.932645, 22.5363151], [113.9326414, 22.5363825], [113.9324914, 22.5363547], [113.9324724, 22.5364444], [113.9322578, 22.5364048]]]]}}, {"type": "Feature", "id": "way/231796623", "properties": {"tags": {"amenity": "restaurant", "building": "yes", "cuisine": "chinese", "fast_food": "cafeteria", "internet_access": "no", "internet_access:fee": "no", "name": "荔山餐厅", "name:zh": "荔山餐厅", "name:zh-Hans": "荔山餐厅", "name:zh-Hant": "荔山餐廳", "smoking": "no", "toilets:wheelchair": "no", "wheelchair": "no"}, "heightStatus": "unknown", "source": "OpenStreetMap", "license": "ODbL-1.0"}, "geometry": {"type": "MultiPolygon", "coordinates": [[[[113.9331094, 22.5372434], [113.9331845, 22.5368123], [113.9334601, 22.5368498], [113.9333964, 22.5372062], [113.933292, 22.5371926], [113.9332792, 22.5372688], [113.9331094, 22.5372434]]]]}}, {"type": "Feature", "id": "way/231796624", "properties": {"tags": {"amenity": "restaurant", "building": "yes", "fast_food": "cafeteria", "name": "实验餐厅", "name:zh": "实验餐厅", "name:zh-Hans": "实验餐厅", "name:zh-Hant": "實驗餐廳", "toilets:wheelchair": "no", "wheelchair": "no"}, "heightStatus": "unknown", "source": "OpenStreetMap", "license": "ODbL-1.0"}, "geometry": {"type": "MultiPolygon", "coordinates": [[[[113.9335117, 22.5372904], [113.9335707, 22.5369213], [113.9336427, 22.5369307], [113.9336371, 22.536971], [113.9338674, 22.5370062], [113.9338255, 22.5372533], [113.9337576, 22.5372434], [113.9337451, 22.5373276], [113.9335117, 22.5372904]]]]}}, {"type": "Feature", "id": "relation/3110985", "properties": {"tags": {"building": "stadium"}, "heightStatus": "unknown", "source": "OpenStreetMap", "license": "ODbL-1.0"}, "geometry": {"type": "MultiPolygon", "coordinates": [[[[113.9351133, 22.5394883], [113.9351214, 22.53876], [113.9351348, 22.5386758], [113.9351616, 22.5385717], [113.9352095, 22.5384778], [113.9352794, 22.5385108], [113.9353045, 22.5384676], [113.9353225, 22.5384355], [113.9353842, 22.5383512], [113.9354352, 22.5383017], [113.935513, 22.5382447], [113.9356122, 22.5381952], [113.9357517, 22.5381431], [113.9358697, 22.5381208], [113.9359958, 22.5381184], [113.9361031, 22.5381382], [113.9362184, 22.5381803], [113.9363203, 22.5382348], [113.9364222, 22.5383066], [113.9364947, 22.5383785], [113.9365644, 22.5384627], [113.936618, 22.5385593], [113.9366475, 22.5386485], [113.9366578, 22.5388026], [113.9366489, 22.539558], [113.9366356, 22.539655], [113.9365893, 22.5397764], [113.9365115, 22.5398621], [113.9364344, 22.5399472], [113.9363518, 22.5400186], [113.9362679, 22.540068], [113.9361647, 22.5401151], [113.9360601, 22.5401424], [113.9359555, 22.5401547], [113.9358536, 22.5401523], [113.9357624, 22.5401374], [113.9356578, 22.5401077], [113.9355425, 22.5400532], [113.9354406, 22.5399863], [113.9353789, 22.5399318], [113.9353333, 22.5398698], [113.9352984, 22.5398104], [113.935286, 22.5397851], [113.9352716, 22.539746], [113.9351804, 22.5397732], [113.9351482, 22.5396791], [113.9351241, 22.5395701], [113.9351133, 22.5394883]], [[113.9353198, 22.5387497], [113.935322, 22.5395574], [113.9353433, 22.5396268], [113.9353684, 22.5396974], [113.9353903, 22.539736], [113.9354093, 22.5397696], [113.9354395, 22.53981], [113.9354743, 22.5398573], [113.9355199, 22.5398976], [113.9356071, 22.5399548], [113.9357047, 22.540001], [113.9357916, 22.5400256], [113.9358661, 22.5400378], [113.9359492, 22.5400398], [113.9360352, 22.5400297], [113.9361176, 22.5400082], [113.936198, 22.5399678], [113.9362774, 22.5399257], [113.936344, 22.5398682], [113.9364163, 22.5397884], [113.9364713, 22.5397188], [113.9365048, 22.5396537], [113.9365215, 22.5395704], [113.9365345, 22.5387646], [113.9365244, 22.5386691], [113.9365024, 22.5386026], [113.9364589, 22.5385242], [113.9363997, 22.5384526], [113.9363385, 22.5383919], [113.9362512, 22.5383305], [113.9361641, 22.5382839], [113.9360678, 22.5382487], [113.9359848, 22.5382334], [113.9358835, 22.5382353], [113.9357877, 22.5382534], [113.9356652, 22.5382992], [113.9355817, 22.5383409], [113.9355192, 22.5383866], [113.9354813, 22.5384234], [113.9354403, 22.5384658], [113.935406, 22.5385189], [113.9353653, 22.5385819], [113.9353289, 22.5386654], [113.9353198, 22.5387497]]]]}}, {"type": "Feature", "id": "way/232602593", "properties": {"tags": {"building": "yes"}, "heightStatus": "unknown", "source": "OpenStreetMap", "license": "ODbL-1.0"}, "geometry": {"type": "MultiPolygon", "coordinates": [[[[113.9297542, 22.5384794], [113.9298036, 22.538436], [113.9298585, 22.5384894], [113.9298091, 22.5385328], [113.9297542, 22.5384794]]]]}}, {"type": "Feature", "id": "way/234531247", "properties": {"tags": {"addr:city": "深圳市", "addr:district": "南山区", "addr:housenumber": "16", "addr:postcode": "518057", "addr:province": "广东省", "addr:street": "科研路", "building": "commercial", "name": "华强高新发展大楼"}, "heightStatus": "unknown", "source": "OpenStreetMap", "license": "ODbL-1.0"}, "geometry": {"type": "MultiPolygon", "coordinates": [[[[113.9303237, 22.5450438], [113.9303335, 22.5443651], [113.9306108, 22.5443685], [113.9306009, 22.5450472], [113.9303237, 22.5450438]]]]}}, {"type": "Feature", "id": "way/234531249", "properties": {"tags": {"building:levels": "7", "building:material": "plastic", "building:part": "yes"}, "heightStatus": "levels_only_unverified", "source": "OpenStreetMap", "license": "ODbL-1.0"}, "geometry": {"type": "MultiPolygon", "coordinates": [[[[113.928792, 22.5449713], [113.9287993, 22.5442801], [113.929046, 22.5442823], [113.9290431, 22.5445601], [113.9290388, 22.5449736], [113.928792, 22.5449713]]]]}}, {"type": "Feature", "id": "way/237757342", "properties": {"tags": {"building:levels": "6", "building:part": "yes"}, "heightStatus": "levels_only_unverified", "source": "OpenStreetMap", "license": "ODbL-1.0"}, "geometry": {"type": "MultiPolygon", "coordinates": [[[[113.9366692, 22.5378802], [113.9368503, 22.5377553], [113.9369456, 22.537878], [113.9370851, 22.5380576], [113.9371136, 22.5380921], [113.9371404, 22.5381157], [113.9371702, 22.5381356], [113.9371952, 22.5381502], [113.9372323, 22.5381657], [113.9372641, 22.538174], [113.9373053, 22.5381794], [113.9373315, 22.5381818], [113.9373644, 22.5381804], [113.9374072, 22.5381751], [113.9374487, 22.5381645], [113.9374872, 22.5381494], [113.9375972, 22.5380762], [113.9376488, 22.5381405], [113.9371521, 22.538483], [113.9366692, 22.5378802]]]]}}, {"type": "Feature", "id": "relation/3203337", "properties": {"tags": {"building": "commercial", "name": "清华大学研究院", "name:zh": "清华大学研究院", "name:zh-Hans": "清华大学研究院", "name:zh-Hant": "清華大學研究院"}, "heightStatus": "unknown", "source": "OpenStreetMap", "license": "ODbL-1.0"}, "geometry": {"type": "MultiPolygon", "coordinates": [[[[113.9371639, 22.5361322], [113.9373752, 22.5356224], [113.9383771, 22.5359768], [113.9383526, 22.5360367], [113.9383948, 22.5360517], [113.9383178, 22.5362481], [113.9383403, 22.5362569], [113.9383554, 22.5362719], [113.938363, 22.5362889], [113.938365, 22.5363065], [113.9383596, 22.5363263], [113.9383331, 22.5363887], [113.9383701, 22.5364018], [113.9383155, 22.5365426], [113.9371639, 22.5361322]], [[113.9373273, 22.5359757], [113.9374265, 22.5360091], [113.9375028, 22.5358157], [113.9374037, 22.5357822], [113.9373273, 22.5359757]], [[113.9375032, 22.5360971], [113.9380582, 22.5362955], [113.93816, 22.5360526], [113.937605, 22.5358542], [113.9375032, 22.5360971]]]]}}, {"type": "Feature", "id": "way/237893509", "properties": {"tags": {"building": "yes"}, "heightStatus": "unknown", "source": "OpenStreetMap", "license": "ODbL-1.0"}, "geometry": {"type": "MultiPolygon", "coordinates": [[[[113.9329123, 22.5407685], [113.932917, 22.5402608], [113.9329895, 22.5402614], [113.9329848, 22.5407691], [113.9329123, 22.5407685]]]]}}, {"type": "Feature", "id": "way/237893512", "properties": {"tags": {"building": "yes"}, "heightStatus": "unknown", "source": "OpenStreetMap", "license": "ODbL-1.0"}, "geometry": {"type": "MultiPolygon", "coordinates": [[[[113.927922, 22.5388733], [113.927926, 22.538834], [113.9279399, 22.5388092], [113.927959, 22.5387915], [113.9279844, 22.5387789], [113.9280098, 22.538774], [113.9280385, 22.5387763], [113.9280715, 22.5387903], [113.9280932, 22.5388102], [113.9281084, 22.5388406], [113.9281105, 22.5388719], [113.9280963, 22.5389087], [113.9280703, 22.5389336], [113.9280459, 22.5389449], [113.9280078, 22.538949], [113.9279716, 22.538939], [113.9279548, 22.5389285], [113.9279324, 22.538903], [113.927922, 22.5388733]]]]}}, {"type": "Feature", "id": "way/237893516", "properties": {"tags": {"building": "yes"}, "heightStatus": "unknown", "source": "OpenStreetMap", "license": "ODbL-1.0"}, "geometry": {"type": "MultiPolygon", "coordinates": [[[[113.9294323, 22.5381353], [113.9294896, 22.5380855], [113.9295654, 22.5381599], [113.9295081, 22.5382097], [113.9294323, 22.5381353]]]]}}, {"type": "Feature", "id": "way/237893520", "properties": {"tags": {"building": "yes"}, "heightStatus": "unknown", "source": "OpenStreetMap", "license": "ODbL-1.0"}, "geometry": {"type": "MultiPolygon", "coordinates": [[[[113.9294177, 22.5384446], [113.9294203, 22.5384174], [113.9294359, 22.5383865], [113.9294565, 22.5383673], [113.9294891, 22.5383528], [113.9295198, 22.53835], [113.929549, 22.538356], [113.9295777, 22.5383722], [113.9296039, 22.5384073], [113.9296101, 22.5384415], [113.929602, 22.5384747], [113.9295812, 22.5385025], [113.9295654, 22.538514], [113.9295302, 22.5385266], [113.9294925, 22.5385256], [113.9294609, 22.5385132], [113.9294304, 22.5384834], [113.9294177, 22.5384446]]]]}}, {"type": "Feature", "id": "way/237893523", "properties": {"tags": {"building": "yes"}, "heightStatus": "unknown", "source": "OpenStreetMap", "license": "ODbL-1.0"}, "geometry": {"type": "MultiPolygon", "coordinates": [[[[113.9281021, 22.5389476], [113.928106, 22.5389084], [113.9281199, 22.5388837], [113.9281389, 22.538866], [113.9281642, 22.5388535], [113.9281895, 22.5388486], [113.9282181, 22.5388509], [113.928251, 22.5388648], [113.9282726, 22.5388847], [113.9282877, 22.538915], [113.9282898, 22.5389461], [113.9282757, 22.5389828], [113.9282498, 22.5390077], [113.9282254, 22.5390189], [113.9281875, 22.5390229], [113.9281514, 22.539013], [113.9281347, 22.5390026], [113.9281124, 22.5389771], [113.9281021, 22.5389476]]]]}}, {"type": "Feature", "id": "way/239837952", "properties": {"tags": {"addr:city": "深圳", "addr:housenumber": "T2-A", "addr:street": "白石路", "building": "commercial", "building:levels": "6", "name": "T2-A", "name:en": "T2-A", "name:ms": "T2-A", "name:zh": "T2-A"}, "heightStatus": "levels_only_unverified", "source": "OpenStreetMap", "license": "ODbL-1.0"}, "geometry": {"type": "MultiPolygon", "coordinates": [[[[113.9367922, 22.536877], [113.9369868, 22.5364165], [113.9375271, 22.5366119], [113.9374529, 22.5367881], [113.9370829, 22.5366548], [113.9369613, 22.5369382], [113.9367922, 22.536877]]]]}}, {"type": "Feature", "id": "way/239837956", "properties": {"tags": {"addr:city": "深圳", "addr:housenumber": "T2－B 二層", "addr:street": "高新科技園高新南7道", "building": "commercial", "building:levels": "6", "name": "T2-B", "name:en": "T2-B", "name:ms": "T2-B", "name:zh": "T2-B", "phone": "+86 755 2671 9666", "website": "https://www.sonix.com.tw/"}, "heightStatus": "levels_only_unverified", "source": "OpenStreetMap", "license": "ODbL-1.0"}, "geometry": {"type": "MultiPolygon", "coordinates": [[[[113.9368324, 22.5372412], [113.9369613, 22.5369382], [113.9370447, 22.5369691], [113.9369849, 22.5371112], [113.9371383, 22.5371669], [113.9372719, 22.5368549], [113.9374537, 22.5369246], [113.9372483, 22.5373923], [113.9368324, 22.5372412]]]]}}, {"type": "Feature", "id": "way/239872945", "properties": {"tags": {"building": "yes"}, "heightStatus": "unknown", "source": "OpenStreetMap", "license": "ODbL-1.0"}, "geometry": {"type": "MultiPolygon", "coordinates": [[[[113.9355524, 22.5370954], [113.9356254, 22.5370376], [113.9357226, 22.5371423], [113.9356496, 22.5372002], [113.9355524, 22.5370954]]]]}}, {"type": "Feature", "id": "way/288893074", "properties": {"tags": {"building": "yes"}, "heightStatus": "unknown", "source": "OpenStreetMap", "license": "ODbL-1.0"}, "geometry": {"type": "MultiPolygon", "coordinates": [[[[113.9290598, 22.5404629], [113.9290943, 22.5404629], [113.9291027, 22.5404551], [113.9291058, 22.5404379], [113.9291085, 22.5404273], [113.9291288, 22.5404306], [113.9291364, 22.5404232], [113.9291412, 22.5404191], [113.9291486, 22.5404124], [113.9291492, 22.5403978], [113.9291632, 22.5403919], [113.9291831, 22.5403983], [113.9291912, 22.5404253], [113.9291784, 22.5404474], [113.9291609, 22.5404722], [113.9291523, 22.5404878], [113.9291389, 22.5404877], [113.9290616, 22.5404874], [113.9290598, 22.5404629]]]]}}, {"type": "Feature", "id": "way/315603844", "properties": {"tags": {"building": "apartments", "building:levels": "6", "name": "汇文楼H2号楼", "name:en": "Huiwen Building H2", "name:ms": "H2", "name:zh": "汇文楼H2号楼"}, "heightStatus": "levels_only_unverified", "source": "OpenStreetMap", "license": "ODbL-1.0"}, "geometry": {"type": "MultiPolygon", "coordinates": [[[[113.9302549, 22.5406498], [113.9307459, 22.5403089], [113.9308336, 22.5404167], [113.9307323, 22.540487], [113.9306955, 22.5405126], [113.9303707, 22.5407381], [113.9303427, 22.5407576], [113.9302549, 22.5406498]]]]}}, {"type": "Feature", "id": "way/317029242", "properties": {"tags": {"amenity": "library", "building": "yes", "name": "档案馆", "name:zh": "档案馆", "name:zh-Hans": "档案馆", "name:zh-Hant": "檔案館", "operator": "深圳大学", "operator:type": "government"}, "heightStatus": "unknown", "source": "OpenStreetMap", "license": "ODbL-1.0"}, "geometry": {"type": "MultiPolygon", "coordinates": [[[[113.9310731, 22.5369858], [113.9311321, 22.5367111], [113.9317099, 22.5368171], [113.9316509, 22.5370916], [113.9310731, 22.5369858]]]]}}, {"type": "Feature", "id": "way/355209917", "properties": {"tags": {"addr:city": "深圳市", "addr:country": "CN", "addr:district": "南山区", "addr:housenumber": "9", "addr:neighbourhood": "麻岭社区", "addr:postcode": "518057", "addr:province": "广东省", "addr:street": "科研路", "addr:subdistrict": "粤海街道", "building": "commercial", "building:levels": "25", "building:material": "mirror", "name": "比克科技大厦", "name:en": "Bike Technology Building", "name:zh": "比克科技大厦", "name:zh-Hans": "比克科技大厦", "name:zh-Hant": "比克科技大廈"}, "heightStatus": "levels_only_unverified", "source": "OpenStreetMap", "license": "ODbL-1.0"}, "geometry": {"type": "MultiPolygon", "coordinates": [[[[113.9275733, 22.544673], [113.9275765, 22.5442966], [113.9282136, 22.5443013], [113.928212, 22.5444895], [113.9282104, 22.5446776], [113.9275733, 22.544673]]]]}}, {"type": "Feature", "id": "way/435011158", "properties": {"tags": {"addr:city": "深圳市", "addr:district": "南山区", "addr:housenumber": "9966", "addr:province": "广东省", "addr:street": "深南大道", "building": "commercial", "building:levels": "30", "building:material": "glass", "name": "威盛科技大廈"}, "heightStatus": "levels_only_unverified", "source": "OpenStreetMap", "license": "ODbL-1.0"}, "geometry": {"type": "MultiPolygon", "coordinates": [[[[113.9348832, 22.5436977], [113.9348863, 22.5433101], [113.9353929, 22.5433136], [113.9353897, 22.5437013], [113.9348832, 22.5436977]]]]}}, {"type": "Feature", "id": "way/529249836", "properties": {"tags": {"building:levels": "2", "building:material": "glass", "building:part": "yes", "height": "17"}, "heightStatus": "height_tag_unverified", "source": "OpenStreetMap", "license": "ODbL-1.0"}, "geometry": {"type": "MultiPolygon", "coordinates": [[[[113.92761, 22.5441426], [113.927615, 22.5440198], [113.9277338, 22.5438262], [113.9277605, 22.5437828], [113.9278841, 22.5437823], [113.927884, 22.5438112], [113.928039, 22.5438107], [113.9280272, 22.5438279], [113.9278107, 22.5441426], [113.92761, 22.5441426]]]]}}, {"type": "Feature", "id": "way/600810213", "properties": {"tags": {"addr:city": "深圳市", "addr:district": "南山区", "addr:housenumber": "10000", "addr:postcode": "518057", "addr:province": "广东省", "addr:street": "深南大道", "building": "commercial", "building:levels": "4", "building:material": "glass", "name": "多功能议会厅", "official_name": "腾讯大厦多功能议会厅", "smoking": "禁止"}, "heightStatus": "levels_only_unverified", "source": "OpenStreetMap", "license": "ODbL-1.0"}, "geometry": {"type": "MultiPolygon", "coordinates": [[[[113.9293462, 22.543917], [113.9293496, 22.5436465], [113.9294262, 22.5436473], [113.9295811, 22.543649], [113.9295776, 22.5439195], [113.9293462, 22.543917]]]]}}, {"type": "Feature", "id": "way/600815118", "properties": {"tags": {"addr:city": "深圳市", "addr:district": "南山区", "addr:housenumber": "10000", "addr:postcode": "518057", "addr:province": "广东省", "addr:street": "深南大道", "building": "office", "building:colour": "#a1b4c3", "building:levels": "39", "building:material": "glass", "height": "193.2", "name": "腾讯大厦", "name:en": "Tencent Building", "name:zh": "腾讯大厦", "roof:colour": "#a1b4c3", "roof:height": "26.2", "roof:material": "glass", "roof:orientation": "along", "roof:shape": "saltbox", "smoking": "no"}, "heightStatus": "height_tag_unverified", "source": "OpenStreetMap", "license": "ODbL-1.0"}, "geometry": {"type": "MultiPolygon", "coordinates": [[[[113.929364, 22.5435276], [113.9293659, 22.5433749], [113.9293742, 22.5433611], [113.9294143, 22.5433272], [113.9294307, 22.5433209], [113.9296441, 22.5433232], [113.929734, 22.5433242], [113.9298706, 22.5433257], [113.9298861, 22.5433329], [113.9299231, 22.5433689], [113.9299305, 22.5433824], [113.9299286, 22.5435351], [113.9299204, 22.5435482], [113.9298816, 22.5435836], [113.9298671, 22.5435903], [113.929641, 22.5435878], [113.9295819, 22.5435872], [113.9294272, 22.5435855], [113.929411, 22.5435778], [113.9293715, 22.5435413], [113.929364, 22.5435276]]]]}}, {"type": "Feature", "id": "way/677820638", "properties": {"tags": {"building": "dormitory", "building:levels": "13", "name": "蓬莱客舍", "name:zh": "蓬莱客舍", "name:zh-Hans": "蓬莱客舍", "name:zh-Hant": "蓬萊客舍"}, "heightStatus": "levels_only_unverified", "source": "OpenStreetMap", "license": "ODbL-1.0"}, "geometry": {"type": "MultiPolygon", "coordinates": [[[[113.9332673, 22.5361488], [113.9333424, 22.535896], [113.9337743, 22.5359951], [113.9336817, 22.5362392], [113.9332673, 22.5361488]]]]}}, {"type": "Feature", "id": "way/707365790", "properties": {"tags": {"addr:city": "深圳市", "addr:district": "南山区", "addr:housenumber": "9968", "addr:postcode": "518057", "addr:province": "广东省", "addr:street": "深南大道", "architect": "Morphosis", "building": "commercial", "building:material": "mirror", "maxheight": "358.9", "name": "汉京中心", "name:zh": "汉京中心", "wikidata": "Q18348250", "wikimedia_commons": "Category:Hanking Center", "wikipedia": "zh:汉京中心"}, "heightStatus": "unknown", "source": "OpenStreetMap", "license": "ODbL-1.0"}, "geometry": {"type": "MultiPolygon", "coordinates": [[[[113.931018, 22.5432617], [113.9321015, 22.5432403], [113.9321191, 22.5435449], [113.9319825, 22.5435524], [113.931985, 22.5435859], [113.932013, 22.5435841], [113.9320253, 22.5437479], [113.9311418, 22.5438626], [113.9311137, 22.5437831], [113.9310375, 22.5437872], [113.931018, 22.5432617]]]]}}, {"type": "Feature", "id": "way/707365791", "properties": {"tags": {"addr:city": "深圳市", "addr:district": "南山区", "addr:housenumber": "9988", "addr:postcode": "518057", "addr:province": "广东省", "addr:street": "深南大道", "alt_name": "大族科技大厦", "building": "commercial", "description": "大族激光集团总部", "maxheight": "120", "name": "大族科技中心大厦", "name:en": "Han's Laser Technology Centre", "name:zh": "大族科技中心大厦", "smoking": "no"}, "heightStatus": "unknown", "source": "OpenStreetMap", "license": "ODbL-1.0"}, "geometry": {"type": "MultiPolygon", "coordinates": [[[[113.9300843, 22.5435968], [113.9300873, 22.5432596], [113.9301674, 22.5432602], [113.9302444, 22.5432608], [113.9304834, 22.5432627], [113.9306235, 22.5432638], [113.9306211, 22.5435236], [113.9306204, 22.5436002], [113.9306171, 22.543957], [113.9303754, 22.5439551], [113.9302342, 22.543954], [113.9302361, 22.5437441], [113.9302374, 22.543598], [113.9300843, 22.5435968]]]]}}, {"type": "Feature", "id": "way/707365805", "properties": {"tags": {"building": "yes", "building:colour": "#a1b4c3", "building:levels": "4", "building:material": "glass", "building:min_level": "1"}, "heightStatus": "levels_only_unverified", "source": "OpenStreetMap", "license": "ODbL-1.0"}, "geometry": {"type": "MultiPolygon", "coordinates": [[[[113.9294262, 22.5436473], [113.9294266, 22.5436191], [113.9294272, 22.5435855], [113.9295819, 22.5435872], [113.9295814, 22.5436208], [113.9295811, 22.543649], [113.9294262, 22.5436473]]]]}}, {"type": "Feature", "id": "way/707365808", "properties": {"tags": {"building:colour": "#a1b4c3", "building:levels": "25", "building:material": "glass", "building:part": "yes", "height": "95.9"}, "heightStatus": "height_tag_unverified", "source": "OpenStreetMap", "license": "ODbL-1.0"}, "geometry": {"type": "MultiPolygon", "coordinates": [[[[113.9285701, 22.543739], [113.9285749, 22.5433516], [113.9289083, 22.5433552], [113.9292417, 22.5433587], [113.9292369, 22.5437461], [113.9289038, 22.5437426], [113.9288172, 22.5437416], [113.9285701, 22.543739]]]]}}, {"type": "Feature", "id": "way/707365824", "properties": {"tags": {"addr:city": "深圳市", "addr:district": "南山区", "addr:housenumber": "1", "addr:province": "广东省", "addr:street": "科艺路", "building": "commercial", "name": "森那美大厦"}, "heightStatus": "unknown", "source": "OpenStreetMap", "license": "ODbL-1.0"}, "geometry": {"type": "MultiPolygon", "coordinates": [[[[113.933792, 22.5436512], [113.9337965, 22.5433922], [113.9338054, 22.543369], [113.9338212, 22.5433492], [113.9338425, 22.5433344], [113.9338713, 22.5433253], [113.9339018, 22.5433254], [113.9339305, 22.5433348], [113.9339543, 22.5433524], [113.9339933, 22.5433542], [113.9339935, 22.5433139], [113.9345452, 22.5433167], [113.9345442, 22.5434793], [113.934411, 22.5434806], [113.9344096, 22.5437192], [113.9339912, 22.5437171], [113.9339915, 22.5436666], [113.9339711, 22.5436665], [113.9339574, 22.5436914], [113.933936, 22.5437114], [113.9339086, 22.5437238], [113.9338822, 22.5437272], [113.9338559, 22.5437234], [113.9338318, 22.5437128], [113.9338121, 22.5436962], [113.9337985, 22.5436751], [113.933792, 22.5436512]]]]}}, {"type": "Feature", "id": "way/708553842", "properties": {"tags": {"building:levels": "2", "building:material": "plastic", "building:part": "yes"}, "heightStatus": "levels_only_unverified", "source": "OpenStreetMap", "license": "ODbL-1.0"}, "geometry": {"type": "MultiPolygon", "coordinates": [[[[113.9290431, 22.5445601], [113.929046, 22.5442823], [113.9291123, 22.5442829], [113.9291814, 22.5442835], [113.9291785, 22.5445614], [113.929111, 22.5445608], [113.9290431, 22.5445601]]]]}}, {"type": "Feature", "id": "way/747970488", "properties": {"tags": {"building": "apartments", "name": "2H|2G座"}, "heightStatus": "unknown", "source": "OpenStreetMap", "license": "ODbL-1.0"}, "geometry": {"type": "MultiPolygon", "coordinates": [[[[113.9361211, 22.5366772], [113.9362368, 22.5366266], [113.9363167, 22.5366534], [113.9363294, 22.5366212], [113.9363617, 22.536632], [113.9364147, 22.5364974], [113.9363293, 22.5364687], [113.9362588, 22.5364988], [113.9362229, 22.5364272], [113.9363354, 22.536379], [113.9364177, 22.5364073], [113.9364318, 22.5363723], [113.9364608, 22.5363823], [113.9364828, 22.5363276], [113.9365578, 22.5363533], [113.9363533, 22.5368615], [113.9362795, 22.5368361], [113.9363056, 22.5367711], [113.9362723, 22.5367596], [113.9362812, 22.5367373], [113.9362322, 22.5367205], [113.9361595, 22.5367523], [113.9361211, 22.5366772]]]]}}, {"type": "Feature", "id": "way/747970490", "properties": {"tags": {"building": "apartments", "name": "2A座"}, "heightStatus": "unknown", "source": "OpenStreetMap", "license": "ODbL-1.0"}, "geometry": {"type": "MultiPolygon", "coordinates": [[[[113.9359002, 22.5370935], [113.9360041, 22.5370073], [113.9362029, 22.5372115], [113.9361006, 22.5372964], [113.9360447, 22.537239], [113.9359833, 22.53729], [113.9359041, 22.5372087], [113.9359639, 22.537159], [113.9359002, 22.5370935]]]]}}, {"type": "Feature", "id": "way/747970494", "properties": {"tags": {"building": "apartments", "name": "E座"}, "heightStatus": "unknown", "source": "OpenStreetMap", "license": "ODbL-1.0"}, "geometry": {"type": "MultiPolygon", "coordinates": [[[[113.9358046, 22.5359434], [113.9359209, 22.5358271], [113.9361183, 22.5359956], [113.9361787, 22.5359352], [113.9362708, 22.5360138], [113.9360941, 22.5361904], [113.9358046, 22.5359434]]]]}}, {"type": "Feature", "id": "way/747970497", "properties": {"tags": {"building:levels": "3", "building:part": "yes"}, "heightStatus": "levels_only_unverified", "source": "OpenStreetMap", "license": "ODbL-1.0"}, "geometry": {"type": "MultiPolygon", "coordinates": [[[[113.9365689, 22.5377549], [113.9367558, 22.5376272], [113.9371781, 22.5375929], [113.9372432, 22.5376742], [113.9369816, 22.5378533], [113.9369456, 22.537878], [113.9368503, 22.5377553], [113.9366692, 22.5378802], [113.9365689, 22.5377549]]]]}}, {"type": "Feature", "id": "way/747970505", "properties": {"tags": {"building:levels": "40", "building:material": "glass", "building:part": "yes", "height": "200", "roof:colour": "grey"}, "heightStatus": "height_tag_unverified", "source": "OpenStreetMap", "license": "ODbL-1.0"}, "geometry": {"type": "MultiPolygon", "coordinates": [[[[113.9369816, 22.5378533], [113.9372432, 22.5376742], [113.9373281, 22.5376205], [113.9376086, 22.5379718], [113.9375473, 22.5380138], [113.9374908, 22.5380524], [113.9373549, 22.5381454], [113.9371897, 22.5381127], [113.9369816, 22.5378533]]]]}}, {"type": "Feature", "id": "way/773669448", "properties": {"tags": {"building:levels": "23", "building:material": "glass", "building:part": "university", "roof:material": "glass"}, "heightStatus": "levels_only_unverified", "source": "OpenStreetMap", "license": "ODbL-1.0"}, "geometry": {"type": "MultiPolygon", "coordinates": [[[[113.9316134, 22.5382916], [113.9316165, 22.5380746], [113.9317374, 22.538076], [113.9317344, 22.5382931], [113.9316134, 22.5382916]]]]}}, {"type": "Feature", "id": "relation/10722369", "properties": {"tags": {"building:levels": "17", "building:material": "concrete", "building:part": "university", "roof:colour": "#cec9bd"}, "heightStatus": "levels_only_unverified", "source": "OpenStreetMap", "license": "ODbL-1.0"}, "geometry": {"type": "MultiPolygon", "coordinates": [[[[113.93141, 22.5384145], [113.9314146, 22.5379346], [113.9319357, 22.5379389], [113.9319311, 22.5384188], [113.93141, 22.5384145]], [[113.9315158, 22.5382904], [113.9316134, 22.5382916], [113.9317344, 22.5382931], [113.9318303, 22.5382943], [113.9318334, 22.5380772], [113.9317374, 22.538076], [113.9316165, 22.5380746], [113.9315189, 22.5380734], [113.9315158, 22.5382904]]]]}}, {"type": "Feature", "id": "way/773669452", "properties": {"tags": {"building": "yes", "building:levels": "6"}, "heightStatus": "levels_only_unverified", "source": "OpenStreetMap", "license": "ODbL-1.0"}, "geometry": {"type": "MultiPolygon", "coordinates": [[[[113.9306534, 22.5405687], [113.9307095, 22.5405301], [113.9306955, 22.5405126], [113.9307323, 22.540487], [113.9308043, 22.5405704], [113.9307665, 22.5405972], [113.9307444, 22.5405738], [113.9306893, 22.5406124], [113.9306534, 22.5405687]]]]}}, {"type": "Feature", "id": "way/773669453", "properties": {"tags": {"building": "yes", "building:levels": "6"}, "heightStatus": "levels_only_unverified", "source": "OpenStreetMap", "license": "ODbL-1.0"}, "geometry": {"type": "MultiPolygon", "coordinates": [[[[113.9303427, 22.5407576], [113.9303707, 22.5407381], [113.9304434, 22.5408264], [113.9304154, 22.540846], [113.9303427, 22.5407576]]]]}}, {"type": "Feature", "id": "way/781258404", "properties": {"tags": {"building:levels": "65", "building:material": "mirror", "building:part": "commercial", "height": "358.9"}, "heightStatus": "height_tag_unverified", "source": "OpenStreetMap", "license": "ODbL-1.0"}, "geometry": {"type": "MultiPolygon", "coordinates": [[[[113.931439, 22.5432854], [113.9321015, 22.5432403], [113.9320831, 22.543405], [113.9321191, 22.5435449], [113.9319825, 22.5435524], [113.93164, 22.5435744], [113.9314718, 22.543584], [113.9314841, 22.543431], [113.931439, 22.5432854]]]]}}, {"type": "Feature", "id": "way/781258405", "properties": {"tags": {"building:colour": "#b9b9b2", "building:levels": "65", "building:material": "concrete", "building:part": "commercial", "height": "346"}, "heightStatus": "height_tag_unverified", "source": "OpenStreetMap", "license": "ODbL-1.0"}, "geometry": {"type": "MultiPolygon", "coordinates": [[[[113.9316183, 22.5436129], [113.9316428, 22.5436114], [113.93164, 22.5435744], [113.9319825, 22.5435524], [113.931985, 22.5435859], [113.932013, 22.5435841], [113.9320253, 22.5437479], [113.9316305, 22.5437733], [113.9316183, 22.5436129]]]]}}, {"type": "Feature", "id": "way/782886877", "properties": {"tags": {"building:levels": "40", "building:material": "glass", "building:min_level": "8", "building:part": "yes", "height": "200", "roof:colour": "grey"}, "heightStatus": "height_tag_unverified", "source": "OpenStreetMap", "license": "ODbL-1.0"}, "geometry": {"type": "MultiPolygon", "coordinates": [[[[113.9371897, 22.5381127], [113.9373549, 22.5381454], [113.9373053, 22.5381794], [113.9372653, 22.5382068], [113.9372323, 22.5381657], [113.9371897, 22.5381127]]]]}}, {"type": "Feature", "id": "relation/10324032", "properties": {"tags": {"alt_name": "达实智能大厦", "building": "commercial", "maxheight": "200", "name": "达实大厦", "name:en": "Das Tower", "name:zh": "达实大厦", "name:zh-Hans": "达实大厦", "name:zh-Hant": "達實大廈"}, "heightStatus": "unknown", "source": "OpenStreetMap", "license": "ODbL-1.0"}, "geometry": {"type": "MultiPolygon", "coordinates": [[[[113.9365689, 22.5377549], [113.9367558, 22.5376272], [113.9371781, 22.5375929], [113.9372432, 22.5376742], [113.9373249, 22.5376183], [113.9376086, 22.5379718], [113.9375473, 22.5380138], [113.9375972, 22.5380762], [113.9376488, 22.5381405], [113.937726, 22.5382369], [113.9372277, 22.5385774], [113.9371521, 22.538483], [113.9366692, 22.5378802], [113.9365689, 22.5377549]]]]}}, {"type": "Feature", "id": "way/782886879", "properties": {"tags": {"building:levels": "7", "building:part": "yes"}, "heightStatus": "levels_only_unverified", "source": "OpenStreetMap", "license": "ODbL-1.0"}, "geometry": {"type": "MultiPolygon", "coordinates": [[[[113.9371521, 22.538483], [113.9376488, 22.5381405], [113.937726, 22.5382369], [113.9372277, 22.5385774], [113.9371521, 22.538483]]]]}}, {"type": "Feature", "id": "way/783261405", "properties": {"tags": {"building:colour": "#5c6d74", "building:levels": "6", "building:material": "glass", "building:part": "yes"}, "heightStatus": "levels_only_unverified", "source": "OpenStreetMap", "license": "ODbL-1.0"}, "geometry": {"type": "MultiPolygon", "coordinates": [[[[113.9300843, 22.5435968], [113.9300873, 22.5432596], [113.9301674, 22.5432602], [113.9301653, 22.5434895], [113.9301648, 22.5435415], [113.9303791, 22.5435432], [113.9303754, 22.5439551], [113.9302342, 22.543954], [113.9302361, 22.5437441], [113.9302374, 22.543598], [113.9300843, 22.5435968]]]]}}, {"type": "Feature", "id": "way/801959621", "properties": {"tags": {"addr:city": "深圳市", "addr:country": "CN", "addr:district": "南山区", "addr:housenumber": "18", "addr:neighbourhood": "麻岭社区", "addr:postcode": "518057", "addr:province": "广东省", "addr:street": "科研路", "addr:subdistrict": "粤海街道", "building": "office", "name": "招商银行金融电子研发中心", "name:en": "CMB Financial Electronic R&D Center", "name:zh": "招商银行金融电子研发中心", "name:zh-Hans": "招商银行金融电子研发中心", "name:zh-Hant": "招商銀行金融電子研發中心"}, "heightStatus": "unknown", "source": "OpenStreetMap", "license": "ODbL-1.0"}, "geometry": {"type": "MultiPolygon", "coordinates": [[[[113.928792, 22.5449713], [113.9287993, 22.5442801], [113.929046, 22.5442823], [113.9291123, 22.5442829], [113.9291814, 22.5442835], [113.9298664, 22.5442897], [113.9299275, 22.5442902], [113.9299198, 22.5450243], [113.929666, 22.545022], [113.9296708, 22.5445658], [113.9291785, 22.5445614], [113.929111, 22.5445608], [113.9290431, 22.5445601], [113.9290388, 22.5449736], [113.928792, 22.5449713]]]]}}, {"type": "Feature", "id": "way/801959622", "properties": {"tags": {"building:levels": "10", "building:material": "plastic", "building:part": "yes"}, "heightStatus": "levels_only_unverified", "source": "OpenStreetMap", "license": "ODbL-1.0"}, "geometry": {"type": "MultiPolygon", "coordinates": [[[[113.9291785, 22.5445614], [113.9291814, 22.5442835], [113.9298664, 22.5442897], [113.9298634, 22.5445675], [113.9296708, 22.5445658], [113.9291785, 22.5445614]]]]}}, {"type": "Feature", "id": "way/801959623", "properties": {"tags": {"building:levels": "3", "building:material": "plastic", "building:part": "yes"}, "heightStatus": "levels_only_unverified", "source": "OpenStreetMap", "license": "ODbL-1.0"}, "geometry": {"type": "MultiPolygon", "coordinates": [[[[113.929666, 22.545022], [113.9296708, 22.5445658], [113.9298634, 22.5445675], [113.9298664, 22.5442897], [113.9299275, 22.5442902], [113.9299198, 22.5450243], [113.929666, 22.545022]]]]}}, {"type": "Feature", "id": "way/801959624", "properties": {"tags": {"building:colour": "#5c6d74", "building:levels": "26", "building:material": "glass", "building:part": "yes", "height": "118", "roof:colour": "#dbcdbc"}, "heightStatus": "height_tag_unverified", "source": "OpenStreetMap", "license": "ODbL-1.0"}, "geometry": {"type": "MultiPolygon", "coordinates": [[[[113.9301653, 22.5434895], [113.9301674, 22.5432602], [113.9302444, 22.5432608], [113.9304834, 22.5432627], [113.9305727, 22.5434927], [113.9301653, 22.5434895]]]]}}, {"type": "Feature", "id": "way/801959625", "properties": {"tags": {"building:colour": "#5c6d74", "building:levels": "26", "building:material": "glass", "building:part": "yes", "height": "118", "roof:colour": "#dbcdbc"}, "heightStatus": "height_tag_unverified", "source": "OpenStreetMap", "license": "ODbL-1.0"}, "geometry": {"type": "MultiPolygon", "coordinates": [[[[113.9303754, 22.5439551], [113.9303791, 22.5435432], [113.9303793, 22.5435217], [113.9306211, 22.5435236], [113.9306204, 22.5436002], [113.9306171, 22.543957], [113.9303754, 22.5439551]]]]}}, {"type": "Feature", "id": "way/801959626", "properties": {"tags": {"building:colour": "#5c6d74", "building:levels": "20", "building:material": "glass", "building:part": "yes", "height": "90", "roof:colour": "#dbcdbc"}, "heightStatus": "height_tag_unverified", "source": "OpenStreetMap", "license": "ODbL-1.0"}, "geometry": {"type": "MultiPolygon", "coordinates": [[[[113.9301648, 22.5435415], [113.9301653, 22.5434895], [113.9305727, 22.5434927], [113.9304834, 22.5432627], [113.9306235, 22.5432638], [113.9306211, 22.5435236], [113.9303793, 22.5435217], [113.9303791, 22.5435432], [113.9301648, 22.5435415]]]]}}, {"type": "Feature", "id": "way/898510432", "properties": {"tags": {"addr:city": "深圳市", "addr:district": "南山区", "addr:housenumber": "1", "addr:province": "广东省", "addr:street": "科技中三路", "building": "commercial", "building:levels": "28", "building:material": "mirror", "height": "120", "name": "海王银河科技大厦"}, "heightStatus": "height_tag_unverified", "source": "OpenStreetMap", "license": "ODbL-1.0"}, "geometry": {"type": "MultiPolygon", "coordinates": [[[[113.936464, 22.543766], [113.9364731, 22.5434296], [113.9369262, 22.5434401], [113.9369171, 22.5437765], [113.936464, 22.543766]]]]}}, {"type": "Feature", "id": "way/925221226", "properties": {"tags": {"building": "commercial"}, "heightStatus": "unknown", "source": "OpenStreetMap", "license": "ODbL-1.0"}, "geometry": {"type": "MultiPolygon", "coordinates": [[[[113.931439, 22.5432854], [113.9321015, 22.5432403], [113.9320831, 22.543405], [113.9321191, 22.5435449], [113.9319825, 22.5435524], [113.931985, 22.5435859], [113.932013, 22.5435841], [113.9320253, 22.5437479], [113.9316305, 22.5437733], [113.9316183, 22.5436129], [113.9316428, 22.5436114], [113.93164, 22.5435744], [113.9314718, 22.543584], [113.9314841, 22.543431], [113.931439, 22.5432854]]]]}}, {"type": "Feature", "id": "way/925221227", "properties": {"tags": {"addr:city": "深圳市", "addr:country": "CN", "addr:district": "南山区", "addr:housenumber": "9996", "addr:neighbourhood": "麻岭社区", "addr:postcode": "518057", "addr:province": "广东省", "addr:street": "深南大道", "addr:subdistrict": "高新街道", "building": "office", "building:levels": "23", "building:material": "glass", "height": "99.4", "layer": "1", "name": "深圳李宁中心", "name:en": "Shenzhen Li-Ning Center", "name:zh": "深圳李宁中心", "old_name": "松日鼎盛大厦", "old_name:en": "Matsunichi Headquarters", "old_name:zh": "松日鼎盛大厦"}, "heightStatus": "height_tag_unverified", "source": "OpenStreetMap", "license": "ODbL-1.0"}, "geometry": {"type": "MultiPolygon", "coordinates": [[[[113.92761, 22.5441426], [113.927615, 22.5440198], [113.9277338, 22.5438262], [113.9277605, 22.5437828], [113.9277301, 22.5437829], [113.9276726, 22.5437091], [113.9277811, 22.5435533], [113.9278948, 22.5434765], [113.9280657, 22.5434788], [113.9282812, 22.5434816], [113.9283452, 22.5435478], [113.9283452, 22.5437574], [113.9282425, 22.54381], [113.9280639, 22.5438106], [113.928039, 22.5438107], [113.9280272, 22.5438279], [113.9278107, 22.5441426], [113.92761, 22.5441426]]]]}}, {"type": "Feature", "id": "way/938357240", "properties": {"tags": {"building": "construction", "name": "艺术综合楼"}, "heightStatus": "unknown", "source": "OpenStreetMap", "license": "ODbL-1.0"}, "geometry": {"type": "MultiPolygon", "coordinates": [[[[113.9316638, 22.5415988], [113.9316776, 22.5409084], [113.932963, 22.5409304], [113.9329493, 22.5416205], [113.9316638, 22.5415988]]]]}}, {"type": "Feature", "id": "way/952263254", "properties": {"tags": {"addr:housename": "帝景园", "addr:housename:en": "Dijing Garden", "addr:housename:zh": "帝景园", "building": "apartments", "name": "一期C栋", "name:en": "Phase 1 Block C", "name:zh": "一期C栋"}, "heightStatus": "unknown", "source": "OpenStreetMap", "license": "ODbL-1.0"}, "geometry": {"type": "MultiPolygon", "coordinates": [[[[113.9310734, 22.5447215], [113.9315846, 22.5447119], [113.931587, 22.5448227], [113.9310759, 22.5448324], [113.9310734, 22.5447215]]]]}}, {"type": "Feature", "id": "way/952263255", "properties": {"tags": {"addr:housename": "帝景园", "addr:housename:en": "Dijing Garden", "addr:housename:zh": "帝景园", "building": "apartments", "name": "一期B栋", "name:en": "Phase 1 Block B", "name:zh": "一期B栋"}, "heightStatus": "unknown", "source": "OpenStreetMap", "license": "ODbL-1.0"}, "geometry": {"type": "MultiPolygon", "coordinates": [[[[113.9310602, 22.544462], [113.9315714, 22.5444525], [113.9315738, 22.5445632], [113.9310627, 22.5445729], [113.9310602, 22.544462]]]]}}, {"type": "Feature", "id": "way/952263256", "properties": {"tags": {"addr:housename": "帝景园", "addr:housename:en": "Dijing Garden", "addr:housename:zh": "帝景园", "building": "apartments", "name": "一期A栋", "name:en": "Phase 1 Block A", "name:zh": "一期A栋"}, "heightStatus": "unknown", "source": "OpenStreetMap", "license": "ODbL-1.0"}, "geometry": {"type": "MultiPolygon", "coordinates": [[[[113.9310593, 22.5441996], [113.9315714, 22.5441895], [113.9315736, 22.5442861], [113.9310615, 22.5442961], [113.9310593, 22.5441996]]]]}}, {"type": "Feature", "id": "way/952263257", "properties": {"tags": {"addr:housename": "帝景园", "addr:housename:en": "Dijing Garden", "addr:housename:zh": "帝景园", "building": "apartments", "name": "E栋", "name:en": "Block E", "name:zh": "E栋"}, "heightStatus": "unknown", "source": "OpenStreetMap", "license": "ODbL-1.0"}, "geometry": {"type": "MultiPolygon", "coordinates": [[[[113.9317121, 22.5444278], [113.932219, 22.5444168], [113.9322217, 22.5445251], [113.9317149, 22.5445362], [113.9317121, 22.5444278]]]]}}, {"type": "Feature", "id": "way/952263258", "properties": {"tags": {"addr:housename": "帝景园", "addr:housename:en": "Dijing Garden", "addr:housename:zh": "帝景园", "building": "apartments", "name": "一期F栋", "name:en": "Phase 1 Block F", "name:zh": "一期F栋"}, "heightStatus": "unknown", "source": "OpenStreetMap", "license": "ODbL-1.0"}, "geometry": {"type": "MultiPolygon", "coordinates": [[[[113.9317057, 22.5441735], [113.9322126, 22.5441625], [113.9322153, 22.5442708], [113.9317085, 22.5442819], [113.9317057, 22.5441735]]]]}}, {"type": "Feature", "id": "way/971088918", "properties": {"tags": {"building": "dormitory", "name": "新斋", "name:zh": "新斋", "name:zh-Hans": "新斋", "name:zh-Hant": "新齋"}, "heightStatus": "unknown", "source": "OpenStreetMap", "license": "ODbL-1.0"}, "geometry": {"type": "MultiPolygon", "coordinates": [[[[113.9340546, 22.5371162], [113.9341504, 22.5366717], [113.9341314, 22.5365393], [113.9346113, 22.5364839], [113.9346348, 22.5366667], [113.934347, 22.5366985], [113.934291, 22.5369651], [113.9351327, 22.5371166], [113.9355345, 22.5376444], [113.9353812, 22.5377629], [113.9350216, 22.5372944], [113.9340546, 22.5371162]]]]}}, {"type": "Feature", "id": "way/971088922", "properties": {"tags": {"amenity": "restaurant", "building": "yes", "cuisine": "chinese", "name": "荔天餐厅", "name:zh": "荔天餐厅", "name:zh-Hans": "荔天餐厅", "name:zh-Hant": "荔天餐廳"}, "heightStatus": "unknown", "source": "OpenStreetMap", "license": "ODbL-1.0"}, "geometry": {"type": "MultiPolygon", "coordinates": [[[[113.9331219, 22.5367081], [113.9331905, 22.536393], [113.9339652, 22.5365357], [113.9339029, 22.5368488], [113.9331219, 22.5367081]]]]}}, {"type": "Feature", "id": "way/976048326", "properties": {"tags": {"building": "university", "name": "校友广场", "name:zh": "校友广场", "name:zh-Hans": "校友广场", "name:zh-Hant": "校友廣場"}, "heightStatus": "unknown", "source": "OpenStreetMap", "license": "ODbL-1.0"}, "geometry": {"type": "MultiPolygon", "coordinates": [[[[113.933026, 22.5378928], [113.9331822, 22.5373802], [113.9339134, 22.5375315], [113.9337618, 22.5380697], [113.933026, 22.5378928]]]]}}, {"type": "Feature", "id": "way/1051977921", "properties": {"tags": {"building": "commercial", "name": "枫信科技中心"}, "heightStatus": "unknown", "source": "OpenStreetMap", "license": "ODbL-1.0"}, "geometry": {"type": "MultiPolygon", "coordinates": [[[[113.9337979, 22.5442069], [113.9338003, 22.5439674], [113.934476, 22.5439732], [113.9344736, 22.5442127], [113.9337979, 22.5442069]]]]}}, {"type": "Feature", "id": "way/1081134193", "properties": {"tags": {"building": "grandstand"}, "heightStatus": "unknown", "source": "OpenStreetMap", "license": "ODbL-1.0"}, "geometry": {"type": "MultiPolygon", "coordinates": [[[[113.9337958, 22.5407026], [113.9338041, 22.5403147], [113.9339459, 22.5403182], [113.9339353, 22.5407035], [113.9337958, 22.5407026]]]]}}, {"type": "Feature", "id": "way/1081134194", "properties": {"tags": {"building": "university", "name": "汇意楼"}, "heightStatus": "unknown", "source": "OpenStreetMap", "license": "ODbL-1.0"}, "geometry": {"type": "MultiPolygon", "coordinates": [[[[113.9334862, 22.5416273], [113.933489, 22.5414867], [113.9337331, 22.5414908], [113.9337354, 22.5413758], [113.9334893, 22.5413716], [113.9334951, 22.5410806], [113.9340134, 22.5410895], [113.9340107, 22.5412256], [113.9337545, 22.5412212], [113.9337521, 22.5413394], [113.9340984, 22.5413453], [113.9340926, 22.5416375], [113.9334862, 22.5416273]]]]}}, {"type": "Feature", "id": "way/1081134209", "properties": {"tags": {"building": "yes"}, "heightStatus": "unknown", "source": "OpenStreetMap", "license": "ODbL-1.0"}, "geometry": {"type": "MultiPolygon", "coordinates": [[[[113.9347642, 22.5443787], [113.9347667, 22.5441537], [113.9348187, 22.5441542], [113.9348191, 22.5441153], [113.9348639, 22.5441157], [113.9348763, 22.5440918], [113.9349466, 22.5440928], [113.9349735, 22.5441157], [113.9350121, 22.5441163], [113.9350113, 22.5441648], [113.9354678, 22.5441716], [113.935464, 22.5443891], [113.9354001, 22.5443881], [113.935399, 22.5444485], [113.9353548, 22.5444478], [113.9353445, 22.544465], [113.935269, 22.5444622], [113.9352628, 22.5444478], [113.9352137, 22.5444474], [113.9352144, 22.5443828], [113.9347642, 22.5443787]]]]}}, {"type": "Feature", "id": "way/1081134210", "properties": {"tags": {"building": "yes"}, "heightStatus": "unknown", "source": "OpenStreetMap", "license": "ODbL-1.0"}, "geometry": {"type": "MultiPolygon", "coordinates": [[[[113.9356145, 22.5444079], [113.9356169, 22.544183], [113.935669, 22.5441835], [113.9356694, 22.5441445], [113.9357142, 22.544145], [113.9357266, 22.5441211], [113.9357968, 22.5441221], [113.9358237, 22.544145], [113.9358623, 22.5441455], [113.9358615, 22.5441941], [113.936318, 22.5442008], [113.9363142, 22.5444183], [113.9362503, 22.5444174], [113.9362492, 22.5444778], [113.936205, 22.5444771], [113.9361947, 22.5444943], [113.9361193, 22.5444914], [113.9361131, 22.5444771], [113.9360639, 22.5444766], [113.9360646, 22.5444121], [113.9356145, 22.5444079]]]]}}, {"type": "Feature", "id": "way/1081134211", "properties": {"tags": {"building": "yes"}, "heightStatus": "unknown", "source": "OpenStreetMap", "license": "ODbL-1.0"}, "geometry": {"type": "MultiPolygon", "coordinates": [[[[113.9363935, 22.544436], [113.9363959, 22.5442111], [113.936448, 22.5442116], [113.9364484, 22.5441727], [113.9364932, 22.5441731], [113.9365056, 22.5441492], [113.9365759, 22.5441502], [113.9366027, 22.5441731], [113.9366414, 22.5441737], [113.9366405, 22.5442222], [113.937097, 22.544229], [113.9370932, 22.5444464], [113.9370293, 22.5444455], [113.9370283, 22.5445059], [113.9369841, 22.5445052], [113.9369737, 22.5445224], [113.9368983, 22.5445195], [113.9368921, 22.5445052], [113.9368429, 22.5445048], [113.9368436, 22.5444402], [113.9363935, 22.544436]]]]}}, {"type": "Feature", "id": "way/1081134213", "properties": {"tags": {"building": "yes"}, "heightStatus": "unknown", "source": "OpenStreetMap", "license": "ODbL-1.0"}, "geometry": {"type": "MultiPolygon", "coordinates": [[[[113.9356001, 22.5451322], [113.9356038, 22.5449708], [113.9357399, 22.5449735], [113.9357476, 22.5446358], [113.93611, 22.5446428], [113.9361068, 22.5447811], [113.935901, 22.5447771], [113.9358966, 22.5449697], [113.9360939, 22.5449736], [113.93609, 22.5451419], [113.9356001, 22.5451322]]]]}}, {"type": "Feature", "id": "way/1085792762", "properties": {"tags": {"building": "university", "name": "汇研楼"}, "heightStatus": "unknown", "source": "OpenStreetMap", "license": "ODbL-1.0"}, "geometry": {"type": "MultiPolygon", "coordinates": [[[[113.9367432, 22.5400658], [113.9368663, 22.5396707], [113.9368638, 22.5393327], [113.9370268, 22.5392268], [113.9368387, 22.5390173], [113.9369603, 22.538927], [113.937779, 22.5399392], [113.9376816, 22.5399896], [113.9376438, 22.5401541], [113.9373663, 22.5400991], [113.9373288, 22.540213], [113.9367432, 22.5400658]]]]}}, {"type": "Feature", "id": "way/1184795514", "properties": {"tags": {"building:colour": "#a1b4c3", "building:levels": "4", "building:material": "glass", "building:part": "yes"}, "heightStatus": "levels_only_unverified", "source": "OpenStreetMap", "license": "ODbL-1.0"}, "geometry": {"type": "MultiPolygon", "coordinates": [[[[113.9285675, 22.5439477], [113.9285701, 22.543739], [113.9288172, 22.5437416], [113.9288146, 22.5439503], [113.9285675, 22.5439477]]]]}}, {"type": "Feature", "id": "way/1207358023", "properties": {"tags": {"building": "construction"}, "heightStatus": "unknown", "source": "OpenStreetMap", "license": "ODbL-1.0"}, "geometry": {"type": "MultiPolygon", "coordinates": [[[[113.9330891, 22.5416232], [113.9330952, 22.541075], [113.9333377, 22.5410773], [113.9334951, 22.5410806], [113.9334893, 22.5413716], [113.933489, 22.5414867], [113.9334862, 22.5416273], [113.9333316, 22.5416254], [113.9330891, 22.5416232]]]]}}, {"type": "Feature", "id": "way/1258728382", "properties": {"tags": {"addr:housename": "帝景园", "addr:housename:en": "Dijing Garden", "addr:housename:zh": "帝景园", "building": "apartments", "name": "二期EF栋", "name:en": "Phase 2 Block EF", "name:zh": "二期EF栋"}, "heightStatus": "unknown", "source": "OpenStreetMap", "license": "ODbL-1.0"}, "geometry": {"type": "MultiPolygon", "coordinates": [[[[113.9323444, 22.5447818], [113.9323452, 22.5447301], [113.9328843, 22.5447375], [113.9328835, 22.5447892], [113.932864, 22.5447889], [113.9328634, 22.544832], [113.9323631, 22.5448251], [113.9323638, 22.544782], [113.9323444, 22.5447818]]]]}}, {"type": "Feature", "id": "way/1258728390", "properties": {"tags": {"building": "kindergarten"}, "heightStatus": "unknown", "source": "OpenStreetMap", "license": "ODbL-1.0"}, "geometry": {"type": "MultiPolygon", "coordinates": [[[[113.9318043, 22.5448586], [113.9319757, 22.5448496], [113.9319741, 22.5448223], [113.9319775, 22.5448034], [113.9319896, 22.5447877], [113.9320078, 22.5447784], [113.9320285, 22.5447773], [113.9320477, 22.5447847], [113.9320616, 22.544799], [113.9320674, 22.5448175], [113.9320691, 22.5448447], [113.9322296, 22.5448363], [113.9322355, 22.5449318], [113.9321356, 22.5449371], [113.9321386, 22.5449843], [113.9320906, 22.5449869], [113.9320956, 22.5450693], [113.9320427, 22.5450721], [113.932045, 22.5451095], [113.9318205, 22.5451213], [113.9318043, 22.5448586]]]]}}, {"type": "Feature", "id": "way/1258728392", "properties": {"tags": {"addr:housename": "帝景园", "addr:housename:en": "Dijing Garden", "addr:housename:zh": "帝景园", "building": "apartments", "name": "二期B栋", "name:en": "Phase 2 Block B", "name:zh": "二期B栋"}, "heightStatus": "unknown", "source": "OpenStreetMap", "license": "ODbL-1.0"}, "geometry": {"type": "MultiPolygon", "coordinates": [[[[113.9323886, 22.5442189], [113.9323894, 22.5441447], [113.9324465, 22.5441452], [113.9324468, 22.5441078], [113.9324084, 22.5441075], [113.9324088, 22.5440673], [113.9324239, 22.5440674], [113.9324243, 22.5440296], [113.9325813, 22.5440309], [113.9325802, 22.5441463], [113.932652, 22.5441469], [113.9326513, 22.5442211], [113.9323886, 22.5442189]]]]}}, {"type": "Feature", "id": "way/1258728393", "properties": {"tags": {"addr:housename": "帝景园", "addr:housename:en": "Dijing Garden", "addr:housename:zh": "帝景园", "building": "apartments", "name": "二期C栋", "name:en": "Phase 2 Block C", "name:zh": "二期C栋"}, "heightStatus": "unknown", "source": "OpenStreetMap", "license": "ODbL-1.0"}, "geometry": {"type": "MultiPolygon", "coordinates": [[[[113.9329451, 22.5444186], [113.9329459, 22.5443444], [113.933003, 22.5443448], [113.9330033, 22.5443075], [113.9329649, 22.5443072], [113.9329653, 22.5442669], [113.9329804, 22.544267], [113.9329808, 22.5442292], [113.9331378, 22.5442305], [113.9331367, 22.544346], [113.9332086, 22.5443466], [113.9332078, 22.5444207], [113.9329451, 22.5444186]]]]}}, {"type": "Feature", "id": "way/1258728394", "properties": {"tags": {"building": "yes"}, "heightStatus": "unknown", "source": "OpenStreetMap", "license": "ODbL-1.0"}, "geometry": {"type": "MultiPolygon", "coordinates": [[[[113.9328683, 22.5435275], [113.9329512, 22.5434605], [113.9332679, 22.5437952], [113.933185, 22.5438621], [113.9328683, 22.5435275]]]]}}, {"type": "Feature", "id": "way/1258728395", "properties": {"tags": {"building": "yes"}, "heightStatus": "unknown", "source": "OpenStreetMap", "license": "ODbL-1.0"}, "geometry": {"type": "MultiPolygon", "coordinates": [[[[113.9329878, 22.5434564], [113.9330648, 22.5433962], [113.9332429, 22.5435904], [113.9331659, 22.5436506], [113.9329878, 22.5434564]]]]}}, {"type": "Feature", "id": "way/1258728396", "properties": {"tags": {"building": "yes"}, "heightStatus": "unknown", "source": "OpenStreetMap", "license": "ODbL-1.0"}, "geometry": {"type": "MultiPolygon", "coordinates": [[[[113.932975, 22.5449021], [113.9329793, 22.5446253], [113.9330886, 22.5446267], [113.9330901, 22.5445272], [113.9334802, 22.5445323], [113.9334786, 22.5446366], [113.9332077, 22.544633], [113.9332035, 22.5449051], [113.932975, 22.5449021]]]]}}, {"type": "Feature", "id": "way/1271852286", "properties": {"tags": {"building": "university", "name": "吴玉章楼"}, "heightStatus": "unknown", "source": "OpenStreetMap", "license": "ODbL-1.0"}, "geometry": {"type": "MultiPolygon", "coordinates": [[[[113.9308753, 22.5408759], [113.9311526, 22.5406862], [113.9313595, 22.540952], [113.9310893, 22.5411462], [113.9308753, 22.5408759]]]]}}, {"type": "Feature", "id": "way/1271852287", "properties": {"tags": {"building": "university", "name": "汇语楼"}, "heightStatus": "unknown", "source": "OpenStreetMap", "license": "ODbL-1.0"}, "geometry": {"type": "MultiPolygon", "coordinates": [[[[113.9303323, 22.541541], [113.9305385, 22.5415428], [113.9305385, 22.5412203], [113.9307079, 22.5412203], [113.9307069, 22.5416954], [113.9303334, 22.5417004], [113.9303323, 22.541541]]]]}}, {"type": "Feature", "id": "way/1276361929", "properties": {"tags": {"building": "yes"}, "heightStatus": "unknown", "source": "OpenStreetMap", "license": "ODbL-1.0"}, "geometry": {"type": "MultiPolygon", "coordinates": [[[[113.9337924, 22.5446175], [113.9337948, 22.544378], [113.9344705, 22.5443838], [113.9344681, 22.5446233], [113.9337924, 22.5446175]]]]}}, {"type": "Feature", "id": "way/1287921016", "properties": {"tags": {"building": "apartments", "name": "2B座"}, "heightStatus": "unknown", "source": "OpenStreetMap", "license": "ODbL-1.0"}, "geometry": {"type": "MultiPolygon", "coordinates": [[[[113.9356203, 22.5366963], [113.9357217, 22.5366173], [113.9359039, 22.5368163], [113.9357978, 22.5368953], [113.9357597, 22.5368484], [113.9357344, 22.5368689], [113.9356473, 22.5367753], [113.9356695, 22.5367534], [113.9356203, 22.5366963]]]]}}, {"type": "Feature", "id": "way/1287921017", "properties": {"tags": {"building": "apartments", "name": "2C座"}, "heightStatus": "unknown", "source": "OpenStreetMap", "license": "ODbL-1.0"}, "geometry": {"type": "MultiPolygon", "coordinates": [[[[113.9354263, 22.5364842], [113.9355245, 22.5364008], [113.9357217, 22.5366173], [113.9356203, 22.5366963], [113.9355625, 22.5366319], [113.9355372, 22.5366524], [113.9354501, 22.5365588], [113.9354723, 22.5365369], [113.9354263, 22.5364842]]]]}}, {"type": "Feature", "id": "way/1287921019", "properties": {"tags": {"building": "apartments", "name": "2D座"}, "heightStatus": "unknown", "source": "OpenStreetMap", "license": "ODbL-1.0"}, "geometry": {"type": "MultiPolygon", "coordinates": [[[[113.9351655, 22.5362072], [113.9352383, 22.5361604], [113.9352779, 22.5362006], [113.9353387, 22.536163], [113.9353413, 22.5361223], [113.9354379, 22.5361238], [113.9354347, 22.5362642], [113.9353809, 22.5362628], [113.9353429, 22.5362906], [113.9353793, 22.536333], [113.9353238, 22.5363783], [113.9351655, 22.5362072]]]]}}, {"type": "Feature", "id": "way/1433570140", "properties": {"tags": {"addr:housename": "帝景园", "addr:housename:en": "Dijing Garden", "addr:housename:zh": "帝景园", "building": "apartments", "name": "二期D栋", "name:en": "Phase 2 Block D", "name:zh": "二期D栋"}, "heightStatus": "unknown", "source": "OpenStreetMap", "license": "ODbL-1.0"}, "geometry": {"type": "MultiPolygon", "coordinates": [[[[113.9332078, 22.5444207], [113.9332086, 22.5443466], [113.9332804, 22.5443472], [113.9332816, 22.5442317], [113.9334386, 22.5442331], [113.9334382, 22.5442708], [113.9334533, 22.544271], [113.9334529, 22.5443112], [113.9334145, 22.5443109], [113.9334141, 22.5443483], [113.9334712, 22.5443487], [113.9334705, 22.5444229], [113.9332078, 22.5444207]]]]}}, {"type": "Feature", "id": "way/1433570141", "properties": {"tags": {"addr:housename": "帝景园", "addr:housename:en": "Dijing Garden", "addr:housename:zh": "帝景园", "building": "apartments", "name": "二期A栋", "name:en": "Phase 2 Block A", "name:zh": "二期A栋"}, "heightStatus": "unknown", "source": "OpenStreetMap", "license": "ODbL-1.0"}, "geometry": {"type": "MultiPolygon", "coordinates": [[[[113.9326513, 22.5442211], [113.932652, 22.5441469], [113.9327239, 22.5441475], [113.9327251, 22.5440321], [113.9328821, 22.5440334], [113.9328817, 22.5440712], [113.9328968, 22.5440713], [113.9328964, 22.5441116], [113.932858, 22.5441113], [113.9328576, 22.5441486], [113.9329147, 22.5441491], [113.932914, 22.5442233], [113.9326513, 22.5442211]]]]}}, {"type": "Feature", "id": "way/1455957244", "properties": {"tags": {"building": "yes", "building:levels": "5", "name": "深圳大学建筑设计研究院"}, "heightStatus": "levels_only_unverified", "source": "OpenStreetMap", "license": "ODbL-1.0"}, "geometry": {"type": "MultiPolygon", "coordinates": [[[[113.9330891, 22.5416232], [113.9330952, 22.541075], [113.9333377, 22.5410773], [113.9333316, 22.5416254], [113.9330891, 22.5416232]]]]}}, {"type": "Feature", "id": "way/1455962776", "properties": {"tags": {"building": "yes", "building:levels": "1", "name": "深圳大学演会中心"}, "heightStatus": "levels_only_unverified", "source": "OpenStreetMap", "license": "ODbL-1.0"}, "geometry": {"type": "MultiPolygon", "coordinates": [[[[113.9289686, 22.5367123], [113.9290298, 22.5364339], [113.9290637, 22.5364403], [113.9290733, 22.5363965], [113.9291139, 22.5364041], [113.9291222, 22.5363664], [113.9291573, 22.536373], [113.9291639, 22.536343], [113.9295515, 22.5364156], [113.9295426, 22.5364559], [113.9295821, 22.5364633], [113.9295711, 22.5365138], [113.9296119, 22.5365214], [113.9296036, 22.5365592], [113.9296361, 22.5365653], [113.929578, 22.5368308], [113.9295419, 22.536824], [113.9295338, 22.5368609], [113.9294958, 22.5368538], [113.929488, 22.5368898], [113.9294493, 22.5368826], [113.9294426, 22.5369132], [113.9290649, 22.5368424], [113.929073, 22.5368057], [113.929027, 22.5367971], [113.929034, 22.5367653], [113.9289965, 22.5367583], [113.9290052, 22.5367191], [113.9289686, 22.5367123]]]]}}]}