{"type": "FeatureCollection", "features": [{"type": "Feature", "id": "way/694549101", "properties": {"tags": {"addr:housename": "百旺研发大厦", "addr:housename:en": "Baiwang R&D Building", "addr:housename:zh": "百旺研发大厦", "building": "apartments", "name": "1栋", "name:en": "Block 1", "name:zh": "1栋"}, "heightStatus": "unknown", "source": "OpenStreetMap", "license": "ODbL-1.0"}, "geometry": {"type": "MultiPolygon", "coordinates": [[[[113.9346522, 22.6257615], [113.9346768, 22.6255727], [113.9351951, 22.6256301], [113.9351706, 22.6258189], [113.9346522, 22.6257615]]]]}}, {"type": "Feature", "id": "way/694549109", "properties": {"tags": {"building": "house"}, "heightStatus": "unknown", "source": "OpenStreetMap", "license": "ODbL-1.0"}, "geometry": {"type": "MultiPolygon", "coordinates": [[[[113.9362686, 22.6257748], [113.9363961, 22.6257278], [113.9364203, 22.6257839], [113.9364486, 22.6258493], [113.9363211, 22.6258963], [113.9362892, 22.6258257], [113.9362686, 22.6257748]]]]}}, {"type": "Feature", "id": "way/694549110", "properties": {"tags": {"building": "house"}, "heightStatus": "unknown", "source": "OpenStreetMap", "license": "ODbL-1.0"}, "geometry": {"type": "MultiPolygon", "coordinates": [[[[113.9363952, 22.6256845], [113.9364629, 22.6255894], [113.9365354, 22.6256333], [113.9364676, 22.6257285], [113.9364178, 22.625699], [113.9363952, 22.6256845]]]]}}, {"type": "Feature", "id": "way/695761817", "properties": {"tags": {"building": "house"}, "heightStatus": "unknown", "source": "OpenStreetMap", "license": "ODbL-1.0"}, "geometry": {"type": "MultiPolygon", "coordinates": [[[[113.9364792, 22.625575], [113.9365475, 22.625494], [113.9366277, 22.6255428], [113.9365576, 22.6256271], [113.9364792, 22.625575]]]]}}, {"type": "Feature", "id": "way/695761818", "properties": {"tags": {"building": "house"}, "heightStatus": "unknown", "source": "OpenStreetMap", "license": "ODbL-1.0"}, "geometry": {"type": "MultiPolygon", "coordinates": [[[[113.9365544, 22.6254879], [113.9366136, 22.6254035], [113.93671, 22.6254612], [113.9366507, 22.6255455], [113.9365544, 22.6254879]]]]}}, {"type": "Feature", "id": "way/695761819", "properties": {"tags": {"building": "house"}, "heightStatus": "unknown", "source": "OpenStreetMap", "license": "ODbL-1.0"}, "geometry": {"type": "MultiPolygon", "coordinates": [[[[113.9365937, 22.6253815], [113.9366392, 22.625315], [113.9367599, 22.6253853], [113.9367143, 22.6254519], [113.9365937, 22.6253815]]]]}}, {"type": "Feature", "id": "way/695761820", "properties": {"tags": {"building": "house"}, "heightStatus": "unknown", "source": "OpenStreetMap", "license": "ODbL-1.0"}, "geometry": {"type": "MultiPolygon", "coordinates": [[[[113.9366509, 22.6256601], [113.9367048, 22.6256103], [113.9366512, 22.6255609], [113.936676, 22.625538], [113.9367686, 22.625579], [113.9368194, 22.6256258], [113.9367166, 22.6257207], [113.9366509, 22.6256601]]]]}}, {"type": "Feature", "id": "way/695761821", "properties": {"tags": {"building": "house"}, "heightStatus": "unknown", "source": "OpenStreetMap", "license": "ODbL-1.0"}, "geometry": {"type": "MultiPolygon", "coordinates": [[[[113.9366769, 22.6255301], [113.9367247, 22.6254462], [113.9367879, 22.6254769], [113.9367575, 22.6255302], [113.9367973, 22.6255496], [113.9367799, 22.6255802], [113.9366769, 22.6255301]]]]}}, {"type": "Feature", "id": "way/695761822", "properties": {"tags": {"building": "house"}, "heightStatus": "unknown", "source": "OpenStreetMap", "license": "ODbL-1.0"}, "geometry": {"type": "MultiPolygon", "coordinates": [[[[113.9367852, 22.6255186], [113.936827, 22.6254432], [113.9369056, 22.6254804], [113.9368501, 22.6255803], [113.9368044, 22.6255587], [113.9368181, 22.6255341], [113.9367852, 22.6255186]]]]}}, {"type": "Feature", "id": "way/695761823", "properties": {"tags": {"building": "house"}, "heightStatus": "unknown", "source": "OpenStreetMap", "license": "ODbL-1.0"}, "geometry": {"type": "MultiPolygon", "coordinates": [[[[113.9365543, 22.6257881], [113.9367256, 22.6257334], [113.9367708, 22.625854], [113.9365996, 22.6259087], [113.9365543, 22.6257881]]]]}}, {"type": "Feature", "id": "way/695761834", "properties": {"tags": {"building": "house"}, "heightStatus": "unknown", "source": "OpenStreetMap", "license": "ODbL-1.0"}, "geometry": {"type": "MultiPolygon", "coordinates": [[[[113.9371726, 22.6257735], [113.9372078, 22.6256579], [113.9372975, 22.6256812], [113.9372623, 22.6257968], [113.9371726, 22.6257735]]]]}}, {"type": "Feature", "id": "way/695761835", "properties": {"tags": {"building": "house"}, "heightStatus": "unknown", "source": "OpenStreetMap", "license": "ODbL-1.0"}, "geometry": {"type": "MultiPolygon", "coordinates": [[[[113.9373105, 22.6258478], [113.9373836, 22.6257465], [113.9374916, 22.6258129], [113.9374185, 22.6259142], [113.9373105, 22.6258478]]]]}}, {"type": "Feature", "id": "way/695761836", "properties": {"tags": {"building": "house"}, "heightStatus": "unknown", "source": "OpenStreetMap", "license": "ODbL-1.0"}, "geometry": {"type": "MultiPolygon", "coordinates": [[[[113.9369106, 22.625796], [113.9369602, 22.6257116], [113.9370557, 22.6257593], [113.9369971, 22.6258591], [113.9369334, 22.6258272], [113.9369424, 22.6258119], [113.9369106, 22.625796]]]]}}, {"type": "Feature", "id": "way/695761837", "properties": {"tags": {"building": "house"}, "heightStatus": "unknown", "source": "OpenStreetMap", "license": "ODbL-1.0"}, "geometry": {"type": "MultiPolygon", "coordinates": [[[[113.9367892, 22.6256899], [113.9368417, 22.6256443], [113.9368737, 22.6256756], [113.9368837, 22.625667], [113.9369208, 22.6257033], [113.9368583, 22.6257576], [113.9367892, 22.6256899]]]]}}, {"type": "Feature", "id": "way/695761838", "properties": {"tags": {"building": "house"}, "heightStatus": "unknown", "source": "OpenStreetMap", "license": "ODbL-1.0"}, "geometry": {"type": "MultiPolygon", "coordinates": [[[[113.9368549, 22.6256288], [113.9368979, 22.6255663], [113.9369175, 22.6255751], [113.93699, 22.6256124], [113.9369444, 22.6256805], [113.9368549, 22.6256288]]]]}}, {"type": "Feature", "id": "way/695761839", "properties": {"tags": {"building": "house"}, "heightStatus": "unknown", "source": "OpenStreetMap", "license": "ODbL-1.0"}, "geometry": {"type": "MultiPolygon", "coordinates": [[[[113.9369175, 22.6255751], [113.9369619, 22.6255017], [113.9370343, 22.625539], [113.93699, 22.6256124], [113.9369175, 22.6255751]]]]}}, {"type": "Feature", "id": "way/695761840", "properties": {"tags": {"building": "house"}, "heightStatus": "unknown", "source": "OpenStreetMap", "license": "ODbL-1.0"}, "geometry": {"type": "MultiPolygon", "coordinates": [[[[113.9370015, 22.6256945], [113.9370493, 22.625619], [113.93711, 22.6256519], [113.9370622, 22.6257273], [113.9370015, 22.6256945]]]]}}, {"type": "Feature", "id": "way/695761843", "properties": {"tags": {"building": "house"}, "heightStatus": "unknown", "source": "OpenStreetMap", "license": "ODbL-1.0"}, "geometry": {"type": "MultiPolygon", "coordinates": [[[[113.9367615, 22.625781], [113.9368128, 22.6257626], [113.9368206, 22.6257811], [113.9368569, 22.6257681], [113.9368931, 22.625854], [113.9368594, 22.6258661], [113.9368493, 22.625842], [113.9367952, 22.6258613], [113.9367615, 22.625781]]]]}}, {"type": "Feature", "id": "way/695761845", "properties": {"tags": {"building": "yes", "shop": "yes"}, "heightStatus": "unknown", "source": "OpenStreetMap", "license": "ODbL-1.0"}, "geometry": {"type": "MultiPolygon", "coordinates": [[[[113.9363961, 22.6257278], [113.9364178, 22.625699], [113.9364676, 22.6257285], [113.9364786, 22.6257651], [113.9364203, 22.6257839], [113.9363961, 22.6257278]]]]}}, {"type": "Feature", "id": "way/695761847", "properties": {"tags": {"building": "house"}, "heightStatus": "unknown", "source": "OpenStreetMap", "license": "ODbL-1.0"}, "geometry": {"type": "MultiPolygon", "coordinates": [[[[113.9364985, 22.6257274], [113.9365988, 22.6256928], [113.9366247, 22.6257567], [113.9365244, 22.6257912], [113.9364985, 22.6257274]]]]}}, {"type": "Feature", "id": "way/695761850", "properties": {"tags": {"building": "house"}, "heightStatus": "unknown", "source": "OpenStreetMap", "license": "ODbL-1.0"}, "geometry": {"type": "MultiPolygon", "coordinates": [[[[113.9353667, 22.6258278], [113.935402, 22.6257469], [113.9354159, 22.625715], [113.9354849, 22.6257407], [113.9354819, 22.6257477], [113.9354895, 22.6257506], [113.9354726, 22.6257893], [113.9354616, 22.6257853], [113.9354514, 22.6258088], [113.9354631, 22.6258131], [113.9354474, 22.6258489], [113.9354403, 22.6258463], [113.935437, 22.6258539], [113.9353667, 22.6258278]]]]}}, {"type": "Feature", "id": "way/695761851", "properties": {"tags": {"building": "house"}, "heightStatus": "unknown", "source": "OpenStreetMap", "license": "ODbL-1.0"}, "geometry": {"type": "MultiPolygon", "coordinates": [[[[113.935327, 22.625684], [113.9353568, 22.6256189], [113.9355337, 22.6256878], [113.9355054, 22.6257497], [113.9354849, 22.6257407], [113.9354159, 22.625715], [113.935402, 22.6257469], [113.9353587, 22.62573], [113.9353718, 22.6257015], [113.935327, 22.625684]]]]}}, {"type": "Feature", "id": "way/695761854", "properties": {"tags": {"building": "house"}, "heightStatus": "unknown", "source": "OpenStreetMap", "license": "ODbL-1.0"}, "geometry": {"type": "MultiPolygon", "coordinates": [[[[113.9356032, 22.6257944], [113.9356233, 22.6257628], [113.9356824, 22.6257429], [113.9357289, 22.6257667], [113.9357514, 22.6257459], [113.935807, 22.6257972], [113.9358205, 22.6257847], [113.9358517, 22.6258135], [113.9358022, 22.6258592], [113.9357572, 22.6258177], [113.9357354, 22.6258378], [113.9356827, 22.6257891], [113.935643, 22.6258258], [113.9356032, 22.6257944]]]]}}, {"type": "Feature", "id": "way/697153289", "properties": {"tags": {"building": "apartments"}, "heightStatus": "unknown", "source": "OpenStreetMap", "license": "ODbL-1.0"}, "geometry": {"type": "MultiPolygon", "coordinates": [[[[113.937222, 22.6251968], [113.93736, 22.6250645], [113.9374646, 22.6251575], [113.9373266, 22.6252898], [113.937222, 22.6251968]]]]}}, {"type": "Feature", "id": "way/697153290", "properties": {"tags": {"building": "apartments"}, "heightStatus": "unknown", "source": "OpenStreetMap", "license": "ODbL-1.0"}, "geometry": {"type": "MultiPolygon", "coordinates": [[[[113.9373696, 22.6250571], [113.9374559, 22.6249756], [113.9375593, 22.6250688], [113.937473, 22.6251504], [113.9373696, 22.6250571]]]]}}, {"type": "Feature", "id": "way/1423906353", "properties": {"tags": {"building": "roof"}, "heightStatus": "unknown", "source": "OpenStreetMap", "license": "ODbL-1.0"}, "geometry": {"type": "MultiPolygon", "coordinates": [[[[113.9348846, 22.6254412], [113.9349025, 22.6253701], [113.9349242, 22.6252836], [113.9349434, 22.6252075], [113.9350581, 22.6252321], [113.9350344, 22.625326], [113.9350127, 22.6254126], [113.9349993, 22.6254658], [113.9348846, 22.6254412]]]]}}, {"type": "Feature", "id": "way/1444746893", "properties": {"tags": {"building": "yes", "layer": "1", "name": "白芒驿"}, "heightStatus": "unknown", "source": "OpenStreetMap", "license": "ODbL-1.0"}, "geometry": {"type": "MultiPolygon", "coordinates": [[[[113.934973, 22.6249871], [113.9349899, 22.6238821], [113.935401, 22.6238875], [113.9354051, 22.6236199], [113.9354244, 22.6236201], [113.93543, 22.6232553], [113.9354419, 22.6224785], [113.935791, 22.6224831], [113.9357868, 22.6227594], [113.9356056, 22.6226991], [113.9355977, 22.6229632], [113.9356301, 22.622964], [113.9357944, 22.6229682], [113.935793, 22.6230168], [113.9357922, 22.6230438], [113.9359159, 22.6230469], [113.9358319, 22.6232603], [113.9354833, 22.6232563], [113.9354783, 22.6236217], [113.9355986, 22.623623], [113.9355956, 22.6238402], [113.9355648, 22.6238971], [113.9356789, 22.6239621], [113.9356254, 22.6240457], [113.9355215, 22.6239891], [113.9355164, 22.6240615], [113.9354999, 22.6241913], [113.9354077, 22.6241956], [113.935398, 22.6244044], [113.9351985, 22.6242823], [113.9351927, 22.624477], [113.93533, 22.6245696], [113.935328, 22.6247044], [113.9354628, 22.6247061], [113.9354608, 22.6248384], [113.9351855, 22.6248348], [113.935182, 22.6250582], [113.9351086, 22.6250572], [113.9351097, 22.6249889], [113.934973, 22.6249871]]]]}}, {"type": "Feature", "id": "way/1444746898", "properties": {"tags": {"building": "roof"}, "heightStatus": "unknown", "source": "OpenStreetMap", "license": "ODbL-1.0"}, "geometry": {"type": "MultiPolygon", "coordinates": [[[[113.9359908, 22.6232812], [113.9359984, 22.6229881], [113.9364424, 22.6229979], [113.9364348, 22.6232909], [113.9359908, 22.6232812]]]]}}, {"type": "Feature", "id": "way/1444746903", "properties": {"tags": {"building": "yes"}, "heightStatus": "unknown", "source": "OpenStreetMap", "license": "ODbL-1.0"}, "geometry": {"type": "MultiPolygon", "coordinates": [[[[113.9355515, 22.6234379], [113.9355539, 22.6233188], [113.935851, 22.6233239], [113.9358486, 22.623443], [113.9355515, 22.6234379]]]]}}, {"type": "Feature", "id": "way/1444746904", "properties": {"tags": {"building": "yes", "name": "提升泵"}, "heightStatus": "unknown", "source": "OpenStreetMap", "license": "ODbL-1.0"}, "geometry": {"type": "MultiPolygon", "coordinates": [[[[113.9358768, 22.6234543], [113.9358815, 22.6233549], [113.9359943, 22.6233595], [113.9359896, 22.6234589], [113.9358768, 22.6234543]]]]}}, {"type": "Feature", "id": "way/1445467477", "properties": {"tags": {"building": "yes", "name": "提升泵"}, "heightStatus": "unknown", "source": "OpenStreetMap", "license": "ODbL-1.0"}, "geometry": {"type": "MultiPolygon", "coordinates": [[[[113.9351186, 22.6238028], [113.9351196, 22.6237254], [113.9352091, 22.6237238], [113.9352081, 22.6238031], [113.9351186, 22.6238028]]]]}}, {"type": "Feature", "id": "way/1447029811", "properties": {"tags": {"building": "roof"}, "heightStatus": "unknown", "source": "OpenStreetMap", "license": "ODbL-1.0"}, "geometry": {"type": "MultiPolygon", "coordinates": [[[[113.9355539, 22.6223577], [113.9355541, 22.622292], [113.936639, 22.6222945], [113.9366388, 22.6223602], [113.9355539, 22.6223577]]]]}}, {"type": "Feature", "id": "way/1483932602", "properties": {"tags": {"building": "yes"}, "heightStatus": "unknown", "source": "OpenStreetMap", "license": "ODbL-1.0"}, "geometry": {"type": "MultiPolygon", "coordinates": [[[[113.9352344, 22.621974], [113.9354134, 22.6219734], [113.9354137, 22.6220353], [113.9352346, 22.6220359], [113.9352344, 22.621974]]]]}}, {"type": "Feature", "id": "way/1483932603", "properties": {"tags": {"building": "yes"}, "heightStatus": "unknown", "source": "OpenStreetMap", "license": "ODbL-1.0"}, "geometry": {"type": "MultiPolygon", "coordinates": [[[[113.9352836, 22.6214981], [113.9354311, 22.6214981], [113.9354311, 22.6215723], [113.9352836, 22.6215723], [113.9352836, 22.6214981]]]]}}, {"type": "Feature", "id": "way/1483932604", "properties": {"tags": {"building": "yes"}, "heightStatus": "unknown", "source": "OpenStreetMap", "license": "ODbL-1.0"}, "geometry": {"type": "MultiPolygon", "coordinates": [[[[113.9352943, 22.6216491], [113.9354056, 22.6216483], [113.935407, 22.6218092], [113.9352956, 22.62181], [113.9352943, 22.6216491]]]]}}, {"type": "Feature", "id": "way/1483932613", "properties": {"tags": {"building": "service", "man_made": "water_works"}, "heightStatus": "unknown", "source": "OpenStreetMap", "license": "ODbL-1.0"}, "geometry": {"type": "MultiPolygon", "coordinates": [[[[113.9368339, 22.6230021], [113.936895, 22.622918], [113.9372249, 22.6231223], [113.9371638, 22.6232064], [113.9368339, 22.6230021]]]]}}, {"type": "Feature", "id": "way/1483932614", "properties": {"tags": {"building": "yes"}, "heightStatus": "unknown", "source": "OpenStreetMap", "license": "ODbL-1.0"}, "geometry": {"type": "MultiPolygon", "coordinates": [[[[113.9373147, 22.6233135], [113.9373718, 22.6233132], [113.9373731, 22.6235199], [113.937316, 22.6235202], [113.9373147, 22.6233135]]]]}}, {"type": "Feature", "id": "way/1483932615", "properties": {"tags": {"building": "yes"}, "heightStatus": "unknown", "source": "OpenStreetMap", "license": "ODbL-1.0"}, "geometry": {"type": "MultiPolygon", "coordinates": [[[[113.9367393, 22.6231166], [113.936791, 22.623025], [113.936826, 22.6230418], [113.9367743, 22.6231335], [113.9367393, 22.6231166]]]]}}, {"type": "Feature", "id": "way/1483932616", "properties": {"tags": {"building": "yes"}, "heightStatus": "unknown", "source": "OpenStreetMap", "license": "ODbL-1.0"}, "geometry": {"type": "MultiPolygon", "coordinates": [[[[113.9369291, 22.6232293], [113.9369298, 22.6231643], [113.9370739, 22.6231656], [113.9370733, 22.6232305], [113.9369291, 22.6232293]]]]}}]}