{"type": "FeatureCollection", "features": [{"type": "Feature", "id": "way/251441534", "properties": {"tags": {"building": "yes"}, "heightStatus": "unknown", "source": "OpenStreetMap", "license": "ODbL-1.0"}, "geometry": {"type": "MultiPolygon", "coordinates": [[[[113.9333597, 22.6052794], [113.933489, 22.6050644], [113.9337117, 22.6051786], [113.9336197, 22.6053315], [113.9335824, 22.6053936], [113.9333597, 22.6052794]]]]}}, {"type": "Feature", "id": "way/251441535", "properties": {"tags": {"building": "yes"}, "heightStatus": "unknown", "source": "OpenStreetMap", "license": "ODbL-1.0"}, "geometry": {"type": "MultiPolygon", "coordinates": [[[[113.9328556, 22.6077728], [113.9328665, 22.6074156], [113.9331481, 22.6074229], [113.9331373, 22.6077801], [113.9328556, 22.6077728]]]]}}, {"type": "Feature", "id": "way/251441544", "properties": {"tags": {"building": "yes"}, "heightStatus": "unknown", "source": "OpenStreetMap", "license": "ODbL-1.0"}, "geometry": {"type": "MultiPolygon", "coordinates": [[[[113.9335144, 22.6055007], [113.9335824, 22.6053936], [113.9336197, 22.6053315], [113.9339713, 22.6055178], [113.9338661, 22.605687], [113.9335144, 22.6055007]]]]}}, {"type": "Feature", "id": "way/1123286395", "properties": {"tags": {"building": "yes"}, "heightStatus": "unknown", "source": "OpenStreetMap", "license": "ODbL-1.0"}, "geometry": {"type": "MultiPolygon", "coordinates": [[[[113.9328114, 22.5994635], [113.9329288, 22.5994358], [113.9329353, 22.5994592], [113.9328179, 22.599487], [113.9328114, 22.5994635]]]]}}, {"type": "Feature", "id": "way/1123286396", "properties": {"tags": {"building": "yes"}, "heightStatus": "unknown", "source": "OpenStreetMap", "license": "ODbL-1.0"}, "geometry": {"type": "MultiPolygon", "coordinates": [[[[113.9329497, 22.5994279], [113.933067, 22.5994001], [113.9330736, 22.5994235], [113.9329562, 22.5994513], [113.9329497, 22.5994279]]]]}}, {"type": "Feature", "id": "way/1123286397", "properties": {"tags": {"building": "yes"}, "heightStatus": "unknown", "source": "OpenStreetMap", "license": "ODbL-1.0"}, "geometry": {"type": "MultiPolygon", "coordinates": [[[[113.9330869, 22.5993954], [113.933322, 22.5993718], [113.9333249, 22.5993966], [113.9330898, 22.5994202], [113.9330869, 22.5993954]]]]}}, {"type": "Feature", "id": "way/1123286398", "properties": {"tags": {"building": "yes"}, "heightStatus": "unknown", "source": "OpenStreetMap", "license": "ODbL-1.0"}, "geometry": {"type": "MultiPolygon", "coordinates": [[[[113.9333491, 22.5993957], [113.9333514, 22.5993708], [113.933587, 22.5993901], [113.9335846, 22.5994149], [113.9333491, 22.5993957]]]]}}, {"type": "Feature", "id": "way/1123286399", "properties": {"tags": {"building": "yes"}, "heightStatus": "unknown", "source": "OpenStreetMap", "license": "ODbL-1.0"}, "geometry": {"type": "MultiPolygon", "coordinates": [[[[113.9336005, 22.5994207], [113.9336062, 22.5993963], [113.9338374, 22.5994422], [113.9338317, 22.5994666], [113.9336005, 22.5994207]]]]}}, {"type": "Feature", "id": "way/1123286400", "properties": {"tags": {"building": "yes"}, "heightStatus": "unknown", "source": "OpenStreetMap", "license": "ODbL-1.0"}, "geometry": {"type": "MultiPolygon", "coordinates": [[[[113.933846, 22.5994744], [113.9338532, 22.5994504], [113.9340812, 22.5995084], [113.934074, 22.5995325], [113.933846, 22.5994744]]]]}}, {"type": "Feature", "id": "way/1123286401", "properties": {"tags": {"building": "yes"}, "heightStatus": "unknown", "source": "OpenStreetMap", "license": "ODbL-1.0"}, "geometry": {"type": "MultiPolygon", "coordinates": [[[[113.9329666, 22.5993307], [113.9330882, 22.5993041], [113.9334485, 22.5992836], [113.9337012, 22.5993173], [113.9339129, 22.5993649], [113.9341424, 22.5994332], [113.9341336, 22.5994561], [113.9339023, 22.5993904], [113.9336985, 22.5993427], [113.9334449, 22.5993124], [113.9330962, 22.5993328], [113.9329743, 22.5993609], [113.9329666, 22.5993307]]]]}}, {"type": "Feature", "id": "way/1123286402", "properties": {"tags": {"building": "yes"}, "heightStatus": "unknown", "source": "OpenStreetMap", "license": "ODbL-1.0"}, "geometry": {"type": "MultiPolygon", "coordinates": [[[[113.9341565, 22.5994553], [113.9341617, 22.5994357], [113.9342215, 22.5994493], [113.9342163, 22.5994689], [113.9341565, 22.5994553]]]]}}, {"type": "Feature", "id": "way/1123286403", "properties": {"tags": {"building": "yes"}, "heightStatus": "unknown", "source": "OpenStreetMap", "license": "ODbL-1.0"}, "geometry": {"type": "MultiPolygon", "coordinates": [[[[113.9341312, 22.5995436], [113.9341382, 22.5995169], [113.9342434, 22.5995404], [113.9342364, 22.5995671], [113.9341312, 22.5995436]]]]}}, {"type": "Feature", "id": "way/1123286404", "properties": {"tags": {"building": "yes"}, "heightStatus": "unknown", "source": "OpenStreetMap", "license": "ODbL-1.0"}, "geometry": {"type": "MultiPolygon", "coordinates": [[[[113.934257, 22.5995714], [113.9342623, 22.5995496], [113.9343202, 22.5995617], [113.9343149, 22.5995834], [113.934257, 22.5995714]]]]}}]}