{"type": "FeatureCollection", "features": [{"type": "Feature", "id": "way/1424936472", "properties": {"tags": {"building": "industrial", "name": "12栋", "name:zh": "12栋"}, "heightStatus": "unknown", "source": "OpenStreetMap", "license": "ODbL-1.0"}, "geometry": {"type": "MultiPolygon", "coordinates": [[[[113.9270566, 22.6182613], [113.9275424, 22.6179581], [113.9276163, 22.6180589], [113.9271305, 22.6183621], [113.9270566, 22.6182613]]]]}}, {"type": "Feature", "id": "way/1424936473", "properties": {"tags": {"building": "industrial", "name": "10栋", "name:zh": "10栋"}, "heightStatus": "unknown", "source": "OpenStreetMap", "license": "ODbL-1.0"}, "geometry": {"type": "MultiPolygon", "coordinates": [[[[113.9270496, 22.6189756], [113.9275299, 22.6186759], [113.9276254, 22.6188063], [113.9271452, 22.619106], [113.9270496, 22.6189756]]]]}}, {"type": "Feature", "id": "way/1424936474", "properties": {"tags": {"building": "industrial", "name": "9栋", "name:zh": "9栋"}, "heightStatus": "unknown", "source": "OpenStreetMap", "license": "ODbL-1.0"}, "geometry": {"type": "MultiPolygon", "coordinates": [[[[113.9271946, 22.619172], [113.9276748, 22.6188723], [113.9277704, 22.6190027], [113.9272901, 22.6193025], [113.9271946, 22.619172]]]]}}, {"type": "Feature", "id": "way/1424936475", "properties": {"tags": {"building": "industrial", "name": "8栋", "name:zh": "8栋"}, "heightStatus": "unknown", "source": "OpenStreetMap", "license": "ODbL-1.0"}, "geometry": {"type": "MultiPolygon", "coordinates": [[[[113.9274604, 22.6192865], [113.9277687, 22.619094], [113.9278642, 22.6192245], [113.9275559, 22.6194169], [113.9274604, 22.6192865]]]]}}, {"type": "Feature", "id": "way/1424936477", "properties": {"tags": {"building": "industrial", "name": "13栋", "name:zh": "13栋"}, "heightStatus": "unknown", "source": "OpenStreetMap", "license": "ODbL-1.0"}, "geometry": {"type": "MultiPolygon", "coordinates": [[[[113.9266581, 22.6184083], [113.9269271, 22.6182403], [113.9267818, 22.618042], [113.9268602, 22.6179931], [113.9270566, 22.6182613], [113.9267093, 22.6184781], [113.9266581, 22.6184083]]]]}}, {"type": "Feature", "id": "way/1424936478", "properties": {"tags": {"building": "industrial", "name": "11栋", "name:zh": "11栋"}, "heightStatus": "unknown", "source": "OpenStreetMap", "license": "ODbL-1.0"}, "geometry": {"type": "MultiPolygon", "coordinates": [[[[113.9268221, 22.6186586], [113.9272853, 22.6183695], [113.9274628, 22.6186117], [113.9269995, 22.6189009], [113.9268221, 22.6186586]]]]}}, {"type": "Feature", "id": "way/1424936479", "properties": {"tags": {"building": "industrial", "name": "3栋", "name:zh": "3栋"}, "heightStatus": "unknown", "source": "OpenStreetMap", "license": "ODbL-1.0"}, "geometry": {"type": "MultiPolygon", "coordinates": [[[[113.9261933, 22.6189335], [113.9265946, 22.6186831], [113.9266885, 22.6188114], [113.9262873, 22.6190618], [113.9261933, 22.6189335]]]]}}, {"type": "Feature", "id": "way/1424936480", "properties": {"tags": {"building": "industrial", "name": "2栋", "name:zh": "2栋"}, "heightStatus": "unknown", "source": "OpenStreetMap", "license": "ODbL-1.0"}, "geometry": {"type": "MultiPolygon", "coordinates": [[[[113.9260612, 22.6186245], [113.9263964, 22.6184153], [113.9265434, 22.6186159], [113.9262081, 22.6188251], [113.9260612, 22.6186245]]]]}}, {"type": "Feature", "id": "way/1424936481", "properties": {"tags": {"building": "industrial", "name": "4栋", "name:zh": "4栋"}, "heightStatus": "unknown", "source": "OpenStreetMap", "license": "ODbL-1.0"}, "geometry": {"type": "MultiPolygon", "coordinates": [[[[113.9262702, 22.6191519], [113.9267235, 22.618869], [113.9268175, 22.6189973], [113.9263642, 22.6192802], [113.9262702, 22.6191519]]]]}}, {"type": "Feature", "id": "way/1424936482", "properties": {"tags": {"building": "industrial", "name": "5栋", "name:zh": "5栋"}, "heightStatus": "unknown", "source": "OpenStreetMap", "license": "ODbL-1.0"}, "geometry": {"type": "MultiPolygon", "coordinates": [[[[113.9264098, 22.619351], [113.9268687, 22.6190645], [113.9269627, 22.6191928], [113.9265038, 22.6194792], [113.9264098, 22.619351]]]]}}, {"type": "Feature", "id": "way/1424936483", "properties": {"tags": {"building": "industrial", "name": "6栋", "name:zh": "6栋"}, "heightStatus": "unknown", "source": "OpenStreetMap", "license": "ODbL-1.0"}, "geometry": {"type": "MultiPolygon", "coordinates": [[[[113.926509, 22.6195827], [113.9270194, 22.6192641], [113.9271134, 22.6193924], [113.926603, 22.619711], [113.926509, 22.6195827]]]]}}, {"type": "Feature", "id": "way/1424936484", "properties": {"tags": {"building": "industrial", "name": "7栋", "name:zh": "7栋"}, "heightStatus": "unknown", "source": "OpenStreetMap", "license": "ODbL-1.0"}, "geometry": {"type": "MultiPolygon", "coordinates": [[[[113.9266542, 22.6197782], [113.9271646, 22.6194596], [113.9272586, 22.6195879], [113.9267482, 22.6199065], [113.9266542, 22.6197782]]]]}}]}