{"type": "FeatureCollection", "features": [{"type": "Feature", "id": "way/691127872", "properties": {"tags": {"building": "school"}, "heightStatus": "unknown", "source": "OpenStreetMap", "license": "ODbL-1.0"}, "geometry": {"type": "MultiPolygon", "coordinates": [[[[113.9252299, 22.5721009], [113.9255344, 22.5719571], [113.9255774, 22.5719925], [113.9256246, 22.572023], [113.9256753, 22.5720484], [113.9257289, 22.5720681], [113.9257845, 22.572082], [113.9258415, 22.5720899], [113.9258991, 22.5720917], [113.9259566, 22.5720873], [113.9260131, 22.5720769], [113.9260679, 22.5720605], [113.9261204, 22.5720383], [113.9262787, 22.5723071], [113.9262034, 22.5723398], [113.926125, 22.5723654], [113.9260442, 22.5723836], [113.9259618, 22.5723944], [113.9258787, 22.5723974], [113.9257957, 22.5723928], [113.9257136, 22.5723806], [113.9256332, 22.5723609], [113.9255553, 22.5723339], [113.9254808, 22.5722998], [113.9254103, 22.572259], [113.9253445, 22.572212], [113.9252842, 22.5721591], [113.9252299, 22.5721009]]]]}}, {"type": "Feature", "id": "way/834860510", "properties": {"tags": {"building": "yes", "layer": "-1", "location": "surface", "name": "同乐海关", "office": "government"}, "heightStatus": "unknown", "source": "OpenStreetMap", "license": "ODbL-1.0"}, "geometry": {"type": "MultiPolygon", "coordinates": [[[[113.9204379, 22.5734603], [113.9208297, 22.5730153], [113.9211678, 22.5732833], [113.9207761, 22.5737075], [113.9204379, 22.5734603]]]]}}, {"type": "Feature", "id": "way/913118157", "properties": {"tags": {"building": "yes"}, "heightStatus": "unknown", "source": "OpenStreetMap", "license": "ODbL-1.0"}, "geometry": {"type": "MultiPolygon", "coordinates": [[[[113.9274314, 22.5785473], [113.9274667, 22.5785224], [113.9274847, 22.5785444], [113.9275609, 22.5784911], [113.9275906, 22.5785273], [113.9274842, 22.5786111], [113.9274314, 22.5785473]]]]}}, {"type": "Feature", "id": "way/913118160", "properties": {"tags": {"amenity": "toilets", "building": "yes", "fee": "no", "wheelchair": "yes"}, "heightStatus": "unknown", "source": "OpenStreetMap", "license": "ODbL-1.0"}, "geometry": {"type": "MultiPolygon", "coordinates": [[[[113.9261435, 22.5778136], [113.9261892, 22.5777692], [113.926246, 22.5776742], [113.9262645, 22.5775941], [113.926342, 22.5776007], [113.9263224, 22.5777048], [113.9262608, 22.5778049], [113.9261987, 22.5778636], [113.9261435, 22.5778136]]]]}}, {"type": "Feature", "id": "way/1081126181", "properties": {"tags": {"building": "warehouse"}, "heightStatus": "unknown", "source": "OpenStreetMap", "license": "ODbL-1.0"}, "geometry": {"type": "MultiPolygon", "coordinates": [[[[113.9256296, 22.5809851], [113.9256423, 22.5799687], [113.9266506, 22.5799795], [113.9266378, 22.5809958], [113.9256296, 22.5809851]]]]}}, {"type": "Feature", "id": "way/1302056850", "properties": {"tags": {"amenity": "shelter", "building": "yes", "shelter_type": "gazebo"}, "heightStatus": "unknown", "source": "OpenStreetMap", "license": "ODbL-1.0"}, "geometry": {"type": "MultiPolygon", "coordinates": [[[[113.9272652, 22.576915], [113.9273113, 22.5769119], [113.9273445, 22.5770189], [113.927289, 22.5770308], [113.9272652, 22.576915]]]]}}, {"type": "Feature", "id": "way/1302056851", "properties": {"tags": {"amenity": "shelter", "building": "yes", "shelter_type": "gazebo"}, "heightStatus": "unknown", "source": "OpenStreetMap", "license": "ODbL-1.0"}, "geometry": {"type": "MultiPolygon", "coordinates": [[[[113.9268909, 22.5772358], [113.9268927, 22.5771788], [113.9270223, 22.5771821], [113.9270259, 22.577225], [113.9268909, 22.5772358]]]]}}, {"type": "Feature", "id": "way/1302056852", "properties": {"tags": {"amenity": "shelter", "building": "yes", "shelter_type": "gazebo"}, "heightStatus": "unknown", "source": "OpenStreetMap", "license": "ODbL-1.0"}, "geometry": {"type": "MultiPolygon", "coordinates": [[[[113.9267254, 22.5780234], [113.926755, 22.5779801], [113.9268562, 22.5780579], [113.9268315, 22.5780922], [113.9267254, 22.5780234]]]]}}, {"type": "Feature", "id": "way/1302084545", "properties": {"tags": {"addr:housename": "TCL科学园国际E城", "addr:housename:en": "TCL Science Park International E City", "addr:housename:zh": "TCL科学园国际E城", "building": "commercial", "name": "D4栋", "name:zh": "D4栋"}, "heightStatus": "unknown", "source": "OpenStreetMap", "license": "ODbL-1.0"}, "geometry": {"type": "MultiPolygon", "coordinates": [[[[113.9229647, 22.5724376], [113.9232392, 22.5721396], [113.9232614, 22.5721571], [113.9233662, 22.5720433], [113.9235004, 22.5720429], [113.9235003, 22.5720149], [113.9239266, 22.5720135], [113.9239277, 22.572306], [113.92349, 22.5723074], [113.9232, 22.5726224], [113.9229647, 22.5724376]]]]}}, {"type": "Feature", "id": "way/1302084546", "properties": {"tags": {"addr:housename": "TCL科学园国际E城", "addr:housename:en": "TCL Science Park International E City", "addr:housename:zh": "TCL科学园国际E城", "building": "commercial", "name": "D3栋", "name:zh": "D3栋"}, "heightStatus": "unknown", "source": "OpenStreetMap", "license": "ODbL-1.0"}, "geometry": {"type": "MultiPolygon", "coordinates": [[[[113.9226597, 22.5728627], [113.9228649, 22.5726714], [113.923089, 22.5728763], [113.9230696, 22.5728944], [113.9230985, 22.5729194], [113.9231201, 22.5728891], [113.9233695, 22.573041], [113.9232072, 22.5732682], [113.9229379, 22.5731042], [113.9229464, 22.5730922], [113.9229022, 22.5730504], [113.9228838, 22.5730676], [113.9226597, 22.5728627]]]]}}, {"type": "Feature", "id": "way/1302084547", "properties": {"tags": {"addr:housename": "TCL科学园国际E城", "addr:housename:en": "TCL Science Park International E City", "addr:housename:zh": "TCL科学园国际E城", "building": "commercial", "name": "D2栋", "name:zh": "D2栋"}, "heightStatus": "unknown", "source": "OpenStreetMap", "license": "ODbL-1.0"}, "geometry": {"type": "MultiPolygon", "coordinates": [[[[113.9234073, 22.573379], [113.9235359, 22.5731278], [113.9238112, 22.573248], [113.9237976, 22.5732746], [113.9238278, 22.5732854], [113.9238379, 22.5732482], [113.9241434, 22.5733193], [113.9240694, 22.5735906], [113.9237524, 22.5735168], [113.9237567, 22.5735008], [113.9236934, 22.5734782], [113.9236826, 22.5734992], [113.9234073, 22.573379]]]]}}, {"type": "Feature", "id": "way/1302084548", "properties": {"tags": {"addr:housename": "TCL科学园国际E城", "addr:housename:en": "TCL Science Park International E City", "addr:housename:zh": "TCL科学园国际E城", "building": "commercial", "name": "D1栋", "name:zh": "D1栋"}, "heightStatus": "unknown", "source": "OpenStreetMap", "license": "ODbL-1.0"}, "geometry": {"type": "MultiPolygon", "coordinates": [[[[113.9240072, 22.5729029], [113.9240683, 22.5726726], [113.924136, 22.5726879], [113.9241429, 22.572599], [113.924083, 22.5725938], [113.9241065, 22.5723639], [113.9241801, 22.5723704], [113.9241853, 22.5723199], [113.9244797, 22.5723456], [113.9244418, 22.5727148], [113.92435, 22.5730605], [113.9240704, 22.5729972], [113.9240905, 22.5729217], [113.9240072, 22.5729029]]]]}}, {"type": "Feature", "id": "way/1302084549", "properties": {"tags": {"addr:housename": "TCL科学园国际E城", "addr:housename:en": "TCL Science Park International E City", "addr:housename:zh": "TCL科学园国际E城", "building": "commercial", "name": "E4栋", "name:zh": "E4栋"}, "heightStatus": "unknown", "source": "OpenStreetMap", "license": "ODbL-1.0"}, "geometry": {"type": "MultiPolygon", "coordinates": [[[[113.9223049, 22.5734455], [113.9223936, 22.573194], [113.9227639, 22.5733053], [113.9230082, 22.5734297], [113.9228649, 22.5736696], [113.9225973, 22.5735334], [113.9223049, 22.5734455]]]]}}, {"type": "Feature", "id": "way/1302084550", "properties": {"tags": {"building": "commercial", "name": "F1栋", "name:zh": "F1栋"}, "heightStatus": "unknown", "source": "OpenStreetMap", "license": "ODbL-1.0"}, "geometry": {"type": "MultiPolygon", "coordinates": [[[[113.9218169, 22.5739773], [113.9220102, 22.5737694], [113.922242, 22.5739532], [113.9225088, 22.5740944], [113.9223664, 22.5743239], [113.9220285, 22.5741451], [113.9218169, 22.5739773]]]]}}, {"type": "Feature", "id": "way/1302084551", "properties": {"tags": {"addr:housename": "TCL科学园国际E城", "addr:housename:en": "TCL Science Park International E City", "addr:housename:zh": "TCL科学园国际E城", "building": "commercial", "name": "F2栋", "name:zh": "F2栋"}, "heightStatus": "unknown", "source": "OpenStreetMap", "license": "ODbL-1.0"}, "geometry": {"type": "MultiPolygon", "coordinates": [[[[113.9226937, 22.5745156], [113.9228228, 22.5742688], [113.9230979, 22.5743916], [113.923395, 22.5744649], [113.9233211, 22.5747205], [113.9229448, 22.5746277], [113.9226937, 22.5745156]]]]}}, {"type": "Feature", "id": "way/1302084552", "properties": {"tags": {"addr:housename": "TCL科学园国际E城", "addr:housename:en": "TCL Science Park International E City", "addr:housename:zh": "TCL科学园国际E城", "building": "commercial", "name": "E3栋", "name:zh": "E3栋"}, "heightStatus": "unknown", "source": "OpenStreetMap", "license": "ODbL-1.0"}, "geometry": {"type": "MultiPolygon", "coordinates": [[[[113.9230876, 22.5737936], [113.9232393, 22.5735692], [113.9235697, 22.5737596], [113.9237744, 22.5739346], [113.9235727, 22.5741357], [113.9233485, 22.573944], [113.9230876, 22.5737936]]]]}}, {"type": "Feature", "id": "way/1302084553", "properties": {"tags": {"addr:housename": "TCL科学园国际E城", "addr:housename:en": "TCL Science Park International E City", "addr:housename:zh": "TCL科学园国际E城", "building": "commercial"}, "heightStatus": "unknown", "source": "OpenStreetMap", "license": "ODbL-1.0"}, "geometry": {"type": "MultiPolygon", "coordinates": [[[[113.9213998, 22.5745296], [113.9214888, 22.5742672], [113.9218864, 22.5743823], [113.9221307, 22.5745066], [113.9219874, 22.5747466], [113.9217602, 22.5746339], [113.9213998, 22.5745296]]]]}}, {"type": "Feature", "id": "way/1302084554", "properties": {"tags": {"addr:housename": "TCL科学园国际E城", "addr:housename:en": "TCL Science Park International E City", "addr:housename:zh": "TCL科学园国际E城", "building": "commercial"}, "heightStatus": "unknown", "source": "OpenStreetMap", "license": "ODbL-1.0"}, "geometry": {"type": "MultiPolygon", "coordinates": [[[[113.9225202, 22.5750162], [113.9226718, 22.5747918], [113.9230023, 22.5749822], [113.9232069, 22.5751572], [113.9230052, 22.5753583], [113.9227811, 22.5751666], [113.9225202, 22.5750162]]]]}}, {"type": "Feature", "id": "way/1302084555", "properties": {"tags": {"addr:housename": "TCL科学园国际E城", "addr:housename:en": "TCL Science Park International E City", "addr:housename:zh": "TCL科学园国际E城", "building": "commercial", "name": "F5栋", "name:zh": "F5栋"}, "heightStatus": "unknown", "source": "OpenStreetMap", "license": "ODbL-1.0"}, "geometry": {"type": "MultiPolygon", "coordinates": [[[[113.9209541, 22.5749083], [113.9211913, 22.5747221], [113.9213849, 22.5749323], [113.921606, 22.5751181], [113.9213964, 22.5753307], [113.9211606, 22.5751325], [113.9209541, 22.5749083]]]]}}, {"type": "Feature", "id": "way/1302084556", "properties": {"tags": {"addr:housename": "TCL科学园国际E城", "addr:housename:en": "TCL Science Park International E City", "addr:housename:zh": "TCL科学园国际E城", "building": "commercial", "name": "F4栋", "name:zh": "F4栋"}, "heightStatus": "unknown", "source": "OpenStreetMap", "license": "ODbL-1.0"}, "geometry": {"type": "MultiPolygon", "coordinates": [[[[113.9215718, 22.5754607], [113.9217474, 22.5752233], [113.9220593, 22.57542], [113.9224008, 22.5755689], [113.9222679, 22.5758288], [113.921904, 22.5756702], [113.9215718, 22.5754607]]]]}}, {"type": "Feature", "id": "way/1302084557", "properties": {"tags": {"addr:housename": "TCL科学园国际E城", "addr:housename:en": "TCL Science Park International E City", "addr:housename:zh": "TCL科学园国际E城", "building": "commercial", "name": "F3栋", "name:zh": "F3栋"}, "heightStatus": "unknown", "source": "OpenStreetMap", "license": "ODbL-1.0"}, "geometry": {"type": "MultiPolygon", "coordinates": [[[[113.9224911, 22.5759042], [113.9225845, 22.57563], [113.922785, 22.5756882], [113.9229651, 22.575723], [113.9229269, 22.5760093], [113.9227062, 22.5759667], [113.9224911, 22.5759042]]]]}}, {"type": "Feature", "id": "way/1302084558", "properties": {"tags": {"addr:housename": "TCL科学园国际E城", "addr:housename:en": "TCL Science Park International E City", "addr:housename:zh": "TCL科学园国际E城", "building": "commercial", "name": "G4栋", "name:zh": "G4栋"}, "heightStatus": "unknown", "source": "OpenStreetMap", "license": "ODbL-1.0"}, "geometry": {"type": "MultiPolygon", "coordinates": [[[[113.921835, 22.576293], [113.9221682, 22.5762757], [113.922159, 22.5761247], [113.9224781, 22.5761081], [113.9224943, 22.5763732], [113.9221752, 22.5763898], [113.922184, 22.5765344], [113.9218508, 22.5765517], [113.921835, 22.576293]]]]}}, {"type": "Feature", "id": "way/1302084559", "properties": {"tags": {"addr:housename": "TCL科学园国际E城", "addr:housename:en": "TCL Science Park International E City", "addr:housename:zh": "TCL科学园国际E城", "building": "commercial", "name": "G3栋", "name:zh": "G3栋"}, "heightStatus": "unknown", "source": "OpenStreetMap", "license": "ODbL-1.0"}, "geometry": {"type": "MultiPolygon", "coordinates": [[[[113.922076, 22.5767172], [113.9223962, 22.5766997], [113.9224148, 22.5769892], [113.9225825, 22.57698], [113.9226023, 22.5772883], [113.9222951, 22.5773051], [113.9222752, 22.5769969], [113.9220946, 22.5770068], [113.922076, 22.5767172]]]]}}, {"type": "Feature", "id": "way/1302084560", "properties": {"tags": {"addr:housename": "TCL科学园国际E城", "addr:housename:en": "TCL Science Park International E City", "addr:housename:zh": "TCL科学园国际E城", "building": "commercial", "name": "G2栋", "name:zh": "G2栋"}, "heightStatus": "unknown", "source": "OpenStreetMap", "license": "ODbL-1.0"}, "geometry": {"type": "MultiPolygon", "coordinates": [[[[113.9225868, 22.5774541], [113.9229071, 22.5774327], [113.9229185, 22.5775784], [113.9232393, 22.577557], [113.9232614, 22.577839], [113.9229406, 22.5778604], [113.9229287, 22.5777089], [113.9226085, 22.5777303], [113.9225868, 22.5774541]]]]}}, {"type": "Feature", "id": "way/1302084561", "properties": {"tags": {"addr:housename": "TCL科学园国际E城", "addr:housename:en": "TCL Science Park International E City", "addr:housename:zh": "TCL科学园国际E城", "building": "commercial", "name": "G1栋", "name:zh": "G1栋"}, "heightStatus": "unknown", "source": "OpenStreetMap", "license": "ODbL-1.0"}, "geometry": {"type": "MultiPolygon", "coordinates": [[[[113.922989, 22.5770123], [113.9231695, 22.5770006], [113.9231462, 22.5766927], [113.9234532, 22.5766729], [113.9234765, 22.5769809], [113.923309, 22.5769917], [113.9233309, 22.577281], [113.9230109, 22.5773016], [113.922989, 22.5770123]]]]}}, {"type": "Feature", "id": "way/1302084562", "properties": {"tags": {"addr:housename": "TCL科学园国际E城", "addr:housename:en": "TCL Science Park International E City", "addr:housename:zh": "TCL科学园国际E城", "building": "yes"}, "heightStatus": "unknown", "source": "OpenStreetMap", "license": "ODbL-1.0"}, "geometry": {"type": "MultiPolygon", "coordinates": [[[[113.922588, 22.5762405], [113.9229842, 22.5762128], [113.9230313, 22.5767866], [113.9226351, 22.5768143], [113.922588, 22.5762405]]]]}}, {"type": "Feature", "id": "way/1302084563", "properties": {"tags": {"addr:housename": "TCL科学园国际E城", "addr:housename:en": "TCL Science Park International E City", "addr:housename:zh": "TCL科学园国际E城", "building": "apartments", "name": "B7栋", "name:zh": "B7栋"}, "heightStatus": "unknown", "source": "OpenStreetMap", "license": "ODbL-1.0"}, "geometry": {"type": "MultiPolygon", "coordinates": [[[[113.9241181, 22.5781361], [113.9241191, 22.5780585], [113.9245699, 22.5780633], [113.9245689, 22.5781408], [113.9245246, 22.5781403], [113.924524, 22.5781888], [113.9244442, 22.578188], [113.9244446, 22.5781555], [113.924387, 22.5781549], [113.9243866, 22.5781874], [113.9243031, 22.5781865], [113.9243036, 22.578154], [113.9242454, 22.5781533], [113.924245, 22.578186], [113.924162, 22.5781851], [113.9241626, 22.5781366], [113.9241181, 22.5781361]]]]}}, {"type": "Feature", "id": "way/1302084564", "properties": {"tags": {"addr:housename": "TCL科学园国际E城", "addr:housename:en": "TCL Science Park International E City", "addr:housename:zh": "TCL科学园国际E城", "building": "apartments", "name": "B8栋", "name:zh": "B8栋"}, "heightStatus": "unknown", "source": "OpenStreetMap", "license": "ODbL-1.0"}, "geometry": {"type": "MultiPolygon", "coordinates": [[[[113.9235191, 22.5783259], [113.9235201, 22.5782482], [113.9239709, 22.5782532], [113.9239699, 22.5783307], [113.9239256, 22.5783302], [113.923925, 22.5783787], [113.9238452, 22.5783778], [113.9238456, 22.5783454], [113.923788, 22.5783447], [113.9237876, 22.5783773], [113.9237042, 22.5783763], [113.9237046, 22.5783438], [113.9236464, 22.5783431], [113.923646, 22.5783758], [113.923563, 22.5783749], [113.9235636, 22.5783263], [113.9235191, 22.5783259]]]]}}, {"type": "Feature", "id": "way/1302084565", "properties": {"tags": {"addr:housename": "TCL科学园国际E城", "addr:housename:en": "TCL Science Park International E City", "addr:housename:zh": "TCL科学园国际E城", "building": "apartments"}, "heightStatus": "unknown", "source": "OpenStreetMap", "license": "ODbL-1.0"}, "geometry": {"type": "MultiPolygon", "coordinates": [[[[113.9235175, 22.5778917], [113.9235481, 22.5777469], [113.9235966, 22.5776889], [113.9235888, 22.5776802], [113.9236609, 22.5776246], [113.9236687, 22.5776332], [113.9237483, 22.5776015], [113.9239185, 22.5776024], [113.9239175, 22.5776799], [113.9238732, 22.5776795], [113.9238726, 22.577728], [113.9237928, 22.5777271], [113.9237932, 22.5776947], [113.9237356, 22.5776941], [113.9237221, 22.5777041], [113.9237418, 22.5777257], [113.9236814, 22.577771], [113.9236623, 22.5777485], [113.923644, 22.577762], [113.9236385, 22.5777912], [113.9236734, 22.5777966], [113.9236596, 22.5778722], [113.9236077, 22.5778641], [113.9236003, 22.5779046], [113.9235175, 22.5778917]]]]}}, {"type": "Feature", "id": "way/1302084566", "properties": {"tags": {"addr:housename": "TCL科学园国际E城", "addr:housename:en": "TCL Science Park International E City", "addr:housename:zh": "TCL科学园国际E城", "building": "apartments", "name": "B6栋", "name:zh": "B6栋"}, "heightStatus": "unknown", "source": "OpenStreetMap", "license": "ODbL-1.0"}, "geometry": {"type": "MultiPolygon", "coordinates": [[[[113.9240484, 22.5776998], [113.9240494, 22.5776221], [113.9245002, 22.5776269], [113.9244992, 22.5777045], [113.9244549, 22.577704], [113.9244543, 22.5777525], [113.9243744, 22.5777516], [113.9243748, 22.5777192], [113.9243173, 22.5777186], [113.9243169, 22.5777511], [113.9242334, 22.5777502], [113.9242338, 22.5777176], [113.9241757, 22.577717], [113.9241753, 22.5777496], [113.9240923, 22.5777488], [113.9240929, 22.5777002], [113.9240484, 22.5776998]]]]}}, {"type": "Feature", "id": "way/1302084567", "properties": {"tags": {"addr:housename": "TCL科学园国际E城", "addr:housename:en": "TCL Science Park International E City", "addr:housename:zh": "TCL科学园国际E城", "building": "commercial", "name": "C11栋", "name:zh": "C11栋"}, "heightStatus": "unknown", "source": "OpenStreetMap", "license": "ODbL-1.0"}, "geometry": {"type": "MultiPolygon", "coordinates": [[[[113.9239095, 22.5774045], [113.9239125, 22.5772388], [113.924459, 22.577247], [113.9244561, 22.5774129], [113.9239095, 22.5774045]]]]}}, {"type": "Feature", "id": "way/1302084568", "properties": {"tags": {"addr:housename": "TCL科学园国际E城", "addr:housename:en": "TCL Science Park International E City", "addr:housename:zh": "TCL科学园国际E城", "building": "commercial", "name": "C10栋", "name:zh": "C10栋"}, "heightStatus": "unknown", "source": "OpenStreetMap", "license": "ODbL-1.0"}, "geometry": {"type": "MultiPolygon", "coordinates": [[[[113.9238703, 22.5768329], [113.9244133, 22.5767745], [113.924434, 22.5769393], [113.923891, 22.5769975], [113.9238703, 22.5768329]]]]}}, {"type": "Feature", "id": "way/1302084569", "properties": {"tags": {"addr:housename": "TCL科学园国际E城", "addr:housename:en": "TCL Science Park International E City", "addr:housename:zh": "TCL科学园国际E城", "building": "commercial", "name": "C9栋", "name:zh": "C9栋"}, "heightStatus": "unknown", "source": "OpenStreetMap", "license": "ODbL-1.0"}, "geometry": {"type": "MultiPolygon", "coordinates": [[[[113.9238216, 22.5763961], [113.9243614, 22.5763164], [113.9243898, 22.5764802], [113.9238499, 22.5765598], [113.9238216, 22.5763961]]]]}}, {"type": "Feature", "id": "way/1302084570", "properties": {"tags": {"addr:housename": "TCL科学园国际E城", "addr:housename:en": "TCL Science Park International E City", "addr:housename:zh": "TCL科学园国际E城", "building": "commercial", "name": "C8栋", "name:zh": "C8栋"}, "heightStatus": "unknown", "source": "OpenStreetMap", "license": "ODbL-1.0"}, "geometry": {"type": "MultiPolygon", "coordinates": [[[[113.9237506, 22.5758579], [113.9242904, 22.5757782], [113.9243187, 22.575942], [113.9237789, 22.5760216], [113.9237506, 22.5758579]]]]}}, {"type": "Feature", "id": "way/1302084571", "properties": {"tags": {"addr:housename": "TCL科学园国际E城", "addr:housename:en": "TCL Science Park International E City", "addr:housename:zh": "TCL科学园国际E城", "building": "commercial", "name": "C7栋", "name:zh": "C7栋"}, "heightStatus": "unknown", "source": "OpenStreetMap", "license": "ODbL-1.0"}, "geometry": {"type": "MultiPolygon", "coordinates": [[[[113.9236711, 22.5752316], [113.9242155, 22.5751864], [113.9242316, 22.5753516], [113.9236871, 22.5753967], [113.9236711, 22.5752316]]]]}}, {"type": "Feature", "id": "way/1302084572", "properties": {"tags": {"addr:housename": "TCL科学园国际E城", "addr:housename:en": "TCL Science Park International E City", "addr:housename:zh": "TCL科学园国际E城", "building": "apartments", "name": "B4栋", "name:zh": "B4栋"}, "heightStatus": "unknown", "source": "OpenStreetMap", "license": "ODbL-1.0"}, "geometry": {"type": "MultiPolygon", "coordinates": [[[[113.9247977, 22.5741027], [113.9248687, 22.5740289], [113.9249112, 22.5740637], [113.9249203, 22.5740543], [113.9250545, 22.5741644], [113.9250455, 22.5741738], [113.9250731, 22.5741965], [113.9250021, 22.5742703], [113.9249645, 22.5742394], [113.9249251, 22.5742803], [113.9247986, 22.5741765], [113.9248379, 22.5741356], [113.9247977, 22.5741027]]]]}}, {"type": "Feature", "id": "way/1302084573", "properties": {"tags": {"addr:housename": "TCL科学园国际E城", "addr:housename:en": "TCL Science Park International E City", "addr:housename:zh": "TCL科学园国际E城", "building": "apartments", "name": "B3栋", "name:zh": "B3栋"}, "heightStatus": "unknown", "source": "OpenStreetMap", "license": "ODbL-1.0"}, "geometry": {"type": "MultiPolygon", "coordinates": [[[[113.9252009, 22.5739074], [113.9252585, 22.5738242], [113.9253064, 22.5738524], [113.9253138, 22.5738418], [113.9254651, 22.573931], [113.9254577, 22.5739416], [113.9254889, 22.57396], [113.9254314, 22.5740432], [113.9253889, 22.5740182], [113.925357, 22.5740643], [113.9252144, 22.5739801], [113.9252462, 22.5739341], [113.9252009, 22.5739074]]]]}}, {"type": "Feature", "id": "way/1302084574", "properties": {"tags": {"addr:housename": "TCL科学园国际E城", "addr:housename:en": "TCL Science Park International E City", "addr:housename:zh": "TCL科学园国际E城", "building": "apartments", "name": "B2栋", "name:zh": "B2栋"}, "heightStatus": "unknown", "source": "OpenStreetMap", "license": "ODbL-1.0"}, "geometry": {"type": "MultiPolygon", "coordinates": [[[[113.925467, 22.5736073], [113.9255089, 22.5735165], [113.9255612, 22.5735371], [113.9255666, 22.5735255], [113.9257317, 22.5735906], [113.9257264, 22.5736022], [113.9257604, 22.5736156], [113.9257184, 22.5737064], [113.9256721, 22.5736881], [113.9256488, 22.5737384], [113.9254932, 22.5736771], [113.9255164, 22.5736268], [113.925467, 22.5736073]]]]}}, {"type": "Feature", "id": "way/1302084575", "properties": {"tags": {"addr:housename": "TCL科学园国际E城", "addr:housename:en": "TCL Science Park International E City", "addr:housename:zh": "TCL科学园国际E城", "building": "apartments", "name": "B1栋", "name:zh": "B1栋"}, "heightStatus": "unknown", "source": "OpenStreetMap", "license": "ODbL-1.0"}, "geometry": {"type": "MultiPolygon", "coordinates": [[[[113.9255391, 22.5732423], [113.9255503, 22.5731441], [113.9256069, 22.5731496], [113.9256083, 22.573137], [113.9257868, 22.5731543], [113.9257854, 22.5731669], [113.9258222, 22.5731704], [113.925811, 22.5732686], [113.9257609, 22.5732638], [113.9257547, 22.5733182], [113.9255864, 22.5733018], [113.9255926, 22.5732475], [113.9255391, 22.5732423]]]]}}, {"type": "Feature", "id": "way/1302084576", "properties": {"tags": {"addr:housename": "TCL科学园国际E城", "addr:housename:en": "TCL Science Park International E City", "addr:housename:zh": "TCL科学园国际E城", "building": "commercial", "name": "C3栋", "name:zh": "C3栋"}, "heightStatus": "unknown", "source": "OpenStreetMap", "license": "ODbL-1.0"}, "geometry": {"type": "MultiPolygon", "coordinates": [[[[113.9245815, 22.5734946], [113.9246597, 22.5733454], [113.9251517, 22.5735655], [113.9250734, 22.5737148], [113.9245815, 22.5734946]]]]}}, {"type": "Feature", "id": "way/1302084577", "properties": {"tags": {"addr:housename": "TCL科学园国际E城", "addr:housename:en": "TCL Science Park International E City", "addr:housename:zh": "TCL科学园国际E城", "building": "commercial", "name": "C2栋", "name:zh": "C2栋"}, "heightStatus": "unknown", "source": "OpenStreetMap", "license": "ODbL-1.0"}, "geometry": {"type": "MultiPolygon", "coordinates": [[[[113.9248161, 22.5731886], [113.9248336, 22.5730261], [113.9253572, 22.5730741], [113.9253398, 22.5732365], [113.9248161, 22.5731886]]]]}}, {"type": "Feature", "id": "way/1302084578", "properties": {"tags": {"addr:housename": "TCL科学园国际E城", "addr:housename:en": "TCL Science Park International E City", "addr:housename:zh": "TCL科学园国际E城", "building": "commercial", "name": "C1栋", "name:zh": "C1栋"}, "heightStatus": "unknown", "source": "OpenStreetMap", "license": "ODbL-1.0"}, "geometry": {"type": "MultiPolygon", "coordinates": [[[[113.9249014, 22.5728069], [113.9249049, 22.5726436], [113.9253095, 22.5726511], [113.9253059, 22.5728143], [113.9249014, 22.5728069]]]]}}, {"type": "Feature", "id": "way/1302084579", "properties": {"tags": {"addr:housename": "TCL科学园国际E城", "addr:housename:en": "TCL Science Park International E City", "addr:housename:zh": "TCL科学园国际E城", "building": "commercial", "name": "C4栋", "name:zh": "C4栋"}, "heightStatus": "unknown", "source": "OpenStreetMap", "license": "ODbL-1.0"}, "geometry": {"type": "MultiPolygon", "coordinates": [[[[113.9243249, 22.5737973], [113.9244287, 22.5736651], [113.9247562, 22.5738846], [113.9246524, 22.5740167], [113.9243249, 22.5737973]]]]}}, {"type": "Feature", "id": "way/1302084580", "properties": {"tags": {"addr:housename": "TCL科学园国际E城", "addr:housename:en": "TCL Science Park International E City", "addr:housename:zh": "TCL科学园国际E城", "building": "commercial", "name": "C6栋", "name:zh": "C6栋"}, "heightStatus": "unknown", "source": "OpenStreetMap", "license": "ODbL-1.0"}, "geometry": {"type": "MultiPolygon", "coordinates": [[[[113.9238137, 22.5748611], [113.9238386, 22.5747651], [113.9239563, 22.5747911], [113.9239674, 22.5747483], [113.9239045, 22.5747343], [113.9239278, 22.5746448], [113.9242227, 22.5747101], [113.9241995, 22.5747996], [113.9241207, 22.5747822], [113.9241096, 22.574825], [113.9241556, 22.5748352], [113.9241307, 22.5749312], [113.9238137, 22.5748611]]]]}}, {"type": "Feature", "id": "way/1302084581", "properties": {"tags": {"addr:housename": "TCL科学园国际E城", "addr:housename:en": "TCL Science Park International E City", "addr:housename:zh": "TCL科学园国际E城", "building": "commercial", "name": "C5栋", "name:zh": "C5栋"}, "heightStatus": "unknown", "source": "OpenStreetMap", "license": "ODbL-1.0"}, "geometry": {"type": "MultiPolygon", "coordinates": [[[[113.9240977, 22.5743691], [113.9241608, 22.5742894], [113.9242585, 22.5743554], [113.9242867, 22.5743199], [113.9242345, 22.5742846], [113.9242934, 22.5742103], [113.9245381, 22.5743757], [113.9244792, 22.57445], [113.9244139, 22.5744058], [113.9243857, 22.5744413], [113.9244239, 22.5744672], [113.9243608, 22.5745468], [113.9240977, 22.5743691]]]]}}, {"type": "Feature", "id": "way/1302084582", "properties": {"tags": {"addr:housename": "TCL科学园国际E城", "addr:housename:en": "TCL Science Park International E City", "addr:housename:zh": "TCL科学园国际E城", "building": "yes", "name": "E城会馆", "name:zh": "E城会馆"}, "heightStatus": "unknown", "source": "OpenStreetMap", "license": "ODbL-1.0"}, "geometry": {"type": "MultiPolygon", "coordinates": [[[[113.9259055, 22.5732465], [113.9259128, 22.5730079], [113.9259143, 22.5729632], [113.9259181, 22.5729315], [113.9259295, 22.5728891], [113.925949, 22.5728509], [113.925975, 22.5728148], [113.9260084, 22.5727774], [113.9260459, 22.5727471], [113.9260867, 22.5727185], [113.926131, 22.5726958], [113.9261854, 22.5726717], [113.9262387, 22.5726595], [113.9262856, 22.5726544], [113.9263384, 22.5726559], [113.9264026, 22.5726665], [113.9264532, 22.5726834], [113.9264964, 22.5727034], [113.9267378, 22.5728162], [113.9266827, 22.5729168], [113.9266246, 22.5728897], [113.9266154, 22.5729065], [113.9265728, 22.5728866], [113.9265547, 22.5729196], [113.9265026, 22.5728952], [113.9264816, 22.5729369], [113.9264057, 22.5729202], [113.9263303, 22.5729176], [113.9262803, 22.5729275], [113.9262325, 22.5729466], [113.9261913, 22.5729748], [113.9261529, 22.5730048], [113.9261173, 22.5730605], [113.9260947, 22.5731354], [113.9260467, 22.5731295], [113.9260451, 22.5731831], [113.9260217, 22.5731825], [113.9260196, 22.5732494], [113.9259055, 22.5732465]]]]}}]}