{"type": "FeatureCollection", "features": [{"type": "Feature", "id": "way/106356085", "properties": {"tags": {"building": "apartments", "source": "Bing"}, "heightStatus": "unknown", "source": "OpenStreetMap", "license": "ODbL-1.0"}, "geometry": {"type": "MultiPolygon", "coordinates": [[[[113.9181323, 22.4882713], [113.9181439, 22.4882711], [113.9181427, 22.4882113], [113.9182223, 22.4882101], [113.9182211, 22.4881587], [113.9182107, 22.488159], [113.9182092, 22.4881129], [113.9183721, 22.4881082], [113.9183737, 22.4881557], [113.9183616, 22.4881559], [113.9183628, 22.4882073], [113.918458, 22.4882059], [113.9184592, 22.4882656], [113.9184375, 22.488266], [113.9184386, 22.4883203], [113.9181334, 22.4883256], [113.9181323, 22.4882713]]]]}}, {"type": "Feature", "id": "way/106356095", "properties": {"tags": {"building": "apartments", "source": "Bing"}, "heightStatus": "unknown", "source": "OpenStreetMap", "license": "ODbL-1.0"}, "geometry": {"type": "MultiPolygon", "coordinates": [[[[113.9186114, 22.4881911], [113.918691, 22.4881899], [113.9186898, 22.4881385], [113.9186795, 22.4881388], [113.9186779, 22.4880927], [113.9188408, 22.488088], [113.9188424, 22.4881355], [113.9188303, 22.4881357], [113.9188316, 22.4881871], [113.9189267, 22.4881857], [113.9189279, 22.4882454], [113.9189375, 22.4882458], [113.9189402, 22.4883001], [113.9186271, 22.4883054], [113.918626, 22.4882511], [113.9186126, 22.4882509], [113.9186114, 22.4881911]]]]}}, {"type": "Feature", "id": "way/106356135", "properties": {"tags": {"building": "apartments", "source": "Bing"}, "heightStatus": "unknown", "source": "OpenStreetMap", "license": "ODbL-1.0"}, "geometry": {"type": "MultiPolygon", "coordinates": [[[[113.9181908, 22.4877901], [113.9187915, 22.487785], [113.9187929, 22.4879265], [113.9181921, 22.4879315], [113.9181908, 22.4877901]]]]}}, {"type": "Feature", "id": "way/106356149", "properties": {"tags": {"building": "apartments", "source": "Bing"}, "heightStatus": "unknown", "source": "OpenStreetMap", "license": "ODbL-1.0"}, "geometry": {"type": "MultiPolygon", "coordinates": [[[[113.9189204, 22.4879038], [113.9189362, 22.4879018], [113.9189276, 22.487845], [113.9190612, 22.4878278], [113.9190478, 22.4877357], [113.9192185, 22.4877144], [113.9192331, 22.4878056], [113.9193401, 22.4877917], [113.9193382, 22.487779], [113.9193719, 22.4877747], [113.9193738, 22.4877874], [113.9193825, 22.4878444], [113.9194025, 22.4878418], [113.9194094, 22.4878864], [113.9193892, 22.487889], [113.9193919, 22.4879067], [113.9192492, 22.4879251], [113.9192408, 22.4878626], [113.9192175, 22.4878656], [113.9192219, 22.487883], [113.9192207, 22.4879017], [113.919211, 22.487922], [113.9191908, 22.48794], [113.9191594, 22.4879455], [113.9191324, 22.48794], [113.9191107, 22.4879206], [113.9191025, 22.4879047], [113.9190999, 22.4878807], [113.9190697, 22.4878846], [113.9190787, 22.4879471], [113.9189457, 22.4879643], [113.918943, 22.4879463], [113.9189268, 22.4879484], [113.9189204, 22.4879038]]]]}}, {"type": "Feature", "id": "way/106356164", "properties": {"tags": {"building": "apartments", "source": "Bing"}, "heightStatus": "unknown", "source": "OpenStreetMap", "license": "ODbL-1.0"}, "geometry": {"type": "MultiPolygon", "coordinates": [[[[113.9204217, 22.4878558], [113.9204862, 22.4878348], [113.9204566, 22.4877511], [113.9206065, 22.4877076], [113.9206327, 22.4877913], [113.9207861, 22.4877462], [113.9207721, 22.487706], [113.9209238, 22.4876609], [113.9209395, 22.4877011], [113.9210928, 22.4876528], [113.921065, 22.4875707], [113.9212218, 22.4875224], [113.9212515, 22.4876061], [113.921316, 22.4875884], [113.9213543, 22.4876979], [113.9204601, 22.4879653], [113.9204217, 22.4878558]]]]}}, {"type": "Feature", "id": "way/106356172", "properties": {"tags": {"building": "apartments", "source": "Bing"}, "heightStatus": "unknown", "source": "OpenStreetMap", "license": "ODbL-1.0"}, "geometry": {"type": "MultiPolygon", "coordinates": [[[[113.9194107, 22.4881585], [113.9194752, 22.4881376], [113.9194456, 22.4880539], [113.9195955, 22.4880104], [113.9196216, 22.4880941], [113.919775, 22.488049], [113.9197611, 22.4880088], [113.9199128, 22.4879637], [113.9199284, 22.4880039], [113.9200818, 22.4879556], [113.9200539, 22.4878735], [113.9202108, 22.4878252], [113.9202405, 22.4879089], [113.920305, 22.4878912], [113.9203433, 22.4880007], [113.9194491, 22.4882681], [113.9194107, 22.4881585]]]]}}, {"type": "Feature", "id": "way/106356173", "properties": {"tags": {"building": "apartments", "source": "Bing"}, "heightStatus": "unknown", "source": "OpenStreetMap", "license": "ODbL-1.0"}, "geometry": {"type": "MultiPolygon", "coordinates": [[[[113.9194225, 22.4876497], [113.9198946, 22.4872914], [113.91997, 22.4873762], [113.9194978, 22.4877345], [113.9194225, 22.4876497]]]]}}, {"type": "Feature", "id": "way/106356174", "properties": {"tags": {"building": "apartments", "source": "Bing"}, "heightStatus": "unknown", "source": "OpenStreetMap", "license": "ODbL-1.0"}, "geometry": {"type": "MultiPolygon", "coordinates": [[[[113.9200033, 22.4872197], [113.9201962, 22.4870765], [113.9204089, 22.486976], [113.9204468, 22.4870735], [113.9202523, 22.4871649], [113.9200726, 22.4872959], [113.9200033, 22.4872197]]]]}}, {"type": "Feature", "id": "way/106356175", "properties": {"tags": {"building": "yes", "source": "Bing"}, "heightStatus": "unknown", "source": "OpenStreetMap", "license": "ODbL-1.0"}, "geometry": {"type": "MultiPolygon", "coordinates": [[[[113.9209415, 22.4871831], [113.9209794, 22.4870567], [113.9210091, 22.4870643], [113.9210305, 22.4870049], [113.9210734, 22.4870156], [113.9210816, 22.4869866], [113.9211542, 22.4870156], [113.92123, 22.4870582], [113.9212877, 22.4871115], [113.9212828, 22.4871283], [113.9213421, 22.4871649], [113.9212234, 22.4873248], [113.9211344, 22.4872715], [113.9210767, 22.4872441], [113.9209942, 22.4872182], [113.9209992, 22.4872014], [113.9209415, 22.4871831]]]]}}, {"type": "Feature", "id": "way/106356176", "properties": {"tags": {"building": "yes", "source": "Bing"}, "heightStatus": "unknown", "source": "OpenStreetMap", "license": "ODbL-1.0"}, "geometry": {"type": "MultiPolygon", "coordinates": [[[[113.9212234, 22.4873248], [113.9213421, 22.4871649], [113.9214097, 22.487209], [113.9214658, 22.4872745], [113.9214971, 22.4873263], [113.9215218, 22.4873157], [113.9215581, 22.4873781], [113.9215878, 22.4874406], [113.9216026, 22.4874954], [113.9215779, 22.4875137], [113.9216125, 22.4875259], [113.9216323, 22.4875533], [113.9216306, 22.4875762], [113.9215779, 22.4876356], [113.9214658, 22.4876371], [113.9214328, 22.4875731], [113.921385, 22.4874772], [113.921324, 22.4874056], [113.9212234, 22.4873248]]]]}}, {"type": "Feature", "id": "way/106356177", "properties": {"tags": {"building": "yes", "source": "Bing"}, "heightStatus": "unknown", "source": "OpenStreetMap", "license": "ODbL-1.0"}, "geometry": {"type": "MultiPolygon", "coordinates": [[[[113.920559, 22.4871359], [113.9205903, 22.487107], [113.9206315, 22.487107], [113.9206529, 22.4871222], [113.9206694, 22.4871496], [113.9208178, 22.4871557], [113.9208343, 22.4870704], [113.9206579, 22.4870643], [113.9206546, 22.487043], [113.9205919, 22.4870536], [113.9205688, 22.4869836], [113.9206002, 22.4869714], [113.920587, 22.4869257], [113.9207172, 22.4869181], [113.9208162, 22.4869303], [113.9208986, 22.486947], [113.920859, 22.4872136], [113.9206711, 22.4872029], [113.9206348, 22.4872212], [113.9205936, 22.4872167], [113.9205622, 22.4871831], [113.920559, 22.4871359]]]]}}, {"type": "Feature", "id": "way/360716046", "properties": {"tags": {"addr:housename": "半岛城邦一期", "addr:housename:en": "Peninsula Phase 1", "addr:housename:zh": "半岛城邦一期", "building": "apartments", "building:levels": "27", "name": "3栋", "name:zh": "3栋"}, "heightStatus": "levels_only_unverified", "source": "OpenStreetMap", "license": "ODbL-1.0"}, "geometry": {"type": "MultiPolygon", "coordinates": [[[[113.9257657, 22.4821783], [113.9258205, 22.48207], [113.9258927, 22.4819678], [113.92596, 22.4820025], [113.9259931, 22.4819476], [113.9261121, 22.4819961], [113.9262202, 22.4820645], [113.9261414, 22.4821953], [113.9260251, 22.4821354], [113.9259781, 22.4821445], [113.9259122, 22.4822537], [113.9257657, 22.4821783]]]]}}, {"type": "Feature", "id": "way/360832721", "properties": {"tags": {"building": "school"}, "heightStatus": "unknown", "source": "OpenStreetMap", "license": "ODbL-1.0"}, "geometry": {"type": "MultiPolygon", "coordinates": [[[[113.9268034, 22.4833356], [113.9272859, 22.483227], [113.9272717, 22.4831732], [113.9273848, 22.4831478], [113.9275199, 22.4836603], [113.9274527, 22.4836754], [113.9274373, 22.4836171], [113.9272315, 22.4836634], [113.9272473, 22.4837233], [113.927335, 22.4837036], [113.9273912, 22.4839169], [113.9275278, 22.4838862], [113.9275092, 22.4838153], [113.9275746, 22.4838006], [113.927623, 22.4839844], [113.9270494, 22.4841132], [113.9270065, 22.4839502], [113.9272625, 22.4838927], [113.9272146, 22.4837106], [113.9269483, 22.4837705], [113.9269083, 22.4836185], [113.9273873, 22.4835109], [113.9273393, 22.4833285], [113.9268954, 22.4834283], [113.9269076, 22.4834744], [113.9268437, 22.4834888], [113.9268034, 22.4833356]]]]}}, {"type": "Feature", "id": "way/360832722", "properties": {"tags": {"addr:housename": "半岛城邦二期", "addr:housename:en": "Peninsula Phase 2", "addr:housename:zh": "半岛城邦二期", "building": "apartments", "building:levels": "23", "height": "62", "name": "7栋", "name:zh": "7栋"}, "heightStatus": "height_tag_unverified", "source": "OpenStreetMap", "license": "ODbL-1.0"}, "geometry": {"type": "MultiPolygon", "coordinates": [[[[113.9263888, 22.4855939], [113.9266564, 22.4851829], [113.9268825, 22.4853085], [113.9268708, 22.4853266], [113.9271358, 22.485474], [113.9270889, 22.485546], [113.9270502, 22.4855245], [113.9269913, 22.4856149], [113.9269395, 22.4855861], [113.9269728, 22.4855349], [113.9269013, 22.4854951], [113.9269307, 22.4854499], [113.926751, 22.4853498], [113.9267216, 22.4853949], [113.9266724, 22.4853676], [113.9265846, 22.4855024], [113.9266176, 22.4855207], [113.9265667, 22.4855989], [113.926587, 22.4856103], [113.9265422, 22.4856791], [113.9263888, 22.4855939]]]]}}, {"type": "Feature", "id": "way/360832726", "properties": {"tags": {"addr:housename": "半岛城邦二期", "addr:housename:en": "Peninsula Phase 2", "addr:housename:zh": "半岛城邦二期", "building": "apartments", "building:levels": "30", "height": "80", "name": "9栋", "name:zh": "9栋"}, "heightStatus": "height_tag_unverified", "source": "OpenStreetMap", "license": "ODbL-1.0"}, "geometry": {"type": "MultiPolygon", "coordinates": [[[[113.9273091, 22.4854961], [113.9279572, 22.485306], [113.9279853, 22.4853878], [113.9279421, 22.4854005], [113.92796, 22.4854527], [113.9278461, 22.4854861], [113.9278281, 22.4854339], [113.9277243, 22.4854644], [113.9277422, 22.4855165], [113.9276413, 22.4855461], [113.9276233, 22.485494], [113.9274795, 22.4855361], [113.9274974, 22.4855883], [113.9274168, 22.4856119], [113.9273989, 22.4855598], [113.9273372, 22.4855779], [113.9273091, 22.4854961]]]]}}, {"type": "Feature", "id": "way/360832729", "properties": {"tags": {"building": "yes"}, "heightStatus": "unknown", "source": "OpenStreetMap", "license": "ODbL-1.0"}, "geometry": {"type": "MultiPolygon", "coordinates": [[[[113.9271422, 22.4876338], [113.9273755, 22.4873452], [113.9277986, 22.4876228], [113.9277156, 22.4876996], [113.9273795, 22.4874694], [113.9272688, 22.4876228], [113.9276049, 22.4880467], [113.9275179, 22.4881051], [113.9271422, 22.4876338]]]]}}, {"type": "Feature", "id": "way/360832730", "properties": {"tags": {"building": "yes"}, "heightStatus": "unknown", "source": "OpenStreetMap", "license": "ODbL-1.0"}, "geometry": {"type": "MultiPolygon", "coordinates": [[[[113.9265807, 22.4869286], [113.9267428, 22.4867277], [113.9269722, 22.4869286], [113.9269327, 22.4869871], [113.9273716, 22.4873123], [113.927162, 22.4875205], [113.9267824, 22.4870309], [113.9266717, 22.4870383], [113.9265807, 22.4869286]]]]}}, {"type": "Feature", "id": "way/492470036", "properties": {"tags": {"building": "apartments"}, "heightStatus": "unknown", "source": "OpenStreetMap", "license": "ODbL-1.0"}, "geometry": {"type": "MultiPolygon", "coordinates": [[[[113.9179971, 22.4882176], [113.9181427, 22.4882113], [113.9181439, 22.4882711], [113.9181323, 22.4882713], [113.9181334, 22.4883256], [113.9180106, 22.488332], [113.9180079, 22.4882777], [113.9179983, 22.4882773], [113.9179971, 22.4882176]]]]}}, {"type": "Feature", "id": "way/492470039", "properties": {"tags": {"building": "apartments"}, "heightStatus": "unknown", "source": "OpenStreetMap", "license": "ODbL-1.0"}, "geometry": {"type": "MultiPolygon", "coordinates": [[[[113.9184375, 22.488266], [113.9184592, 22.4882656], [113.918458, 22.4882059], [113.9186114, 22.4881911], [113.9186126, 22.4882509], [113.918626, 22.4882511], [113.9186271, 22.4883054], [113.9184386, 22.4883203], [113.9184375, 22.488266]]]]}}, {"type": "Feature", "id": "way/492470044", "properties": {"tags": {"addr:housename": "海湾花园", "addr:housename:zh": "海湾花园", "building": "apartments", "building:levels": "7", "name": "1栋", "name:zh": "1栋"}, "heightStatus": "levels_only_unverified", "source": "OpenStreetMap", "license": "ODbL-1.0"}, "geometry": {"type": "MultiPolygon", "coordinates": [[[[113.9189115, 22.4888158], [113.918931, 22.4888151], [113.9189292, 22.4887723], [113.9189486, 22.4887716], [113.9189465, 22.4887218], [113.9191531, 22.4887145], [113.9191552, 22.4887642], [113.9191746, 22.4887635], [113.9191764, 22.4888063], [113.9191958, 22.4888056], [113.919197, 22.4888345], [113.9189127, 22.4888447], [113.9189115, 22.4888158]]]]}}, {"type": "Feature", "id": "way/492470047", "properties": {"tags": {"addr:housename": "海湾花园", "addr:housename:zh": "海湾花园", "building": "apartments", "building:levels": "7", "name": "2栋", "name:zh": "2栋"}, "heightStatus": "levels_only_unverified", "source": "OpenStreetMap", "license": "ODbL-1.0"}, "geometry": {"type": "MultiPolygon", "coordinates": [[[[113.9185737, 22.4888264], [113.9185931, 22.4888257], [113.9185913, 22.4887829], [113.9186107, 22.4887822], [113.9186087, 22.4887325], [113.9188152, 22.4887251], [113.9188173, 22.4887748], [113.9188367, 22.4887741], [113.9188385, 22.488817], [113.918858, 22.4888163], [113.9188592, 22.4888452], [113.9185749, 22.4888553], [113.9185737, 22.4888264]]]]}}, {"type": "Feature", "id": "way/492470049", "properties": {"tags": {"addr:housename": "海湾花园", "addr:housename:zh": "海湾花园", "building": "apartments", "building:levels": "7", "name": "3栋", "name:zh": "3栋"}, "heightStatus": "levels_only_unverified", "source": "OpenStreetMap", "license": "ODbL-1.0"}, "geometry": {"type": "MultiPolygon", "coordinates": [[[[113.9182303, 22.4889009], [113.9182497, 22.4889002], [113.9182479, 22.4888574], [113.9182673, 22.4888567], [113.9182653, 22.488807], [113.9184718, 22.4887996], [113.9184739, 22.4888493], [113.9184933, 22.4888486], [113.9184951, 22.4888914], [113.9185146, 22.4888908], [113.9185158, 22.4889196], [113.9182315, 22.4889298], [113.9182303, 22.4889009]]]]}}, {"type": "Feature", "id": "way/736397477", "properties": {"tags": {"amenity": "toilets", "building": "yes", "layer": "1", "shelter": "yes"}, "heightStatus": "unknown", "source": "OpenStreetMap", "license": "ODbL-1.0"}, "geometry": {"type": "MultiPolygon", "coordinates": [[[[113.9218135, 22.4874086], [113.9220737, 22.487328], [113.9220831, 22.4873293], [113.9221548, 22.487434], [113.9221568, 22.487447], [113.9221481, 22.4874532], [113.9218269, 22.4874743], [113.9218135, 22.4874086]]]]}}, {"type": "Feature", "id": "way/740015210", "properties": {"tags": {"building": "hospital"}, "heightStatus": "unknown", "source": "OpenStreetMap", "license": "ODbL-1.0"}, "geometry": {"type": "MultiPolygon", "coordinates": [[[[113.9256856, 22.490402], [113.9259255, 22.4901701], [113.9259001, 22.4901569], [113.9258564, 22.4901973], [113.9258269, 22.490172], [113.9258709, 22.4901347], [113.9258315, 22.4901002], [113.9258005, 22.4900646], [113.9257738, 22.4900272], [113.9257517, 22.4899862], [113.9257343, 22.4899408], [113.925726, 22.4899021], [113.9257212, 22.4898527], [113.9257263, 22.4897832], [113.9257761, 22.489786], [113.9257761, 22.4897691], [113.9258198, 22.4897719], [113.9258401, 22.4897785], [113.9258574, 22.4897982], [113.9258645, 22.4898207], [113.9258645, 22.4898592], [113.9258686, 22.4899109], [113.9258879, 22.4899607], [113.9259143, 22.4900039], [113.925959, 22.490048], [113.9259956, 22.4900762], [113.9260352, 22.4900921], [113.9260576, 22.4900978], [113.9260688, 22.490109], [113.9260749, 22.4901288], [113.9260728, 22.4901466], [113.9260403, 22.4902095], [113.9259936, 22.4901964], [113.9259834, 22.4902142], [113.926018, 22.4902452], [113.9257781, 22.4904837], [113.9256856, 22.490402]]]]}}, {"type": "Feature", "id": "way/740015211", "properties": {"tags": {"building": "hospital"}, "heightStatus": "unknown", "source": "OpenStreetMap", "license": "ODbL-1.0"}, "geometry": {"type": "MultiPolygon", "coordinates": [[[[113.9251664, 22.4904539], [113.9251886, 22.4904321], [113.9251703, 22.4904162], [113.9252333, 22.4903541], [113.9252496, 22.4903681], [113.925274, 22.490344], [113.9254115, 22.490463], [113.9254718, 22.4904035], [113.9254469, 22.490382], [113.925525, 22.4903049], [113.925634, 22.4903992], [113.9255356, 22.4904964], [113.9256593, 22.4906033], [113.9254549, 22.4908051], [113.9253449, 22.49071], [113.9253998, 22.4906558], [113.9251664, 22.4904539]]]]}}, {"type": "Feature", "id": "way/740015212", "properties": {"tags": {"building": "hospital"}, "heightStatus": "unknown", "source": "OpenStreetMap", "license": "ODbL-1.0"}, "geometry": {"type": "MultiPolygon", "coordinates": [[[[113.9246804, 22.4907218], [113.9248153, 22.4905896], [113.9248812, 22.4906472], [113.9248262, 22.4907011], [113.9248264, 22.4907218], [113.9249783, 22.4908542], [113.9249096, 22.4909215], [113.9246804, 22.4907218]]]]}}, {"type": "Feature", "id": "way/740015213", "properties": {"tags": {"building": "hospital"}, "heightStatus": "unknown", "source": "OpenStreetMap", "license": "ODbL-1.0"}, "geometry": {"type": "MultiPolygon", "coordinates": [[[[113.9250668, 22.4909821], [113.9250828, 22.4909672], [113.9252773, 22.4907865], [113.9253756, 22.4908767], [113.925165, 22.4910723], [113.9250937, 22.4910067], [113.9250668, 22.4909821]]]]}}, {"type": "Feature", "id": "way/740015214", "properties": {"tags": {"building": "hospital"}, "heightStatus": "unknown", "source": "OpenStreetMap", "license": "ODbL-1.0"}, "geometry": {"type": "MultiPolygon", "coordinates": [[[[113.9250057, 22.4909905], [113.9250565, 22.4909431], [113.9250828, 22.4909672], [113.9250668, 22.4909821], [113.9250937, 22.4910067], [113.9250589, 22.4910392], [113.9250057, 22.4909905]]]]}}, {"type": "Feature", "id": "way/740015215", "properties": {"tags": {"building": "residential"}, "heightStatus": "unknown", "source": "OpenStreetMap", "license": "ODbL-1.0"}, "geometry": {"type": "MultiPolygon", "coordinates": [[[[113.9247966, 22.4903976], [113.9248748, 22.4903411], [113.9248932, 22.4903628], [113.9255125, 22.4899151], [113.9254898, 22.4898883], [113.9255628, 22.4898356], [113.9256321, 22.4899175], [113.9248616, 22.4904743], [113.9247966, 22.4903976]]]]}}, {"type": "Feature", "id": "way/783219926", "properties": {"tags": {"addr:housename": "半岛城邦二期", "addr:housename:en": "Peninsula Phase 2", "addr:housename:zh": "半岛城邦二期", "building": "apartments", "building:levels": "48", "height": "150", "name": "5栋", "name:zh": "5栋"}, "heightStatus": "height_tag_unverified", "source": "OpenStreetMap", "license": "ODbL-1.0"}, "geometry": {"type": "MultiPolygon", "coordinates": [[[[113.9263002, 22.484889], [113.9264605, 22.4846475], [113.9264035, 22.4846152], [113.9264638, 22.4845242], [113.9267648, 22.4846947], [113.9267215, 22.4847599], [113.9267137, 22.4847716], [113.9266285, 22.4847234], [113.9266148, 22.484744], [113.9265501, 22.4847073], [113.9264893, 22.484799], [113.9265218, 22.4848175], [113.9264698, 22.4848959], [113.9264899, 22.4849073], [113.9264468, 22.4849721], [113.9263002, 22.484889]]]]}}, {"type": "Feature", "id": "way/783219927", "properties": {"tags": {"addr:housename": "半岛城邦二期", "addr:housename:en": "Peninsula Phase 2", "addr:housename:zh": "半岛城邦二期", "building": "apartments", "building:levels": "32", "height": "100", "name": "8栋", "name:zh": "8栋"}, "heightStatus": "height_tag_unverified", "source": "OpenStreetMap", "license": "ODbL-1.0"}, "geometry": {"type": "MultiPolygon", "coordinates": [[[[113.9267215, 22.4847599], [113.9267648, 22.4846947], [113.9270193, 22.484838], [113.9269769, 22.4849023], [113.9269409, 22.4848821], [113.9268928, 22.4849551], [113.9268461, 22.4849288], [113.926867, 22.484897], [113.9267839, 22.4848502], [113.9268104, 22.4848099], [113.9267215, 22.4847599]]]]}}, {"type": "Feature", "id": "way/783219928", "properties": {"tags": {"addr:housename": "半岛城邦二期", "addr:housename:en": "Peninsula Phase 2", "addr:housename:zh": "半岛城邦二期", "building": "apartments", "building:levels": "48", "height": "150", "name": "1栋", "name:zh": "1栋"}, "heightStatus": "height_tag_unverified", "source": "OpenStreetMap", "license": "ODbL-1.0"}, "geometry": {"type": "MultiPolygon", "coordinates": [[[[113.9259542, 22.483405], [113.9261143, 22.4831632], [113.9260574, 22.483131], [113.9261177, 22.48304], [113.9264188, 22.4832102], [113.9263755, 22.4832756], [113.9263677, 22.4832874], [113.9262824, 22.4832392], [113.9262687, 22.4832598], [113.9262039, 22.4832231], [113.9261432, 22.4833148], [113.9261757, 22.4833332], [113.9261237, 22.4834117], [113.9261437, 22.483423], [113.9261008, 22.4834878], [113.9259542, 22.483405]]]]}}, {"type": "Feature", "id": "way/783219929", "properties": {"tags": {"addr:housename": "半岛城邦二期", "addr:housename:en": "Peninsula Phase 2", "addr:housename:zh": "半岛城邦二期", "building": "apartments", "building:levels": "32", "height": "100", "name": "2栋", "name:zh": "2栋"}, "heightStatus": "height_tag_unverified", "source": "OpenStreetMap", "license": "ODbL-1.0"}, "geometry": {"type": "MultiPolygon", "coordinates": [[[[113.9263755, 22.4832756], [113.9264188, 22.4832102], [113.9266732, 22.483354], [113.9266307, 22.4834181], [113.9265949, 22.4833979], [113.9265466, 22.4834709], [113.9264999, 22.4834445], [113.9265209, 22.4834128], [113.9264378, 22.4833658], [113.9264643, 22.4833258], [113.9263755, 22.4832756]]]]}}, {"type": "Feature", "id": "way/783219930", "properties": {"tags": {"addr:housename": "半岛城邦二期", "addr:housename:en": "Peninsula Phase 2", "addr:housename:zh": "半岛城邦二期", "building": "apartments", "building:levels": "48", "height": "150", "name": "6栋", "name:zh": "6栋"}, "heightStatus": "height_tag_unverified", "source": "OpenStreetMap", "license": "ODbL-1.0"}, "geometry": {"type": "MultiPolygon", "coordinates": [[[[113.9262043, 22.4838164], [113.9262661, 22.4837228], [113.9263885, 22.4837918], [113.9263796, 22.4838053], [113.926822, 22.4840544], [113.9267701, 22.4841331], [113.9267353, 22.4841135], [113.9266749, 22.484205], [113.9266028, 22.4841644], [113.9266149, 22.4841461], [113.9265288, 22.4840975], [113.9265769, 22.4840247], [113.926425, 22.4839391], [113.9264072, 22.4839662], [113.926348, 22.4839329], [113.9263119, 22.4839893], [113.9262186, 22.4839364], [113.9262735, 22.4838554], [113.9262043, 22.4838164]]]]}}, {"type": "Feature", "id": "way/783219931", "properties": {"tags": {"addr:housename": "半岛城邦二期", "addr:housename:en": "Peninsula Phase 2", "addr:housename:zh": "半岛城邦二期", "building": "apartments", "building:levels": "32", "height": "100", "name": "3栋", "name:zh": "3栋"}, "heightStatus": "height_tag_unverified", "source": "OpenStreetMap", "license": "ODbL-1.0"}, "geometry": {"type": "MultiPolygon", "coordinates": [[[[113.9260633, 22.4841701], [113.9262186, 22.4839364], [113.9263119, 22.4839893], [113.9262515, 22.4840804], [113.926284, 22.4840988], [113.9262319, 22.4841773], [113.926252, 22.4841886], [113.9262093, 22.484253], [113.9260633, 22.4841701]]]]}}, {"type": "Feature", "id": "way/903452930", "properties": {"tags": {"building": "residential", "building:levels": "31"}, "heightStatus": "levels_only_unverified", "source": "OpenStreetMap", "license": "ODbL-1.0"}, "geometry": {"type": "MultiPolygon", "coordinates": [[[[113.9266837, 22.4902292], [113.9267628, 22.490076], [113.9268637, 22.4901205], [113.926842, 22.4901626], [113.9268917, 22.4901846], [113.92692, 22.4901298], [113.9268844, 22.4901141], [113.9269264, 22.4900326], [113.9270808, 22.4901006], [113.9270379, 22.4901839], [113.9269949, 22.490165], [113.9269757, 22.4902021], [113.9270809, 22.4902484], [113.9270456, 22.4903168], [113.9269264, 22.4902642], [113.9268696, 22.4903742], [113.9267903, 22.4903393], [113.9268432, 22.4902369], [113.9268137, 22.4902239], [113.9267873, 22.4902749], [113.9266837, 22.4902292]]]]}}, {"type": "Feature", "id": "way/903452931", "properties": {"tags": {"building": "residential", "building:levels": "34"}, "heightStatus": "levels_only_unverified", "source": "OpenStreetMap", "license": "ODbL-1.0"}, "geometry": {"type": "MultiPolygon", "coordinates": [[[[113.9271154, 22.4906278], [113.9271945, 22.4904747], [113.9272954, 22.4905192], [113.9272737, 22.4905613], [113.9273234, 22.4905832], [113.9273517, 22.4905284], [113.9273161, 22.4905127], [113.9273581, 22.4904313], [113.9275126, 22.4904993], [113.9274696, 22.4905826], [113.9274266, 22.4905636], [113.9274075, 22.4906008], [113.9275126, 22.4906471], [113.9274773, 22.4907154], [113.9273581, 22.4906629], [113.9273013, 22.4907729], [113.927222, 22.4907379], [113.9272749, 22.4906355], [113.9272454, 22.4906225], [113.9272191, 22.4906735], [113.9271154, 22.4906278]]]]}}, {"type": "Feature", "id": "way/903452932", "properties": {"tags": {"building": "residential", "building:levels": "34"}, "heightStatus": "levels_only_unverified", "source": "OpenStreetMap", "license": "ODbL-1.0"}, "geometry": {"type": "MultiPolygon", "coordinates": [[[[113.9274792, 22.491039], [113.9275584, 22.4908858], [113.9276593, 22.4909303], [113.9276375, 22.4909725], [113.9276873, 22.4909944], [113.9277156, 22.4909396], [113.9276799, 22.4909239], [113.927722, 22.4908424], [113.9278764, 22.4909105], [113.9278335, 22.4909937], [113.9277905, 22.4909748], [113.9277713, 22.4910119], [113.9278764, 22.4910583], [113.9278412, 22.4911266], [113.9277219, 22.4910741], [113.9276652, 22.4911841], [113.9275859, 22.4911491], [113.9276387, 22.4910467], [113.9276093, 22.4910337], [113.9275829, 22.4910847], [113.9274792, 22.491039]]]]}}, {"type": "Feature", "id": "way/903462814", "properties": {"tags": {"addr:housename": "半岛城邦一期", "addr:housename:en": "Peninsula Phase 1", "addr:housename:zh": "半岛城邦一期", "building": "apartments", "building:levels": "29", "name": "6栋", "name:zh": "6栋"}, "heightStatus": "levels_only_unverified", "source": "OpenStreetMap", "license": "ODbL-1.0"}, "geometry": {"type": "MultiPolygon", "coordinates": [[[[113.9258881, 22.4826045], [113.9259429, 22.4824962], [113.9260151, 22.482394], [113.9260824, 22.4824287], [113.9261155, 22.4823738], [113.9262345, 22.4824223], [113.9263426, 22.4824908], [113.9262638, 22.4826215], [113.9261476, 22.4825616], [113.9261006, 22.4825707], [113.9260346, 22.48268], [113.9258881, 22.4826045]]]]}}, {"type": "Feature", "id": "way/903462815", "properties": {"tags": {"addr:housename": "半岛城邦一期", "addr:housename:en": "Peninsula Phase 1", "addr:housename:zh": "半岛城邦一期", "building": "apartments", "building:levels": "29", "name": "7栋", "name:zh": "7栋"}, "heightStatus": "levels_only_unverified", "source": "OpenStreetMap", "license": "ODbL-1.0"}, "geometry": {"type": "MultiPolygon", "coordinates": [[[[113.9266524, 22.4824293], [113.9267072, 22.482321], [113.9267794, 22.4822188], [113.9268467, 22.4822535], [113.9268798, 22.4821986], [113.9269988, 22.4822471], [113.9271069, 22.4823155], [113.9270281, 22.4824463], [113.9269118, 22.4823864], [113.9268648, 22.4823955], [113.9267989, 22.4825047], [113.9266524, 22.4824293]]]]}}, {"type": "Feature", "id": "way/903462816", "properties": {"tags": {"addr:housename": "半岛城邦一期", "addr:housename:en": "Peninsula Phase 1", "addr:housename:zh": "半岛城邦一期", "building": "apartments", "building:levels": "27", "name": "8栋", "name:zh": "8栋"}, "heightStatus": "levels_only_unverified", "source": "OpenStreetMap", "license": "ODbL-1.0"}, "geometry": {"type": "MultiPolygon", "coordinates": [[[[113.9274147, 22.4822702], [113.9274695, 22.4821619], [113.9275417, 22.4820597], [113.927609, 22.4820943], [113.9276421, 22.4820395], [113.9277611, 22.4820879], [113.9278692, 22.4821564], [113.9277904, 22.4822871], [113.9276742, 22.4822273], [113.9276272, 22.4822364], [113.9275612, 22.4823456], [113.9274147, 22.4822702]]]]}}, {"type": "Feature", "id": "way/903859186", "properties": {"tags": {"building": "yes"}, "heightStatus": "unknown", "source": "OpenStreetMap", "license": "ODbL-1.0"}, "geometry": {"type": "MultiPolygon", "coordinates": [[[[113.9265481, 22.4863916], [113.9271656, 22.4862073], [113.9271348, 22.4861193], [113.9273635, 22.4860511], [113.9274849, 22.4863989], [113.9266388, 22.4866511], [113.9265481, 22.4863916]]]]}}, {"type": "Feature", "id": "way/959195120", "properties": {"tags": {"building": "yes", "name": "蛇口渔港中渔大洲水产品展示交易中心", "operator": "中渔大洲", "shop": "seafood"}, "heightStatus": "unknown", "source": "OpenStreetMap", "license": "ODbL-1.0"}, "geometry": {"type": "MultiPolygon", "coordinates": [[[[113.9255284, 22.4859508], [113.9255537, 22.4858263], [113.9258636, 22.4858801], [113.9258981, 22.4857117], [113.926007, 22.4857308], [113.9259272, 22.4861191], [113.9259171, 22.4861422], [113.9259025, 22.4861617], [113.925881, 22.4861795], [113.9258554, 22.4861918], [113.9258347, 22.4861678], [113.9258228, 22.4861442], [113.9258192, 22.4861222], [113.9258184, 22.4861], [113.925838, 22.4860045], [113.9255284, 22.4859508]]]]}}, {"type": "Feature", "id": "way/1144187464", "properties": {"tags": {"amenity": "fuel", "building": "roof", "layer": "1"}, "heightStatus": "unknown", "source": "OpenStreetMap", "license": "ODbL-1.0"}, "geometry": {"type": "MultiPolygon", "coordinates": [[[[113.9245886, 22.4861974], [113.9246073, 22.486039], [113.9247927, 22.4860577], [113.924774, 22.486216], [113.9245886, 22.4861974]]]]}}, {"type": "Feature", "id": "way/1238744665", "properties": {"tags": {"building": "retail"}, "heightStatus": "unknown", "source": "OpenStreetMap", "license": "ODbL-1.0"}, "geometry": {"type": "MultiPolygon", "coordinates": [[[[113.9219486, 22.482527], [113.9228587, 22.4823117], [113.9230304, 22.4829315], [113.9235954, 22.4827979], [113.9237652, 22.4834109], [113.9227027, 22.4836632], [113.9222501, 22.4837691], [113.9221383, 22.4833613], [113.9220167, 22.4829264], [113.9220567, 22.482917], [113.9219486, 22.482527]]]]}}, {"type": "Feature", "id": "way/1238744666", "properties": {"tags": {"building": "commercial", "building:levels": "57", "height": "250", "ref": "T2"}, "heightStatus": "height_tag_unverified", "source": "OpenStreetMap", "license": "ODbL-1.0"}, "geometry": {"type": "MultiPolygon", "coordinates": [[[[113.9221383, 22.4833613], [113.9225909, 22.4832554], [113.9227027, 22.4836632], [113.9222501, 22.4837691], [113.9221383, 22.4833613]]]]}}, {"type": "Feature", "id": "way/1238744667", "properties": {"tags": {"building": "apartments", "building:levels": "38", "height": "171", "ref": "T1B"}, "heightStatus": "height_tag_unverified", "source": "OpenStreetMap", "license": "ODbL-1.0"}, "geometry": {"type": "MultiPolygon", "coordinates": [[[[113.9230934, 22.4829332], [113.9232848, 22.4828883], [113.9232902, 22.482908], [113.9233479, 22.4828945], [113.9233425, 22.4828748], [113.9235907, 22.4828167], [113.9236424, 22.4830052], [113.9234004, 22.4830619], [113.9233918, 22.4830306], [113.9233129, 22.4830491], [113.9233215, 22.4830804], [113.9231451, 22.4831217], [113.9230934, 22.4829332]]]]}}, {"type": "Feature", "id": "way/1238744668", "properties": {"tags": {"building": "apartments", "building:levels": "38", "height": "156", "ref": "T1A"}, "heightStatus": "height_tag_unverified", "source": "OpenStreetMap", "license": "ODbL-1.0"}, "geometry": {"type": "MultiPolygon", "coordinates": [[[[113.9222884, 22.4824682], [113.9225797, 22.4823972], [113.9225853, 22.4824169], [113.9226424, 22.4824029], [113.9226368, 22.4823833], [113.9228518, 22.4823309], [113.9229058, 22.4825202], [113.9227053, 22.4825691], [113.9226958, 22.4825359], [113.9226628, 22.4825439], [113.9226093, 22.482557], [113.9226188, 22.4825901], [113.9223424, 22.4826574], [113.9222884, 22.4824682]]]]}}, {"type": "Feature", "id": "way/1281253360", "properties": {"tags": {"building": "residential", "building:levels": "24", "name": "1号楼"}, "heightStatus": "levels_only_unverified", "source": "OpenStreetMap", "license": "ODbL-1.0"}, "geometry": {"type": "MultiPolygon", "coordinates": [[[[113.9240931, 22.4823442], [113.9242118, 22.4822888], [113.9243805, 22.4825955], [113.9243493, 22.4826359], [113.9242721, 22.4826717], [113.9240931, 22.4823442]]]]}}, {"type": "Feature", "id": "way/1281253361", "properties": {"tags": {"building": "residential", "building:levels": "26", "name": "2号楼"}, "heightStatus": "levels_only_unverified", "source": "OpenStreetMap", "license": "ODbL-1.0"}, "geometry": {"type": "MultiPolygon", "coordinates": [[[[113.9243031, 22.4826957], [113.9243493, 22.4826359], [113.9243805, 22.4825955], [113.9246806, 22.4827931], [113.9246032, 22.4828934], [113.9243031, 22.4826957]]]]}}, {"type": "Feature", "id": "way/1281253362", "properties": {"tags": {"building": "residential", "building:levels": "28", "name": "3号楼"}, "heightStatus": "levels_only_unverified", "source": "OpenStreetMap", "license": "ODbL-1.0"}, "geometry": {"type": "MultiPolygon", "coordinates": [[[[113.9247487, 22.4829574], [113.9247907, 22.4828318], [113.9251333, 22.4829297], [113.9251457, 22.4829967], [113.9251231, 22.4830643], [113.9247487, 22.4829574]]]]}}, {"type": "Feature", "id": "way/1281253363", "properties": {"tags": {"building": "residential", "building:levels": "30", "name": "4号楼"}, "heightStatus": "levels_only_unverified", "source": "OpenStreetMap", "license": "ODbL-1.0"}, "geometry": {"type": "MultiPolygon", "coordinates": [[[[113.9251333, 22.4829297], [113.9255069, 22.4828708], [113.9255318, 22.4830055], [113.9251582, 22.4830644], [113.9251457, 22.4829967], [113.9251333, 22.4829297]]]]}}, {"type": "Feature", "id": "way/1281253364", "properties": {"tags": {"building": "residential", "name": "7号楼"}, "heightStatus": "unknown", "source": "OpenStreetMap", "license": "ODbL-1.0"}, "geometry": {"type": "MultiPolygon", "coordinates": [[[[113.9251343, 22.4821649], [113.9251394, 22.4821502], [113.9251509, 22.4821383], [113.9251694, 22.4821327], [113.9252124, 22.4821259], [113.9251759, 22.4819283], [113.9252457, 22.4819173], [113.9252206, 22.4818287], [113.9252493, 22.4818217], [113.9252034, 22.4816607], [113.9252848, 22.4816415], [113.9252962, 22.4816451], [113.9254216, 22.4823251], [113.9255018, 22.4827588], [113.9253343, 22.4827852], [113.9252951, 22.4825733], [113.925252, 22.4825801], [113.9252352, 22.4825783], [113.9252197, 22.4825722], [113.9252089, 22.4825606], [113.9252014, 22.4825459], [113.9251676, 22.4823639], [113.9251343, 22.4821828], [113.9251343, 22.4821649]]]]}}, {"type": "Feature", "id": "way/1293783468", "properties": {"tags": {"addr:city": "深圳市", "addr:country": "CN", "addr:district": "南山区", "addr:postcode": "518054", "addr:province": "广东省", "addr:street": "蛇口街道", "addr:subdistrict": "蛇口街道", "building": "retail", "name": "蛇口市场", "name:en": "Shekou Market", "name:zh": "蛇口市场", "name:zh-Hans": "蛇口市场", "name:zh-Hant": "蛇口市場"}, "heightStatus": "unknown", "source": "OpenStreetMap", "license": "ODbL-1.0"}, "geometry": {"type": "MultiPolygon", "coordinates": [[[[113.9230514, 22.4890459], [113.9233234, 22.488936], [113.9236303, 22.4895846], [113.9233583, 22.4896945], [113.9230514, 22.4890459]]]]}}, {"type": "Feature", "id": "way/1303921222", "properties": {"tags": {"building": "train_station", "building:levels": "0", "building:levels:underground": "2", "layer": "-1", "location": "underground", "name": "东角头站", "name:en": "Dongjiaotou Station", "name:zh": "东角头站", "note": "地铁2号线", "public_transport": "station", "start_date": "2010-12-28", "wikidata": "Q5295944", "wikipedia": "zh:东角头站"}, "heightStatus": "levels_only_unverified", "source": "OpenStreetMap", "license": "ODbL-1.0"}, "geometry": {"type": "MultiPolygon", "coordinates": [[[[113.9254665, 22.4892497], [113.9254818, 22.4892462], [113.9254795, 22.489232], [113.9255084, 22.4892262], [113.9255021, 22.4892018], [113.925878, 22.4891134], [113.9258428, 22.4889942], [113.9254814, 22.4890721], [113.9254705, 22.4890325], [113.9258888, 22.488935], [113.9259475, 22.4891601], [113.9259947, 22.4891518], [113.9262361, 22.4891093], [113.9268176, 22.4890031], [113.9267742, 22.4888555], [113.9268383, 22.4888358], [113.9271036, 22.4887613], [113.9271257, 22.4888407], [113.9268623, 22.4889124], [113.9268836, 22.4889899], [113.927159, 22.4889308], [113.9271719, 22.4889837], [113.9271558, 22.4889871], [113.9271716, 22.489049], [113.9271847, 22.4890461], [113.9271969, 22.489099], [113.9271822, 22.4891019], [113.9271856, 22.4891163], [113.9270489, 22.489142], [113.9270462, 22.4891272], [113.9268382, 22.4891655], [113.9268409, 22.4891766], [113.9269866, 22.4891524], [113.9270568, 22.4891695], [113.9273562, 22.4890673], [113.9273727, 22.4891086], [113.9270602, 22.489216], [113.9269857, 22.4891989], [113.9267994, 22.4892318], [113.9267876, 22.4891759], [113.92598, 22.4893289], [113.926141, 22.4895203], [113.925899, 22.4897033], [113.9258811, 22.4896823], [113.9258227, 22.4897252], [113.9257661, 22.4896623], [113.9258092, 22.4896285], [113.9258306, 22.4896518], [113.9260332, 22.4894974], [113.9259317, 22.4893844], [113.925745, 22.4894201], [113.9255779, 22.4895445], [113.9255387, 22.4895011], [113.9255204, 22.4894165], [113.9255039, 22.4894196], [113.9254929, 22.489369], [113.9255075, 22.4893656], [113.9254929, 22.4892996], [113.9254762, 22.4893031], [113.9254665, 22.4892497]]]]}}, {"type": "Feature", "id": "way/1382226457", "properties": {"tags": {"building": "commercial"}, "heightStatus": "unknown", "source": "OpenStreetMap", "license": "ODbL-1.0"}, "geometry": {"type": "MultiPolygon", "coordinates": [[[[113.9181459, 22.4896179], [113.9181465, 22.4895183], [113.9181471, 22.4894211], [113.9181472, 22.4894139], [113.9182379, 22.4893265], [113.9183826, 22.4893281], [113.9188204, 22.489333], [113.9189274, 22.4892369], [113.9189288, 22.4891397], [113.9189303, 22.489044], [113.9190188, 22.489045], [113.9191635, 22.4890467], [113.9192378, 22.4890475], [113.9192509, 22.4891433], [113.9192715, 22.4892941], [113.9192766, 22.4893417], [113.9192729, 22.4893893], [113.9192603, 22.4894356], [113.9192393, 22.4894793], [113.9192105, 22.4895189], [113.9191743, 22.4895537], [113.9191322, 22.4895822], [113.9190853, 22.4896035], [113.9190352, 22.489617], [113.9189833, 22.4896222], [113.9181459, 22.4896179]]]]}}, {"type": "Feature", "id": "way/1382226458", "properties": {"tags": {"addr:housename": "海尚国际", "addr:housename:zh": "海尚国际", "building": "apartments", "building:levels": "32", "layer": "1", "name": "丰润阁", "name:zh": "丰润阁"}, "heightStatus": "levels_only_unverified", "source": "OpenStreetMap", "license": "ODbL-1.0"}, "geometry": {"type": "MultiPolygon", "coordinates": [[[[113.9181465, 22.4895183], [113.9181744, 22.4894931], [113.9181873, 22.4895053], [113.9182127, 22.4894824], [113.9181471, 22.4894211], [113.9181888, 22.4893843], [113.9182038, 22.4893986], [113.9182374, 22.4893683], [113.9182379, 22.4893265], [113.9183826, 22.4893281], [113.9183821, 22.48937], [113.9184148, 22.4894009], [113.9184302, 22.489387], [113.91847, 22.4894248], [113.9184037, 22.4894846], [113.9184285, 22.489508], [113.9184417, 22.4894962], [113.9184689, 22.489522], [113.9183882, 22.4895948], [113.9183326, 22.4895422], [113.9182822, 22.4895416], [113.9182253, 22.4895929], [113.9181465, 22.4895183]]]]}}, {"type": "Feature", "id": "way/1427019328", "properties": {"tags": {"addr:housename": "海尚国际", "addr:housename:zh": "海尚国际", "building": "apartments", "building:levels": "31", "layer": "1", "name": "丰盛阁", "name:zh": "丰盛阁"}, "heightStatus": "levels_only_unverified", "source": "OpenStreetMap", "license": "ODbL-1.0"}, "geometry": {"type": "MultiPolygon", "coordinates": [[[[113.9189274, 22.4892369], [113.9189553, 22.4892117], [113.9189682, 22.4892239], [113.9189936, 22.489201], [113.9189288, 22.4891397], [113.9189697, 22.4891029], [113.9189847, 22.4891171], [113.9190182, 22.4890869], [113.9190188, 22.489045], [113.9191635, 22.4890467], [113.9191629, 22.4890885], [113.9191956, 22.4891195], [113.9192111, 22.4891056], [113.9192509, 22.4891433], [113.9191846, 22.4892031], [113.9192094, 22.4892266], [113.9192226, 22.4892147], [113.9192498, 22.4892405], [113.919169, 22.4893133], [113.9191135, 22.4892607], [113.9190631, 22.4892602], [113.9190062, 22.4893115], [113.9189274, 22.4892369]]]]}}, {"type": "Feature", "id": "way/1427019329", "properties": {"tags": {"addr:housename": "海尚国际", "addr:housename:zh": "海尚国际", "building": "apartments", "building:levels": "31", "name": "丰华阁", "name:zh": "丰华阁"}, "heightStatus": "levels_only_unverified", "source": "OpenStreetMap", "license": "ODbL-1.0"}, "geometry": {"type": "MultiPolygon", "coordinates": [[[[113.9184687, 22.489233], [113.9184966, 22.4892079], [113.9185095, 22.48922], [113.9185349, 22.4891972], [113.9184701, 22.4891359], [113.918511, 22.489099], [113.918526, 22.4891133], [113.9185595, 22.4890831], [113.9185601, 22.4890412], [113.9187048, 22.4890428], [113.9187042, 22.4890847], [113.9187369, 22.4891157], [113.9187524, 22.4891018], [113.9187922, 22.4891395], [113.9187259, 22.4891993], [113.9187507, 22.4892228], [113.9187638, 22.4892109], [113.9187911, 22.4892367], [113.9187103, 22.4893095], [113.9186548, 22.4892569], [113.9186044, 22.4892563], [113.9185475, 22.4893076], [113.9184687, 22.489233]]]]}}, {"type": "Feature", "id": "way/1427022626", "properties": {"tags": {"building": "apartments"}, "heightStatus": "unknown", "source": "OpenStreetMap", "license": "ODbL-1.0"}, "geometry": {"type": "MultiPolygon", "coordinates": [[[[113.9189603, 22.4910829], [113.9190175, 22.4910725], [113.9190005, 22.4909927], [113.9190542, 22.4909829], [113.9190712, 22.4910627], [113.9191857, 22.4910418], [113.9191686, 22.4909621], [113.9192223, 22.4909523], [113.9192394, 22.491032], [113.9193538, 22.4910112], [113.9193368, 22.4909314], [113.9193905, 22.4909216], [113.9194075, 22.4910014], [113.9195335, 22.4909813], [113.9195616, 22.4909425], [113.9195509, 22.4908924], [113.9196463, 22.490875], [113.9196648, 22.4909617], [113.9195918, 22.4910622], [113.9194269, 22.4910923], [113.9194234, 22.4910758], [113.9193697, 22.4910856], [113.9193732, 22.4911021], [113.9192588, 22.4911229], [113.9192553, 22.4911065], [113.9192016, 22.4911163], [113.9192051, 22.4911327], [113.9190906, 22.4911536], [113.9190871, 22.4911371], [113.9190334, 22.4911469], [113.9190369, 22.4911634], [113.9189797, 22.4911738], [113.9189603, 22.4910829]]]]}}, {"type": "Feature", "id": "way/1427022628", "properties": {"tags": {"addr:housename": "南水小区", "addr:housename:zh": "南水小区", "building": "apartments", "name": "B区12栋", "name:zh": "B区12栋"}, "heightStatus": "unknown", "source": "OpenStreetMap", "license": "ODbL-1.0"}, "geometry": {"type": "MultiPolygon", "coordinates": [[[[113.9183966, 22.4909017], [113.9184975, 22.4908833], [113.9184891, 22.4908436], [113.9185558, 22.4908315], [113.9185643, 22.4908711], [113.9187189, 22.4908428], [113.9187495, 22.4909859], [113.9186827, 22.4909981], [113.9186775, 22.4909738], [113.9186034, 22.4909279], [113.9184098, 22.4909633], [113.9183966, 22.4909017]]]]}}, {"type": "Feature", "id": "way/1427022636", "properties": {"tags": {"addr:housename": "南水小区", "addr:housename:zh": "南水小区", "building": "apartments", "name": "B区13栋", "name:zh": "B区13栋"}, "heightStatus": "unknown", "source": "OpenStreetMap", "license": "ODbL-1.0"}, "geometry": {"type": "MultiPolygon", "coordinates": [[[[113.9189695, 22.4907818], [113.9190078, 22.4907764], [113.9190046, 22.4907568], [113.9190429, 22.4907514], [113.9190397, 22.4907318], [113.919078, 22.4907264], [113.9190748, 22.4907069], [113.9191059, 22.4907024], [113.9191092, 22.490722], [113.9191475, 22.4907165], [113.9191508, 22.4907361], [113.9191891, 22.4907306], [113.9191924, 22.4907502], [113.9192307, 22.4907447], [113.9192433, 22.4908203], [113.9191282, 22.4908366], [113.9191254, 22.4908474], [113.9191151, 22.4908532], [113.9191033, 22.4908506], [113.9190971, 22.490841], [113.918982, 22.4908574], [113.9189695, 22.4907818]]]]}}, {"type": "Feature", "id": "way/1427022637", "properties": {"tags": {"addr:housename": "南水小区", "addr:housename:zh": "南水小区", "building": "apartments", "name": "B区14栋", "name:zh": "B区14栋"}, "heightStatus": "unknown", "source": "OpenStreetMap", "license": "ODbL-1.0"}, "geometry": {"type": "MultiPolygon", "coordinates": [[[[113.9186134, 22.4906064], [113.9186518, 22.490601], [113.9186485, 22.4905814], [113.9186869, 22.490576], [113.9186836, 22.4905564], [113.918722, 22.490551], [113.9187187, 22.4905315], [113.9187499, 22.4905271], [113.9187531, 22.4905466], [113.9187915, 22.4905411], [113.9187947, 22.4905607], [113.9188331, 22.4905552], [113.9188363, 22.4905748], [113.9188747, 22.4905693], [113.9188872, 22.4906449], [113.9187722, 22.4906612], [113.9187693, 22.490672], [113.918759, 22.4906778], [113.9187473, 22.4906752], [113.918741, 22.4906656], [113.918626, 22.490682], [113.9186134, 22.4906064]]]]}}, {"type": "Feature", "id": "way/1427022638", "properties": {"tags": {"addr:housename": "南水小区", "addr:housename:zh": "南水小区", "building": "apartments", "name": "B区11栋", "name:zh": "B区11栋"}, "heightStatus": "unknown", "source": "OpenStreetMap", "license": "ODbL-1.0"}, "geometry": {"type": "MultiPolygon", "coordinates": [[[[113.9192317, 22.490494], [113.9192593, 22.4904757], [113.9192463, 22.490459], [113.9192739, 22.4904408], [113.919261, 22.4904241], [113.9192886, 22.4904058], [113.9192756, 22.4903891], [113.9193159, 22.4903624], [113.9194201, 22.4903472], [113.9194673, 22.4903611], [113.9194606, 22.4903807], [113.9194929, 22.4903902], [113.9194862, 22.4904098], [113.9195186, 22.4904193], [113.9195118, 22.4904389], [113.9195442, 22.4904484], [113.9195193, 22.4905205], [113.9193898, 22.4904825], [113.9192794, 22.4905556], [113.9192317, 22.490494]]]]}}, {"type": "Feature", "id": "way/1427022639", "properties": {"tags": {"addr:housename": "南水小区", "addr:housename:zh": "南水小区", "building": "apartments", "name": "B区12栋", "name:zh": "B区12栋"}, "heightStatus": "unknown", "source": "OpenStreetMap", "license": "ODbL-1.0"}, "geometry": {"type": "MultiPolygon", "coordinates": [[[[113.919317, 22.4907849], [113.9193446, 22.4907666], [113.9193317, 22.4907499], [113.9193593, 22.4907317], [113.9193463, 22.490715], [113.9193739, 22.4906967], [113.9193609, 22.49068], [113.9194013, 22.4906533], [113.9195054, 22.4906381], [113.9195527, 22.490652], [113.9195459, 22.4906716], [113.9195783, 22.4906811], [113.9195716, 22.4907007], [113.9196039, 22.4907102], [113.9195972, 22.4907297], [113.9196295, 22.4907393], [113.9196047, 22.4908114], [113.9194752, 22.4907734], [113.9193647, 22.4908465], [113.919317, 22.4907849]]]]}}, {"type": "Feature", "id": "way/1427022640", "properties": {"tags": {"addr:housename": "南水小区", "addr:housename:zh": "南水小区", "building": "apartments", "name": "B区9栋", "name:zh": "B区9栋"}, "heightStatus": "unknown", "source": "OpenStreetMap", "license": "ODbL-1.0"}, "geometry": {"type": "MultiPolygon", "coordinates": [[[[113.9188384, 22.4902672], [113.918866, 22.4902489], [113.918853, 22.4902322], [113.9188806, 22.490214], [113.9188677, 22.4901973], [113.9188952, 22.490179], [113.9188823, 22.4901623], [113.9189226, 22.4901356], [113.9190268, 22.4901204], [113.919074, 22.4901343], [113.9190673, 22.4901539], [113.9190996, 22.4901634], [113.9191322, 22.4901586], [113.9191451, 22.490234], [113.9189965, 22.4902557], [113.9188861, 22.4903288], [113.9188384, 22.4902672]]]]}}, {"type": "Feature", "id": "way/1427022641", "properties": {"tags": {"addr:housename": "南水小区", "addr:housename:zh": "南水小区", "building": "apartments", "name": "B区10栋", "name:zh": "B区10栋"}, "heightStatus": "unknown", "source": "OpenStreetMap", "license": "ODbL-1.0"}, "geometry": {"type": "MultiPolygon", "coordinates": [[[[113.9191322, 22.4901586], [113.9191647, 22.4901539], [113.9191923, 22.4901356], [113.9191793, 22.4901189], [113.9192196, 22.4900922], [113.9193238, 22.490077], [113.9193711, 22.4900909], [113.9193643, 22.4901105], [113.9193967, 22.49012], [113.9193899, 22.4901396], [113.9194223, 22.4901491], [113.9194155, 22.4901687], [113.9194479, 22.4901782], [113.919423, 22.4902503], [113.9192936, 22.4902123], [113.9191451, 22.490234], [113.9191322, 22.4901586]]]]}}, {"type": "Feature", "id": "way/1427022643", "properties": {"tags": {"addr:housename": "南水小区", "addr:housename:zh": "南水小区", "building": "apartments", "name": "B区7栋", "name:zh": "B区7栋"}, "heightStatus": "unknown", "source": "OpenStreetMap", "license": "ODbL-1.0"}, "geometry": {"type": "MultiPolygon", "coordinates": [[[[113.9180728, 22.4903131], [113.9181053, 22.4903084], [113.9181329, 22.4902901], [113.91812, 22.4902734], [113.9181603, 22.4902467], [113.9182644, 22.4902315], [113.9183117, 22.4902454], [113.918305, 22.490265], [113.9183373, 22.4902745], [113.9183306, 22.4902941], [113.9183629, 22.4903036], [113.9183562, 22.4903232], [113.9183885, 22.4903327], [113.9183637, 22.4904048], [113.9182342, 22.4903668], [113.9180857, 22.4903885], [113.9180728, 22.4903131]]]]}}, {"type": "Feature", "id": "way/1427022644", "properties": {"tags": {"addr:housename": "南水小区", "addr:housename:zh": "南水小区", "building": "apartments", "name": "B区8栋", "name:zh": "B区8栋"}, "heightStatus": "unknown", "source": "OpenStreetMap", "license": "ODbL-1.0"}, "geometry": {"type": "MultiPolygon", "coordinates": [[[[113.9184486, 22.4903277], [113.9184762, 22.4903094], [113.9184632, 22.4902927], [113.9184908, 22.4902745], [113.9184779, 22.4902578], [113.9185055, 22.4902395], [113.9184925, 22.4902228], [113.9185328, 22.4901961], [113.918637, 22.4901809], [113.9186843, 22.4901948], [113.9186775, 22.4902144], [113.9187099, 22.4902239], [113.9187031, 22.4902435], [113.9187355, 22.490253], [113.9187287, 22.4902726], [113.9187611, 22.4902821], [113.9187362, 22.4903542], [113.9186068, 22.4903162], [113.9184963, 22.4903893], [113.9184486, 22.4903277]]]]}}, {"type": "Feature", "id": "way/1437143147", "properties": {"tags": {"addr:housename": "海韵嘉园", "addr:housename:en": "Haiyun Jiayuan", "addr:housename:zh": "海韵嘉园", "building": "apartments", "name": "6栋", "name:en": "Block 6", "name:zh": "6栋"}, "heightStatus": "unknown", "source": "OpenStreetMap", "license": "ODbL-1.0"}, "geometry": {"type": "MultiPolygon", "coordinates": [[[[113.9211154, 22.4886044], [113.9212216, 22.4884355], [113.9212861, 22.4884701], [113.9213274, 22.4884044], [113.9214738, 22.488483], [113.9214078, 22.4885879], [113.9214622, 22.4886171], [113.9214215, 22.4886818], [113.9212196, 22.4885735], [113.9211788, 22.4886385], [113.9211154, 22.4886044]]]]}}, {"type": "Feature", "id": "way/1437143148", "properties": {"tags": {"addr:housename": "海韵嘉园", "addr:housename:en": "Haiyun Jiayuan", "addr:housename:zh": "海韵嘉园", "building": "apartments", "name": "5栋", "name:en": "Block 5", "name:zh": "5栋"}, "heightStatus": "unknown", "source": "OpenStreetMap", "license": "ODbL-1.0"}, "geometry": {"type": "MultiPolygon", "coordinates": [[[[113.9212218, 22.4889445], [113.9212621, 22.4889311], [113.9212432, 22.4888826], [113.9212848, 22.4888011], [113.9214387, 22.4888682], [113.9214007, 22.4889427], [113.9214384, 22.4890396], [113.9213196, 22.4890791], [113.9212932, 22.489011], [113.9212522, 22.4890246], [113.9212218, 22.4889445]]]]}}, {"type": "Feature", "id": "way/1437143149", "properties": {"tags": {"addr:housename": "海韵嘉园", "addr:housename:en": "Haiyun Jiayuan", "addr:housename:zh": "海韵嘉园", "building": "apartments", "name": "4栋", "name:en": "Block 4", "name:zh": "4栋"}, "heightStatus": "unknown", "source": "OpenStreetMap", "license": "ODbL-1.0"}, "geometry": {"type": "MultiPolygon", "coordinates": [[[[113.920932, 22.4890407], [113.9210418, 22.4890042], [113.9210237, 22.4889575], [113.9211341, 22.4889209], [113.9211523, 22.4889676], [113.9212218, 22.4889445], [113.9212522, 22.4890246], [113.9211834, 22.4890474], [113.9212021, 22.4890957], [113.9210916, 22.4891323], [113.9210729, 22.4890841], [113.9209631, 22.4891205], [113.920932, 22.4890407]]]]}}, {"type": "Feature", "id": "way/1437143150", "properties": {"tags": {"addr:housename": "海韵嘉园", "addr:housename:en": "Haiyun Jiayuan", "addr:housename:zh": "海韵嘉园", "building": "apartments", "name": "3栋", "name:en": "Block 3", "name:zh": "3栋"}, "heightStatus": "unknown", "source": "OpenStreetMap", "license": "ODbL-1.0"}, "geometry": {"type": "MultiPolygon", "coordinates": [[[[113.920597, 22.4888608], [113.9206213, 22.4888324], [113.920608, 22.4888228], [113.9206963, 22.4887196], [113.9207487, 22.4887579], [113.9207667, 22.4886985], [113.9209037, 22.488734], [113.9208992, 22.488749], [113.9209368, 22.4887587], [113.9209279, 22.4887881], [113.9209501, 22.4887938], [113.9209363, 22.4888394], [113.9208981, 22.4888296], [113.9209201, 22.4888921], [113.9206954, 22.4889596], [113.9206734, 22.4888971], [113.9206488, 22.4889258], [113.9206086, 22.4888964], [113.9206229, 22.4888797], [113.920597, 22.4888608]]]]}}, {"type": "Feature", "id": "way/1437143151", "properties": {"tags": {"addr:housename": "海韵嘉园", "addr:housename:en": "Haiyun Jiayuan", "addr:housename:zh": "海韵嘉园", "building": "apartments", "name": "2栋", "name:en": "Block 2", "name:zh": "2栋"}, "heightStatus": "unknown", "source": "OpenStreetMap", "license": "ODbL-1.0"}, "geometry": {"type": "MultiPolygon", "coordinates": [[[[113.9201562, 22.4889938], [113.9201805, 22.4889655], [113.9201672, 22.4889558], [113.9202555, 22.4888527], [113.9203079, 22.4888909], [113.9203259, 22.4888316], [113.9204629, 22.488867], [113.9204584, 22.488882], [113.920496, 22.4888917], [113.9204871, 22.4889211], [113.9205093, 22.4889269], [113.9204955, 22.4889725], [113.9204573, 22.4889626], [113.9204793, 22.4890251], [113.9202546, 22.4890926], [113.9202326, 22.4890301], [113.920208, 22.4890588], [113.9201678, 22.4890294], [113.9201821, 22.4890127], [113.9201562, 22.4889938]]]]}}, {"type": "Feature", "id": "way/1437143152", "properties": {"tags": {"addr:housename": "海韵嘉园", "addr:housename:en": "Haiyun Jiayuan", "addr:housename:zh": "海韵嘉园", "building": "apartments", "name": "1栋", "name:en": "Block 1", "name:zh": "1栋"}, "heightStatus": "unknown", "source": "OpenStreetMap", "license": "ODbL-1.0"}, "geometry": {"type": "MultiPolygon", "coordinates": [[[[113.9197049, 22.4891211], [113.9197292, 22.4890928], [113.919716, 22.4890831], [113.9198043, 22.48898], [113.9198566, 22.4890183], [113.9198746, 22.4889589], [113.9200117, 22.4889944], [113.9200071, 22.4890093], [113.9200448, 22.4890191], [113.9200359, 22.4890485], [113.9200581, 22.4890542], [113.9200442, 22.4890998], [113.9200061, 22.4890899], [113.9200281, 22.4891525], [113.9198033, 22.48922], [113.9197813, 22.4891574], [113.9197568, 22.4891861], [113.9197166, 22.4891567], [113.9197308, 22.4891401], [113.9197049, 22.4891211]]]]}}, {"type": "Feature", "id": "way/1437144963", "properties": {"tags": {"addr:housename": "蓝漪花园", "addr:housename:en": "Lanyi Garden", "addr:housename:zh": "蓝漪花园", "building": "apartments", "name": "8栋", "name:en": "Block 8", "name:zh": "8栋"}, "heightStatus": "unknown", "source": "OpenStreetMap", "license": "ODbL-1.0"}, "geometry": {"type": "MultiPolygon", "coordinates": [[[[113.9229423, 22.4875899], [113.923289, 22.4874795], [113.9233318, 22.4875942], [113.9232399, 22.4876235], [113.9232499, 22.4876504], [113.923087, 22.4877023], [113.923077, 22.4876753], [113.922985, 22.4877046], [113.9229423, 22.4875899]]]]}}, {"type": "Feature", "id": "way/1437144964", "properties": {"tags": {"addr:housename": "蓝漪花园", "addr:housename:en": "Lanyi Garden", "addr:housename:zh": "蓝漪花园", "building": "apartments", "name": "9栋", "name:en": "Block 9", "name:zh": "9栋"}, "heightStatus": "unknown", "source": "OpenStreetMap", "license": "ODbL-1.0"}, "geometry": {"type": "MultiPolygon", "coordinates": [[[[113.9233662, 22.4874537], [113.923713, 22.4873433], [113.9237558, 22.4874581], [113.9236638, 22.4874873], [113.9236739, 22.4875143], [113.923511, 22.4875661], [113.9235009, 22.4875392], [113.923409, 22.4875684], [113.9233662, 22.4874537]]]]}}, {"type": "Feature", "id": "way/1437144965", "properties": {"tags": {"addr:housename": "蓝漪花园", "addr:housename:en": "Lanyi Garden", "addr:housename:zh": "蓝漪花园", "building": "apartments", "name": "7栋", "name:en": "Block 7", "name:zh": "7栋"}, "heightStatus": "unknown", "source": "OpenStreetMap", "license": "ODbL-1.0"}, "geometry": {"type": "MultiPolygon", "coordinates": [[[[113.9224922, 22.4877302], [113.922839, 22.4876198], [113.9228817, 22.4877345], [113.9227898, 22.4877638], [113.9227999, 22.4877907], [113.922637, 22.4878426], [113.9226269, 22.4878156], [113.922535, 22.4878449], [113.9224922, 22.4877302]]]]}}, {"type": "Feature", "id": "way/1437144966", "properties": {"tags": {"addr:housename": "蓝漪花园", "addr:housename:en": "Lanyi Garden", "addr:housename:zh": "蓝漪花园", "building": "apartments", "name": "5栋", "name:en": "Block 5", "name:zh": "5栋"}, "heightStatus": "unknown", "source": "OpenStreetMap", "license": "ODbL-1.0"}, "geometry": {"type": "MultiPolygon", "coordinates": [[[[113.9236045, 22.4876199], [113.9238201, 22.4875513], [113.9238744, 22.4876969], [113.9236588, 22.4877656], [113.9236045, 22.4876199]]]]}}, {"type": "Feature", "id": "way/1437144967", "properties": {"tags": {"addr:housename": "蓝漪花园", "addr:housename:en": "Lanyi Garden", "addr:housename:zh": "蓝漪花园", "building": "apartments", "name": "4栋", "name:en": "Block 4", "name:zh": "4栋"}, "heightStatus": "unknown", "source": "OpenStreetMap", "license": "ODbL-1.0"}, "geometry": {"type": "MultiPolygon", "coordinates": [[[[113.9233789, 22.4878148], [113.9235946, 22.4877462], [113.9236489, 22.4878919], [113.9234332, 22.4879605], [113.9233789, 22.4878148]]]]}}, {"type": "Feature", "id": "way/1437144968", "properties": {"tags": {"addr:housename": "蓝漪花园", "addr:housename:en": "Lanyi Garden", "addr:housename:zh": "蓝漪花园", "building": "apartments", "name": "2栋", "name:en": "Block 2", "name:zh": "2栋"}, "heightStatus": "unknown", "source": "OpenStreetMap", "license": "ODbL-1.0"}, "geometry": {"type": "MultiPolygon", "coordinates": [[[[113.9221464, 22.4880796], [113.9223621, 22.488011], [113.9224164, 22.4881567], [113.9222008, 22.4882253], [113.9221464, 22.4880796]]]]}}, {"type": "Feature", "id": "way/1437144969", "properties": {"tags": {"addr:housename": "蓝漪花园", "addr:housename:en": "Lanyi Garden", "addr:housename:zh": "蓝漪花园", "building": "apartments", "name": "6栋", "name:en": "Block 6", "name:zh": "6栋"}, "heightStatus": "unknown", "source": "OpenStreetMap", "license": "ODbL-1.0"}, "geometry": {"type": "MultiPolygon", "coordinates": [[[[113.9220683, 22.4878664], [113.922415, 22.487756], [113.9224578, 22.4878707], [113.9223659, 22.4879], [113.9223759, 22.4879269], [113.922213, 22.4879788], [113.922203, 22.4879518], [113.922111, 22.4879811], [113.9220683, 22.4878664]]]]}}, {"type": "Feature", "id": "way/1437144970", "properties": {"tags": {"addr:housename": "蓝漪花园", "addr:housename:en": "Lanyi Garden", "addr:housename:zh": "蓝漪花园", "building": "apartments", "name": "3栋", "name:en": "Block 3", "name:zh": "3栋"}, "heightStatus": "unknown", "source": "OpenStreetMap", "license": "ODbL-1.0"}, "geometry": {"type": "MultiPolygon", "coordinates": [[[[113.9224387, 22.4881737], [113.9228398, 22.488046], [113.9228941, 22.4881917], [113.922493, 22.4883194], [113.9224387, 22.4881737]]]]}}, {"type": "Feature", "id": "way/1437144971", "properties": {"tags": {"addr:housename": "蓝漪花园", "addr:housename:en": "Lanyi Garden", "addr:housename:zh": "蓝漪花园", "building": "apartments", "building:levels": "28", "name": "东1栋", "name:en": "East Block 1", "name:zh": "东1栋"}, "heightStatus": "levels_only_unverified", "source": "OpenStreetMap", "license": "ODbL-1.0"}, "geometry": {"type": "MultiPolygon", "coordinates": [[[[113.9232539, 22.4882868], [113.9233064, 22.4882634], [113.9232552, 22.4881653], [113.9234027, 22.4880996], [113.9234539, 22.4881977], [113.923559, 22.4881509], [113.9235078, 22.4880527], [113.9236553, 22.487987], [113.9237065, 22.4880851], [113.9238116, 22.4880383], [113.9237604, 22.4879402], [113.9239079, 22.4878744], [113.9239591, 22.4879726], [113.9240117, 22.4879492], [113.9240655, 22.4880524], [113.9233078, 22.48839], [113.9232539, 22.4882868]]]]}}, {"type": "Feature", "id": "way/1437144972", "properties": {"tags": {"addr:housename": "蓝漪花园", "addr:housename:en": "Lanyi Garden", "addr:housename:zh": "蓝漪花园", "building": "apartments", "building:levels": "28", "name": "西1栋", "name:en": "West Block 1", "name:zh": "西1栋"}, "heightStatus": "levels_only_unverified", "source": "OpenStreetMap", "license": "ODbL-1.0"}, "geometry": {"type": "MultiPolygon", "coordinates": [[[[113.9223689, 22.4885767], [113.9224241, 22.4885591], [113.9223857, 22.4884561], [113.9225405, 22.4884068], [113.9225789, 22.4885098], [113.9226892, 22.4884747], [113.9226508, 22.4883717], [113.9228056, 22.4883224], [113.922844, 22.4884254], [113.9229543, 22.4883903], [113.9229159, 22.4882873], [113.9230708, 22.488238], [113.9231092, 22.488341], [113.9231643, 22.4883235], [113.9232047, 22.4884318], [113.9224093, 22.488685], [113.9223689, 22.4885767]]]]}}, {"type": "Feature", "id": "way/1437144974", "properties": {"tags": {"building": "commercial", "building:levels": "20"}, "heightStatus": "levels_only_unverified", "source": "OpenStreetMap", "license": "ODbL-1.0"}, "geometry": {"type": "MultiPolygon", "coordinates": [[[[113.9223711, 22.4910123], [113.9226305, 22.4908944], [113.9227398, 22.4910998], [113.9224804, 22.4912176], [113.9223711, 22.4910123]]]]}}, {"type": "Feature", "id": "way/1454108190", "properties": {"tags": {"building": "yes"}, "heightStatus": "unknown", "source": "OpenStreetMap", "license": "ODbL-1.0"}, "geometry": {"type": "MultiPolygon", "coordinates": [[[[113.9261756, 22.489565], [113.9270582, 22.4892195], [113.9270962, 22.4893025], [113.9269821, 22.4893471], [113.9270237, 22.4894377], [113.9263388, 22.4897061], [113.9263234, 22.4896725], [113.9262783, 22.4896901], [113.9262539, 22.489637], [113.9262155, 22.489652], [113.9261756, 22.489565]]]]}}, {"type": "Feature", "id": "way/1454108191", "properties": {"tags": {"building": "yes"}, "heightStatus": "unknown", "source": "OpenStreetMap", "license": "ODbL-1.0"}, "geometry": {"type": "MultiPolygon", "coordinates": [[[[113.9275801, 22.4893838], [113.9276037, 22.4890884], [113.9278784, 22.4891072], [113.9278547, 22.4894026], [113.9275801, 22.4893838]]]]}}, {"type": "Feature", "id": "way/1454108192", "properties": {"tags": {"building": "yes"}, "heightStatus": "unknown", "source": "OpenStreetMap", "license": "ODbL-1.0"}, "geometry": {"type": "MultiPolygon", "coordinates": [[[[113.9244866, 22.4896147], [113.9249524, 22.4894274], [113.9250046, 22.4895383], [113.9245388, 22.4897255], [113.9244866, 22.4896147]]]]}}, {"type": "Feature", "id": "way/1454108193", "properties": {"tags": {"building": "yes"}, "heightStatus": "unknown", "source": "OpenStreetMap", "license": "ODbL-1.0"}, "geometry": {"type": "MultiPolygon", "coordinates": [[[[113.9239859, 22.4898125], [113.9244517, 22.4896252], [113.9245039, 22.4897362], [113.9240381, 22.4899234], [113.9239859, 22.4898125]]]]}}, {"type": "Feature", "id": "way/1454108194", "properties": {"tags": {"building": "yes"}, "heightStatus": "unknown", "source": "OpenStreetMap", "license": "ODbL-1.0"}, "geometry": {"type": "MultiPolygon", "coordinates": [[[[113.9241408, 22.4900711], [113.924279, 22.4900125], [113.9244172, 22.4901342], [113.9251035, 22.489706], [113.9251685, 22.4897751], [113.9242888, 22.4903791], [113.9241408, 22.4900711]]]]}}, {"type": "Feature", "id": "way/1498951976", "properties": {"tags": {"building": "yes", "leisure": "bandstand"}, "heightStatus": "unknown", "source": "OpenStreetMap", "license": "ODbL-1.0"}, "geometry": {"type": "MultiPolygon", "coordinates": [[[[113.9261675, 22.4882941], [113.9261941, 22.488257], [113.9262459, 22.4882286], [113.92631, 22.4882167], [113.9263543, 22.4882211], [113.9263922, 22.4882289], [113.9264603, 22.4882604], [113.9265023, 22.4883055], [113.9265504, 22.4883684], [113.9265746, 22.4884277], [113.9265831, 22.4884542], [113.9262713, 22.4885159], [113.9261736, 22.4883615], [113.9261675, 22.4882941]]]]}}, {"type": "Feature", "id": "way/1513995416", "properties": {"tags": {"building": "construction", "building:levels": "0", "building:levels:underground": "2", "construction": "train_station", "construction:public_transport": "station", "layer": "-1", "location": "underground", "name": "东角头站", "name:en": "Dongjiaotou Station", "name:zh": "东角头站", "note": "地铁13号线"}, "heightStatus": "levels_only_unverified", "source": "OpenStreetMap", "license": "ODbL-1.0"}, "geometry": {"type": "MultiPolygon", "coordinates": [[[[113.9259947, 22.4891518], [113.9261405, 22.4888695], [113.9272739, 22.488366], [113.9271304, 22.4880964], [113.9271605, 22.4880827], [113.9271943, 22.4880673], [113.9273377, 22.4883368], [113.9277353, 22.4881493], [113.9276368, 22.4879674], [113.9279709, 22.4877988], [113.9282494, 22.4879091], [113.9283576, 22.4881124], [113.9277474, 22.4884097], [113.9277936, 22.4884967], [113.9276113, 22.4885795], [113.927596, 22.4885509], [113.9275793, 22.4885194], [113.9277009, 22.4884642], [113.9276863, 22.4884369], [113.9268316, 22.4888156], [113.9268383, 22.4888358], [113.9267742, 22.4888555], [113.9267689, 22.4888412], [113.9262512, 22.4890775], [113.9262361, 22.4891093], [113.9259947, 22.4891518]]]]}}]}