{"type": "FeatureCollection", "features": [{"type": "Feature", "id": "way/231067706", "properties": {"tags": {"building": "yes"}, "heightStatus": "unknown", "source": "OpenStreetMap", "license": "ODbL-1.0"}, "geometry": {"type": "MultiPolygon", "coordinates": [[[[113.9276731, 22.536592], [113.9278474, 22.5365771], [113.9280294, 22.5365608], [113.9280692, 22.5365574], [113.9280791, 22.536664], [113.9280067, 22.5366695], [113.9277843, 22.5366879], [113.9277992, 22.536842], [113.9276969, 22.5368507], [113.9276731, 22.536592]]]]}}, {"type": "Feature", "id": "way/232097114", "properties": {"tags": {"building": "yes"}, "heightStatus": "unknown", "source": "OpenStreetMap", "license": "ODbL-1.0"}, "geometry": {"type": "MultiPolygon", "coordinates": [[[[113.9254182, 22.5388164], [113.9255132, 22.5387333], [113.925667, 22.5388831], [113.925572, 22.5389663], [113.9254182, 22.5388164]]]]}}, {"type": "Feature", "id": "way/238405853", "properties": {"tags": {"addr:city": "深圳市", "addr:district": "南山区", "addr:housenumber": "10号", "addr:province": "广东省", "addr:street": "桃园路", "building": "yes", "name": "新桃园酒店", "tourism": "hotel"}, "heightStatus": "unknown", "source": "OpenStreetMap", "license": "ODbL-1.0"}, "geometry": {"type": "MultiPolygon", "coordinates": [[[[113.9202691, 22.5363824], [113.9202717, 22.5362851], [113.9202769, 22.5360845], [113.9208926, 22.5360983], [113.9208874, 22.5362989], [113.9208848, 22.5363961], [113.9202691, 22.5363824]]]]}}, {"type": "Feature", "id": "way/238405855", "properties": {"tags": {"building": "commercial", "building:levels": "40", "building:material": "glass", "height": "196.8", "name": "A座", "official_name": "田厦金牛国际广场A座"}, "heightStatus": "height_tag_unverified", "source": "OpenStreetMap", "license": "ODbL-1.0"}, "geometry": {"type": "MultiPolygon", "coordinates": [[[[113.9210301, 22.5363453], [113.9210379, 22.5359833], [113.9215378, 22.5359928], [113.9215326, 22.5362264], [113.9215306, 22.5363543], [113.9210301, 22.5363453]]]]}}, {"type": "Feature", "id": "way/238406250", "properties": {"tags": {"building:levels": "15", "building:part": "yes"}, "heightStatus": "levels_only_unverified", "source": "OpenStreetMap", "license": "ODbL-1.0"}, "geometry": {"type": "MultiPolygon", "coordinates": [[[[113.9232165, 22.5364727], [113.9232191, 22.5362353], [113.9233104, 22.5362361], [113.9233104, 22.5362274], [113.9233717, 22.536228], [113.9233716, 22.5362367], [113.9234139, 22.5362371], [113.9236083, 22.5362389], [113.923653, 22.5362393], [113.923653, 22.5362304], [113.9237133, 22.5362309], [113.9237132, 22.5362399], [113.9238031, 22.5362407], [113.9238005, 22.5364782], [113.9237107, 22.5364774], [113.9237106, 22.5364874], [113.9236503, 22.5364868], [113.9236504, 22.5364768], [113.9233694, 22.5364742], [113.9233693, 22.5364844], [113.9233079, 22.5364839], [113.923308, 22.5364736], [113.9232165, 22.5364727]]]]}}, {"type": "Feature", "id": "way/238406256", "properties": {"tags": {"building:levels": "4", "building:material": "glass", "building:part": "retail"}, "heightStatus": "levels_only_unverified", "source": "OpenStreetMap", "license": "ODbL-1.0"}, "geometry": {"type": "MultiPolygon", "coordinates": [[[[113.9216665, 22.536337], [113.921668, 22.5362289], [113.9216743, 22.5359299], [113.921746, 22.5359312], [113.9217493, 22.5357754], [113.9228819, 22.5357959], [113.9227098, 22.5363518], [113.9218365, 22.5363387], [113.9216665, 22.536337]]]]}}, {"type": "Feature", "id": "way/238926557", "properties": {"tags": {"building:levels": "4", "building:part": "roof"}, "heightStatus": "levels_only_unverified", "source": "OpenStreetMap", "license": "ODbL-1.0"}, "geometry": {"type": "MultiPolygon", "coordinates": [[[[113.9210379, 22.5359833], [113.9210428, 22.5357614], [113.9217493, 22.5357754], [113.921746, 22.5359312], [113.9216743, 22.5359299], [113.921668, 22.5362289], [113.9215326, 22.5362264], [113.9215378, 22.5359928], [113.9210379, 22.5359833]]]]}}, {"type": "Feature", "id": "way/242559859", "properties": {"tags": {"building": "yes", "name": "南山区人民政府", "name:en": "Nanshan District People′s Government", "name:zh": "南山区人民政府", "name:zh-Hans": "南山区人民政府", "name:zh-Hant": "南山區人民政府", "office": "government", "townhall:type": "district"}, "heightStatus": "unknown", "source": "OpenStreetMap", "license": "ODbL-1.0"}, "geometry": {"type": "MultiPolygon", "coordinates": [[[[113.92474, 22.5364894], [113.9247456, 22.5363062], [113.9247475, 22.5362431], [113.9247489, 22.536197], [113.9248297, 22.5361257], [113.925149, 22.536134], [113.9252171, 22.5362062], [113.9253668, 22.5362115], [113.9254236, 22.5361637], [113.9254774, 22.5361185], [113.9257483, 22.5361233], [113.9257967, 22.5361705], [113.9258499, 22.5362224], [113.9260045, 22.5362258], [113.92608, 22.5361582], [113.9264119, 22.5361674], [113.926493, 22.5362428], [113.926484, 22.5365338], [113.9264012, 22.5365991], [113.9260791, 22.5365899], [113.9259964, 22.5365251], [113.9259968, 22.5364791], [113.9258908, 22.5364761], [113.9256964, 22.5366366], [113.9255116, 22.5366334], [113.9253125, 22.5364391], [113.9252146, 22.536437], [113.9252112, 22.5365121], [113.925124, 22.5365646], [113.9249871, 22.536562], [113.9248041, 22.5365585], [113.92474, 22.5364894]]]]}}, {"type": "Feature", "id": "way/243381813", "properties": {"tags": {"building": "yes"}, "heightStatus": "unknown", "source": "OpenStreetMap", "license": "ODbL-1.0"}, "geometry": {"type": "MultiPolygon", "coordinates": [[[[113.9253029, 22.5370939], [113.9253077, 22.5368871], [113.9253761, 22.5368886], [113.9253768, 22.5368472], [113.9254837, 22.5368471], [113.9254851, 22.5368006], [113.9255805, 22.5368022], [113.925577, 22.5369183], [113.9254892, 22.5369162], [113.9254883, 22.5370791], [113.9255603, 22.5370806], [113.9255737, 22.5371004], [113.9255731, 22.5371596], [113.9257464, 22.5371623], [113.9257484, 22.5370919], [113.9258596, 22.5370949], [113.925855, 22.5373294], [113.9255431, 22.5373278], [113.9255431, 22.5372708], [113.9253597, 22.5372672], [113.9253623, 22.5370959], [113.9253029, 22.5370939]]]]}}, {"type": "Feature", "id": "way/243381823", "properties": {"tags": {"building": "yes"}, "heightStatus": "unknown", "source": "OpenStreetMap", "license": "ODbL-1.0"}, "geometry": {"type": "MultiPolygon", "coordinates": [[[[113.9265432, 22.5366028], [113.9265534, 22.5362008], [113.9266477, 22.5362029], [113.9266375, 22.5366049], [113.9265432, 22.5366028]]]]}}, {"type": "Feature", "id": "way/330499627", "properties": {"tags": {"addr:city": "深圳市", "addr:country": "CN", "addr:district": "南山区", "addr:housenumber": "2093号", "addr:province": "广东省", "addr:street": "南山大道", "alt_name": "南山区博物馆", "alt_name:zh": "南山区博物馆", "alt_name:zh-Hans": "南山区博物馆", "alt_name:zh-Hant": "南山區博物館", "building": "yes", "name": "南山博物馆", "name:en": "Nanshan Museum", "name:zh": "南山博物馆", "name:zh-Hans": "南山博物馆", "name:zh-Hant": "南山博物館", "official_name": "深圳市南山博物馆", "official_name:zh": "深圳市南山博物馆", "official_name:zh-Hans": "深圳市南山博物馆", "official_name:zh-Hant": "深圳市南山博物館", "opening_hours": "Tu-Su 10:00-18:00", "operator": "深圳市南山博物馆", "operator:type": "public", "phone": "+86 755 8670 0071", "tourism": "museum", "website": "https://www.nanshanmuseum.com", "wheelchair": "yes"}, "heightStatus": "unknown", "source": "OpenStreetMap", "license": "ODbL-1.0"}, "geometry": {"type": "MultiPolygon", "coordinates": [[[[113.918582, 22.5383755], [113.9186104, 22.5377225], [113.9186839, 22.5377181], [113.9193786, 22.537677], [113.9193151, 22.5380922], [113.9192664, 22.5384106], [113.918909, 22.5383923], [113.918582, 22.5383755]]]]}}, {"type": "Feature", "id": "way/420048777", "properties": {"tags": {"building": "public"}, "heightStatus": "unknown", "source": "OpenStreetMap", "license": "ODbL-1.0"}, "geometry": {"type": "MultiPolygon", "coordinates": [[[[113.9170085, 22.5388553], [113.9179259, 22.5388241], [113.9179504, 22.5388284], [113.917972, 22.53884], [113.9179883, 22.5388575], [113.9179973, 22.5388791], [113.9180846, 22.5393868], [113.9180933, 22.5394127], [113.9181056, 22.5394374], [113.9181212, 22.5394604], [113.91814, 22.5394813], [113.9181615, 22.5394997], [113.9182011, 22.5395259], [113.9182435, 22.539548], [113.9182882, 22.5395657], [113.9183348, 22.5395787], [113.9183826, 22.539587], [113.9184311, 22.5395904], [113.9188697, 22.53958], [113.9188955, 22.5395785], [113.9189207, 22.539584], [113.918943, 22.5395962], [113.918959, 22.5396119], [113.9189699, 22.5396311], [113.9190068, 22.5397509], [113.9190157, 22.5397877], [113.9190179, 22.5398253], [113.9190132, 22.5398628], [113.9189957, 22.5399851], [113.9189887, 22.5400062], [113.9189763, 22.5400251], [113.9189591, 22.5400405], [113.9189382, 22.5400514], [113.9182574, 22.5402638], [113.9181823, 22.5402149], [113.9181829, 22.539929], [113.9181623, 22.5398082], [113.9181547, 22.539789], [113.9181396, 22.5397739], [113.9181195, 22.5397653], [113.9180973, 22.5397644], [113.9180765, 22.5397715], [113.9180601, 22.5397854], [113.9180508, 22.539804], [113.9180499, 22.5398245], [113.9181312, 22.5403031], [113.917614, 22.5404645], [113.9173498, 22.5405109], [113.9172686, 22.5401174], [113.9174026, 22.5400938], [113.9174166, 22.5400866], [113.9174277, 22.5400758], [113.9174349, 22.5400625], [113.9174376, 22.5400479], [113.9174355, 22.5400332], [113.917416, 22.5399933], [113.9173579, 22.5397115], [113.9177788, 22.5396374], [113.9177966, 22.5396295], [113.9178078, 22.5396143], [113.9178093, 22.5395961], [113.9178006, 22.5395796], [113.9177842, 22.5395692], [113.9177644, 22.5395679], [113.9171767, 22.5396713], [113.9170085, 22.5388553]]]]}}, {"type": "Feature", "id": "way/420048778", "properties": {"tags": {"addr:city": "深圳市", "addr:district": "南山区", "addr:housenumber": "3018", "addr:postcode": "518052", "addr:province": "广东省", "addr:street": "南山大道", "building": "yes", "government": "register_office", "name": "南山分局出入境办证大厅", "office": "government", "opening_hours": "Mo-Fr 09:00-12:00, 14:00-18:00; Sa 09:30-12:00, 14:00-16:00"}, "heightStatus": "unknown", "source": "OpenStreetMap", "license": "ODbL-1.0"}, "geometry": {"type": "MultiPolygon", "coordinates": [[[[113.9191954, 22.5441743], [113.9192175, 22.543723], [113.9193804, 22.5437298], [113.9193583, 22.5441811], [113.919306, 22.5441789], [113.9191954, 22.5441743]]]]}}, {"type": "Feature", "id": "way/498477937", "properties": {"tags": {"addr:city": "深圳市", "addr:district": "南山区", "addr:housenumber": "10188", "addr:province": "广东省", "addr:street": "深南大道 Shennan Boulevard", "building": "hotel", "name": "新豪方酒店", "name:en": "Holdfound Hotel", "name:zh": "新豪方酒店"}, "heightStatus": "unknown", "source": "OpenStreetMap", "license": "ODbL-1.0"}, "geometry": {"type": "MultiPolygon", "coordinates": [[[[113.9209774, 22.5439301], [113.9210975, 22.5439301], [113.9211006, 22.5438191], [113.9214087, 22.5438078], [113.9214118, 22.5440923], [113.92127, 22.5440952], [113.9212762, 22.544246], [113.9209928, 22.5442545], [113.9209774, 22.5439301]]]]}}, {"type": "Feature", "id": "way/498477938", "properties": {"tags": {"addr:city": "深圳市", "addr:district": "南山区", "addr:housenumber": "10168", "addr:province": "广东省", "addr:street": "深南大道 Shennan Boulevard", "building": "yes", "name": "佳嘉豪商务大厦", "office": "yes"}, "heightStatus": "unknown", "source": "OpenStreetMap", "license": "ODbL-1.0"}, "geometry": {"type": "MultiPolygon", "coordinates": [[[[113.9216353, 22.5436681], [113.9220494, 22.543655], [113.9220494, 22.5437269], [113.9221166, 22.5437269], [113.9221308, 22.543959], [113.9216424, 22.5439754], [113.9216353, 22.5436681]]]]}}, {"type": "Feature", "id": "way/498477939", "properties": {"tags": {"addr:city": "深圳市", "addr:district": "南山区", "addr:housenumber": "10138", "addr:province": "广东省", "addr:street": "深南大道", "building": "yes", "name": "深圳市规划和国土资源委员会 第二直属管理局", "office": "government"}, "heightStatus": "unknown", "source": "OpenStreetMap", "license": "ODbL-1.0"}, "geometry": {"type": "MultiPolygon", "coordinates": [[[[113.9226652, 22.5440407], [113.922913, 22.5440309], [113.92292, 22.5439296], [113.9231466, 22.5439231], [113.9231466, 22.5441748], [113.9231041, 22.5442401], [113.9226723, 22.5442532], [113.9226652, 22.5440407]]]]}}, {"type": "Feature", "id": "way/498477941", "properties": {"tags": {"addr:city": "深圳市", "addr:district": "南山区", "addr:housenumber": "1", "addr:province": "广东省", "addr:street": "正风路", "building": "yes", "government": "tax", "name": "深圳市地方税务局 第三稽查局", "office": "government"}, "heightStatus": "unknown", "source": "OpenStreetMap", "license": "ODbL-1.0"}, "geometry": {"type": "MultiPolygon", "coordinates": [[[[113.923916, 22.5444518], [113.9244202, 22.5444556], [113.924412, 22.5446433], [113.9239242, 22.5446433], [113.923916, 22.5444518]]]]}}, {"type": "Feature", "id": "way/498494535", "properties": {"tags": {"addr:city": "深圳市", "addr:district": "南山区", "addr:housenumber": "10288", "addr:province": "广东省", "addr:street": "深南大道 Shennan Boulevard", "building": "yes", "government": "yes", "name": "南山分局消防监管大队", "office": "government"}, "heightStatus": "unknown", "source": "OpenStreetMap", "license": "ODbL-1.0"}, "geometry": {"type": "MultiPolygon", "coordinates": [[[[113.9200719, 22.5441171], [113.9200722, 22.5439607], [113.9201261, 22.5438948], [113.9201923, 22.5439411], [113.9204936, 22.5439481], [113.9205595, 22.5439023], [113.9206096, 22.5439639], [113.9206093, 22.544118], [113.9200719, 22.5441171]]]]}}, {"type": "Feature", "id": "way/498494536", "properties": {"tags": {"addr:city": "深圳市", "addr:district": "南山区", "addr:housenumber": "1", "addr:postcode": "518052", "addr:province": "广东省", "addr:street": "玉园路", "building": "yes"}, "heightStatus": "unknown", "source": "OpenStreetMap", "license": "ODbL-1.0"}, "geometry": {"type": "MultiPolygon", "coordinates": [[[[113.9200087, 22.5447531], [113.9200113, 22.5446172], [113.9205852, 22.5446265], [113.920583, 22.5447438], [113.9201655, 22.5447369], [113.9201651, 22.5447557], [113.9200087, 22.5447531]]]]}}, {"type": "Feature", "id": "way/498494537", "properties": {"tags": {"building": "yes", "government": "register_office", "name": "南山分局户政大厅", "office": "government"}, "heightStatus": "unknown", "source": "OpenStreetMap", "license": "ODbL-1.0"}, "geometry": {"type": "MultiPolygon", "coordinates": [[[[113.9191575, 22.5446753], [113.9191743, 22.5443912], [113.9191862, 22.5443917], [113.9192966, 22.5443971], [113.91928, 22.544682], [113.9191575, 22.5446753]]]]}}, {"type": "Feature", "id": "way/533923387", "properties": {"tags": {"building:levels": "3", "building:part": "yes"}, "heightStatus": "levels_only_unverified", "source": "OpenStreetMap", "license": "ODbL-1.0"}, "geometry": {"type": "MultiPolygon", "coordinates": [[[[113.9205164, 22.5367728], [113.9205182, 22.5366401], [113.920589, 22.5366399], [113.9206421, 22.5366439], [113.9206809, 22.5366558], [113.9207126, 22.5366797], [113.9207356, 22.5367102], [113.9207456, 22.5367408], [113.9207499, 22.5367754], [113.9205164, 22.5367728]]]]}}, {"type": "Feature", "id": "way/540054571", "properties": {"tags": {"building:part": "roof"}, "heightStatus": "unknown", "source": "OpenStreetMap", "license": "ODbL-1.0"}, "geometry": {"type": "MultiPolygon", "coordinates": [[[[113.9234139, 22.5362371], [113.9234144, 22.5361944], [113.9236088, 22.5361963], [113.9236083, 22.5362389], [113.9234139, 22.5362371]]]]}}, {"type": "Feature", "id": "way/669599866", "properties": {"tags": {"building": "apartments", "building:levels": "34", "building:material": "glass", "height": "99", "name": "B座", "official_name": "田厦金牛国际广场B座"}, "heightStatus": "height_tag_unverified", "source": "OpenStreetMap", "license": "ODbL-1.0"}, "geometry": {"type": "MultiPolygon", "coordinates": [[[[113.9218365, 22.5363387], [113.9218421, 22.5360223], [113.9227154, 22.5360354], [113.9227098, 22.5363518], [113.9218365, 22.5363387]]]]}}, {"type": "Feature", "id": "way/690979006", "properties": {"tags": {"building": "retail", "name": "南头商业城", "name:en": "Nantou Commercial City", "name:zh": "南头商业城", "name:zh-Hans": "南头商业城", "name:zh-Hant": "南頭商業城", "shop": "mall"}, "heightStatus": "unknown", "source": "OpenStreetMap", "license": "ODbL-1.0"}, "geometry": {"type": "MultiPolygon", "coordinates": [[[[113.9178251, 22.5446001], [113.9178299, 22.5437886], [113.9183655, 22.5437624], [113.9185771, 22.5439722], [113.9185402, 22.5444253], [113.9184438, 22.5444176], [113.9184349, 22.5445135], [113.9184769, 22.5445168], [113.9184731, 22.5445578], [113.9185036, 22.5445602], [113.9184979, 22.5446217], [113.9185335, 22.5446245], [113.9185137, 22.5448383], [113.9181467, 22.5448093], [113.9181596, 22.5446701], [113.918206, 22.5446738], [113.9182114, 22.5446146], [113.9183408, 22.5446248], [113.9183605, 22.5444117], [113.9183202, 22.5444085], [113.9183221, 22.5443909], [113.9182462, 22.5443903], [113.9182466, 22.5443452], [113.9181018, 22.5443442], [113.9181012, 22.5444088], [113.9180196, 22.5444082], [113.9180179, 22.5446016], [113.9178251, 22.5446001]]]]}}, {"type": "Feature", "id": "way/690979343", "properties": {"tags": {"building": "yes"}, "heightStatus": "unknown", "source": "OpenStreetMap", "license": "ODbL-1.0"}, "geometry": {"type": "MultiPolygon", "coordinates": [[[[113.9191862, 22.5443917], [113.9191954, 22.5441743], [113.919306, 22.5441789], [113.9192966, 22.5443971], [113.9191862, 22.5443917]]]]}}, {"type": "Feature", "id": "way/783269606", "properties": {"tags": {"building:levels": "19", "building:part": "yes"}, "heightStatus": "levels_only_unverified", "source": "OpenStreetMap", "license": "ODbL-1.0"}, "geometry": {"type": "MultiPolygon", "coordinates": [[[[113.9202717, 22.5362851], [113.9202769, 22.5360845], [113.9208926, 22.5360983], [113.9208874, 22.5362989], [113.9202717, 22.5362851]]]]}}, {"type": "Feature", "id": "way/783269607", "properties": {"tags": {"building:levels": "6", "building:part": "yes"}, "heightStatus": "levels_only_unverified", "source": "OpenStreetMap", "license": "ODbL-1.0"}, "geometry": {"type": "MultiPolygon", "coordinates": [[[[113.9202691, 22.5363824], [113.9202717, 22.5362851], [113.9208874, 22.5362989], [113.9208848, 22.5363961], [113.9202691, 22.5363824]]]]}}, {"type": "Feature", "id": "way/783269608", "properties": {"tags": {"building:levels": "13", "building:part": "yes"}, "heightStatus": "levels_only_unverified", "source": "OpenStreetMap", "license": "ODbL-1.0"}, "geometry": {"type": "MultiPolygon", "coordinates": [[[[113.9203331, 22.536904], [113.9203349, 22.5367707], [113.9205164, 22.5367728], [113.9207499, 22.5367754], [113.9208067, 22.536776], [113.9208063, 22.5368046], [113.9208443, 22.536805], [113.9208428, 22.536919], [113.9208087, 22.5369186], [113.9208084, 22.536948], [113.9203578, 22.5369429], [113.9203583, 22.5369043], [113.9203331, 22.536904]]]]}}, {"type": "Feature", "id": "way/783269609", "properties": {"tags": {"addr:city": "深圳市", "addr:district": "南山区", "addr:housenumber": "2072", "addr:postcode": "518052", "addr:province": "广东省", "addr:street": "南山大道", "building": "yes", "name": "南山教育信息大厦"}, "heightStatus": "unknown", "source": "OpenStreetMap", "license": "ODbL-1.0"}, "geometry": {"type": "MultiPolygon", "coordinates": [[[[113.9203331, 22.536904], [113.9203349, 22.5367707], [113.9203367, 22.5366406], [113.9203631, 22.5366409], [113.9203638, 22.5365927], [113.9204795, 22.536594], [113.9204789, 22.5366396], [113.9205182, 22.5366401], [113.920589, 22.5366399], [113.9206421, 22.5366439], [113.9206809, 22.5366558], [113.9207126, 22.5366797], [113.9207356, 22.5367102], [113.9207456, 22.5367408], [113.9207499, 22.5367754], [113.9208067, 22.536776], [113.9208063, 22.5368046], [113.9208443, 22.536805], [113.9208428, 22.536919], [113.9208087, 22.5369186], [113.9208084, 22.536948], [113.9203578, 22.5369429], [113.9203583, 22.5369043], [113.9203331, 22.536904]]]]}}, {"type": "Feature", "id": "way/783269610", "properties": {"tags": {"building:levels": "10", "building:part": "yes"}, "heightStatus": "levels_only_unverified", "source": "OpenStreetMap", "license": "ODbL-1.0"}, "geometry": {"type": "MultiPolygon", "coordinates": [[[[113.9203349, 22.5367707], [113.9203367, 22.5366406], [113.9203631, 22.5366409], [113.9203638, 22.5365927], [113.9204795, 22.536594], [113.9204789, 22.5366396], [113.9205182, 22.5366401], [113.9205164, 22.5367728], [113.9203349, 22.5367707]]]]}}, {"type": "Feature", "id": "way/783277990", "properties": {"tags": {"building:colour": "#2e7f86", "building:levels": "25", "building:material": "glass", "building:part": "yes"}, "heightStatus": "levels_only_unverified", "source": "OpenStreetMap", "license": "ODbL-1.0"}, "geometry": {"type": "MultiPolygon", "coordinates": [[[[113.9248088, 22.5365023], [113.9248171, 22.5361951], [113.9251509, 22.5362028], [113.9251425, 22.53651], [113.9248088, 22.5365023]]]]}}, {"type": "Feature", "id": "way/783277993", "properties": {"tags": {"building": "dormitory", "name": "2栋"}, "heightStatus": "unknown", "source": "OpenStreetMap", "license": "ODbL-1.0"}, "geometry": {"type": "MultiPolygon", "coordinates": [[[[113.9235299, 22.5372165], [113.9235318, 22.5370961], [113.9236693, 22.5370979], [113.9237217, 22.5370652], [113.923793, 22.5369556], [113.9238736, 22.5368326], [113.9239844, 22.5368947], [113.9239037, 22.5370176], [113.923808, 22.5371648], [113.9237047, 22.5372188], [113.9235299, 22.5372165]]]]}}, {"type": "Feature", "id": "way/783277994", "properties": {"tags": {"building": "commercial", "building:levels": "22", "height": "99.75", "name": "1栋"}, "heightStatus": "height_tag_unverified", "source": "OpenStreetMap", "license": "ODbL-1.0"}, "geometry": {"type": "MultiPolygon", "coordinates": [[[[113.9229098, 22.5372135], [113.922912, 22.5370799], [113.9230089, 22.5370813], [113.9230107, 22.5369687], [113.9229521, 22.5369679], [113.9229544, 22.5368275], [113.9232868, 22.5368322], [113.9232845, 22.5369725], [113.9232826, 22.5370881], [113.9233129, 22.5370885], [113.9233107, 22.5372191], [113.9229098, 22.5372135]]]]}}, {"type": "Feature", "id": "way/783277995", "properties": {"tags": {"building:levels": "16", "building:part": "yes"}, "heightStatus": "levels_only_unverified", "source": "OpenStreetMap", "license": "ODbL-1.0"}, "geometry": {"type": "MultiPolygon", "coordinates": [[[[113.923793, 22.5369556], [113.9238736, 22.5368326], [113.9239844, 22.5368947], [113.9239037, 22.5370176], [113.923793, 22.5369556]]]]}}, {"type": "Feature", "id": "way/783277996", "properties": {"tags": {"building:levels": "25", "building:part": "yes"}, "heightStatus": "levels_only_unverified", "source": "OpenStreetMap", "license": "ODbL-1.0"}, "geometry": {"type": "MultiPolygon", "coordinates": [[[[113.9235299, 22.5372165], [113.9235318, 22.5370961], [113.9236693, 22.5370979], [113.9237217, 22.5370652], [113.923793, 22.5369556], [113.9239037, 22.5370176], [113.923808, 22.5371648], [113.9237047, 22.5372188], [113.9235299, 22.5372165]]]]}}, {"type": "Feature", "id": "way/783277997", "properties": {"tags": {"building:levels": "22", "building:material": "glass", "building:part": "yes", "height": "99.75"}, "heightStatus": "height_tag_unverified", "source": "OpenStreetMap", "license": "ODbL-1.0"}, "geometry": {"type": "MultiPolygon", "coordinates": [[[[113.9229521, 22.5369679], [113.9229544, 22.5368275], [113.9232868, 22.5368322], [113.9232845, 22.5369725], [113.9232258, 22.5369717], [113.9232235, 22.5371122], [113.9230374, 22.5371096], [113.9230397, 22.5369691], [113.9230107, 22.5369687], [113.9229521, 22.5369679]]]]}}, {"type": "Feature", "id": "way/783277998", "properties": {"tags": {"building:levels": "22", "building:material": "glass", "building:part": "yes", "height": "95.6"}, "heightStatus": "height_tag_unverified", "source": "OpenStreetMap", "license": "ODbL-1.0"}, "geometry": {"type": "MultiPolygon", "coordinates": [[[[113.9229098, 22.5372135], [113.922912, 22.5370799], [113.9230089, 22.5370813], [113.9230107, 22.5369687], [113.9230397, 22.5369691], [113.9230374, 22.5371096], [113.9232235, 22.5371122], [113.9232258, 22.5369717], [113.9232845, 22.5369725], [113.9232826, 22.5370881], [113.9233129, 22.5370885], [113.9233107, 22.5372191], [113.9229098, 22.5372135]]]]}}, {"type": "Feature", "id": "way/783277999", "properties": {"tags": {"building": "yes", "leisure": "sports_centre", "sport": "tennis"}, "heightStatus": "unknown", "source": "OpenStreetMap", "license": "ODbL-1.0"}, "geometry": {"type": "MultiPolygon", "coordinates": [[[[113.9244554, 22.5374538], [113.9244579, 22.537125], [113.9248237, 22.5371274], [113.9248212, 22.5374561], [113.9244554, 22.5374538]]]]}}, {"type": "Feature", "id": "way/925221228", "properties": {"tags": {"building": "yes"}, "heightStatus": "unknown", "source": "OpenStreetMap", "license": "ODbL-1.0"}, "geometry": {"type": "MultiPolygon", "coordinates": [[[[113.9210379, 22.5359833], [113.9210428, 22.5357614], [113.9217493, 22.5357754], [113.9228819, 22.5357959], [113.9227098, 22.5363518], [113.9218365, 22.5363387], [113.9216665, 22.536337], [113.921668, 22.5362289], [113.9215326, 22.5362264], [113.9215378, 22.5359928], [113.9210379, 22.5359833]]]]}}, {"type": "Feature", "id": "way/925221229", "properties": {"tags": {"building": "yes", "layer": "1", "name": "南山区人民检察院", "office": "government"}, "heightStatus": "unknown", "source": "OpenStreetMap", "license": "ODbL-1.0"}, "geometry": {"type": "MultiPolygon", "coordinates": [[[[113.9232165, 22.5364727], [113.9232191, 22.5362353], [113.9233104, 22.5362361], [113.9233104, 22.5362274], [113.9233717, 22.536228], [113.9233716, 22.5362367], [113.9234139, 22.5362371], [113.9234144, 22.5361944], [113.9236088, 22.5361963], [113.9236083, 22.5362389], [113.923653, 22.5362393], [113.923653, 22.5362304], [113.9237133, 22.5362309], [113.9237132, 22.5362399], [113.9238031, 22.5362407], [113.9238005, 22.5364782], [113.9237107, 22.5364774], [113.9237106, 22.5364874], [113.9236503, 22.5364868], [113.9236504, 22.5364768], [113.9233694, 22.5364742], [113.9233693, 22.5364844], [113.9233079, 22.5364839], [113.923308, 22.5364736], [113.9232165, 22.5364727]]]]}}, {"type": "Feature", "id": "way/1024521320", "properties": {"tags": {"building:levels": "18", "building:part": "yes", "height": "101"}, "heightStatus": "height_tag_unverified", "source": "OpenStreetMap", "license": "ODbL-1.0"}, "geometry": {"type": "MultiPolygon", "coordinates": [[[[113.9240289, 22.5365813], [113.9240349, 22.5362123], [113.9244322, 22.5362178], [113.9244262, 22.5365869], [113.9240289, 22.5365813]]]]}}, {"type": "Feature", "id": "way/1024521321", "properties": {"tags": {"building": "yes", "building:levels": "18", "building:levels:underground": "4", "height": "101", "name": "南山区档案服务大厦", "name:en": "Nanshan District Archives Service Building", "name:zh": "南山区档案服务大厦"}, "heightStatus": "height_tag_unverified", "source": "OpenStreetMap", "license": "ODbL-1.0"}, "geometry": {"type": "MultiPolygon", "coordinates": [[[[113.9240289, 22.5365813], [113.9240349, 22.5362123], [113.9240406, 22.5358601], [113.9245308, 22.5358669], [113.9245244, 22.5362574], [113.9245234, 22.5363148], [113.9245189, 22.5365882], [113.9244262, 22.5365869], [113.9240289, 22.5365813]]]]}}, {"type": "Feature", "id": "way/1024521322", "properties": {"tags": {"building:levels": "4", "building:part": "yes"}, "heightStatus": "levels_only_unverified", "source": "OpenStreetMap", "license": "ODbL-1.0"}, "geometry": {"type": "MultiPolygon", "coordinates": [[[[113.9240349, 22.5362123], [113.9240406, 22.5358601], [113.9245308, 22.5358669], [113.9245244, 22.5362574], [113.9245234, 22.5363148], [113.9245189, 22.5365882], [113.9244262, 22.5365869], [113.9244322, 22.5362178], [113.9240349, 22.5362123]]]]}}, {"type": "Feature", "id": "way/1024614639", "properties": {"tags": {"building": "yes", "building:levels": "2", "building:min_level": "1", "layer": "1"}, "heightStatus": "levels_only_unverified", "source": "OpenStreetMap", "license": "ODbL-1.0"}, "geometry": {"type": "MultiPolygon", "coordinates": [[[[113.9245234, 22.5363148], [113.9245244, 22.5362574], [113.9247475, 22.5362431], [113.9247456, 22.5363062], [113.9245234, 22.5363148]]]]}}, {"type": "Feature", "id": "way/1050291609", "properties": {"tags": {"addr:city": "深圳市", "addr:district": "南山区", "addr:housenumber": "19", "addr:province": "广东省", "addr:street": "艺园路", "amenity": "arts_centre", "building": "yes", "building:levels": "6", "building:levels:underground": "3", "name": "南山区文化馆", "name:en": "Nanshan Culture Center", "name:zh": "南山区文化馆", "opening_hours": "Mo-Fr 09:00-18:00", "phone": "+86 755 2666 5145", "website": "https://www.nsqwhg.com/"}, "heightStatus": "levels_only_unverified", "source": "OpenStreetMap", "license": "ODbL-1.0"}, "geometry": {"type": "MultiPolygon", "coordinates": [[[[113.9227013, 22.5447439], [113.9227058, 22.5446977], [113.9227241, 22.5446697], [113.9227529, 22.5446529], [113.9227969, 22.5446472], [113.9230988, 22.5446515], [113.9230958, 22.5452246], [113.9227377, 22.5452176], [113.922715, 22.5449738], [113.9227081, 22.5448962], [113.9227037, 22.5448241], [113.9227013, 22.5447439]]]]}}, {"type": "Feature", "id": "way/1164498416", "properties": {"tags": {"addr:housename": "桃花园", "addr:housename:en": "Taohuayuan", "addr:housename:zh": "桃花园", "building": "apartments", "name": "E栋", "name:en": "Block E", "name:zh": "E栋"}, "heightStatus": "unknown", "source": "OpenStreetMap", "license": "ODbL-1.0"}, "geometry": {"type": "MultiPolygon", "coordinates": [[[[113.9191895, 22.5363376], [113.9191933, 22.53626], [113.9192395, 22.5362619], [113.9192411, 22.5362289], [113.9192151, 22.5362278], [113.9192186, 22.5361555], [113.9192568, 22.5361571], [113.9192575, 22.5361431], [113.9193481, 22.5361469], [113.9193475, 22.5361609], [113.9193856, 22.5361625], [113.919382, 22.5362348], [113.919356, 22.5362337], [113.9193544, 22.5362667], [113.9194468, 22.5362706], [113.9194484, 22.5362375], [113.9194224, 22.5362364], [113.9194259, 22.5361642], [113.919464, 22.5361658], [113.9194647, 22.5361518], [113.9195554, 22.5361556], [113.9195547, 22.5361696], [113.9195929, 22.5361712], [113.9195893, 22.5362434], [113.9195633, 22.5362423], [113.9195616, 22.5362754], [113.9196079, 22.5362773], [113.919604, 22.536355], [113.9195457, 22.5363525], [113.9195451, 22.5363659], [113.9194544, 22.5363621], [113.9194551, 22.5363487], [113.9193385, 22.5363438], [113.9193378, 22.5363572], [113.9192471, 22.5363534], [113.9192478, 22.53634], [113.9191895, 22.5363376]]]]}}, {"type": "Feature", "id": "way/1178774760", "properties": {"tags": {"building": "commercial", "name": "创意大厦办公楼"}, "heightStatus": "unknown", "source": "OpenStreetMap", "license": "ODbL-1.0"}, "geometry": {"type": "MultiPolygon", "coordinates": [[[[113.925701, 22.5447983], [113.925841, 22.5446979], [113.9261154, 22.545024], [113.9259754, 22.5451245], [113.925701, 22.5447983]]]]}}, {"type": "Feature", "id": "way/1270549171", "properties": {"tags": {"building": "yes"}, "heightStatus": "unknown", "source": "OpenStreetMap", "license": "ODbL-1.0"}, "geometry": {"type": "MultiPolygon", "coordinates": [[[[113.9200512, 22.5443571], [113.9200528, 22.5442828], [113.9206299, 22.5442933], [113.9206283, 22.5443677], [113.9200512, 22.5443571]]]]}}, {"type": "Feature", "id": "way/1340009299", "properties": {"tags": {"building": "train_station", "building:levels": "0", "building:levels:underground": "3", "layer": "-1", "location": "underground", "name": "南头古城站", "name:en": "Nantou Ancient City Station", "name:zh": "南头古城站", "name:zh-Hans": "南头古城站", "name:zh-Hant": "南頭古城站", "public_transport": "station", "start_date": "2022-11-28", "wikidata": "Q113510425", "wikipedia": "zh:南头古城站"}, "heightStatus": "levels_only_unverified", "source": "OpenStreetMap", "license": "ODbL-1.0"}, "geometry": {"type": "MultiPolygon", "coordinates": [[[[113.9180959, 22.5434392], [113.9184021, 22.5434263], [113.9185929, 22.5428513], [113.9184959, 22.5428563], [113.9184843, 22.5426171], [113.9189344, 22.5425974], [113.9189782, 22.5422598], [113.9189136, 22.5422331], [113.9189445, 22.5420145], [113.9189747, 22.5420188], [113.9189902, 22.5419154], [113.9190596, 22.5419243], [113.9190197, 22.5421932], [113.9190701, 22.5422147], [113.9190619, 22.5422795], [113.9190774, 22.5422813], [113.9192439, 22.5410311], [113.9192094, 22.5410263], [113.919203, 22.5410755], [113.9191778, 22.5410727], [113.9191736, 22.5411047], [113.9191406, 22.5411029], [113.9191561, 22.5409765], [113.9192527, 22.5409862], [113.9193767, 22.5400385], [113.9193186, 22.5400299], [113.9193069, 22.5401244], [113.9188687, 22.5402493], [113.9188516, 22.5402026], [113.9192348, 22.5400882], [113.9192434, 22.5400202], [113.9191298, 22.5400059], [113.9190891, 22.5397792], [113.9192054, 22.5397606], [113.9192969, 22.539119], [113.9192616, 22.5389371], [113.9193914, 22.5389167], [113.9194042, 22.5388207], [113.9195461, 22.5388368], [113.9195709, 22.5387058], [113.9194275, 22.5386839], [113.9194298, 22.5386542], [113.9191232, 22.5386363], [113.9191325, 22.5385525], [113.9194573, 22.5385754], [113.9195155, 22.5382274], [113.9196037, 22.5382389], [113.9195955, 22.5382877], [113.9196382, 22.5382938], [113.9196787, 22.5380598], [113.91965, 22.5380555], [113.9196775, 22.5379001], [113.9199598, 22.5379388], [113.919945, 22.5380149], [113.9199828, 22.5380215], [113.9199683, 22.5381021], [113.9199437, 22.5380983], [113.9199336, 22.5381501], [113.919978, 22.538157], [113.9199497, 22.5383219], [113.9198663, 22.5383094], [113.9196795, 22.5394978], [113.9197522, 22.5395053], [113.9197586, 22.539467], [113.9197849, 22.5394691], [113.9197907, 22.5394337], [113.9198357, 22.5394376], [113.919819, 22.5395558], [113.9197791, 22.5395497], [113.9197706, 22.539617], [113.9197384, 22.5396124], [113.9197442, 22.5395769], [113.9196698, 22.539568], [113.9196349, 22.5398322], [113.919738, 22.5398444], [113.9196992, 22.5401566], [113.9195969, 22.5401473], [113.9195504, 22.5404617], [113.9196527, 22.5404738], [113.9196031, 22.5408337], [113.9195027, 22.5408229], [113.9194946, 22.5408845], [113.9195957, 22.5408953], [113.9195504, 22.5412146], [113.919457, 22.5412043], [113.9194399, 22.5413373], [113.9194343, 22.5413367], [113.9194077, 22.5415306], [113.9194217, 22.5415322], [113.9194275, 22.5415011], [113.919506, 22.5415097], [113.9194418, 22.5419762], [113.9193713, 22.5419694], [113.9193573, 22.5420833], [113.9193333, 22.5420811], [113.9193209, 22.5421878], [113.9194081, 22.5421993], [113.9193496, 22.5426178], [113.9192689, 22.5426239], [113.9192802, 22.5428627], [113.9189673, 22.542837], [113.9186762, 22.5428473], [113.9184649, 22.5435215], [113.9182114, 22.5435287], [113.9182102, 22.5435061], [113.918099, 22.5435072], [113.9180959, 22.5434392]]]]}}, {"type": "Feature", "id": "way/1426631493", "properties": {"tags": {"addr:housename": "悠然天地", "addr:housename:zh": "悠然天地", "building": "apartments", "building:levels": "18", "name": "1栋", "name:zh": "1栋"}, "heightStatus": "levels_only_unverified", "source": "OpenStreetMap", "license": "ODbL-1.0"}, "geometry": {"type": "MultiPolygon", "coordinates": [[[[113.9211966, 22.5422833], [113.9212006, 22.542268], [113.9212123, 22.5422567], [113.9212286, 22.5422522], [113.9212451, 22.5422559], [113.9212574, 22.5422667], [113.9212739, 22.5422663], [113.9212724, 22.5422119], [113.9212335, 22.5422128], [113.9212315, 22.5421418], [113.9212704, 22.5421409], [113.9212698, 22.5421194], [113.9213023, 22.5421053], [113.9213378, 22.5420998], [113.9213736, 22.5421035], [113.9214069, 22.5421161], [113.9214075, 22.5421377], [113.9214464, 22.5421368], [113.9214483, 22.5422077], [113.9214095, 22.5422086], [113.921411, 22.5422637], [113.9214112, 22.542263], [113.9214277, 22.5422626], [113.9214393, 22.5422512], [113.9214556, 22.5422467], [113.9214721, 22.5422503], [113.9214845, 22.5422611], [113.9214892, 22.5422767], [113.9214912, 22.5423489], [113.9213749, 22.5423516], [113.9213742, 22.5423233], [113.9212943, 22.5423251], [113.9212951, 22.5423533], [113.9211986, 22.5423555], [113.9211966, 22.5422833]]]]}}, {"type": "Feature", "id": "way/1426631494", "properties": {"tags": {"addr:housename": "悠然天地", "addr:housename:zh": "悠然天地", "building": "apartments", "building:levels": "18", "name": "8栋", "name:zh": "8栋"}, "heightStatus": "levels_only_unverified", "source": "OpenStreetMap", "license": "ODbL-1.0"}, "geometry": {"type": "MultiPolygon", "coordinates": [[[[113.9211061, 22.5404779], [113.921108, 22.5403701], [113.9213654, 22.5403739], [113.9215747, 22.5405473], [113.9214967, 22.5406275], [113.9214688, 22.5406043], [113.9214483, 22.5406254], [113.9213246, 22.5405228], [113.921345, 22.5405018], [113.92132, 22.540481], [113.9212917, 22.5404806], [113.9212912, 22.5405125], [113.9211638, 22.5405107], [113.9211643, 22.5404788], [113.9211061, 22.5404779]]]]}}, {"type": "Feature", "id": "way/1426631495", "properties": {"tags": {"addr:housename": "悠然天地", "addr:housename:zh": "悠然天地", "building": "apartments", "building:levels": "18", "name": "9栋", "name:zh": "9栋"}, "heightStatus": "levels_only_unverified", "source": "OpenStreetMap", "license": "ODbL-1.0"}, "geometry": {"type": "MultiPolygon", "coordinates": [[[[113.9216159, 22.5407545], [113.9216938, 22.5406743], [113.9217218, 22.5406974], [113.9217422, 22.5406764], [113.9218659, 22.540779], [113.9218455, 22.5408], [113.9218705, 22.5408208], [113.9218988, 22.5408212], [113.9218993, 22.5407892], [113.9220267, 22.5407911], [113.9220262, 22.540823], [113.9220844, 22.5408239], [113.9220826, 22.5409316], [113.9218251, 22.5409279], [113.9216159, 22.5407545]]]]}}, {"type": "Feature", "id": "way/1426631496", "properties": {"tags": {"addr:housename": "悠然天地", "addr:housename:zh": "悠然天地", "building": "apartments", "building:levels": "12", "name": "7栋", "name:zh": "7栋"}, "heightStatus": "levels_only_unverified", "source": "OpenStreetMap", "license": "ODbL-1.0"}, "geometry": {"type": "MultiPolygon", "coordinates": [[[[113.921782, 22.5413169], [113.921784, 22.5412321], [113.9218131, 22.5412327], [113.9218135, 22.5412173], [113.9218573, 22.5412032], [113.9219028, 22.5411951], [113.9219491, 22.541193], [113.9219953, 22.5411969], [113.9220404, 22.5412068], [113.9220835, 22.5412225], [113.9220832, 22.5412379], [113.9221123, 22.5412385], [113.9221104, 22.5413234], [113.9220423, 22.541322], [113.9220419, 22.5413386], [113.9218497, 22.5413348], [113.9218501, 22.5413183], [113.921782, 22.5413169]]]]}}, {"type": "Feature", "id": "way/1426631497", "properties": {"tags": {"addr:housename": "悠然天地", "addr:housename:zh": "悠然天地", "building": "apartments", "building:levels": "12", "name": "5栋", "name:zh": "5栋"}, "heightStatus": "levels_only_unverified", "source": "OpenStreetMap", "license": "ODbL-1.0"}, "geometry": {"type": "MultiPolygon", "coordinates": [[[[113.9218152, 22.54183], [113.9218171, 22.5417451], [113.9218463, 22.5417457], [113.9218466, 22.5417303], [113.9218904, 22.5417163], [113.921936, 22.5417081], [113.9219823, 22.541706], [113.9220284, 22.5417099], [113.9220735, 22.5417199], [113.9221167, 22.5417356], [113.9221163, 22.541751], [113.9221455, 22.5417515], [113.9221435, 22.5418364], [113.9220755, 22.5418351], [113.9220751, 22.5418516], [113.9218829, 22.5418479], [113.9218832, 22.5418313], [113.9218152, 22.54183]]]]}}, {"type": "Feature", "id": "way/1426631498", "properties": {"tags": {"addr:housename": "悠然天地", "addr:housename:zh": "悠然天地", "building": "apartments", "building:levels": "18", "name": "3栋", "name:zh": "3栋"}, "heightStatus": "levels_only_unverified", "source": "OpenStreetMap", "license": "ODbL-1.0"}, "geometry": {"type": "MultiPolygon", "coordinates": [[[[113.9216855, 22.5421158], [113.9217635, 22.5420355], [113.9217914, 22.5420587], [113.9218118, 22.5420377], [113.9219356, 22.5421403], [113.9219152, 22.5421613], [113.9219402, 22.542182], [113.9219685, 22.5421824], [113.921969, 22.5421505], [113.9220964, 22.5421523], [113.9220959, 22.5421843], [113.9221541, 22.5421851], [113.9221522, 22.5422929], [113.9218947, 22.5422892], [113.9216855, 22.5421158]]]]}}, {"type": "Feature", "id": "way/1426631499", "properties": {"tags": {"addr:housename": "悠然天地", "addr:housename:zh": "悠然天地", "building": "apartments", "building:levels": "18", "name": "2栋", "name:zh": "2栋"}, "heightStatus": "levels_only_unverified", "source": "OpenStreetMap", "license": "ODbL-1.0"}, "geometry": {"type": "MultiPolygon", "coordinates": [[[[113.9211763, 22.5418149], [113.9211781, 22.5417071], [113.9214356, 22.5417108], [113.9216448, 22.5418842], [113.9215668, 22.5419644], [113.9215389, 22.5419413], [113.9215185, 22.5419623], [113.9213947, 22.5418597], [113.9214151, 22.5418387], [113.9213901, 22.541818], [113.9213619, 22.5418176], [113.9213613, 22.5418495], [113.9212339, 22.5418477], [113.9212345, 22.5418157], [113.9211763, 22.5418149]]]]}}, {"type": "Feature", "id": "way/1426631500", "properties": {"tags": {"addr:housename": "悠然天地", "addr:housename:zh": "悠然天地", "building": "apartments", "building:levels": "18", "name": "6栋", "name:zh": "6栋"}, "heightStatus": "levels_only_unverified", "source": "OpenStreetMap", "license": "ODbL-1.0"}, "geometry": {"type": "MultiPolygon", "coordinates": [[[[113.9211165, 22.5408908], [113.9211673, 22.5408358], [113.9211813, 22.540827], [113.9211982, 22.5408257], [113.9212135, 22.5408325], [113.9212232, 22.5408454], [113.9212245, 22.540861], [113.9212371, 22.5408709], [113.9212753, 22.5408295], [113.9212457, 22.5408062], [113.9212956, 22.5407521], [113.9213252, 22.5407754], [113.9213402, 22.5407591], [113.9213747, 22.5407686], [113.9214051, 22.5407864], [113.921429, 22.5408113], [113.9214447, 22.5408412], [113.9214295, 22.5408577], [113.9214591, 22.540881], [113.9214093, 22.5409349], [113.9213798, 22.5409116], [113.921341, 22.5409536], [113.9213416, 22.5409531], [113.9213542, 22.540963], [113.9213711, 22.5409617], [113.9213865, 22.5409684], [113.9213962, 22.5409813], [113.9213975, 22.5409969], [113.9213898, 22.5410115], [113.9213391, 22.5410665], [113.9212506, 22.5409967], [113.9212705, 22.5409752], [113.9212097, 22.5409272], [113.9211899, 22.5409487], [113.9211165, 22.5408908]]]]}}, {"type": "Feature", "id": "way/1426631501", "properties": {"tags": {"addr:housename": "悠然天地", "addr:housename:zh": "悠然天地", "building": "apartments", "building:levels": "18", "name": "4栋", "name:zh": "4栋"}, "heightStatus": "levels_only_unverified", "source": "OpenStreetMap", "license": "ODbL-1.0"}, "geometry": {"type": "MultiPolygon", "coordinates": [[[[113.9211431, 22.5413327], [113.9211939, 22.5412778], [113.9212079, 22.5412689], [113.9212248, 22.5412676], [113.9212401, 22.5412744], [113.9212498, 22.5412873], [113.9212511, 22.5413029], [113.9212637, 22.5413128], [113.9213019, 22.5412714], [113.9212723, 22.5412481], [113.9213222, 22.541194], [113.9213518, 22.5412174], [113.9213668, 22.541201], [113.9214013, 22.5412105], [113.9214317, 22.5412284], [113.9214556, 22.5412532], [113.9214713, 22.5412831], [113.9214561, 22.5412996], [113.9214857, 22.5413229], [113.9214359, 22.5413768], [113.9214064, 22.5413535], [113.9213676, 22.5413955], [113.9213682, 22.541395], [113.9213808, 22.5414049], [113.9213977, 22.5414036], [113.9214131, 22.5414103], [113.9214228, 22.5414232], [113.9214241, 22.5414389], [113.9214164, 22.5414534], [113.9213657, 22.5415084], [113.9212772, 22.5414386], [113.9212971, 22.5414171], [113.9212363, 22.5413692], [113.9212165, 22.5413906], [113.9211431, 22.5413327]]]]}}, {"type": "Feature", "id": "way/1426631504", "properties": {"tags": {"addr:housename": "荔林春晓", "addr:housename:zh": "荔林春晓", "building": "apartments", "building:levels": "21", "name": "D栋", "name:zh": "D栋"}, "heightStatus": "levels_only_unverified", "source": "OpenStreetMap", "license": "ODbL-1.0"}, "geometry": {"type": "MultiPolygon", "coordinates": [[[[113.9206477, 22.5408573], [113.920751, 22.5408573], [113.920751, 22.5407944], [113.9208132, 22.5407944], [113.9208132, 22.5410982], [113.920751, 22.5410982], [113.920751, 22.5410353], [113.9206477, 22.5410353], [113.9206477, 22.5408573]]]]}}, {"type": "Feature", "id": "way/1426631505", "properties": {"tags": {"addr:housename": "荔林春晓", "addr:housename:zh": "荔林春晓", "building": "apartments", "building:levels": "21", "name": "B栋", "name:zh": "B栋"}, "heightStatus": "levels_only_unverified", "source": "OpenStreetMap", "license": "ODbL-1.0"}, "geometry": {"type": "MultiPolygon", "coordinates": [[[[113.9201532, 22.5413693], [113.9205019, 22.5413693], [113.9205019, 22.5414123], [113.9205019, 22.5414697], [113.9201532, 22.5414697], [113.9201532, 22.5413693]]]]}}, {"type": "Feature", "id": "way/1426631506", "properties": {"tags": {"addr:housename": "荔林春晓", "addr:housename:zh": "荔林春晓", "building": "apartments", "building:levels": "21", "name": "C栋", "name:zh": "C栋"}, "heightStatus": "levels_only_unverified", "source": "OpenStreetMap", "license": "ODbL-1.0"}, "geometry": {"type": "MultiPolygon", "coordinates": [[[[113.9205019, 22.5414123], [113.9205864, 22.5414123], [113.9205864, 22.5413787], [113.9205309, 22.5413274], [113.9206561, 22.5412118], [113.9207116, 22.541263], [113.920748, 22.541263], [113.920748, 22.5411849], [113.9208102, 22.5411849], [113.9208102, 22.5413897], [113.920748, 22.5413897], [113.920748, 22.5413445], [113.9207234, 22.5413445], [113.9206746, 22.5413896], [113.9206746, 22.5414123], [113.9207235, 22.5414123], [113.9207235, 22.5414697], [113.9205019, 22.5414697], [113.9205019, 22.5414123]]]]}}, {"type": "Feature", "id": "way/1426631507", "properties": {"tags": {"addr:housename": "荔林春晓", "addr:housename:zh": "荔林春晓", "building": "apartments", "building:levels": "21", "name": "A栋", "name:zh": "A栋"}, "heightStatus": "levels_only_unverified", "source": "OpenStreetMap", "license": "ODbL-1.0"}, "geometry": {"type": "MultiPolygon", "coordinates": [[[[113.9197815, 22.5411816], [113.9198437, 22.5411816], [113.9198437, 22.5412597], [113.9198801, 22.5412597], [113.9199356, 22.5412085], [113.9200608, 22.5413241], [113.9200053, 22.5413753], [113.9200053, 22.541409], [113.9200899, 22.541409], [113.9200899, 22.5414664], [113.9198682, 22.5414664], [113.9198682, 22.541409], [113.9199171, 22.541409], [113.9199171, 22.5413862], [113.9198683, 22.5413412], [113.9198437, 22.5413412], [113.9198437, 22.5413863], [113.9197815, 22.5413863], [113.9197815, 22.5411816]]]]}}, {"type": "Feature", "id": "way/1426631508", "properties": {"tags": {"addr:housename": "荔林春晓", "addr:housename:zh": "荔林春晓", "building": "apartments", "building:levels": "21", "name": "E栋", "name:zh": "E栋"}, "heightStatus": "levels_only_unverified", "source": "OpenStreetMap", "license": "ODbL-1.0"}, "geometry": {"type": "MultiPolygon", "coordinates": [[[[113.9204727, 22.5405052], [113.920744, 22.5405052], [113.920744, 22.5405691], [113.9206856, 22.5405691], [113.9206856, 22.5405972], [113.9207264, 22.5406348], [113.920751, 22.5406348], [113.920751, 22.5405896], [113.9208132, 22.5405896], [113.9208132, 22.5407944], [113.920751, 22.5407944], [113.920751, 22.5407163], [113.9207146, 22.5407163], [113.9206591, 22.5407675], [113.9205107, 22.5406304], [113.9205496, 22.5405945], [113.9205766, 22.5406195], [113.9205932, 22.5406042], [113.9205932, 22.5405805], [113.9205311, 22.5405805], [113.9205311, 22.5405691], [113.9204727, 22.5405691], [113.9204727, 22.5405052]]]]}}, {"type": "Feature", "id": "way/1426631509", "properties": {"tags": {"addr:housename": "荔林春晓", "addr:housename:zh": "荔林春晓", "building": "apartments", "building:levels": "21", "name": "F栋", "name:zh": "F栋"}, "heightStatus": "levels_only_unverified", "source": "OpenStreetMap", "license": "ODbL-1.0"}, "geometry": {"type": "MultiPolygon", "coordinates": [[[[113.9198613, 22.5405918], [113.9199235, 22.5405918], [113.9199235, 22.540637], [113.9199481, 22.540637], [113.9199889, 22.5405993], [113.9199889, 22.5405713], [113.9199305, 22.5405713], [113.9199305, 22.5405074], [113.9202017, 22.5405074], [113.9202017, 22.5405713], [113.9201434, 22.5405713], [113.9201434, 22.5405827], [113.9200813, 22.5405827], [113.9200813, 22.5406063], [113.9200979, 22.5406217], [113.9201249, 22.5405967], [113.9201638, 22.5406326], [113.9200154, 22.5407697], [113.9199599, 22.5407184], [113.9199235, 22.5407184], [113.9199235, 22.5407965], [113.9198613, 22.5407965], [113.9198613, 22.5405918]]]]}}, {"type": "Feature", "id": "way/1433514984", "properties": {"tags": {"addr:housename": "名家富居", "addr:housename:en": "Mingjia Fuju", "addr:housename:zh": "名家富居", "building": "apartments", "building:levels": "18", "name": "8号楼", "name:en": "Block 8", "name:zh": "8号楼"}, "heightStatus": "levels_only_unverified", "source": "OpenStreetMap", "license": "ODbL-1.0"}, "geometry": {"type": "MultiPolygon", "coordinates": [[[[113.9219122, 22.5446888], [113.9220452, 22.5446855], [113.9220723, 22.5446466], [113.9220196, 22.5446154], [113.9220678, 22.5445459], [113.9222527, 22.5446554], [113.9222045, 22.5447249], [113.9221537, 22.5446948], [113.922156, 22.5447736], [113.922144, 22.5447739], [113.9221447, 22.5447989], [113.9222007, 22.5447976], [113.9222027, 22.544865], [113.9219561, 22.5448711], [113.9219542, 22.5448037], [113.9220432, 22.5448015], [113.9220419, 22.5447563], [113.9219143, 22.5447595], [113.9219122, 22.5446888]]]]}}, {"type": "Feature", "id": "way/1433514985", "properties": {"tags": {"addr:housename": "名家富居", "addr:housename:en": "Mingjia Fuju", "addr:housename:zh": "名家富居", "building": "apartments", "building:levels": "18", "name": "7号楼", "name:en": "Block 7", "name:zh": "7号楼"}, "heightStatus": "levels_only_unverified", "source": "OpenStreetMap", "license": "ODbL-1.0"}, "geometry": {"type": "MultiPolygon", "coordinates": [[[[113.9215708, 22.5447037], [113.9217039, 22.5447004], [113.9217309, 22.5446614], [113.9216782, 22.5446303], [113.9217264, 22.5445608], [113.9219114, 22.5446703], [113.9218631, 22.5447397], [113.9218123, 22.5447097], [113.9218146, 22.5447885], [113.9218026, 22.5447888], [113.9218033, 22.5448138], [113.9218593, 22.5448124], [113.9218613, 22.5448799], [113.9216147, 22.544886], [113.9216128, 22.5448186], [113.9217018, 22.5448164], [113.9217005, 22.5447712], [113.9215729, 22.5447744], [113.9215708, 22.5447037]]]]}}, {"type": "Feature", "id": "way/1433514986", "properties": {"tags": {"addr:housename": "名家富居", "addr:housename:en": "Mingjia Fuju", "addr:housename:zh": "名家富居", "building": "apartments", "building:levels": "18", "name": "6号楼", "name:en": "Block 6", "name:zh": "6号楼"}, "heightStatus": "levels_only_unverified", "source": "OpenStreetMap", "license": "ODbL-1.0"}, "geometry": {"type": "MultiPolygon", "coordinates": [[[[113.9212297, 22.5447241], [113.9213628, 22.5447208], [113.9213898, 22.5446819], [113.9213371, 22.5446507], [113.9213853, 22.5445812], [113.9215703, 22.5446907], [113.921522, 22.5447602], [113.9214713, 22.5447301], [113.9214735, 22.5448089], [113.9214615, 22.5448092], [113.9214622, 22.5448343], [113.9215182, 22.5448329], [113.9215202, 22.5449003], [113.9212736, 22.5449064], [113.9212717, 22.544839], [113.9213607, 22.5448368], [113.9213594, 22.5447916], [113.9212318, 22.5447948], [113.9212297, 22.5447241]]]]}}, {"type": "Feature", "id": "way/1433746296", "properties": {"tags": {"addr:housename": "桃花园", "addr:housename:en": "Taohuayuan", "addr:housename:zh": "桃花园", "building": "apartments", "name": "A栋", "name:en": "Block A", "name:zh": "A栋"}, "heightStatus": "unknown", "source": "OpenStreetMap", "license": "ODbL-1.0"}, "geometry": {"type": "MultiPolygon", "coordinates": [[[[113.9190748, 22.5373375], [113.9190773, 22.5372871], [113.9190978, 22.5372699], [113.9191991, 22.5372741], [113.9192178, 22.537293], [113.9192383, 22.5372757], [113.9193396, 22.53728], [113.9193583, 22.5372989], [113.9193574, 22.5373164], [113.9193708, 22.537317], [113.9193742, 22.5372477], [113.9193947, 22.5372304], [113.919496, 22.5372346], [113.9195147, 22.5372535], [113.9195113, 22.5373229], [113.9195252, 22.5373235], [113.9195239, 22.5373507], [113.9194889, 22.5373803], [113.9194405, 22.5373314], [113.9193876, 22.537376], [113.9193613, 22.5373494], [113.9193328, 22.5373483], [113.9193321, 22.5373626], [113.9193475, 22.5373632], [113.919346, 22.5373935], [113.9192207, 22.5373883], [113.9192222, 22.537358], [113.9192376, 22.5373586], [113.9192383, 22.5373443], [113.9191923, 22.5373424], [113.9191916, 22.5373567], [113.919207, 22.5373574], [113.9192055, 22.5373876], [113.9190802, 22.5373824], [113.9190817, 22.5373521], [113.9190971, 22.5373528], [113.9190978, 22.5373384], [113.9190748, 22.5373375]]]]}}, {"type": "Feature", "id": "way/1433746297", "properties": {"tags": {"addr:housename": "桃花园", "addr:housename:en": "Taohuayuan", "addr:housename:zh": "桃花园", "building": "apartments", "name": "B栋", "name:en": "Block B", "name:zh": "B栋"}, "heightStatus": "unknown", "source": "OpenStreetMap", "license": "ODbL-1.0"}, "geometry": {"type": "MultiPolygon", "coordinates": [[[[113.9191013, 22.537072], [113.9191037, 22.5370217], [113.9191242, 22.5370044], [113.9192255, 22.5370087], [113.9192442, 22.5370276], [113.9192647, 22.5370103], [113.919366, 22.5370145], [113.9193847, 22.5370335], [113.9193839, 22.537051], [113.9193973, 22.5370516], [113.9194007, 22.5369822], [113.9194212, 22.536965], [113.9195225, 22.5369692], [113.9195412, 22.5369881], [113.9195378, 22.5370575], [113.9195517, 22.537058], [113.9195504, 22.5370853], [113.9195153, 22.5371148], [113.919467, 22.5370659], [113.919414, 22.5371106], [113.9193877, 22.537084], [113.9193593, 22.5370828], [113.9193586, 22.5370972], [113.919374, 22.5370978], [113.9193725, 22.5371281], [113.9192471, 22.5371228], [113.9192486, 22.5370926], [113.919264, 22.5370932], [113.9192647, 22.5370789], [113.9192188, 22.5370769], [113.9192181, 22.5370913], [113.9192335, 22.5370919], [113.919232, 22.5371222], [113.9191066, 22.537117], [113.9191081, 22.5370867], [113.9191235, 22.5370873], [113.9191242, 22.537073], [113.9191013, 22.537072]]]]}}, {"type": "Feature", "id": "way/1433746298", "properties": {"tags": {"addr:housename": "桃花园", "addr:housename:en": "Taohuayuan", "addr:housename:zh": "桃花园", "building": "apartments", "name": "D栋", "name:en": "Block D", "name:zh": "D栋"}, "heightStatus": "unknown", "source": "OpenStreetMap", "license": "ODbL-1.0"}, "geometry": {"type": "MultiPolygon", "coordinates": [[[[113.919163, 22.5365656], [113.9191643, 22.5365383], [113.9191782, 22.5365389], [113.9191816, 22.5364696], [113.9192021, 22.5364523], [113.9193034, 22.5364565], [113.9193221, 22.5364754], [113.9193187, 22.5365448], [113.9193465, 22.536546], [113.9193499, 22.5364766], [113.9193704, 22.5364593], [113.9194717, 22.5364636], [113.9194904, 22.5364825], [113.919487, 22.5365518], [113.9195009, 22.5365524], [113.9194996, 22.5365797], [113.9194645, 22.5366092], [113.9194162, 22.5365603], [113.9193632, 22.536605], [113.9193313, 22.5365726], [113.9192963, 22.5366022], [113.9192479, 22.5365533], [113.919195, 22.5365979], [113.919163, 22.5365656]]]]}}, {"type": "Feature", "id": "way/1433746299", "properties": {"tags": {"addr:housename": "桃花园", "addr:housename:en": "Taohuayuan", "addr:housename:zh": "桃花园", "building": "apartments", "name": "C栋", "name:en": "Block C", "name:zh": "C栋"}, "heightStatus": "unknown", "source": "OpenStreetMap", "license": "ODbL-1.0"}, "geometry": {"type": "MultiPolygon", "coordinates": [[[[113.9191233, 22.5368037], [113.9191257, 22.5367534], [113.9191462, 22.5367361], [113.9192475, 22.5367404], [113.9192662, 22.5367593], [113.9192867, 22.536742], [113.919388, 22.5367462], [113.9194067, 22.5367652], [113.9194059, 22.5367827], [113.9194193, 22.5367833], [113.9194227, 22.5367139], [113.9194432, 22.5366967], [113.9195445, 22.5367009], [113.9195632, 22.5367198], [113.9195598, 22.5367892], [113.9195737, 22.5367897], [113.9195724, 22.536817], [113.9195374, 22.5368465], [113.919489, 22.5367976], [113.9194361, 22.5368423], [113.9194098, 22.5368157], [113.9193813, 22.5368145], [113.9193806, 22.5368289], [113.919396, 22.5368295], [113.9193945, 22.5368598], [113.9192692, 22.5368545], [113.9192706, 22.5368243], [113.919286, 22.5368249], [113.9192867, 22.5368106], [113.9192408, 22.5368086], [113.9192401, 22.536823], [113.9192555, 22.5368236], [113.919254, 22.5368539], [113.9191287, 22.5368487], [113.9191301, 22.5368184], [113.9191455, 22.536819], [113.9191462, 22.5368047], [113.9191233, 22.5368037]]]]}}, {"type": "Feature", "id": "way/1433746301", "properties": {"tags": {"addr:housename": "田厦·翡翠明珠花园", "addr:housename:en": "Tianxia Emerald Pearl Garden", "addr:housename:zh": "田厦·翡翠明珠花园", "building": "apartments", "building:levels": "31", "name": "1A栋", "name:en": "Block 1A", "name:zh": "1A栋"}, "heightStatus": "levels_only_unverified", "source": "OpenStreetMap", "license": "ODbL-1.0"}, "geometry": {"type": "MultiPolygon", "coordinates": [[[[113.9185151, 22.5372526], [113.9185198, 22.5371702], [113.9186632, 22.5371771], [113.9186664, 22.537121], [113.9186057, 22.5371181], [113.9186072, 22.5370915], [113.9185728, 22.5370898], [113.9185776, 22.5370049], [113.9188852, 22.5370198], [113.9188804, 22.5371044], [113.9188461, 22.5371027], [113.9188446, 22.5371294], [113.918784, 22.5371265], [113.9187808, 22.5371824], [113.9189245, 22.5371893], [113.9189198, 22.5372718], [113.9187672, 22.5372644], [113.9187682, 22.5372472], [113.9186688, 22.5372424], [113.9186678, 22.53726], [113.9185151, 22.5372526]]]]}}, {"type": "Feature", "id": "way/1433746302", "properties": {"tags": {"addr:housename": "田厦·翡翠明珠花园", "addr:housename:en": "Tianxia Emerald Pearl Garden", "addr:housename:zh": "田厦·翡翠明珠花园", "building": "apartments", "building:levels": "31", "name": "1B栋", "name:en": "Block 1B", "name:zh": "1B栋"}, "heightStatus": "levels_only_unverified", "source": "OpenStreetMap", "license": "ODbL-1.0"}, "geometry": {"type": "MultiPolygon", "coordinates": [[[[113.9180972, 22.5372328], [113.9181019, 22.5371504], [113.9182268, 22.5371565], [113.9182292, 22.5371145], [113.918151, 22.5371107], [113.9181551, 22.5370396], [113.918479, 22.5370553], [113.918475, 22.5371261], [113.918397, 22.5371223], [113.9183946, 22.5371641], [113.9185198, 22.5371702], [113.9185151, 22.5372526], [113.9183306, 22.5372437], [113.9183316, 22.5372261], [113.9182829, 22.5372237], [113.9182818, 22.5372418], [113.9180972, 22.5372328]]]]}}, {"type": "Feature", "id": "way/1433746303", "properties": {"tags": {"addr:housename": "田厦·翡翠明珠花园", "addr:housename:en": "Tianxia Emerald Pearl Garden", "addr:housename:zh": "田厦·翡翠明珠花园", "building": "apartments", "building:levels": "31", "name": "2A栋", "name:en": "Block 2A", "name:zh": "2A栋"}, "heightStatus": "levels_only_unverified", "source": "OpenStreetMap", "license": "ODbL-1.0"}, "geometry": {"type": "MultiPolygon", "coordinates": [[[[113.9185743, 22.5363715], [113.9185794, 22.5362783], [113.9188772, 22.5362923], [113.9188721, 22.5363855], [113.918833, 22.5363837], [113.9188309, 22.5364226], [113.918936, 22.5364275], [113.9189297, 22.536542], [113.9187672, 22.5365344], [113.9187705, 22.5364744], [113.9186607, 22.5365695], [113.9185845, 22.5364944], [113.9187054, 22.5363897], [113.9187061, 22.5363777], [113.9185743, 22.5363715]]]]}}, {"type": "Feature", "id": "way/1433746304", "properties": {"tags": {"addr:housename": "田厦·翡翠明珠花园", "addr:housename:en": "Tianxia Emerald Pearl Garden", "addr:housename:zh": "田厦·翡翠明珠花园", "building": "apartments", "building:levels": "31", "name": "2B栋", "name:en": "Block 2B", "name:zh": "2B栋"}, "heightStatus": "levels_only_unverified", "source": "OpenStreetMap", "license": "ODbL-1.0"}, "geometry": {"type": "MultiPolygon", "coordinates": [[[[113.918202, 22.5365078], [113.9182083, 22.5363933], [113.9183134, 22.5363982], [113.9183156, 22.5363593], [113.9182765, 22.5363575], [113.9182817, 22.5362643], [113.9185794, 22.5362783], [113.9185743, 22.5363715], [113.9184425, 22.5363653], [113.9184419, 22.5363773], [113.9185507, 22.5364928], [113.9184666, 22.5365604], [113.9183678, 22.5364555], [113.9183645, 22.5365154], [113.918202, 22.5365078]]]]}}, {"type": "Feature", "id": "way/1434804658", "properties": {"tags": {"building": "yes"}, "heightStatus": "unknown", "source": "OpenStreetMap", "license": "ODbL-1.0"}, "geometry": {"type": "MultiPolygon", "coordinates": [[[[113.9210182, 22.5384767], [113.9210191, 22.5384434], [113.9211828, 22.5384514], [113.9211936, 22.5384285], [113.9212122, 22.5384103], [113.9212364, 22.5383992], [113.9212633, 22.5383964], [113.921574, 22.538414], [113.9215693, 22.5384851], [113.9217129, 22.5384933], [113.9217366, 22.5384986], [113.921757, 22.538511], [113.9217716, 22.5385292], [113.9217785, 22.5385509], [113.921777, 22.5385734], [113.9217673, 22.5385941], [113.9217504, 22.5386105], [113.9217285, 22.5386206], [113.9217042, 22.5386231], [113.9215414, 22.5386139], [113.9215452, 22.5385565], [113.9211947, 22.5385395], [113.9211903, 22.5386169], [113.9211543, 22.5386146], [113.9211196, 22.5386051], [113.9210881, 22.538589], [113.921061, 22.5385669], [113.9210397, 22.53854], [113.9210252, 22.5385095], [113.9210182, 22.5384767]]]]}}, {"type": "Feature", "id": "way/1434804660", "properties": {"tags": {"building": "apartments"}, "heightStatus": "unknown", "source": "OpenStreetMap", "license": "ODbL-1.0"}, "geometry": {"type": "MultiPolygon", "coordinates": [[[[113.9205046, 22.5385604], [113.9205106, 22.5384697], [113.9205851, 22.5384739], [113.9205865, 22.5384537], [113.9205295, 22.5384505], [113.9205345, 22.5383754], [113.9206117, 22.5383798], [113.9206128, 22.5383626], [113.9207827, 22.5383722], [113.9207815, 22.5383894], [113.9208587, 22.5383938], [113.9208537, 22.5384689], [113.9207968, 22.5384657], [113.9207954, 22.5384859], [113.9208699, 22.5384901], [113.9208639, 22.5385808], [113.9207444, 22.538574], [113.9207436, 22.5385859], [113.9207003, 22.5385835], [113.9207014, 22.5385674], [113.9206676, 22.5385655], [113.9206666, 22.5385816], [113.9206233, 22.5385791], [113.9206241, 22.5385672], [113.9205046, 22.5385604]]]]}}, {"type": "Feature", "id": "way/1434804665", "properties": {"tags": {"addr:housename": "荔香源", "addr:housename:en": "Lixiangyuan", "addr:housename:zh": "荔香源", "building": "apartments", "name": "B栋", "name:en": "Block B", "name:zh": "B栋"}, "heightStatus": "unknown", "source": "OpenStreetMap", "license": "ODbL-1.0"}, "geometry": {"type": "MultiPolygon", "coordinates": [[[[113.9209709, 22.5394192], [113.9209759, 22.5392328], [113.9210777, 22.5392351], [113.9210758, 22.5393056], [113.9213311, 22.5393114], [113.921333, 22.539241], [113.9214348, 22.5392433], [113.9214298, 22.5394298], [113.9209709, 22.5394192]]]]}}, {"type": "Feature", "id": "way/1434804666", "properties": {"tags": {"addr:housename": "荔香源", "addr:housename:en": "Lixiangyuan", "addr:housename:zh": "荔香源", "building": "apartments", "name": "A栋", "name:en": "Block A", "name:zh": "A栋"}, "heightStatus": "unknown", "source": "OpenStreetMap", "license": "ODbL-1.0"}, "geometry": {"type": "MultiPolygon", "coordinates": [[[[113.9209521, 22.5391014], [113.9209549, 22.5389979], [113.9214524, 22.5390094], [113.9214496, 22.5391128], [113.9209521, 22.5391014]]]]}}, {"type": "Feature", "id": "way/1434804667", "properties": {"tags": {"addr:housename": "前海华庭", "addr:housename:en": "Qianhai Huating", "addr:housename:zh": "前海华庭", "building": "apartments", "name": "帝庭阁", "name:en": "Diting Tower", "name:zh": "帝庭阁", "name:zh-Hans": "帝庭阁", "name:zh-Hant": "帝庭閣"}, "heightStatus": "unknown", "source": "OpenStreetMap", "license": "ODbL-1.0"}, "geometry": {"type": "MultiPolygon", "coordinates": [[[[113.9202686, 22.5391003], [113.9202728, 22.5390165], [113.9203117, 22.5390182], [113.9203161, 22.5389301], [113.9205158, 22.5389387], [113.9205113, 22.5390268], [113.9205502, 22.5390284], [113.920546, 22.5391122], [113.9203307, 22.539103], [113.9202686, 22.5391003]]]]}}, {"type": "Feature", "id": "way/1434804668", "properties": {"tags": {"addr:housename": "前海华庭", "addr:housename:en": "Qianhai Huating", "addr:housename:zh": "前海华庭", "building": "apartments", "name": "麓庭阁", "name:en": "Luting Tower", "name:zh": "麓庭阁", "name:zh-Hans": "麓庭阁", "name:zh-Hant": "麓庭閣"}, "heightStatus": "unknown", "source": "OpenStreetMap", "license": "ODbL-1.0"}, "geometry": {"type": "MultiPolygon", "coordinates": [[[[113.9199668, 22.5390868], [113.919971, 22.5390031], [113.9200099, 22.5390047], [113.9200143, 22.5389167], [113.920214, 22.5389253], [113.9202096, 22.5390133], [113.9202484, 22.539015], [113.9202442, 22.5390988], [113.9199668, 22.5390868]]]]}}, {"type": "Feature", "id": "way/1434804669", "properties": {"tags": {"building": "apartments"}, "heightStatus": "unknown", "source": "OpenStreetMap", "license": "ODbL-1.0"}, "geometry": {"type": "MultiPolygon", "coordinates": [[[[113.9199277, 22.5394041], [113.9199325, 22.5393093], [113.9199519, 22.5393101], [113.9199568, 22.5392122], [113.9201234, 22.5392194], [113.9201184, 22.5393173], [113.9201573, 22.539319], [113.9201622, 22.5392211], [113.9203288, 22.5392282], [113.9203238, 22.5393261], [113.9203627, 22.5393278], [113.9203676, 22.5392299], [113.9205342, 22.5392371], [113.9205292, 22.539335], [113.9205487, 22.5393358], [113.9205439, 22.5394306], [113.9199277, 22.5394041]]]]}}, {"type": "Feature", "id": "way/1434804671", "properties": {"tags": {"building": "apartments"}, "heightStatus": "unknown", "source": "OpenStreetMap", "license": "ODbL-1.0"}, "geometry": {"type": "MultiPolygon", "coordinates": [[[[113.9220641, 22.5391673], [113.9220683, 22.5390848], [113.9220884, 22.539073], [113.9221115, 22.5390678], [113.9221352, 22.5390699], [113.9221569, 22.539079], [113.9221743, 22.5390941], [113.9221854, 22.5391135], [113.9221884, 22.5391268], [113.9221945, 22.5391392], [113.9222032, 22.5391502], [113.9222143, 22.5391592], [113.9222271, 22.5391658], [113.9222412, 22.5391698], [113.9222611, 22.5391819], [113.9222758, 22.5391992], [113.9222836, 22.53922], [113.9222838, 22.539242], [113.9222761, 22.5392629], [113.9222616, 22.5392803], [113.9221722, 22.5392767], [113.9221377, 22.5392417], [113.9221174, 22.5392588], [113.9220783, 22.5392193], [113.9220986, 22.5392022], [113.9220641, 22.5391673]]]]}}, {"type": "Feature", "id": "way/1434804672", "properties": {"tags": {"building": "apartments"}, "heightStatus": "unknown", "source": "OpenStreetMap", "license": "ODbL-1.0"}, "geometry": {"type": "MultiPolygon", "coordinates": [[[[113.9220958, 22.5394581], [113.9221039, 22.5392918], [113.9221713, 22.5392946], [113.9221722, 22.5392767], [113.9222616, 22.5392803], [113.922254, 22.5392941], [113.9222501, 22.5393092], [113.9222502, 22.5393247], [113.9222542, 22.5393397], [113.9222645, 22.5393597], [113.922267, 22.5393821], [113.9222623, 22.5394038], [113.9222501, 22.5394228], [113.922235, 22.5394408], [113.9222223, 22.5394603], [113.922212, 22.5394809], [113.9221623, 22.5394788], [113.9221632, 22.5394609], [113.9220958, 22.5394581]]]]}}, {"type": "Feature", "id": "way/1434804673", "properties": {"tags": {"building": "apartments"}, "heightStatus": "unknown", "source": "OpenStreetMap", "license": "ODbL-1.0"}, "geometry": {"type": "MultiPolygon", "coordinates": [[[[113.9218452, 22.5391582], [113.9218475, 22.5391122], [113.9218706, 22.5391046], [113.9218928, 22.5390947], [113.9219135, 22.5390824], [113.9219352, 22.539073], [113.921959, 22.5390706], [113.9219828, 22.539075], [113.9220035, 22.5390862], [113.9220193, 22.5390913], [113.9220361, 22.5390927], [113.9220527, 22.5390905], [113.9220683, 22.5390848], [113.9220641, 22.5391673], [113.9220447, 22.5391665], [113.9220416, 22.5392288], [113.9218616, 22.5392212], [113.9218646, 22.539159], [113.9218452, 22.5391582]]]]}}, {"type": "Feature", "id": "way/1434804674", "properties": {"tags": {"building": "apartments"}, "heightStatus": "unknown", "source": "OpenStreetMap", "license": "ODbL-1.0"}, "geometry": {"type": "MultiPolygon", "coordinates": [[[[113.9216263, 22.539149], [113.9216285, 22.5391029], [113.9216518, 22.5390954], [113.9216739, 22.5390855], [113.9216946, 22.5390733], [113.9217163, 22.5390638], [113.9217404, 22.5390615], [113.9217639, 22.5390658], [113.9217846, 22.5390771], [113.921804, 22.539091], [113.9218251, 22.5391027], [113.9218475, 22.5391122], [113.9218452, 22.5391582], [113.9218258, 22.5391574], [113.9218227, 22.5392196], [113.9216427, 22.5392121], [113.9216457, 22.5391498], [113.9216263, 22.539149]]]]}}, {"type": "Feature", "id": "way/1434804675", "properties": {"tags": {"building": "apartments"}, "heightStatus": "unknown", "source": "OpenStreetMap", "license": "ODbL-1.0"}, "geometry": {"type": "MultiPolygon", "coordinates": [[[[113.9208643, 22.5400913], [113.9208651, 22.5400388], [113.9208845, 22.5400391], [113.9208852, 22.5399908], [113.92105, 22.5399928], [113.9210493, 22.540041], [113.9210882, 22.5400415], [113.9210889, 22.5399933], [113.9212537, 22.5399952], [113.921253, 22.5400435], [113.9212725, 22.5400437], [113.9212739, 22.5399408], [113.9213143, 22.5399412], [113.9213159, 22.5398252], [113.9212756, 22.5398248], [113.921277, 22.5397218], [113.9212576, 22.5397215], [113.9212569, 22.5397698], [113.9210921, 22.5397678], [113.9210928, 22.5397196], [113.9210539, 22.5397191], [113.9210532, 22.5397673], [113.9208884, 22.5397654], [113.9208891, 22.5397171], [113.9208696, 22.5397169], [113.9208704, 22.5396644], [113.9209093, 22.5396648], [113.9209097, 22.5396342], [113.9210356, 22.5396357], [113.9210352, 22.5396664], [113.921113, 22.5396673], [113.9211134, 22.5396366], [113.9212393, 22.5396382], [113.9212389, 22.5396688], [113.9212778, 22.5396693], [113.921278, 22.5396539], [113.9214756, 22.5396563], [113.9214742, 22.5397607], [113.9214294, 22.5397602], [113.9214285, 22.5398266], [113.9213594, 22.5398258], [113.9213577, 22.5399418], [113.9214268, 22.5399426], [113.9214259, 22.540009], [113.9214706, 22.5400096], [113.9214692, 22.540114], [113.9212715, 22.5401116], [113.9212717, 22.5400962], [113.9212328, 22.5400958], [113.9212324, 22.5401264], [113.9211065, 22.5401249], [113.9211069, 22.5400942], [113.9210291, 22.5400933], [113.9210287, 22.540124], [113.9209028, 22.5401224], [113.9209032, 22.5400918], [113.9208643, 22.5400913]]]]}}, {"type": "Feature", "id": "way/1434804676", "properties": {"tags": {"building": "apartments"}, "heightStatus": "unknown", "source": "OpenStreetMap", "license": "ODbL-1.0"}, "geometry": {"type": "MultiPolygon", "coordinates": [[[[113.9198633, 22.5402272], [113.9198647, 22.5401311], [113.9198959, 22.5401315], [113.9198977, 22.5400037], [113.9199505, 22.5400043], [113.9199501, 22.5400291], [113.9200076, 22.5400298], [113.9200082, 22.5399902], [113.9199791, 22.5399899], [113.9199797, 22.5399531], [113.919959, 22.5399528], [113.9199605, 22.5398487], [113.9199811, 22.539849], [113.9199817, 22.5398122], [113.9200107, 22.5398125], [113.9200112, 22.539773], [113.9199537, 22.5397723], [113.9199534, 22.539797], [113.9199006, 22.5397964], [113.919902, 22.5396965], [113.9199511, 22.5396971], [113.9199528, 22.5395731], [113.9207701, 22.539583], [113.9207677, 22.5397518], [113.9205937, 22.5397497], [113.9205927, 22.5398211], [113.9204361, 22.5398192], [113.9204382, 22.5396751], [113.9200333, 22.5396702], [113.9200328, 22.5397052], [113.9200611, 22.5397056], [113.9200555, 22.5400984], [113.9200272, 22.540098], [113.9200267, 22.5401331], [113.9201345, 22.5401344], [113.9201348, 22.5401133], [113.9202673, 22.5401149], [113.920267, 22.540136], [113.9203837, 22.5401374], [113.920384, 22.5401163], [113.9205165, 22.5401179], [113.9205162, 22.540139], [113.9206084, 22.5401401], [113.9206101, 22.5400251], [113.920771, 22.5400271], [113.9207694, 22.540142], [113.9207918, 22.5401423], [113.9207904, 22.5402384], [113.9205148, 22.540235], [113.9205146, 22.5402519], [113.9203821, 22.5402503], [113.9203823, 22.5402334], [113.9202656, 22.540232], [113.9202654, 22.5402489], [113.9201329, 22.5402473], [113.9201331, 22.5402304], [113.9198633, 22.5402272]]]]}}, {"type": "Feature", "id": "way/1434804677", "properties": {"tags": {"building": "apartments"}, "heightStatus": "unknown", "source": "OpenStreetMap", "license": "ODbL-1.0"}, "geometry": {"type": "MultiPolygon", "coordinates": [[[[113.9220013, 22.5401917], [113.922003, 22.5400682], [113.9221796, 22.5400703], [113.9221779, 22.5401939], [113.9220013, 22.5401917]]]]}}, {"type": "Feature", "id": "way/1434804678", "properties": {"tags": {"building": "apartments"}, "heightStatus": "unknown", "source": "OpenStreetMap", "license": "ODbL-1.0"}, "geometry": {"type": "MultiPolygon", "coordinates": [[[[113.9216141, 22.5400513], [113.9216176, 22.5398087], [113.9216552, 22.5398092], [113.921656, 22.5397515], [113.9216975, 22.539752], [113.9216984, 22.5396863], [113.9220411, 22.5396905], [113.9220397, 22.5397915], [113.9217451, 22.5397879], [113.921741, 22.5400752], [113.9218981, 22.5400771], [113.9218967, 22.5401781], [113.9216915, 22.5401756], [113.9216924, 22.54011], [113.9216509, 22.5401095], [113.9216518, 22.5400518], [113.9216141, 22.5400513]]]]}}]}