{"type": "FeatureCollection", "features": [{"type": "Feature", "id": "way/239435197", "properties": {"tags": {"building": "roof"}, "heightStatus": "unknown", "source": "OpenStreetMap", "license": "ODbL-1.0"}, "geometry": {"type": "MultiPolygon", "coordinates": [[[[113.9173355, 22.5578315], [113.9175364, 22.5569262], [113.9179095, 22.556925], [113.9181348, 22.5578415], [113.9173355, 22.5578315]]]]}}, {"type": "Feature", "id": "way/778000480", "properties": {"tags": {"building": "apartments", "building:levels": "8", "name": "南头海关生活区（13栋）"}, "heightStatus": "levels_only_unverified", "source": "OpenStreetMap", "license": "ODbL-1.0"}, "geometry": {"type": "MultiPolygon", "coordinates": [[[[113.9087711, 22.5547569], [113.9088488, 22.5546533], [113.9091132, 22.5548233], [113.909027, 22.5549295], [113.9087711, 22.5547569]]]]}}, {"type": "Feature", "id": "way/778000481", "properties": {"tags": {"building": "apartments", "name": "南头海关生活区（14栋）"}, "heightStatus": "unknown", "source": "OpenStreetMap", "license": "ODbL-1.0"}, "geometry": {"type": "MultiPolygon", "coordinates": [[[[113.9083715, 22.5544781], [113.908452, 22.5543826], [113.9087596, 22.5545843], [113.9086791, 22.5546826], [113.9083715, 22.5544781]]]]}}, {"type": "Feature", "id": "way/783261465", "properties": {"tags": {"addr:housename": "前海东岸花园", "addr:housename:zh": "前海东岸花园", "building": "apartments", "building:levels": "38", "name": "7号", "name:zh": "7号"}, "heightStatus": "levels_only_unverified", "source": "OpenStreetMap", "license": "ODbL-1.0"}, "geometry": {"type": "MultiPolygon", "coordinates": [[[[113.914249, 22.555669], [113.9142885, 22.5555942], [113.914392, 22.5556409], [113.9144135, 22.5556002], [113.914396, 22.5555923], [113.9144376, 22.5555138], [113.9145703, 22.5555737], [113.9145288, 22.5556522], [113.9145113, 22.5556443], [113.9144898, 22.555685], [113.9145915, 22.5557309], [113.914552, 22.5558056], [113.914249, 22.555669]]]]}}, {"type": "Feature", "id": "way/783261468", "properties": {"tags": {"addr:city": "深圳市", "addr:district": "南山区", "addr:housenumber": "11008", "addr:street": "北环大道", "building": "commercial", "building:levels": "44", "height": "209.2", "name": "豪方天际广场", "name:en": "Horizon Skyline Garden Office Tower", "name:zh": "豪方天际广场", "wikidata": "Q29837416"}, "heightStatus": "height_tag_unverified", "source": "OpenStreetMap", "license": "ODbL-1.0"}, "geometry": {"type": "MultiPolygon", "coordinates": [[[[113.9160278, 22.5564611], [113.9160605, 22.5562867], [113.9160724, 22.5562661], [113.9160962, 22.5562482], [113.9161334, 22.556229], [113.916181, 22.5562153], [113.9162464, 22.556207], [113.9163327, 22.5562001], [113.9164368, 22.556207], [113.9165284, 22.5562216], [113.9166253, 22.5562424], [113.9166434, 22.5562674], [113.9165833, 22.5565608], [113.9165614, 22.5565699], [113.916037, 22.5564769], [113.9160278, 22.5564611]]]]}}, {"type": "Feature", "id": "way/822913812", "properties": {"tags": {"building": "apartments", "building:levels": "5", "name": "南头海关生活区（3栋）"}, "heightStatus": "levels_only_unverified", "source": "OpenStreetMap", "license": "ODbL-1.0"}, "geometry": {"type": "MultiPolygon", "coordinates": [[[[113.9081498, 22.5556736], [113.9082067, 22.5556053], [113.9084589, 22.555784], [113.9084001, 22.5558548], [113.9081498, 22.5556736]]]]}}, {"type": "Feature", "id": "way/883082864", "properties": {"tags": {"building": "apartments", "name": "南头海关生活区（5栋）"}, "heightStatus": "unknown", "source": "OpenStreetMap", "license": "ODbL-1.0"}, "geometry": {"type": "MultiPolygon", "coordinates": [[[[113.9084326, 22.5558623], [113.9084872, 22.5557986], [113.9087816, 22.556013], [113.9087247, 22.5560802], [113.9084326, 22.5558623]]]]}}, {"type": "Feature", "id": "way/883082866", "properties": {"tags": {"building": "apartments", "name": "南头海关生活区（4栋）"}, "heightStatus": "unknown", "source": "OpenStreetMap", "license": "ODbL-1.0"}, "geometry": {"type": "MultiPolygon", "coordinates": [[[[113.9083246, 22.555456], [113.9084018, 22.5553665], [113.9085722, 22.5554843], [113.9084911, 22.5555739], [113.9083246, 22.555456]]]]}}, {"type": "Feature", "id": "way/883082867", "properties": {"tags": {"building": "apartments", "name": "南头海关生活区（7栋）"}, "heightStatus": "unknown", "source": "OpenStreetMap", "license": "ODbL-1.0"}, "geometry": {"type": "MultiPolygon", "coordinates": [[[[113.9089505, 22.5554729], [113.9090309, 22.5553819], [113.9093328, 22.5555928], [113.9092562, 22.5556838], [113.9089505, 22.5554729]]]]}}, {"type": "Feature", "id": "way/883082868", "properties": {"tags": {"building": "apartments", "name": "南头海关生活区（8栋）"}, "heightStatus": "unknown", "source": "OpenStreetMap", "license": "ODbL-1.0"}, "geometry": {"type": "MultiPolygon", "coordinates": [[[[113.9091113, 22.5552733], [113.909191, 22.555185], [113.9094952, 22.5554036], [113.9094178, 22.5554891], [113.9091113, 22.5552733]]]]}}, {"type": "Feature", "id": "way/883082869", "properties": {"tags": {"building": "apartments", "name": "南头海关生活区（10栋）"}, "heightStatus": "unknown", "source": "OpenStreetMap", "license": "ODbL-1.0"}, "geometry": {"type": "MultiPolygon", "coordinates": [[[[113.9083405, 22.5547379], [113.9084216, 22.5546321], [113.9088583, 22.5549229], [113.9087717, 22.5550262], [113.9083405, 22.5547379]]]]}}, {"type": "Feature", "id": "way/1081087788", "properties": {"tags": {"building": "yes"}, "heightStatus": "unknown", "source": "OpenStreetMap", "license": "ODbL-1.0"}, "geometry": {"type": "MultiPolygon", "coordinates": [[[[113.9112013, 22.5577726], [113.9117457, 22.5571234], [113.9119722, 22.5572854], [113.9114279, 22.5579346], [113.9112013, 22.5577726]]]]}}, {"type": "Feature", "id": "way/1081087789", "properties": {"tags": {"building": "yes"}, "heightStatus": "unknown", "source": "OpenStreetMap", "license": "ODbL-1.0"}, "geometry": {"type": "MultiPolygon", "coordinates": [[[[113.9115344, 22.5581275], [113.9120788, 22.5574783], [113.9123053, 22.5576403], [113.911761, 22.5582896], [113.9115344, 22.5581275]]]]}}, {"type": "Feature", "id": "way/1340422303", "properties": {"tags": {"building": "train_station", "building:levels": "0", "building:levels:underground": "2", "layer": "-1", "location": "underground", "name": "同乐南站", "name:en": "Tongle South Station", "name:zh": "同乐南站", "public_transport": "station", "start_date": "2022-11-28", "wikidata": "Q115520534", "wikipedia": "zh:同乐南站"}, "heightStatus": "levels_only_unverified", "source": "OpenStreetMap", "license": "ODbL-1.0"}, "geometry": {"type": "MultiPolygon", "coordinates": [[[[113.9121219, 22.5591256], [113.9122683, 22.5590827], [113.9122576, 22.5590516], [113.9124204, 22.5590039], [113.9130287, 22.5592061], [113.9131581, 22.5592078], [113.9131577, 22.5592334], [113.9135241, 22.5592382], [113.9135245, 22.559209], [113.9141406, 22.5592171], [113.9141432, 22.559045], [113.9138043, 22.5590406], [113.9138053, 22.5589733], [113.9142198, 22.5589787], [113.9142161, 22.559219], [113.9143742, 22.559221], [113.9143738, 22.5592484], [113.9145054, 22.5592501], [113.9145057, 22.5592336], [113.9146373, 22.5592353], [113.9146332, 22.5594616], [113.9147742, 22.5596174], [113.914801, 22.5595971], [113.9148484, 22.5596503], [113.9148258, 22.5596676], [113.9150684, 22.55994], [113.915015, 22.5599805], [113.9147697, 22.5597051], [113.9146949, 22.5597632], [113.9145227, 22.5595708], [113.9143707, 22.5595683], [113.9143717, 22.5595013], [113.9142927, 22.5595003], [113.9142937, 22.5594379], [113.9138567, 22.5594322], [113.9138563, 22.5594561], [113.9136029, 22.5594528], [113.9136018, 22.5595234], [113.9136689, 22.5596329], [113.9136636, 22.5599657], [113.9135856, 22.5599647], [113.9135878, 22.5598245], [113.9135567, 22.5598241], [113.9135597, 22.5596314], [113.913507, 22.5595495], [113.9133222, 22.5595455], [113.9133208, 22.5596371], [113.9130221, 22.5596332], [113.9130253, 22.5592843], [113.9124521, 22.5590963], [113.912143, 22.5591869], [113.9121219, 22.5591256]]]]}}, {"type": "Feature", "id": "way/1425488870", "properties": {"tags": {"building": "apartments"}, "heightStatus": "unknown", "source": "OpenStreetMap", "license": "ODbL-1.0"}, "geometry": {"type": "MultiPolygon", "coordinates": [[[[113.9102629, 22.5589747], [113.910331, 22.5588944], [113.9103787, 22.5589289], [113.9104085, 22.5588938], [113.9102882, 22.5588068], [113.9103637, 22.5587178], [113.9104819, 22.5588033], [113.9105522, 22.5587204], [113.9106373, 22.5587819], [113.910567, 22.5588648], [113.9106853, 22.5589503], [113.9106098, 22.5590393], [113.9104895, 22.5589523], [113.9104597, 22.5589875], [113.9105074, 22.559022], [113.9104393, 22.5591023], [113.9102629, 22.5589747]]]]}}, {"type": "Feature", "id": "way/1425488871", "properties": {"tags": {"building": "apartments"}, "heightStatus": "unknown", "source": "OpenStreetMap", "license": "ODbL-1.0"}, "geometry": {"type": "MultiPolygon", "coordinates": [[[[113.9098868, 22.5586957], [113.9099549, 22.5586154], [113.9099035, 22.5585782], [113.9099515, 22.5585216], [113.9100347, 22.5585818], [113.9100604, 22.5585516], [113.9099771, 22.5584914], [113.9100251, 22.5584348], [113.9101222, 22.558505], [113.9101761, 22.5584413], [113.9102612, 22.5585029], [113.9102073, 22.5585665], [113.9103044, 22.5586367], [113.9102564, 22.5586933], [113.9101731, 22.5586331], [113.9101475, 22.5586634], [113.9102307, 22.5587235], [113.9101828, 22.5587801], [113.9101314, 22.558743], [113.9100633, 22.5588233], [113.9098868, 22.5586957]]]]}}, {"type": "Feature", "id": "way/1425488872", "properties": {"tags": {"building": "apartments"}, "heightStatus": "unknown", "source": "OpenStreetMap", "license": "ODbL-1.0"}, "geometry": {"type": "MultiPolygon", "coordinates": [[[[113.9091843, 22.5581986], [113.9092506, 22.5581203], [113.9092813, 22.5581425], [113.9093109, 22.5581075], [113.9092037, 22.55803], [113.9092808, 22.557939], [113.909388, 22.5580165], [113.9094613, 22.5579302], [113.9095738, 22.5580116], [113.9095006, 22.5580979], [113.9096078, 22.5581754], [113.9095307, 22.5582665], [113.9094234, 22.5581889], [113.9093938, 22.5582239], [113.9094245, 22.558246], [113.9093581, 22.5583243], [113.9091843, 22.5581986]]]]}}, {"type": "Feature", "id": "way/1425488873", "properties": {"tags": {"building": "apartments"}, "heightStatus": "unknown", "source": "OpenStreetMap", "license": "ODbL-1.0"}, "geometry": {"type": "MultiPolygon", "coordinates": [[[[113.9095113, 22.5584351], [113.9095776, 22.5583568], [113.9096083, 22.5583789], [113.9096379, 22.558344], [113.9095307, 22.5582665], [113.9096078, 22.5581754], [113.9097151, 22.558253], [113.9097883, 22.5581666], [113.9099008, 22.558248], [113.9098276, 22.5583344], [113.9099348, 22.5584119], [113.9098577, 22.5585029], [113.9097505, 22.5584254], [113.9097208, 22.5584603], [113.9097515, 22.5584825], [113.9096851, 22.5585607], [113.9095113, 22.5584351]]]]}}, {"type": "Feature", "id": "way/1425488874", "properties": {"tags": {"building": "apartments"}, "heightStatus": "unknown", "source": "OpenStreetMap", "license": "ODbL-1.0"}, "geometry": {"type": "MultiPolygon", "coordinates": [[[[113.9087545, 22.5578658], [113.9088209, 22.5577875], [113.9088515, 22.5578097], [113.9088811, 22.5577747], [113.9087739, 22.5576972], [113.908851, 22.5576062], [113.9089583, 22.5576837], [113.9090315, 22.5575974], [113.909144, 22.5576787], [113.9090708, 22.5577651], [113.9091781, 22.5578426], [113.9091009, 22.5579337], [113.9089937, 22.5578561], [113.908964, 22.5578911], [113.9089947, 22.5579132], [113.9089283, 22.5579915], [113.9087545, 22.5578658]]]]}}, {"type": "Feature", "id": "way/1425488875", "properties": {"tags": {"building": "apartments"}, "heightStatus": "unknown", "source": "OpenStreetMap", "license": "ODbL-1.0"}, "geometry": {"type": "MultiPolygon", "coordinates": [[[[113.9084275, 22.5576294], [113.9084938, 22.5575511], [113.9085245, 22.5575732], [113.9085541, 22.5575383], [113.9084469, 22.5574608], [113.908524, 22.5573698], [113.9086313, 22.5574473], [113.9087045, 22.5573609], [113.908817, 22.5574423], [113.9087438, 22.5575287], [113.908851, 22.5576062], [113.9087739, 22.5576972], [113.9086667, 22.5576197], [113.908637, 22.5576546], [113.9086677, 22.5576768], [113.9086013, 22.5577551], [113.9084275, 22.5576294]]]]}}, {"type": "Feature", "id": "way/1425488876", "properties": {"tags": {"building": "apartments"}, "heightStatus": "unknown", "source": "OpenStreetMap", "license": "ODbL-1.0"}, "geometry": {"type": "MultiPolygon", "coordinates": [[[[113.9081005, 22.5573929], [113.9081668, 22.5573146], [113.9081975, 22.5573368], [113.9082271, 22.5573019], [113.9081199, 22.5572243], [113.908197, 22.5571333], [113.9083043, 22.5572108], [113.9083775, 22.5571245], [113.90849, 22.5572059], [113.9084168, 22.5572922], [113.908524, 22.5573698], [113.9084469, 22.5574608], [113.9083397, 22.5573832], [113.90831, 22.5574182], [113.9083407, 22.5574403], [113.9082743, 22.5575186], [113.9081005, 22.5573929]]]]}}, {"type": "Feature", "id": "way/1425488877", "properties": {"tags": {"addr:housename": "华府国际", "addr:housename:zh": "华府国际", "building": "apartments", "building:levels": "32", "name": "3栋", "name:zh": "3栋"}, "heightStatus": "levels_only_unverified", "source": "OpenStreetMap", "license": "ODbL-1.0"}, "geometry": {"type": "MultiPolygon", "coordinates": [[[[113.9104589, 22.557941], [113.9105618, 22.55782], [113.9106574, 22.5578893], [113.9107775, 22.557748], [113.9106819, 22.5576787], [113.9107848, 22.5575576], [113.9108804, 22.557627], [113.9109405, 22.5575563], [113.9110135, 22.5576093], [113.9105675, 22.558134], [113.9104945, 22.558081], [113.9105545, 22.5580103], [113.9104589, 22.557941]]]]}}, {"type": "Feature", "id": "way/1425488878", "properties": {"tags": {"addr:housename": "华府国际", "addr:housename:zh": "华府国际", "building": "apartments", "building:levels": "32", "name": "4栋", "name:zh": "4栋"}, "heightStatus": "levels_only_unverified", "source": "OpenStreetMap", "license": "ODbL-1.0"}, "geometry": {"type": "MultiPolygon", "coordinates": [[[[113.9109903, 22.5573036], [113.9110932, 22.5571826], [113.9111888, 22.5572519], [113.911309, 22.5571106], [113.9112133, 22.5570413], [113.9113162, 22.5569202], [113.9114118, 22.5569896], [113.911532, 22.5568482], [113.9114363, 22.5567789], [113.9115392, 22.5566579], [113.9116348, 22.5567272], [113.9116949, 22.5566566], [113.911768, 22.5567095], [113.911099, 22.5574966], [113.9110259, 22.5574436], [113.911086, 22.5573729], [113.9109903, 22.5573036]]]]}}, {"type": "Feature", "id": "way/1425488879", "properties": {"tags": {"addr:housename": "华府国际", "addr:housename:zh": "华府国际", "building": "apartments", "building:levels": "32", "name": "2栋", "name:zh": "2栋"}, "heightStatus": "levels_only_unverified", "source": "OpenStreetMap", "license": "ODbL-1.0"}, "geometry": {"type": "MultiPolygon", "coordinates": [[[[113.9106284, 22.5569911], [113.9107313, 22.5568701], [113.9108269, 22.5569394], [113.9109471, 22.5567981], [113.9108514, 22.5567287], [113.9109543, 22.5566077], [113.9110499, 22.556677], [113.9111701, 22.5565357], [113.9110745, 22.5564664], [113.9111773, 22.5563454], [113.9112729, 22.5564147], [113.911333, 22.556344], [113.9114061, 22.556397], [113.9107371, 22.557184], [113.910664, 22.5571311], [113.9107241, 22.5570604], [113.9106284, 22.5569911]]]]}}, {"type": "Feature", "id": "way/1425488880", "properties": {"tags": {"addr:housename": "华府国际", "addr:housename:zh": "华府国际", "building": "apartments", "building:levels": "32", "name": "1栋", "name:zh": "1栋"}, "heightStatus": "levels_only_unverified", "source": "OpenStreetMap", "license": "ODbL-1.0"}, "geometry": {"type": "MultiPolygon", "coordinates": [[[[113.9100724, 22.5576512], [113.9101752, 22.5575302], [113.9102709, 22.5575996], [113.910391, 22.5574582], [113.9102954, 22.5573889], [113.9103983, 22.5572679], [113.9104939, 22.5573372], [113.9105539, 22.5572666], [113.910627, 22.5573195], [113.910181, 22.5578442], [113.9101079, 22.5577912], [113.910168, 22.5577206], [113.9100724, 22.5576512]]]]}}, {"type": "Feature", "id": "way/1425488890", "properties": {"tags": {"addr:housename": "豪方天际花园", "addr:housename:zh": "豪方天际花园", "building": "apartments", "building:levels": "47", "name": "2栋", "name:zh": "2栋"}, "heightStatus": "levels_only_unverified", "source": "OpenStreetMap", "license": "ODbL-1.0"}, "geometry": {"type": "MultiPolygon", "coordinates": [[[[113.9155735, 22.5584051], [113.9156242, 22.5583605], [113.9155839, 22.5583215], [113.9156536, 22.55826], [113.9157208, 22.558325], [113.9158066, 22.5582494], [113.9158778, 22.5583183], [113.9157921, 22.5583939], [113.9159264, 22.5585239], [113.9160122, 22.5584483], [113.9160834, 22.5585172], [113.9159976, 22.5585928], [113.9160648, 22.5586578], [113.915995, 22.5587193], [113.9159548, 22.5586803], [113.9159041, 22.558725], [113.9157791, 22.558604], [113.9158298, 22.5585594], [113.9157492, 22.5584814], [113.9156985, 22.5585261], [113.9155735, 22.5584051]]]]}}, {"type": "Feature", "id": "way/1425488891", "properties": {"tags": {"addr:housename": "豪方天际花园", "addr:housename:zh": "豪方天际花园", "building": "apartments", "building:levels": "47", "name": "4栋", "name:zh": "4栋"}, "heightStatus": "levels_only_unverified", "source": "OpenStreetMap", "license": "ODbL-1.0"}, "geometry": {"type": "MultiPolygon", "coordinates": [[[[113.9148321, 22.5574803], [113.9148809, 22.5574339], [113.9148391, 22.5573964], [113.9149063, 22.5573325], [113.9149761, 22.5573952], [113.9150588, 22.5573167], [113.9151327, 22.5573832], [113.91505, 22.5574617], [113.9151894, 22.557587], [113.9152721, 22.5575085], [113.9153461, 22.557575], [113.9152634, 22.5576535], [113.9153331, 22.5577161], [113.9152658, 22.5577799], [113.915224, 22.5577423], [113.9151751, 22.5577887], [113.9150454, 22.5576721], [113.9150943, 22.5576257], [113.9150106, 22.5575505], [113.9149618, 22.5575969], [113.9148321, 22.5574803]]]]}}, {"type": "Feature", "id": "way/1425488892", "properties": {"tags": {"addr:housename": "豪方天际花园", "addr:housename:zh": "豪方天际花园", "building": "apartments", "building:levels": "47", "name": "5栋", "name:zh": "5栋"}, "heightStatus": "levels_only_unverified", "source": "OpenStreetMap", "license": "ODbL-1.0"}, "geometry": {"type": "MultiPolygon", "coordinates": [[[[113.9144482, 22.5568859], [113.9144937, 22.5568367], [113.9144493, 22.5568017], [113.9145118, 22.5567339], [113.9145859, 22.5567922], [113.9146628, 22.5567089], [113.9147413, 22.5567707], [113.9146644, 22.556854], [113.9148124, 22.5569706], [113.9148894, 22.5568873], [113.9149679, 22.5569491], [113.914891, 22.5570324], [113.914965, 22.5570907], [113.9149024, 22.5571585], [113.914858, 22.5571235], [113.9148126, 22.5571728], [113.9146748, 22.5570643], [113.9147203, 22.5570151], [113.9146314, 22.5569451], [113.914586, 22.5569944], [113.9144482, 22.5568859]]]]}}, {"type": "Feature", "id": "way/1425488893", "properties": {"tags": {"addr:housename": "豪方天际花园", "addr:housename:zh": "豪方天际花园", "building": "apartments", "building:levels": "47", "name": "6栋", "name:zh": "6栋"}, "heightStatus": "levels_only_unverified", "source": "OpenStreetMap", "license": "ODbL-1.0"}, "geometry": {"type": "MultiPolygon", "coordinates": [[[[113.9152116, 22.5559297], [113.9152453, 22.5558462], [113.9158033, 22.5560382], [113.9157697, 22.5561216], [113.9156785, 22.5560903], [113.9156537, 22.5561518], [113.915557, 22.5561186], [113.9155818, 22.556057], [113.9153995, 22.5559943], [113.9153747, 22.5560559], [113.9152779, 22.5560226], [113.9153028, 22.555961], [113.9152116, 22.5559297]]]]}}, {"type": "Feature", "id": "way/1425488895", "properties": {"tags": {"addr:housename": "豪方天际花园", "addr:housename:zh": "豪方天际花园", "building": "apartments", "building:levels": "47", "name": "1栋", "name:zh": "1栋"}, "heightStatus": "levels_only_unverified", "source": "OpenStreetMap", "license": "ODbL-1.0"}, "geometry": {"type": "MultiPolygon", "coordinates": [[[[113.9162368, 22.5586997], [113.9163429, 22.5585821], [113.9163854, 22.5586148], [113.916415, 22.5585821], [113.9165748, 22.5587051], [113.9164731, 22.5588178], [113.9163147, 22.5586959], [113.9162807, 22.5587335], [113.9162368, 22.5586997]]]]}}, {"type": "Feature", "id": "way/1425488896", "properties": {"tags": {"addr:housename": "豪方天际花园", "addr:housename:zh": "豪方天际花园", "building": "apartments", "building:levels": "47", "name": "3栋", "name:zh": "3栋"}, "heightStatus": "levels_only_unverified", "source": "OpenStreetMap", "license": "ODbL-1.0"}, "geometry": {"type": "MultiPolygon", "coordinates": [[[[113.9152747, 22.5580426], [113.9153309, 22.558004], [113.915296, 22.5579607], [113.9153734, 22.5579076], [113.9154314, 22.5579796], [113.9155266, 22.5579143], [113.9155882, 22.5579907], [113.9154931, 22.5580561], [113.9155511, 22.5581282], [113.9154738, 22.5581813], [113.9154389, 22.5581381], [113.9153827, 22.5581767], [113.9152747, 22.5580426]]]]}}, {"type": "Feature", "id": "way/1425488897", "properties": {"tags": {"addr:housename": "前海东岸花园", "addr:housename:zh": "前海东岸花园", "building": "apartments", "building:levels": "36", "name": "6号", "name:zh": "6号"}, "heightStatus": "levels_only_unverified", "source": "OpenStreetMap", "license": "ODbL-1.0"}, "geometry": {"type": "MultiPolygon", "coordinates": [[[[113.91387, 22.5563142], [113.9140312, 22.5562067], [113.9141101, 22.5563075], [113.9140871, 22.5563228], [113.9142132, 22.5564841], [113.9142362, 22.5564687], [113.9143096, 22.5565625], [113.9141725, 22.5566539], [113.9139294, 22.5563432], [113.9139053, 22.5563593], [113.91387, 22.5563142]]]]}}, {"type": "Feature", "id": "way/1425488898", "properties": {"tags": {"addr:housename": "前海东岸花园", "addr:housename:zh": "前海东岸花园", "building": "apartments", "building:levels": "38", "name": "1号", "name:zh": "1号"}, "heightStatus": "levels_only_unverified", "source": "OpenStreetMap", "license": "ODbL-1.0"}, "geometry": {"type": "MultiPolygon", "coordinates": [[[[113.9129509, 22.5549701], [113.9130266, 22.5548832], [113.9129817, 22.5548499], [113.9130378, 22.5547855], [113.9130827, 22.5548189], [113.9131176, 22.5547789], [113.9130722, 22.5547452], [113.9131202, 22.5546901], [113.9132667, 22.554799], [113.9132332, 22.5548374], [113.9131966, 22.5548102], [113.9131658, 22.5548455], [113.9131938, 22.5548664], [113.9132138, 22.5548434], [113.9132511, 22.5548711], [113.9131314, 22.5550085], [113.9130941, 22.5549808], [113.9131166, 22.5549549], [113.9130886, 22.5549341], [113.9130154, 22.555018], [113.9129509, 22.5549701]]]]}}, {"type": "Feature", "id": "way/1425488899", "properties": {"tags": {"addr:housename": "前海东岸花园", "addr:housename:zh": "前海东岸花园", "building": "apartments", "building:levels": "38", "name": "2号", "name:zh": "2号"}, "heightStatus": "levels_only_unverified", "source": "OpenStreetMap", "license": "ODbL-1.0"}, "geometry": {"type": "MultiPolygon", "coordinates": [[[[113.9127274, 22.5552266], [113.9127884, 22.5551566], [113.9127638, 22.5551383], [113.9128654, 22.5550218], [113.9128899, 22.5550401], [113.9129509, 22.5549701], [113.9130154, 22.555018], [113.9129423, 22.555102], [113.9129703, 22.5551228], [113.9129928, 22.5550969], [113.9130302, 22.5551247], [113.9128939, 22.5552811], [113.9128565, 22.5552533], [113.9128931, 22.5552114], [113.9128651, 22.5551905], [113.9127919, 22.5552745], [113.9127274, 22.5552266]]]]}}, {"type": "Feature", "id": "way/1425488900", "properties": {"tags": {"addr:housename": "前海东岸花园", "addr:housename:zh": "前海东岸花园", "building": "apartments", "building:levels": "38", "name": "8号", "name:zh": "8号"}, "heightStatus": "levels_only_unverified", "source": "OpenStreetMap", "license": "ODbL-1.0"}, "geometry": {"type": "MultiPolygon", "coordinates": [[[[113.914552, 22.5558056], [113.9145915, 22.5557309], [113.9146932, 22.5557768], [113.9147148, 22.5557361], [113.9146973, 22.5557282], [113.9147388, 22.5556497], [113.9148716, 22.5557096], [113.9148301, 22.5557881], [113.9148126, 22.5557802], [113.914791, 22.5558209], [113.9148945, 22.5558676], [113.914855, 22.5559423], [113.914552, 22.5558056]]]]}}, {"type": "Feature", "id": "way/1425488901", "properties": {"tags": {"addr:housename": "前海东岸花园", "addr:housename:zh": "前海东岸花园", "building": "apartments", "building:levels": "38", "name": "5号", "name:zh": "5号"}, "heightStatus": "levels_only_unverified", "source": "OpenStreetMap", "license": "ODbL-1.0"}, "geometry": {"type": "MultiPolygon", "coordinates": [[[[113.9135745, 22.5559694], [113.9136366, 22.5559091], [113.913707, 22.5559711], [113.9137409, 22.5559382], [113.9138197, 22.5560075], [113.9137859, 22.5560404], [113.9138564, 22.5561023], [113.9137943, 22.5561625], [113.9137238, 22.5561006], [113.9136928, 22.5561308], [113.9136139, 22.5560615], [113.913645, 22.5560313], [113.9135745, 22.5559694]]]]}}, {"type": "Feature", "id": "way/1425488902", "properties": {"tags": {"addr:housename": "前海东岸花园", "addr:housename:zh": "前海东岸花园", "building": "apartments", "building:levels": "38", "name": "4号", "name:zh": "4号"}, "heightStatus": "levels_only_unverified", "source": "OpenStreetMap", "license": "ODbL-1.0"}, "geometry": {"type": "MultiPolygon", "coordinates": [[[[113.9132397, 22.555682], [113.9133018, 22.5556218], [113.9133722, 22.5556837], [113.9134061, 22.5556509], [113.913392, 22.5556385], [113.9134572, 22.5555752], [113.9135642, 22.5556693], [113.913499, 22.5557325], [113.9134849, 22.5557202], [113.9134511, 22.555753], [113.9135216, 22.5558149], [113.9134595, 22.5558752], [113.9132397, 22.555682]]]]}}, {"type": "Feature", "id": "way/1425488903", "properties": {"tags": {"addr:housename": "前海东岸花园", "addr:housename:zh": "前海东岸花园", "building": "apartments", "building:levels": "38", "name": "3号", "name:zh": "3号"}, "heightStatus": "levels_only_unverified", "source": "OpenStreetMap", "license": "ODbL-1.0"}, "geometry": {"type": "MultiPolygon", "coordinates": [[[[113.9130199, 22.5554889], [113.913082, 22.5554286], [113.9131524, 22.5554905], [113.9131863, 22.5554577], [113.9131722, 22.5554453], [113.9132374, 22.555382], [113.9133444, 22.5554761], [113.9132792, 22.5555394], [113.9132651, 22.555527], [113.9132313, 22.5555598], [113.9133018, 22.5556218], [113.9132397, 22.555682], [113.9130199, 22.5554889]]]]}}, {"type": "Feature", "id": "way/1445967137", "properties": {"tags": {"building": "residential"}, "heightStatus": "unknown", "source": "OpenStreetMap", "license": "ODbL-1.0"}, "geometry": {"type": "MultiPolygon", "coordinates": [[[[113.909588, 22.5569802], [113.9096419, 22.5569162], [113.9097032, 22.5569605], [113.9097134, 22.5569485], [113.9096723, 22.5569191], [113.90973, 22.5568505], [113.909866, 22.5569478], [113.909808, 22.5570168], [113.9097661, 22.5569868], [113.9097562, 22.5569986], [113.909809, 22.5570366], [113.9097555, 22.5571009], [113.909588, 22.5569802]]]]}}, {"type": "Feature", "id": "way/1445967138", "properties": {"tags": {"building": "residential"}, "heightStatus": "unknown", "source": "OpenStreetMap", "license": "ODbL-1.0"}, "geometry": {"type": "MultiPolygon", "coordinates": [[[[113.9097555, 22.5571009], [113.909809, 22.5570366], [113.9098629, 22.5570757], [113.9098731, 22.5570636], [113.909832, 22.5570343], [113.9098897, 22.5569656], [113.9100257, 22.557063], [113.9099677, 22.557132], [113.9099259, 22.557102], [113.909916, 22.5571138], [113.90998, 22.5571596], [113.9099261, 22.5572237], [113.9097555, 22.5571009]]]]}}, {"type": "Feature", "id": "way/1445967139", "properties": {"tags": {"building": "residential"}, "heightStatus": "unknown", "source": "OpenStreetMap", "license": "ODbL-1.0"}, "geometry": {"type": "MultiPolygon", "coordinates": [[[[113.9099263, 22.556899], [113.9099798, 22.5568348], [113.9100338, 22.5568738], [113.9100439, 22.5568617], [113.9100029, 22.5568324], [113.9100606, 22.5567637], [113.9101965, 22.5568611], [113.9101385, 22.5569301], [113.9100967, 22.5569001], [113.9100868, 22.5569119], [113.9101508, 22.5569577], [113.910097, 22.5570218], [113.9099263, 22.556899]]]]}}, {"type": "Feature", "id": "way/1445967140", "properties": {"tags": {"building": "residential"}, "heightStatus": "unknown", "source": "OpenStreetMap", "license": "ODbL-1.0"}, "geometry": {"type": "MultiPolygon", "coordinates": [[[[113.9097589, 22.5567783], [113.9098128, 22.5567143], [113.9098741, 22.5567586], [113.9098842, 22.5567466], [113.9098431, 22.5567172], [113.9099009, 22.5566486], [113.9100368, 22.5567459], [113.9099788, 22.5568149], [113.909937, 22.5567849], [113.9099271, 22.5567967], [113.9099798, 22.5568348], [113.9099263, 22.556899], [113.9097589, 22.5567783]]]]}}, {"type": "Feature", "id": "way/1445967141", "properties": {"tags": {"building": "residential"}, "heightStatus": "unknown", "source": "OpenStreetMap", "license": "ODbL-1.0"}, "geometry": {"type": "MultiPolygon", "coordinates": [[[[113.9095656, 22.5566299], [113.9096192, 22.5565657], [113.9096731, 22.5566047], [113.9096833, 22.5565926], [113.9096422, 22.5565633], [113.9096999, 22.5564947], [113.9098359, 22.556592], [113.9097779, 22.556661], [113.909736, 22.556631], [113.9097261, 22.5566428], [113.9097902, 22.5566886], [113.9097363, 22.5567527], [113.9095656, 22.5566299]]]]}}, {"type": "Feature", "id": "way/1445967142", "properties": {"tags": {"building": "residential"}, "heightStatus": "unknown", "source": "OpenStreetMap", "license": "ODbL-1.0"}, "geometry": {"type": "MultiPolygon", "coordinates": [[[[113.9093982, 22.5565092], [113.9094521, 22.5564452], [113.9095134, 22.5564896], [113.9095236, 22.5564775], [113.9094825, 22.5564481], [113.9095402, 22.5563795], [113.9096762, 22.5564768], [113.9096182, 22.5565459], [113.9095763, 22.5565159], [113.9095664, 22.5565276], [113.9096192, 22.5565657], [113.9095656, 22.5566299], [113.9093982, 22.5565092]]]]}}, {"type": "Feature", "id": "way/1445967143", "properties": {"tags": {"building": "residential"}, "heightStatus": "unknown", "source": "OpenStreetMap", "license": "ODbL-1.0"}, "geometry": {"type": "MultiPolygon", "coordinates": [[[[113.9099351, 22.5562069], [113.9099887, 22.5561426], [113.9100426, 22.5561817], [113.9100528, 22.5561696], [113.9100117, 22.5561403], [113.9100694, 22.5560716], [113.9102054, 22.556169], [113.9101474, 22.556238], [113.9101055, 22.556208], [113.9100956, 22.5562198], [113.9101597, 22.5562656], [113.9101058, 22.5563297], [113.9099351, 22.5562069]]]]}}, {"type": "Feature", "id": "way/1445967144", "properties": {"tags": {"building": "residential"}, "heightStatus": "unknown", "source": "OpenStreetMap", "license": "ODbL-1.0"}, "geometry": {"type": "MultiPolygon", "coordinates": [[[[113.9097677, 22.5560862], [113.9098216, 22.5560222], [113.9098829, 22.5560665], [113.9098931, 22.5560545], [113.909852, 22.5560251], [113.9099097, 22.5559565], [113.9100456, 22.5560538], [113.9099877, 22.5561228], [113.9099458, 22.5560928], [113.9099359, 22.5561046], [113.9099887, 22.5561426], [113.9099351, 22.5562069], [113.9097677, 22.5560862]]]]}}, {"type": "Feature", "id": "way/1445967145", "properties": {"tags": {"building": "residential"}, "heightStatus": "unknown", "source": "OpenStreetMap", "license": "ODbL-1.0"}, "geometry": {"type": "MultiPolygon", "coordinates": [[[[113.9103129, 22.5564766], [113.9103665, 22.5564123], [113.9104204, 22.5564513], [113.9104306, 22.5564393], [113.9103895, 22.5564099], [113.9104472, 22.5563413], [113.9105832, 22.5564386], [113.9105252, 22.5565076], [113.9104833, 22.5564776], [113.9104734, 22.5564894], [113.9105375, 22.5565353], [113.9104836, 22.5565993], [113.9103129, 22.5564766]]]]}}, {"type": "Feature", "id": "way/1445967146", "properties": {"tags": {"building": "residential"}, "heightStatus": "unknown", "source": "OpenStreetMap", "license": "ODbL-1.0"}, "geometry": {"type": "MultiPolygon", "coordinates": [[[[113.9101455, 22.5563559], [113.9101994, 22.5562918], [113.9102607, 22.5563362], [113.9102709, 22.5563241], [113.9102298, 22.5562947], [113.9102875, 22.5562261], [113.9104235, 22.5563234], [113.9103655, 22.5563925], [113.9103236, 22.5563625], [113.9103137, 22.5563742], [113.9103665, 22.5564123], [113.9103129, 22.5564766], [113.9101455, 22.5563559]]]]}}, {"type": "Feature", "id": "way/1445967147", "properties": {"tags": {"building": "residential"}, "heightStatus": "unknown", "source": "OpenStreetMap", "license": "ODbL-1.0"}, "geometry": {"type": "MultiPolygon", "coordinates": [[[[113.9096258, 22.5553143], [113.9096778, 22.5552489], [113.9097404, 22.5552917], [113.9097502, 22.5552794], [113.9097083, 22.555251], [113.909764, 22.555181], [113.9099027, 22.5552749], [113.9098468, 22.5553454], [113.909804, 22.5553165], [113.9097946, 22.5553284], [113.9098599, 22.5553727], [113.9098079, 22.5554381], [113.9096258, 22.5553143]]]]}}, {"type": "Feature", "id": "way/1445967148", "properties": {"tags": {"building": "residential"}, "heightStatus": "unknown", "source": "OpenStreetMap", "license": "ODbL-1.0"}, "geometry": {"type": "MultiPolygon", "coordinates": [[[[113.909837, 22.5554654], [113.909889, 22.5554], [113.9099516, 22.5554428], [113.9099613, 22.5554305], [113.9099195, 22.5554021], [113.9099751, 22.5553321], [113.9101139, 22.555426], [113.9100579, 22.5554965], [113.9100152, 22.5554676], [113.9100057, 22.5554795], [113.910071, 22.5555238], [113.9100191, 22.5555892], [113.909837, 22.5554654]]]]}}, {"type": "Feature", "id": "way/1445967149", "properties": {"tags": {"building": "residential"}, "heightStatus": "unknown", "source": "OpenStreetMap", "license": "ODbL-1.0"}, "geometry": {"type": "MultiPolygon", "coordinates": [[[[113.9100489, 22.5556078], [113.9101008, 22.5555424], [113.9101635, 22.5555852], [113.9101732, 22.5555729], [113.9101313, 22.5555445], [113.910187, 22.5554746], [113.9103258, 22.5555685], [113.9102698, 22.5556389], [113.9102271, 22.55561], [113.9102176, 22.555622], [113.9102829, 22.5556662], [113.9102309, 22.5557316], [113.9100489, 22.5556078]]]]}}, {"type": "Feature", "id": "way/1447834669", "properties": {"tags": {"building": "yes"}, "heightStatus": "unknown", "source": "OpenStreetMap", "license": "ODbL-1.0"}, "geometry": {"type": "MultiPolygon", "coordinates": [[[[113.9112434, 22.559249], [113.9113211, 22.5591566], [113.9116172, 22.5593688], [113.9115395, 22.5594613], [113.9112434, 22.559249]]]]}}, {"type": "Feature", "id": "way/1447834670", "properties": {"tags": {"building": "yes"}, "heightStatus": "unknown", "source": "OpenStreetMap", "license": "ODbL-1.0"}, "geometry": {"type": "MultiPolygon", "coordinates": [[[[113.9110457, 22.5595623], [113.9110866, 22.5595136], [113.9113181, 22.5596795], [113.9112772, 22.5597281], [113.9110457, 22.5595623]]]]}}, {"type": "Feature", "id": "way/1447834671", "properties": {"tags": {"building": "yes", "name": "荔山大厦", "office": "yes"}, "heightStatus": "unknown", "source": "OpenStreetMap", "license": "ODbL-1.0"}, "geometry": {"type": "MultiPolygon", "coordinates": [[[[113.9106572, 22.559472], [113.9109887, 22.5590871], [113.9108164, 22.5589606], [113.9109318, 22.5588266], [113.9112431, 22.5590553], [113.9107962, 22.5595741], [113.9106572, 22.559472]]]]}}, {"type": "Feature", "id": "way/1459428237", "properties": {"tags": {"building": "apartments"}, "heightStatus": "unknown", "source": "OpenStreetMap", "license": "ODbL-1.0"}, "geometry": {"type": "MultiPolygon", "coordinates": [[[[113.9139713, 22.5598199], [113.9139765, 22.559638], [113.9140538, 22.5596397], [113.9140541, 22.5596151], [113.9140235, 22.5596139], [113.9140259, 22.5595485], [113.9141957, 22.5595529], [113.9141944, 22.5596195], [113.9141585, 22.5596188], [113.914158, 22.5596428], [113.9142318, 22.5596442], [113.9142266, 22.5598261], [113.9141526, 22.5598235], [113.9141554, 22.5597226], [113.9140514, 22.5597202], [113.9140473, 22.5598218], [113.9139713, 22.5598199]]]]}}, {"type": "Feature", "id": "way/1459428238", "properties": {"tags": {"building": "apartments"}, "heightStatus": "unknown", "source": "OpenStreetMap", "license": "ODbL-1.0"}, "geometry": {"type": "MultiPolygon", "coordinates": [[[[113.914369, 22.5599083], [113.9143699, 22.5598541], [113.9146989, 22.559859], [113.9146979, 22.5599147], [113.9146672, 22.5599142], [113.9146665, 22.5599529], [113.9147005, 22.5599534], [113.9146995, 22.5600093], [113.9145955, 22.5600078], [113.9145963, 22.5599613], [113.9145096, 22.5599601], [113.914509, 22.5599993], [113.9144916, 22.559999], [113.9144914, 22.5600149], [113.9144738, 22.5600147], [113.914473, 22.5600619], [113.9143805, 22.5600606], [113.9143825, 22.5599384], [113.9144084, 22.5599388], [113.9144089, 22.5599089], [113.914369, 22.5599083]]]]}}]}