{"type": "FeatureCollection", "features": [{"type": "Feature", "id": "way/883082863", "properties": {"tags": {"building": "apartments", "building:levels": "5", "name": "南头海关生活区（1栋）"}, "heightStatus": "levels_only_unverified", "source": "OpenStreetMap", "license": "ODbL-1.0"}, "geometry": {"type": "MultiPolygon", "coordinates": [[[[113.9078553, 22.5554707], [113.9079091, 22.5554062], [113.9081724, 22.5555828], [113.9081155, 22.55565], [113.9078553, 22.5554707]]]]}}, {"type": "Feature", "id": "way/883082865", "properties": {"tags": {"building": "apartments", "name": "南头海关生活区（2栋）"}, "heightStatus": "unknown", "source": "OpenStreetMap", "license": "ODbL-1.0"}, "geometry": {"type": "MultiPolygon", "coordinates": [[[[113.9080561, 22.5552357], [113.9081224, 22.5551579], [113.9083801, 22.5553347], [113.9083125, 22.5554118], [113.9080561, 22.5552357]]]]}}, {"type": "Feature", "id": "way/1434834578", "properties": {"tags": {"addr:housename": "智恒产业园", "addr:housename:en": "Zhiheng Industrial Park", "addr:housename:zh": "智恒产业园", "building": "industrial", "name": "22栋", "name:en": "Block 22", "name:zh": "22栋"}, "heightStatus": "unknown", "source": "OpenStreetMap", "license": "ODbL-1.0"}, "geometry": {"type": "MultiPolygon", "coordinates": [[[[113.9037597, 22.5543685], [113.9040548, 22.5540726], [113.9042426, 22.5542324], [113.9040002, 22.5545731], [113.9037597, 22.5543685]]]]}}, {"type": "Feature", "id": "way/1434834580", "properties": {"tags": {"addr:housename": "智恒产业园", "addr:housename:en": "Zhiheng Industrial Park", "addr:housename:zh": "智恒产业园", "building": "industrial", "name": "5栋", "name:en": "Block 5", "name:zh": "5栋"}, "heightStatus": "unknown", "source": "OpenStreetMap", "license": "ODbL-1.0"}, "geometry": {"type": "MultiPolygon", "coordinates": [[[[113.9034506, 22.5541216], [113.9035442, 22.5540277], [113.9037616, 22.5542126], [113.903668, 22.5543065], [113.9034506, 22.5541216]]]]}}, {"type": "Feature", "id": "way/1445967132", "properties": {"tags": {"building": "yes", "name": "南头海关缉私分局", "office": "government"}, "heightStatus": "unknown", "source": "OpenStreetMap", "license": "ODbL-1.0"}, "geometry": {"type": "MultiPolygon", "coordinates": [[[[113.9068569, 22.5559451], [113.9072009, 22.5554414], [113.9073288, 22.5555159], [113.9069848, 22.5560196], [113.9068569, 22.5559451]]]]}}, {"type": "Feature", "id": "way/1445967133", "properties": {"tags": {"building": "yes"}, "heightStatus": "unknown", "source": "OpenStreetMap", "license": "ODbL-1.0"}, "geometry": {"type": "MultiPolygon", "coordinates": [[[[113.9066189, 22.555833], [113.906689, 22.5557211], [113.9068598, 22.5558123], [113.9067896, 22.5559243], [113.9066189, 22.555833]]]]}}]}