{"type": "FeatureCollection", "features": [{"type": "Feature", "id": "way/247574390", "properties": {"tags": {"building": "yes"}, "heightStatus": "unknown", "source": "OpenStreetMap", "license": "ODbL-1.0"}, "geometry": {"type": "MultiPolygon", "coordinates": [[[[113.9053511, 22.5476882], [113.9053558, 22.5474739], [113.90591, 22.5474842], [113.9059053, 22.5476985], [113.9053511, 22.5476882]]]]}}, {"type": "Feature", "id": "way/247576103", "properties": {"tags": {"building": "yes"}, "heightStatus": "unknown", "source": "OpenStreetMap", "license": "ODbL-1.0"}, "geometry": {"type": "MultiPolygon", "coordinates": [[[[113.9051921, 22.5470977], [113.9052044, 22.54659], [113.9056742, 22.5465997], [113.9056619, 22.5471074], [113.9051921, 22.5470977]]]]}}, {"type": "Feature", "id": "way/247576131", "properties": {"tags": {"building": "yes"}, "heightStatus": "unknown", "source": "OpenStreetMap", "license": "ODbL-1.0"}, "geometry": {"type": "MultiPolygon", "coordinates": [[[[113.907483, 22.5479536], [113.9074867, 22.5477994], [113.9077028, 22.5478049], [113.9077383, 22.5477992], [113.9077666, 22.5477863], [113.9077873, 22.5477725], [113.9078042, 22.5477535], [113.9078197, 22.5477278], [113.9078305, 22.5477004], [113.9078332, 22.5476812], [113.9078785, 22.5476814], [113.907879, 22.5475932], [113.9074918, 22.5475889], [113.9074942, 22.5474892], [113.908025, 22.5475001], [113.9080217, 22.5476358], [113.9079548, 22.5476361], [113.9079527, 22.5477075], [113.9079426, 22.5477586], [113.9079228, 22.5478063], [113.907902, 22.5478425], [113.9078698, 22.5478768], [113.9078377, 22.5479033], [113.9077998, 22.5479253], [113.9077601, 22.5479438], [113.9077108, 22.5479554], [113.9076662, 22.5479574], [113.907483, 22.5479536]]]]}}, {"type": "Feature", "id": "way/690978994", "properties": {"tags": {"building": "yes", "name": "深圳市公安局南山分局机动训练大队一队", "office": "government"}, "heightStatus": "unknown", "source": "OpenStreetMap", "license": "ODbL-1.0"}, "geometry": {"type": "MultiPolygon", "coordinates": [[[[113.9056382, 22.5454932], [113.9056392, 22.5454028], [113.9056415, 22.545262], [113.9057252, 22.5452632], [113.9057834, 22.5452945], [113.9058435, 22.5453128], [113.9059098, 22.5453183], [113.9059698, 22.5453111], [113.906033, 22.5452953], [113.9060791, 22.5452712], [113.9061591, 22.5452724], [113.9061553, 22.5455], [113.9056382, 22.5454932]]]]}}, {"type": "Feature", "id": "way/690978998", "properties": {"tags": {"building": "yes"}, "heightStatus": "unknown", "source": "OpenStreetMap", "license": "ODbL-1.0"}, "geometry": {"type": "MultiPolygon", "coordinates": [[[[113.9054113, 22.5454912], [113.9054136, 22.5452587], [113.9054342, 22.5452589], [113.9054346, 22.545222], [113.9055859, 22.5452233], [113.9055844, 22.5454022], [113.9055833, 22.5454926], [113.9054113, 22.5454912]]]]}}, {"type": "Feature", "id": "way/690978999", "properties": {"tags": {"building": "yes"}, "heightStatus": "unknown", "source": "OpenStreetMap", "license": "ODbL-1.0"}, "geometry": {"type": "MultiPolygon", "coordinates": [[[[113.9055833, 22.5454926], [113.9055844, 22.5454022], [113.9056392, 22.5454028], [113.9056382, 22.5454932], [113.9055833, 22.5454926]]]]}}, {"type": "Feature", "id": "way/690979001", "properties": {"tags": {"building": "yes"}, "heightStatus": "unknown", "source": "OpenStreetMap", "license": "ODbL-1.0"}, "geometry": {"type": "MultiPolygon", "coordinates": [[[[113.9064002, 22.5456484], [113.9064135, 22.5454518], [113.9069575, 22.545483], [113.9069443, 22.5456796], [113.9064002, 22.5456484]]]]}}, {"type": "Feature", "id": "way/690979002", "properties": {"tags": {"building": "yes", "shop": "car_repair"}, "heightStatus": "unknown", "source": "OpenStreetMap", "license": "ODbL-1.0"}, "geometry": {"type": "MultiPolygon", "coordinates": [[[[113.9063677, 22.5453852], [113.9063686, 22.5451857], [113.9066, 22.5451867], [113.9066, 22.5451964], [113.9067791, 22.5451972], [113.9067785, 22.5453246], [113.9069385, 22.5453252], [113.9069382, 22.5453876], [113.9063677, 22.5453852]]]]}}, {"type": "Feature", "id": "way/1305280139", "properties": {"tags": {"building": "roof", "layer": "1"}, "heightStatus": "unknown", "source": "OpenStreetMap", "license": "ODbL-1.0"}, "geometry": {"type": "MultiPolygon", "coordinates": [[[[113.9059885, 22.5528094], [113.9060788, 22.5526733], [113.9063459, 22.5528246], [113.9062556, 22.5529606], [113.9059885, 22.5528094]]]]}}, {"type": "Feature", "id": "way/1348634092", "properties": {"tags": {"building": "industrial"}, "heightStatus": "unknown", "source": "OpenStreetMap", "license": "ODbL-1.0"}, "geometry": {"type": "MultiPolygon", "coordinates": [[[[113.8992841, 22.5504161], [113.899563, 22.550112], [113.8999867, 22.5504435], [113.8998403, 22.5506031], [113.8996114, 22.5506721], [113.8992841, 22.5504161]]]]}}, {"type": "Feature", "id": "way/1348634093", "properties": {"tags": {"building": "industrial"}, "heightStatus": "unknown", "source": "OpenStreetMap", "license": "ODbL-1.0"}, "geometry": {"type": "MultiPolygon", "coordinates": [[[[113.8997956, 22.5501377], [113.9000155, 22.5498989], [113.9004042, 22.5502041], [113.9001843, 22.5504429], [113.8997956, 22.5501377]]]]}}, {"type": "Feature", "id": "way/1429182888", "properties": {"tags": {"building": "construction", "building:levels": "48"}, "heightStatus": "levels_only_unverified", "source": "OpenStreetMap", "license": "ODbL-1.0"}, "geometry": {"type": "MultiPolygon", "coordinates": [[[[113.8993749, 22.5464168], [113.8994897, 22.5463212], [113.8994403, 22.5462705], [113.8994279, 22.5462808], [113.8994119, 22.5462644], [113.8995619, 22.5461397], [113.8995919, 22.5461705], [113.8995514, 22.5462042], [113.8995948, 22.5462487], [113.8996401, 22.5462481], [113.8996392, 22.5461876], [113.8997066, 22.5461868], [113.8997084, 22.5463075], [113.8995897, 22.546309], [113.8996026, 22.5463223], [113.8994261, 22.5464693], [113.8993749, 22.5464168]]]]}}, {"type": "Feature", "id": "way/1429182889", "properties": {"tags": {"building": "construction", "building:levels": "48"}, "heightStatus": "levels_only_unverified", "source": "OpenStreetMap", "license": "ODbL-1.0"}, "geometry": {"type": "MultiPolygon", "coordinates": [[[[113.8993659, 22.5459386], [113.8994807, 22.5458429], [113.8994313, 22.5457923], [113.8994189, 22.5458026], [113.8994029, 22.5457862], [113.8995529, 22.5456615], [113.8995829, 22.5456923], [113.8995424, 22.5457259], [113.8995858, 22.5457704], [113.8996311, 22.5457699], [113.8996302, 22.5457094], [113.8996975, 22.5457085], [113.8996993, 22.5458293], [113.8995807, 22.5458308], [113.8995936, 22.5458441], [113.8994171, 22.545991], [113.8993659, 22.5459386]]]]}}, {"type": "Feature", "id": "way/1429182890", "properties": {"tags": {"building": "construction", "building:levels": "42"}, "heightStatus": "levels_only_unverified", "source": "OpenStreetMap", "license": "ODbL-1.0"}, "geometry": {"type": "MultiPolygon", "coordinates": [[[[113.8993668, 22.5453928], [113.8994817, 22.5452972], [113.8994322, 22.5452465], [113.8994199, 22.5452568], [113.8994039, 22.5452404], [113.8995538, 22.5451157], [113.8995838, 22.5451465], [113.8995434, 22.5451801], [113.8995867, 22.5452246], [113.8996321, 22.5452241], [113.8996312, 22.5451636], [113.8996985, 22.5451628], [113.8997003, 22.5452835], [113.8995817, 22.545285], [113.8995946, 22.5452983], [113.8994181, 22.5454453], [113.8993668, 22.5453928]]]]}}, {"type": "Feature", "id": "way/1429182891", "properties": {"tags": {"building": "construction", "building:levels": "48"}, "heightStatus": "levels_only_unverified", "source": "OpenStreetMap", "license": "ODbL-1.0"}, "geometry": {"type": "MultiPolygon", "coordinates": [[[[113.8987546, 22.5466412], [113.8987567, 22.5463977], [113.8989678, 22.5463992], [113.8989671, 22.5464865], [113.8989363, 22.5464863], [113.8989357, 22.5465558], [113.8989621, 22.546556], [113.8989614, 22.5466427], [113.8987546, 22.5466412]]]]}}, {"type": "Feature", "id": "way/1429182892", "properties": {"tags": {"building": "office", "building:levels": "28", "building:material": "glass", "height": "120"}, "heightStatus": "height_tag_unverified", "source": "OpenStreetMap", "license": "ODbL-1.0"}, "geometry": {"type": "MultiPolygon", "coordinates": [[[[113.9002391, 22.545629], [113.9002455, 22.5453463], [113.9006759, 22.5453643], [113.900728, 22.545503], [113.9006738, 22.5456373], [113.9002391, 22.545629]]]]}}, {"type": "Feature", "id": "way/1429182893", "properties": {"tags": {"building": "construction", "building:levels": "48"}, "heightStatus": "levels_only_unverified", "source": "OpenStreetMap", "license": "ODbL-1.0"}, "geometry": {"type": "MultiPolygon", "coordinates": [[[[113.8988556, 22.5452877], [113.8989382, 22.5452161], [113.898857, 22.5451362], [113.8989541, 22.5450521], [113.8991592, 22.5452538], [113.8990948, 22.5453096], [113.8990756, 22.5452907], [113.8990154, 22.545343], [113.8990997, 22.5454259], [113.8990447, 22.5454736], [113.8988556, 22.5452877]]]]}}, {"type": "Feature", "id": "way/1429182894", "properties": {"tags": {"building": "office", "building:levels": "5", "building:material": "glass", "name": "前海中冶大厦展示中心"}, "heightStatus": "levels_only_unverified", "source": "OpenStreetMap", "license": "ODbL-1.0"}, "geometry": {"type": "MultiPolygon", "coordinates": [[[[113.9002324, 22.5450614], [113.9004229, 22.5450617], [113.9004887, 22.5450848], [113.9005571, 22.5450898], [113.9006289, 22.5450823], [113.9008647, 22.5450729], [113.9008681, 22.545153], [113.9008132, 22.5452951], [113.9007001, 22.5452619], [113.9005625, 22.545255], [113.9005625, 22.5452263], [113.9004975, 22.5452263], [113.9004981, 22.5452557], [113.9002332, 22.54525], [113.9002324, 22.5450614]]]]}}, {"type": "Feature", "id": "way/1434834573", "properties": {"tags": {"addr:housename": "智恒产业园", "addr:housename:en": "Zhiheng Industrial Park", "addr:housename:zh": "智恒产业园", "building": "industrial", "name": "26栋", "name:en": "Block 26", "name:zh": "26栋"}, "heightStatus": "unknown", "source": "OpenStreetMap", "license": "ODbL-1.0"}, "geometry": {"type": "MultiPolygon", "coordinates": [[[[113.9016102, 22.552513], [113.9019082, 22.5522141], [113.9020465, 22.5523317], [113.9018621, 22.5525165], [113.9019701, 22.5526084], [113.9021545, 22.5524235], [113.9022741, 22.5525252], [113.9019761, 22.5528241], [113.9016102, 22.552513]]]]}}, {"type": "Feature", "id": "way/1434834574", "properties": {"tags": {"addr:housename": "智恒产业园", "addr:housename:en": "Zhiheng Industrial Park", "addr:housename:zh": "智恒产业园", "building": "industrial", "name": "27栋", "name:en": "Block 27", "name:zh": "27栋"}, "heightStatus": "unknown", "source": "OpenStreetMap", "license": "ODbL-1.0"}, "geometry": {"type": "MultiPolygon", "coordinates": [[[[113.9022023, 22.552343], [113.9022796, 22.5522654], [113.9022256, 22.5522195], [113.9024463, 22.5519982], [113.9026199, 22.5521458], [113.9023219, 22.5524447], [113.9022023, 22.552343]]]]}}, {"type": "Feature", "id": "way/1434834575", "properties": {"tags": {"addr:housename": "智恒产业园", "addr:housename:en": "Zhiheng Industrial Park", "addr:housename:zh": "智恒产业园", "building": "industrial", "name": "16栋", "name:en": "Block 16", "name:zh": "16栋"}, "heightStatus": "unknown", "source": "OpenStreetMap", "license": "ODbL-1.0"}, "geometry": {"type": "MultiPolygon", "coordinates": [[[[113.9023065, 22.5531322], [113.9026041, 22.5528337], [113.9027666, 22.5529719], [113.9027081, 22.5530305], [113.9025895, 22.5531495], [113.902469, 22.5532704], [113.9023065, 22.5531322]]]]}}, {"type": "Feature", "id": "way/1434834576", "properties": {"tags": {"addr:housename": "智恒产业园", "addr:housename:en": "Zhiheng Industrial Park", "addr:housename:zh": "智恒产业园", "building": "industrial", "name": "28栋", "name:en": "Block 28", "name:zh": "28栋"}, "heightStatus": "unknown", "source": "OpenStreetMap", "license": "ODbL-1.0"}, "geometry": {"type": "MultiPolygon", "coordinates": [[[[113.9019561, 22.5521335], [113.902254, 22.5518347], [113.9024463, 22.5519982], [113.9022256, 22.5522195], [113.9021716, 22.5521736], [113.9020943, 22.5522511], [113.9019561, 22.5521335]]]]}}, {"type": "Feature", "id": "way/1434834577", "properties": {"tags": {"addr:housename": "智恒产业园", "addr:housename:en": "Zhiheng Industrial Park", "addr:housename:zh": "智恒产业园", "building": "industrial", "name": "21栋", "name:en": "Block 21", "name:zh": "21栋"}, "heightStatus": "unknown", "source": "OpenStreetMap", "license": "ODbL-1.0"}, "geometry": {"type": "MultiPolygon", "coordinates": [[[[113.9039361, 22.5538886], [113.904372, 22.5534515], [113.9046265, 22.5536679], [113.9041906, 22.554105], [113.9039361, 22.5538886]]]]}}, {"type": "Feature", "id": "way/1434834579", "properties": {"tags": {"addr:housename": "智恒产业园", "addr:housename:en": "Zhiheng Industrial Park", "addr:housename:zh": "智恒产业园", "building": "industrial", "name": "10栋", "name:en": "Block 10", "name:zh": "10栋"}, "heightStatus": "unknown", "source": "OpenStreetMap", "license": "ODbL-1.0"}, "geometry": {"type": "MultiPolygon", "coordinates": [[[[113.9036839, 22.5539026], [113.9037775, 22.5538088], [113.9039949, 22.5539937], [113.9039013, 22.5540876], [113.9036839, 22.5539026]]]]}}, {"type": "Feature", "id": "way/1434834581", "properties": {"tags": {"addr:housename": "智恒产业园", "addr:housename:en": "Zhiheng Industrial Park", "addr:housename:zh": "智恒产业园", "building": "industrial", "name": "9栋", "name:en": "Block 9", "name:zh": "9栋"}, "heightStatus": "unknown", "source": "OpenStreetMap", "license": "ODbL-1.0"}, "geometry": {"type": "MultiPolygon", "coordinates": [[[[113.9032868, 22.5539738], [113.9035551, 22.5537047], [113.9036686, 22.5538012], [113.9034002, 22.5540703], [113.9032868, 22.5539738]]]]}}, {"type": "Feature", "id": "way/1434834582", "properties": {"tags": {"addr:housename": "智恒产业园", "addr:housename:en": "Zhiheng Industrial Park", "addr:housename:zh": "智恒产业园", "building": "industrial", "name": "4栋", "name:en": "Block 4", "name:zh": "4栋"}, "heightStatus": "unknown", "source": "OpenStreetMap", "license": "ODbL-1.0"}, "geometry": {"type": "MultiPolygon", "coordinates": [[[[113.9031277, 22.5538286], [113.9034253, 22.5535302], [113.9035388, 22.5536267], [113.9032412, 22.5539251], [113.9031277, 22.5538286]]]]}}, {"type": "Feature", "id": "way/1434834583", "properties": {"tags": {"addr:housename": "智恒产业园", "addr:housename:en": "Zhiheng Industrial Park", "addr:housename:zh": "智恒产业园", "building": "industrial", "name": "3栋", "name:en": "Block 3", "name:zh": "3栋"}, "heightStatus": "unknown", "source": "OpenStreetMap", "license": "ODbL-1.0"}, "geometry": {"type": "MultiPolygon", "coordinates": [[[[113.9029601, 22.5536842], [113.9032577, 22.5533858], [113.9033658, 22.5534777], [113.9030682, 22.5537762], [113.9029601, 22.5536842]]]]}}, {"type": "Feature", "id": "way/1434834584", "properties": {"tags": {"addr:housename": "智恒产业园", "addr:housename:en": "Zhiheng Industrial Park", "addr:housename:zh": "智恒产业园", "building": "industrial", "name": "2栋", "name:en": "Block 2", "name:zh": "2栋"}, "heightStatus": "unknown", "source": "OpenStreetMap", "license": "ODbL-1.0"}, "geometry": {"type": "MultiPolygon", "coordinates": [[[[113.9027844, 22.5535344], [113.903082, 22.5532359], [113.9031902, 22.5533279], [113.9028926, 22.5536263], [113.9027844, 22.5535344]]]]}}, {"type": "Feature", "id": "way/1434834585", "properties": {"tags": {"addr:housename": "智恒产业园", "addr:housename:en": "Zhiheng Industrial Park", "addr:housename:zh": "智恒产业园", "building": "industrial", "name": "15栋", "name:en": "Block 15", "name:zh": "15栋"}, "heightStatus": "unknown", "source": "OpenStreetMap", "license": "ODbL-1.0"}, "geometry": {"type": "MultiPolygon", "coordinates": [[[[113.902469, 22.5532704], [113.9025895, 22.5531495], [113.9026985, 22.5532421], [113.9028171, 22.5531232], [113.9027081, 22.5530305], [113.9027666, 22.5529719], [113.9030145, 22.5531827], [113.9027169, 22.5534812], [113.902469, 22.5532704]]]]}}, {"type": "Feature", "id": "way/1434834586", "properties": {"tags": {"addr:housename": "智恒产业园", "addr:housename:en": "Zhiheng Industrial Park", "addr:housename:zh": "智恒产业园", "building": "industrial", "name": "17栋", "name:en": "Block 17", "name:zh": "17栋"}, "heightStatus": "unknown", "source": "OpenStreetMap", "license": "ODbL-1.0"}, "geometry": {"type": "MultiPolygon", "coordinates": [[[[113.9021573, 22.5530053], [113.9024549, 22.5527068], [113.9025476, 22.5527856], [113.90225, 22.5530841], [113.9021573, 22.5530053]]]]}}, {"type": "Feature", "id": "way/1434834587", "properties": {"tags": {"addr:housename": "智恒产业园", "addr:housename:en": "Zhiheng Industrial Park", "addr:housename:zh": "智恒产业园", "building": "industrial", "name": "30栋", "name:en": "Block 30", "name:zh": "30栋"}, "heightStatus": "unknown", "source": "OpenStreetMap", "license": "ODbL-1.0"}, "geometry": {"type": "MultiPolygon", "coordinates": [[[[113.9037555, 22.5528287], [113.9040495, 22.5525339], [113.9044896, 22.5529081], [113.9041956, 22.553203], [113.9037555, 22.5528287]]]]}}, {"type": "Feature", "id": "way/1434834588", "properties": {"tags": {"addr:housename": "智恒产业园", "addr:housename:en": "Zhiheng Industrial Park", "addr:housename:zh": "智恒产业园", "building": "industrial", "name": "20栋", "name:en": "Block 20", "name:zh": "20栋"}, "heightStatus": "unknown", "source": "OpenStreetMap", "license": "ODbL-1.0"}, "geometry": {"type": "MultiPolygon", "coordinates": [[[[113.9042282, 22.5533377], [113.9046002, 22.5529646], [113.9046885, 22.5530398], [113.9043166, 22.5534128], [113.9042282, 22.5533377]]]]}}, {"type": "Feature", "id": "way/1434834589", "properties": {"tags": {"building": "industrial"}, "heightStatus": "unknown", "source": "OpenStreetMap", "license": "ODbL-1.0"}, "geometry": {"type": "MultiPolygon", "coordinates": [[[[113.903838, 22.5537358], [113.9041555, 22.5534174], [113.9042438, 22.5534925], [113.9039263, 22.5538109], [113.903838, 22.5537358]]]]}}, {"type": "Feature", "id": "way/1434834590", "properties": {"tags": {"addr:housename": "智恒产业园", "addr:housename:en": "Zhiheng Industrial Park", "addr:housename:zh": "智恒产业园", "building": "industrial", "name": "8栋", "name:en": "Block 8", "name:zh": "8栋"}, "heightStatus": "unknown", "source": "OpenStreetMap", "license": "ODbL-1.0"}, "geometry": {"type": "MultiPolygon", "coordinates": [[[[113.9036536, 22.5535575], [113.9039512, 22.553259], [113.9040395, 22.5533341], [113.9037419, 22.5536326], [113.9036536, 22.5535575]]]]}}, {"type": "Feature", "id": "way/1434834591", "properties": {"tags": {"addr:housename": "智恒产业园", "addr:housename:en": "Zhiheng Industrial Park", "addr:housename:zh": "智恒产业园", "building": "industrial", "name": "11栋", "name:en": "Block 11", "name:zh": "11栋"}, "heightStatus": "unknown", "source": "OpenStreetMap", "license": "ODbL-1.0"}, "geometry": {"type": "MultiPolygon", "coordinates": [[[[113.9029765, 22.5529847], [113.9032741, 22.5526862], [113.9033822, 22.5527782], [113.9030846, 22.5530767], [113.9029765, 22.5529847]]]]}}, {"type": "Feature", "id": "way/1434834592", "properties": {"tags": {"addr:housename": "智恒产业园", "addr:housename:en": "Zhiheng Industrial Park", "addr:housename:zh": "智恒产业园", "building": "industrial", "name": "12栋", "name:en": "Block 12", "name:zh": "12栋"}, "heightStatus": "unknown", "source": "OpenStreetMap", "license": "ODbL-1.0"}, "geometry": {"type": "MultiPolygon", "coordinates": [[[[113.9027993, 22.5528303], [113.9030969, 22.5525319], [113.9032051, 22.5526238], [113.9029075, 22.5529223], [113.9027993, 22.5528303]]]]}}, {"type": "Feature", "id": "way/1434834593", "properties": {"tags": {"addr:housename": "智恒产业园", "addr:housename:en": "Zhiheng Industrial Park", "addr:housename:zh": "智恒产业园", "building": "industrial", "name": "13栋", "name:en": "Block 13", "name:zh": "13栋"}, "heightStatus": "unknown", "source": "OpenStreetMap", "license": "ODbL-1.0"}, "geometry": {"type": "MultiPolygon", "coordinates": [[[[113.9026236, 22.5526805], [113.9029213, 22.552382], [113.9030294, 22.552474], [113.9027318, 22.5527724], [113.9026236, 22.5526805]]]]}}, {"type": "Feature", "id": "way/1434834594", "properties": {"tags": {"addr:housename": "智恒产业园", "addr:housename:en": "Zhiheng Industrial Park", "addr:housename:zh": "智恒产业园", "building": "industrial", "name": "14栋", "name:en": "Block 14", "name:zh": "14栋"}, "heightStatus": "unknown", "source": "OpenStreetMap", "license": "ODbL-1.0"}, "geometry": {"type": "MultiPolygon", "coordinates": [[[[113.9024627, 22.5525517], [113.9027603, 22.5522533], [113.902853, 22.5523321], [113.9025554, 22.5526306], [113.9024627, 22.5525517]]]]}}, {"type": "Feature", "id": "way/1434834595", "properties": {"tags": {"addr:housename": "智恒产业园", "addr:housename:en": "Zhiheng Industrial Park", "addr:housename:zh": "智恒产业园", "building": "industrial", "name": "1栋", "name:en": "Block 1", "name:zh": "1栋"}, "heightStatus": "unknown", "source": "OpenStreetMap", "license": "ODbL-1.0"}, "geometry": {"type": "MultiPolygon", "coordinates": [[[[113.9031727, 22.5531543], [113.9034703, 22.5528559], [113.9035397, 22.5529148], [113.9032421, 22.5532133], [113.9031727, 22.5531543]]]]}}, {"type": "Feature", "id": "way/1434834596", "properties": {"tags": {"addr:housename": "智恒产业园", "addr:housename:en": "Zhiheng Industrial Park", "addr:housename:zh": "智恒产业园", "building": "industrial", "name": "6栋", "name:en": "Block 6", "name:zh": "6栋"}, "heightStatus": "unknown", "source": "OpenStreetMap", "license": "ODbL-1.0"}, "geometry": {"type": "MultiPolygon", "coordinates": [[[[113.9033103, 22.5532632], [113.9036079, 22.5529647], [113.9037161, 22.5530567], [113.9034184, 22.5533552], [113.9033103, 22.5532632]]]]}}, {"type": "Feature", "id": "way/1434834597", "properties": {"tags": {"addr:housename": "智恒产业园", "addr:housename:en": "Zhiheng Industrial Park", "addr:housename:zh": "智恒产业园", "building": "industrial", "name": "7栋", "name:en": "Block 7", "name:zh": "7栋"}, "heightStatus": "unknown", "source": "OpenStreetMap", "license": "ODbL-1.0"}, "geometry": {"type": "MultiPolygon", "coordinates": [[[[113.903486, 22.5534131], [113.9037836, 22.5531146], [113.9038917, 22.5532066], [113.9035941, 22.5535051], [113.903486, 22.5534131]]]]}}, {"type": "Feature", "id": "way/1434834598", "properties": {"tags": {"building": "industrial"}, "heightStatus": "unknown", "source": "OpenStreetMap", "license": "ODbL-1.0"}, "geometry": {"type": "MultiPolygon", "coordinates": [[[[113.9002637, 22.5509856], [113.9005279, 22.5507218], [113.9004906, 22.55069], [113.9006885, 22.5504923], [113.9007258, 22.5505242], [113.9009901, 22.5502604], [113.9012769, 22.5505055], [113.9005505, 22.5512306], [113.9002637, 22.5509856]]]]}}, {"type": "Feature", "id": "way/1434834599", "properties": {"tags": {"building": "industrial"}, "heightStatus": "unknown", "source": "OpenStreetMap", "license": "ODbL-1.0"}, "geometry": {"type": "MultiPolygon", "coordinates": [[[[113.9012252, 22.5518229], [113.9014895, 22.5515591], [113.9014522, 22.5515272], [113.9016501, 22.5513296], [113.9016874, 22.5513615], [113.9019516, 22.5510977], [113.9022385, 22.5513428], [113.9015121, 22.5520679], [113.9012252, 22.5518229]]]]}}, {"type": "Feature", "id": "way/1434834600", "properties": {"tags": {"building": "industrial"}, "heightStatus": "unknown", "source": "OpenStreetMap", "license": "ODbL-1.0"}, "geometry": {"type": "MultiPolygon", "coordinates": [[[[113.9007319, 22.5514026], [113.9009961, 22.5511388], [113.9009588, 22.5511069], [113.9011568, 22.5509093], [113.9011941, 22.5509412], [113.9014583, 22.5506774], [113.9017451, 22.5509225], [113.9010187, 22.5516476], [113.9007319, 22.5514026]]]]}}, {"type": "Feature", "id": "way/1447091312", "properties": {"tags": {"building": "yes", "layer": "1"}, "heightStatus": "unknown", "source": "OpenStreetMap", "license": "ODbL-1.0"}, "geometry": {"type": "MultiPolygon", "coordinates": [[[[113.9011176, 22.5488806], [113.901227, 22.5487721], [113.9014435, 22.5489584], [113.901334, 22.5490669], [113.9011176, 22.5488806]]]]}}, {"type": "Feature", "id": "way/1465615923", "properties": {"tags": {"building": "yes", "name": "安乐综合楼"}, "heightStatus": "unknown", "source": "OpenStreetMap", "license": "ODbL-1.0"}, "geometry": {"type": "MultiPolygon", "coordinates": [[[[113.9022551, 22.5517192], [113.90263, 22.5513373], [113.9027856, 22.5514676], [113.9024108, 22.5518495], [113.9022551, 22.5517192]]]]}}]}