{"type": "FeatureCollection", "features": [{"type": "Feature", "id": "way/238015514", "properties": {"tags": {"building": "yes"}, "heightStatus": "unknown", "source": "OpenStreetMap", "license": "ODbL-1.0"}, "geometry": {"type": "MultiPolygon", "coordinates": [[[[113.8999393, 22.4708477], [113.9002857, 22.4704507], [113.9009786, 22.4709671], [113.9006321, 22.4713641], [113.8999393, 22.4708477]]]]}}, {"type": "Feature", "id": "way/238015515", "properties": {"tags": {"building": "yes"}, "heightStatus": "unknown", "source": "OpenStreetMap", "license": "ODbL-1.0"}, "geometry": {"type": "MultiPolygon", "coordinates": [[[[113.9014828, 22.4698292], [113.9018479, 22.4693966], [113.9022206, 22.4696653], [113.9018556, 22.4700978], [113.9014828, 22.4698292]]]]}}, {"type": "Feature", "id": "way/238015517", "properties": {"tags": {"building": "yes"}, "heightStatus": "unknown", "source": "OpenStreetMap", "license": "ODbL-1.0"}, "geometry": {"type": "MultiPolygon", "coordinates": [[[[113.8987718, 22.4722581], [113.8991035, 22.4718767], [113.8997972, 22.4723918], [113.8994655, 22.4727732], [113.8987718, 22.4722581]]]]}}, {"type": "Feature", "id": "way/727329195", "properties": {"tags": {"building:levels": "2", "building:part": "yes"}, "heightStatus": "levels_only_unverified", "source": "OpenStreetMap", "license": "ODbL-1.0"}, "geometry": {"type": "MultiPolygon", "coordinates": [[[[113.9049994, 22.473542], [113.906719, 22.4715284], [113.9090164, 22.4706861], [113.9090444, 22.4707513], [113.9085998, 22.4709144], [113.9084245, 22.4709787], [113.9075916, 22.4712843], [113.9074079, 22.4713517], [113.9067728, 22.4715846], [113.905062, 22.4735877], [113.9049994, 22.473542]]]]}}, {"type": "Feature", "id": "way/727329197", "properties": {"tags": {"building:levels": "2", "building:min_level": "1", "building:part": "yes"}, "heightStatus": "levels_only_unverified", "source": "OpenStreetMap", "license": "ODbL-1.0"}, "geometry": {"type": "MultiPolygon", "coordinates": [[[[113.9074079, 22.4713517], [113.9075916, 22.4712843], [113.9078955, 22.4713472], [113.9076991, 22.4714187], [113.9074079, 22.4713517]]]]}}, {"type": "Feature", "id": "way/783232538", "properties": {"tags": {"building": "commercial"}, "heightStatus": "unknown", "source": "OpenStreetMap", "license": "ODbL-1.0"}, "geometry": {"type": "MultiPolygon", "coordinates": [[[[113.9058329, 22.4731965], [113.9060986, 22.4728696], [113.9063344, 22.4730333], [113.9062668, 22.4731166], [113.9061362, 22.473026], [113.9060735, 22.4731031], [113.9061293, 22.4731418], [113.905994, 22.4733084], [113.9058329, 22.4731965]]]]}}, {"type": "Feature", "id": "way/783232539", "properties": {"tags": {"building:part": "yes"}, "heightStatus": "unknown", "source": "OpenStreetMap", "license": "ODbL-1.0"}, "geometry": {"type": "MultiPolygon", "coordinates": [[[[113.9067545, 22.4726922], [113.9068036, 22.4724176], [113.9068102, 22.4724016], [113.9068234, 22.4723886], [113.9068442, 22.4723785], [113.9068682, 22.4723755], [113.90689, 22.472376], [113.9069102, 22.47238], [113.9069304, 22.4723896], [113.9071193, 22.4725258], [113.9071298, 22.4725361], [113.907136, 22.4725453], [113.9071396, 22.4725559], [113.9071389, 22.4725682], [113.9071367, 22.4725791], [113.9071324, 22.4725893], [113.9069531, 22.4727946], [113.9069373, 22.4728115], [113.90692, 22.4728222], [113.9069001, 22.4728267], [113.9068728, 22.4728244], [113.9068472, 22.4728115], [113.9067826, 22.472761], [113.9067685, 22.4727434], [113.9067586, 22.4727189], [113.9067545, 22.4726922]]]]}}, {"type": "Feature", "id": "way/783232540", "properties": {"tags": {"building": "commercial"}, "heightStatus": "unknown", "source": "OpenStreetMap", "license": "ODbL-1.0"}, "geometry": {"type": "MultiPolygon", "coordinates": [[[[113.906523, 22.4725686], [113.9065895, 22.4724747], [113.9066096, 22.4724527], [113.9066359, 22.4724376], [113.9066798, 22.4724168], [113.9068442, 22.4723785], [113.9068682, 22.4723755], [113.90689, 22.472376], [113.9069102, 22.47238], [113.9069304, 22.4723896], [113.9071193, 22.4725258], [113.9071298, 22.4725361], [113.907136, 22.4725453], [113.9071396, 22.4725559], [113.9071389, 22.4725682], [113.9071367, 22.4725791], [113.9071324, 22.4725893], [113.9069531, 22.4727946], [113.9069373, 22.4728115], [113.90692, 22.4728222], [113.9069001, 22.4728267], [113.9068728, 22.4728244], [113.9068472, 22.4728115], [113.9067826, 22.472761], [113.906523, 22.4725686]]]]}}, {"type": "Feature", "id": "way/998073094", "properties": {"tags": {"building": "yes"}, "heightStatus": "unknown", "source": "OpenStreetMap", "license": "ODbL-1.0"}, "geometry": {"type": "MultiPolygon", "coordinates": [[[[113.9013453, 22.4692226], [113.9013583, 22.469184], [113.9013841, 22.4691512], [113.90142, 22.469128], [113.9014621, 22.4691167], [113.9015064, 22.4691186], [113.9015476, 22.4691338], [113.9015812, 22.4691606], [113.9016035, 22.4691961], [113.901612, 22.4692363], [113.9016058, 22.4692769], [113.9015856, 22.4693134], [113.9015536, 22.4693418], [113.9015134, 22.4693591], [113.9014692, 22.4693632], [113.9014266, 22.469354], [113.9013894, 22.4693325], [113.9013617, 22.4693011], [113.9013464, 22.4692631], [113.9013453, 22.4692226]]]]}}, {"type": "Feature", "id": "way/998073095", "properties": {"tags": {"building": "yes"}, "heightStatus": "unknown", "source": "OpenStreetMap", "license": "ODbL-1.0"}, "geometry": {"type": "MultiPolygon", "coordinates": [[[[113.9011545, 22.4694541], [113.9011675, 22.4694155], [113.9011933, 22.4693827], [113.9012292, 22.4693595], [113.9012713, 22.4693481], [113.9013156, 22.4693501], [113.9013568, 22.4693653], [113.9013904, 22.4693921], [113.9014127, 22.4694276], [113.9014212, 22.4694678], [113.901415, 22.4695084], [113.9013948, 22.4695449], [113.9013629, 22.4695733], [113.9013226, 22.4695906], [113.9012784, 22.4695947], [113.9012358, 22.4695855], [113.9011986, 22.469564], [113.9011709, 22.4695326], [113.9011556, 22.4694946], [113.9011545, 22.4694541]]]]}}, {"type": "Feature", "id": "way/998073096", "properties": {"tags": {"building": "yes"}, "heightStatus": "unknown", "source": "OpenStreetMap", "license": "ODbL-1.0"}, "geometry": {"type": "MultiPolygon", "coordinates": [[[[113.9010831, 22.4690288], [113.9010961, 22.4689902], [113.901122, 22.4689574], [113.9011579, 22.4689342], [113.9011999, 22.4689228], [113.9012443, 22.4689248], [113.9012855, 22.46894], [113.901319, 22.4689668], [113.9013413, 22.4690023], [113.9013498, 22.4690425], [113.9013436, 22.4690831], [113.9013235, 22.4691196], [113.9012915, 22.469148], [113.9012512, 22.4691652], [113.9012071, 22.4691694], [113.9011644, 22.4691602], [113.9011272, 22.4691387], [113.9010995, 22.4691073], [113.9010843, 22.4690693], [113.9010831, 22.4690288]]]]}}, {"type": "Feature", "id": "way/998073097", "properties": {"tags": {"building": "yes"}, "heightStatus": "unknown", "source": "OpenStreetMap", "license": "ODbL-1.0"}, "geometry": {"type": "MultiPolygon", "coordinates": [[[[113.9008821, 22.4692617], [113.9008951, 22.469223], [113.900921, 22.4691903], [113.9009569, 22.469167], [113.900999, 22.4691557], [113.9010433, 22.4691576], [113.9010845, 22.4691728], [113.901118, 22.4691996], [113.9011403, 22.4692351], [113.9011488, 22.4692753], [113.9011426, 22.4693159], [113.9011225, 22.4693524], [113.9010905, 22.4693809], [113.9010502, 22.4693981], [113.9010061, 22.4694022], [113.9009634, 22.469393], [113.9009262, 22.4693715], [113.9008985, 22.4693401], [113.9008833, 22.4693022], [113.9008821, 22.4692617]]]]}}, {"type": "Feature", "id": "way/998073098", "properties": {"tags": {"building": "yes"}, "heightStatus": "unknown", "source": "OpenStreetMap", "license": "ODbL-1.0"}, "geometry": {"type": "MultiPolygon", "coordinates": [[[[113.9010224, 22.4698025], [113.9010252, 22.4697901], [113.9010319, 22.4697791], [113.9010421, 22.4697707], [113.9010546, 22.4697656], [113.9010682, 22.4697644], [113.9010825, 22.4697675], [113.9010948, 22.4697749], [113.9011037, 22.4697856], [113.9011082, 22.4697985], [113.9011078, 22.4698121], [113.9011025, 22.4698247], [113.9010929, 22.4698349], [113.9010801, 22.4698416], [113.9010657, 22.469844], [113.9010512, 22.4698417], [113.9010392, 22.4698357], [113.9010298, 22.4698265], [113.901024, 22.4698151], [113.9010224, 22.4698025]]]]}}, {"type": "Feature", "id": "way/998073099", "properties": {"tags": {"building": "yes"}, "heightStatus": "unknown", "source": "OpenStreetMap", "license": "ODbL-1.0"}, "geometry": {"type": "MultiPolygon", "coordinates": [[[[113.9011113, 22.469863], [113.901114, 22.4698506], [113.9011208, 22.4698396], [113.9011309, 22.4698312], [113.9011435, 22.4698261], [113.9011571, 22.4698248], [113.9011713, 22.469828], [113.9011836, 22.4698354], [113.9011925, 22.4698461], [113.901197, 22.469859], [113.9011966, 22.4698725], [113.9011913, 22.4698852], [113.9011817, 22.4698954], [113.901169, 22.4699021], [113.9011545, 22.4699044], [113.9011401, 22.4699022], [113.9011281, 22.4698962], [113.9011187, 22.469887], [113.9011129, 22.4698755], [113.9011113, 22.469863]]]]}}, {"type": "Feature", "id": "way/998073100", "properties": {"tags": {"building": "yes"}, "heightStatus": "unknown", "source": "OpenStreetMap", "license": "ODbL-1.0"}, "geometry": {"type": "MultiPolygon", "coordinates": [[[[113.9011324, 22.46997], [113.9011351, 22.4699576], [113.9011419, 22.4699466], [113.9011521, 22.4699381], [113.9011646, 22.4699331], [113.9011782, 22.4699318], [113.9011924, 22.469935], [113.9012047, 22.4699423], [113.9012137, 22.4699531], [113.9012182, 22.469966], [113.9012177, 22.4699795], [113.9012124, 22.4699922], [113.9012028, 22.4700024], [113.9011901, 22.4700091], [113.9011757, 22.4700114], [113.9011612, 22.4700092], [113.9011492, 22.4700032], [113.9011398, 22.469994], [113.901134, 22.4699825], [113.9011324, 22.46997]]]]}}, {"type": "Feature", "id": "way/998073101", "properties": {"tags": {"building": "yes"}, "heightStatus": "unknown", "source": "OpenStreetMap", "license": "ODbL-1.0"}, "geometry": {"type": "MultiPolygon", "coordinates": [[[[113.9009431, 22.4697378], [113.9009458, 22.4697254], [113.9009526, 22.4697144], [113.9009627, 22.469706], [113.9009752, 22.4697009], [113.9009888, 22.4696997], [113.9010031, 22.4697028], [113.9010154, 22.4697102], [113.9010243, 22.4697209], [113.9010288, 22.4697338], [113.9010284, 22.4697474], [113.9010231, 22.46976], [113.9010135, 22.4697702], [113.9010007, 22.4697769], [113.9009863, 22.4697793], [113.9009719, 22.469777], [113.9009598, 22.469771], [113.9009505, 22.4697618], [113.9009447, 22.4697504], [113.9009431, 22.4697378]]]]}}, {"type": "Feature", "id": "way/998073102", "properties": {"tags": {"building": "yes"}, "heightStatus": "unknown", "source": "OpenStreetMap", "license": "ODbL-1.0"}, "geometry": {"type": "MultiPolygon", "coordinates": [[[[113.9013061, 22.4700453], [113.9013088, 22.4700329], [113.9013156, 22.470022], [113.9013257, 22.4700135], [113.9013382, 22.4700084], [113.9013518, 22.4700072], [113.9013661, 22.4700103], [113.9013784, 22.4700177], [113.9013873, 22.4700285], [113.9013918, 22.4700413], [113.9013914, 22.4700549], [113.9013861, 22.4700675], [113.9013765, 22.4700777], [113.9013637, 22.4700844], [113.9013493, 22.4700868], [113.9013349, 22.4700845], [113.9013228, 22.4700785], [113.9013135, 22.4700693], [113.9013077, 22.4700579], [113.9013061, 22.4700453]]]]}}, {"type": "Feature", "id": "way/998073103", "properties": {"tags": {"building": "yes"}, "heightStatus": "unknown", "source": "OpenStreetMap", "license": "ODbL-1.0"}, "geometry": {"type": "MultiPolygon", "coordinates": [[[[113.9013944, 22.4701106], [113.9013971, 22.4700982], [113.9014039, 22.4700872], [113.901414, 22.4700788], [113.9014265, 22.4700737], [113.9014402, 22.4700725], [113.9014544, 22.4700756], [113.9014667, 22.470083], [113.9014756, 22.4700937], [113.9014801, 22.4701066], [113.9014797, 22.4701202], [113.9014744, 22.4701328], [113.9014648, 22.470143], [113.901452, 22.4701497], [113.9014376, 22.4701521], [113.9014232, 22.4701498], [113.9014111, 22.4701438], [113.9014018, 22.4701346], [113.901396, 22.4701231], [113.9013944, 22.4701106]]]]}}, {"type": "Feature", "id": "way/998073104", "properties": {"tags": {"building": "yes"}, "heightStatus": "unknown", "source": "OpenStreetMap", "license": "ODbL-1.0"}, "geometry": {"type": "MultiPolygon", "coordinates": [[[[113.9013226, 22.4701953], [113.9013253, 22.4701829], [113.9013321, 22.4701719], [113.9013423, 22.4701634], [113.9013548, 22.4701583], [113.9013684, 22.4701571], [113.9013827, 22.4701603], [113.901395, 22.4701676], [113.9014039, 22.4701784], [113.9014084, 22.4701913], [113.9014079, 22.4702048], [113.9014026, 22.4702174], [113.901393, 22.4702277], [113.9013803, 22.4702344], [113.9013659, 22.4702367], [113.9013514, 22.4702345], [113.9013394, 22.4702285], [113.90133, 22.4702193], [113.9013242, 22.4702078], [113.9013226, 22.4701953]]]]}}, {"type": "Feature", "id": "way/998073105", "properties": {"tags": {"building": "yes"}, "heightStatus": "unknown", "source": "OpenStreetMap", "license": "ODbL-1.0"}, "geometry": {"type": "MultiPolygon", "coordinates": [[[[113.9012354, 22.470129], [113.9012381, 22.4701166], [113.9012449, 22.4701056], [113.9012551, 22.4700971], [113.9012676, 22.470092], [113.9012812, 22.4700908], [113.9012955, 22.470094], [113.9013078, 22.4701013], [113.9013167, 22.4701121], [113.9013212, 22.470125], [113.9013207, 22.4701385], [113.9013154, 22.4701511], [113.9013058, 22.4701614], [113.9012931, 22.4701681], [113.9012787, 22.4701704], [113.9012642, 22.4701682], [113.9012522, 22.4701622], [113.9012428, 22.470153], [113.901237, 22.4701415], [113.9012354, 22.470129]]]]}}, {"type": "Feature", "id": "way/998073106", "properties": {"tags": {"building": "yes"}, "heightStatus": "unknown", "source": "OpenStreetMap", "license": "ODbL-1.0"}, "geometry": {"type": "MultiPolygon", "coordinates": [[[[113.901252, 22.4702748], [113.9012547, 22.4702624], [113.9012615, 22.4702515], [113.9012716, 22.470243], [113.9012841, 22.4702379], [113.9012978, 22.4702367], [113.901312, 22.4702398], [113.9013243, 22.4702472], [113.9013332, 22.4702579], [113.9013377, 22.4702708], [113.9013373, 22.4702844], [113.901332, 22.470297], [113.9013224, 22.4703072], [113.9013097, 22.4703139], [113.9012952, 22.4703163], [113.9012808, 22.470314], [113.9012687, 22.470308], [113.9012594, 22.4702988], [113.9012536, 22.4702874], [113.901252, 22.4702748]]]]}}, {"type": "Feature", "id": "way/998073107", "properties": {"tags": {"building": "yes"}, "heightStatus": "unknown", "source": "OpenStreetMap", "license": "ODbL-1.0"}, "geometry": {"type": "MultiPolygon", "coordinates": [[[[113.9011857, 22.4703605], [113.9011885, 22.4703481], [113.9011952, 22.4703371], [113.9012054, 22.4703287], [113.9012179, 22.4703236], [113.9012315, 22.4703224], [113.9012458, 22.4703255], [113.9012581, 22.4703329], [113.901267, 22.4703436], [113.9012715, 22.4703565], [113.9012711, 22.4703701], [113.9012658, 22.4703827], [113.9012562, 22.4703929], [113.9012434, 22.4703996], [113.901229, 22.470402], [113.9012145, 22.4703997], [113.9012025, 22.4703937], [113.9011931, 22.4703845], [113.9011874, 22.470373], [113.9011857, 22.4703605]]]]}}, {"type": "Feature", "id": "way/998073108", "properties": {"tags": {"building": "yes"}, "heightStatus": "unknown", "source": "OpenStreetMap", "license": "ODbL-1.0"}, "geometry": {"type": "MultiPolygon", "coordinates": [[[[113.9011107, 22.4704431], [113.9011134, 22.4704307], [113.9011202, 22.4704198], [113.9011303, 22.4704113], [113.9011429, 22.4704062], [113.9011565, 22.470405], [113.9011707, 22.4704081], [113.901183, 22.4704155], [113.9011919, 22.4704262], [113.9011964, 22.4704391], [113.901196, 22.4704527], [113.9011907, 22.4704653], [113.9011811, 22.4704755], [113.9011684, 22.4704822], [113.9011539, 22.4704846], [113.9011395, 22.4704823], [113.9011275, 22.4704763], [113.9011181, 22.4704671], [113.9011123, 22.4704557], [113.9011107, 22.4704431]]]]}}, {"type": "Feature", "id": "way/998073109", "properties": {"tags": {"building": "yes"}, "heightStatus": "unknown", "source": "OpenStreetMap", "license": "ODbL-1.0"}, "geometry": {"type": "MultiPolygon", "coordinates": [[[[113.9012525, 22.4699734], [113.9012528, 22.4699636], [113.9012563, 22.4699544], [113.9012633, 22.469946], [113.9012731, 22.4699403], [113.9012843, 22.4699379], [113.9012957, 22.4699392], [113.9013061, 22.4699439], [113.9013141, 22.4699515], [113.9013189, 22.4699612], [113.9013199, 22.4699718], [113.901317, 22.4699821], [113.9013106, 22.4699909], [113.9013013, 22.4699972], [113.9012902, 22.4700003], [113.9012797, 22.47], [113.9012698, 22.4699967], [113.9012615, 22.4699907], [113.9012555, 22.4699827], [113.9012525, 22.4699734]]]]}}, {"type": "Feature", "id": "way/998073110", "properties": {"tags": {"building": "yes"}, "heightStatus": "unknown", "source": "OpenStreetMap", "license": "ODbL-1.0"}, "geometry": {"type": "MultiPolygon", "coordinates": [[[[113.9011847, 22.4702127], [113.9011849, 22.470203], [113.9011884, 22.4701938], [113.9011955, 22.4701854], [113.9012052, 22.4701796], [113.9012164, 22.4701773], [113.9012279, 22.4701785], [113.9012382, 22.4701832], [113.9012462, 22.4701908], [113.901251, 22.4702005], [113.901252, 22.4702111], [113.9012492, 22.4702214], [113.9012427, 22.4702302], [113.9012334, 22.4702366], [113.9012224, 22.4702396], [113.9012119, 22.4702393], [113.901202, 22.470236], [113.9011936, 22.47023], [113.9011877, 22.470222], [113.9011847, 22.4702127]]]]}}, {"type": "Feature", "id": "way/998073111", "properties": {"tags": {"building": "yes"}, "heightStatus": "unknown", "source": "OpenStreetMap", "license": "ODbL-1.0"}, "geometry": {"type": "MultiPolygon", "coordinates": [[[[113.9011262, 22.47028], [113.9011264, 22.4702703], [113.9011299, 22.4702611], [113.901137, 22.4702527], [113.9011467, 22.470247], [113.9011579, 22.4702446], [113.9011694, 22.4702458], [113.9011797, 22.4702505], [113.9011877, 22.4702582], [113.9011925, 22.4702678], [113.9011935, 22.4702784], [113.9011907, 22.4702887], [113.9011842, 22.4702976], [113.9011749, 22.4703039], [113.9011639, 22.4703069], [113.9011534, 22.4703066], [113.9011435, 22.4703033], [113.9011351, 22.4702973], [113.9011292, 22.4702893], [113.9011262, 22.47028]]]]}}, {"type": "Feature", "id": "way/998073112", "properties": {"tags": {"building": "yes"}, "heightStatus": "unknown", "source": "OpenStreetMap", "license": "ODbL-1.0"}, "geometry": {"type": "MultiPolygon", "coordinates": [[[[113.9010633, 22.4703514], [113.9010635, 22.4703417], [113.901067, 22.4703325], [113.9010741, 22.4703241], [113.9010838, 22.4703184], [113.901095, 22.470316], [113.9011065, 22.4703172], [113.9011168, 22.4703219], [113.9011248, 22.4703296], [113.9011296, 22.4703392], [113.9011306, 22.4703498], [113.9011277, 22.4703601], [113.9011213, 22.470369], [113.901112, 22.4703753], [113.901101, 22.4703783], [113.9010904, 22.470378], [113.9010805, 22.4703747], [113.9010722, 22.4703687], [113.9010663, 22.4703607], [113.9010633, 22.4703514]]]]}}, {"type": "Feature", "id": "way/998073113", "properties": {"tags": {"building": "yes"}, "heightStatus": "unknown", "source": "OpenStreetMap", "license": "ODbL-1.0"}, "geometry": {"type": "MultiPolygon", "coordinates": [[[[113.9010037, 22.4704187], [113.9010039, 22.470409], [113.9010074, 22.4703998], [113.9010145, 22.4703914], [113.9010242, 22.4703857], [113.9010354, 22.4703833], [113.9010468, 22.4703845], [113.9010572, 22.4703892], [113.9010652, 22.4703969], [113.90107, 22.4704066], [113.901071, 22.4704172], [113.9010681, 22.4704275], [113.9010617, 22.4704363], [113.9010524, 22.4704426], [113.9010414, 22.4704457], [113.9010308, 22.4704453], [113.9010209, 22.470442], [113.9010126, 22.4704361], [113.9010067, 22.470428], [113.9010037, 22.4704187]]]]}}, {"type": "Feature", "id": "way/998073114", "properties": {"tags": {"building": "yes"}, "heightStatus": "unknown", "source": "OpenStreetMap", "license": "ODbL-1.0"}, "geometry": {"type": "MultiPolygon", "coordinates": [[[[113.900943, 22.4704881], [113.9009432, 22.4704783], [113.9009467, 22.4704692], [113.9009538, 22.4704608], [113.9009635, 22.470455], [113.9009747, 22.4704527], [113.9009861, 22.4704539], [113.9009965, 22.4704586], [113.9010045, 22.4704662], [113.9010093, 22.4704759], [113.9010103, 22.4704865], [113.9010074, 22.4704968], [113.901001, 22.4705056], [113.9009917, 22.4705119], [113.9009807, 22.470515], [113.9009701, 22.4705147], [113.9009602, 22.4705114], [113.9009519, 22.4705054], [113.900946, 22.4704974], [113.900943, 22.4704881]]]]}}, {"type": "Feature", "id": "way/998073115", "properties": {"tags": {"building": "yes"}, "heightStatus": "unknown", "source": "OpenStreetMap", "license": "ODbL-1.0"}, "geometry": {"type": "MultiPolygon", "coordinates": [[[[113.901039, 22.4705483], [113.9010392, 22.4705385], [113.9010427, 22.4705293], [113.9010498, 22.4705209], [113.9010595, 22.4705152], [113.9010707, 22.4705128], [113.9010822, 22.4705141], [113.9010925, 22.4705188], [113.9011005, 22.4705264], [113.9011053, 22.4705361], [113.9011063, 22.4705467], [113.9011035, 22.470557], [113.901097, 22.4705658], [113.9010877, 22.4705721], [113.9010767, 22.4705752], [113.9010662, 22.4705749], [113.9010563, 22.4705716], [113.9010479, 22.4705656], [113.901042, 22.4705576], [113.901039, 22.4705483]]]]}}, {"type": "Feature", "id": "way/998073116", "properties": {"tags": {"building": "yes"}, "heightStatus": "unknown", "source": "OpenStreetMap", "license": "ODbL-1.0"}, "geometry": {"type": "MultiPolygon", "coordinates": [[[[113.9012252, 22.470043], [113.901227, 22.4700349], [113.9012316, 22.4700279], [113.9012385, 22.4700227], [113.9012469, 22.4700199], [113.9012554, 22.4700198], [113.9012634, 22.4700221], [113.9012703, 22.4700268], [113.9012752, 22.4700331], [113.9012776, 22.4700406], [113.9012774, 22.4700485], [113.9012745, 22.4700558], [113.9012692, 22.4700619], [113.9012621, 22.4700662], [113.9012539, 22.4700681], [113.901245, 22.4700675], [113.9012369, 22.4700641], [113.9012304, 22.4700584], [113.9012264, 22.4700511], [113.9012252, 22.470043]]]]}}, {"type": "Feature", "id": "way/998073117", "properties": {"tags": {"building": "yes"}, "heightStatus": "unknown", "source": "OpenStreetMap", "license": "ODbL-1.0"}, "geometry": {"type": "MultiPolygon", "coordinates": [[[[113.9011782, 22.4700951], [113.9011801, 22.4700871], [113.9011847, 22.4700801], [113.9011916, 22.4700749], [113.9011999, 22.4700721], [113.9012084, 22.4700719], [113.9012165, 22.4700743], [113.9012233, 22.4700789], [113.9012282, 22.4700853], [113.9012307, 22.4700928], [113.9012304, 22.4701006], [113.9012275, 22.470108], [113.9012222, 22.4701141], [113.9012151, 22.4701183], [113.9012069, 22.4701203], [113.901198, 22.4701196], [113.9011899, 22.4701163], [113.9011835, 22.4701106], [113.9011794, 22.4701033], [113.9011782, 22.4700951]]]]}}, {"type": "Feature", "id": "way/998073118", "properties": {"tags": {"building": "yes"}, "heightStatus": "unknown", "source": "OpenStreetMap", "license": "ODbL-1.0"}, "geometry": {"type": "MultiPolygon", "coordinates": [[[[113.9011306, 22.4701477], [113.9011324, 22.4701397], [113.901137, 22.4701326], [113.9011439, 22.4701274], [113.9011522, 22.4701246], [113.9011607, 22.4701245], [113.9011688, 22.4701269], [113.9011756, 22.4701315], [113.9011805, 22.4701379], [113.901183, 22.4701454], [113.9011828, 22.4701532], [113.9011798, 22.4701605], [113.9011746, 22.4701667], [113.9011674, 22.4701709], [113.9011592, 22.4701728], [113.9011504, 22.4701722], [113.9011422, 22.4701688], [113.9011358, 22.4701632], [113.9011317, 22.4701559], [113.9011306, 22.4701477]]]]}}, {"type": "Feature", "id": "way/998073119", "properties": {"tags": {"building": "yes"}, "heightStatus": "unknown", "source": "OpenStreetMap", "license": "ODbL-1.0"}, "geometry": {"type": "MultiPolygon", "coordinates": [[[[113.9010845, 22.4702034], [113.9010864, 22.4701953], [113.901091, 22.4701883], [113.9010979, 22.4701831], [113.9011062, 22.4701803], [113.9011147, 22.4701802], [113.9011228, 22.4701825], [113.9011296, 22.4701871], [113.9011345, 22.4701935], [113.901137, 22.470201], [113.9011368, 22.4702088], [113.9011338, 22.4702162], [113.9011285, 22.4702223], [113.9011214, 22.4702266], [113.9011132, 22.4702285], [113.9011044, 22.4702278], [113.9010962, 22.4702245], [113.9010898, 22.4702188], [113.9010857, 22.4702115], [113.9010845, 22.4702034]]]]}}, {"type": "Feature", "id": "way/998073120", "properties": {"tags": {"building": "yes"}, "heightStatus": "unknown", "source": "OpenStreetMap", "license": "ODbL-1.0"}, "geometry": {"type": "MultiPolygon", "coordinates": [[[[113.901036, 22.4702575], [113.9010378, 22.4702494], [113.9010425, 22.4702424], [113.9010494, 22.4702372], [113.9010577, 22.4702344], [113.9010662, 22.4702343], [113.9010743, 22.4702366], [113.9010811, 22.4702413], [113.901086, 22.4702476], [113.9010885, 22.4702551], [113.9010882, 22.470263], [113.9010853, 22.4702703], [113.90108, 22.4702764], [113.9010729, 22.4702807], [113.9010647, 22.4702826], [113.9010558, 22.470282], [113.9010477, 22.4702786], [113.9010413, 22.4702729], [113.9010372, 22.4702656], [113.901036, 22.4702575]]]]}}, {"type": "Feature", "id": "way/998073121", "properties": {"tags": {"building": "yes"}, "heightStatus": "unknown", "source": "OpenStreetMap", "license": "ODbL-1.0"}, "geometry": {"type": "MultiPolygon", "coordinates": [[[[113.9009867, 22.4703139], [113.9009885, 22.4703059], [113.9009931, 22.4702988], [113.901, 22.4702936], [113.9010084, 22.4702908], [113.9010168, 22.4702907], [113.9010249, 22.4702931], [113.9010318, 22.4702977], [113.9010367, 22.4703041], [113.9010391, 22.4703116], [113.9010389, 22.4703194], [113.901036, 22.4703267], [113.9010307, 22.4703329], [113.9010236, 22.4703371], [113.9010154, 22.470339], [113.9010065, 22.4703384], [113.9009984, 22.470335], [113.9009919, 22.4703294], [113.9009879, 22.4703221], [113.9009867, 22.4703139]]]]}}, {"type": "Feature", "id": "way/998073122", "properties": {"tags": {"building": "yes"}, "heightStatus": "unknown", "source": "OpenStreetMap", "license": "ODbL-1.0"}, "geometry": {"type": "MultiPolygon", "coordinates": [[[[113.900942, 22.4703725], [113.9009438, 22.4703645], [113.9009484, 22.4703574], [113.9009553, 22.4703522], [113.9009636, 22.4703494], [113.9009721, 22.4703493], [113.9009802, 22.4703517], [113.900987, 22.4703563], [113.9009919, 22.4703627], [113.9009944, 22.4703702], [113.9009942, 22.470378], [113.9009912, 22.4703854], [113.900986, 22.4703915], [113.9009788, 22.4703957], [113.9009706, 22.4703977], [113.9009618, 22.470397], [113.9009536, 22.4703936], [113.9009472, 22.470388], [113.9009431, 22.4703807], [113.900942, 22.4703725]]]]}}, {"type": "Feature", "id": "way/998073123", "properties": {"tags": {"building": "yes"}, "heightStatus": "unknown", "source": "OpenStreetMap", "license": "ODbL-1.0"}, "geometry": {"type": "MultiPolygon", "coordinates": [[[[113.9008893, 22.470427], [113.9008912, 22.470419], [113.9008958, 22.4704119], [113.9009027, 22.4704067], [113.900911, 22.4704039], [113.9009195, 22.4704038], [113.9009276, 22.4704062], [113.9009344, 22.4704108], [113.9009393, 22.4704172], [113.9009418, 22.4704247], [113.9009415, 22.4704325], [113.9009386, 22.4704398], [113.9009333, 22.470446], [113.9009262, 22.4704502], [113.900918, 22.4704521], [113.9009091, 22.4704515], [113.900901, 22.4704481], [113.9008946, 22.4704425], [113.9008905, 22.4704352], [113.9008893, 22.470427]]]]}}, {"type": "Feature", "id": "way/998073124", "properties": {"tags": {"building": "yes"}, "heightStatus": "unknown", "source": "OpenStreetMap", "license": "ODbL-1.0"}, "geometry": {"type": "MultiPolygon", "coordinates": [[[[113.9012145, 22.4699101], [113.9012163, 22.469902], [113.9012209, 22.469895], [113.9012278, 22.4698898], [113.9012361, 22.469887], [113.9012446, 22.4698869], [113.9012527, 22.4698892], [113.9012595, 22.4698938], [113.9012644, 22.4699002], [113.9012669, 22.4699077], [113.9012667, 22.4699155], [113.9012637, 22.4699229], [113.9012585, 22.469929], [113.9012513, 22.4699333], [113.9012431, 22.4699352], [113.9012343, 22.4699345], [113.9012261, 22.4699312], [113.9012197, 22.4699255], [113.9012156, 22.4699182], [113.9012145, 22.4699101]]]]}}, {"type": "Feature", "id": "way/998073125", "properties": {"tags": {"building": "yes"}, "heightStatus": "unknown", "source": "OpenStreetMap", "license": "ODbL-1.0"}, "geometry": {"type": "MultiPolygon", "coordinates": [[[[113.9015066, 22.4702366], [113.9015074, 22.4702165], [113.9015151, 22.4701978], [113.9015289, 22.4701824], [113.9015473, 22.4701719], [113.9015689, 22.4701674], [113.901591, 22.4701696], [113.9016109, 22.4701785], [113.9016267, 22.4701928], [113.9016364, 22.4702112], [113.9016392, 22.4702315], [113.9016345, 22.4702515], [113.901623, 22.470269], [113.901606, 22.4702821], [113.9015853, 22.4702892], [113.9015636, 22.4702898], [113.9015429, 22.4702839], [113.9015253, 22.4702721], [113.9015128, 22.4702558], [113.9015066, 22.4702366]]]]}}, {"type": "Feature", "id": "way/998073126", "properties": {"tags": {"building": "yes"}, "heightStatus": "unknown", "source": "OpenStreetMap", "license": "ODbL-1.0"}, "geometry": {"type": "MultiPolygon", "coordinates": [[[[113.9014008, 22.4703638], [113.9014016, 22.4703438], [113.9014093, 22.4703251], [113.9014231, 22.4703097], [113.9014415, 22.4702991], [113.9014631, 22.4702946], [113.9014851, 22.4702969], [113.9015051, 22.4703057], [113.9015209, 22.4703201], [113.9015306, 22.4703385], [113.9015334, 22.4703588], [113.9015287, 22.4703788], [113.9015172, 22.4703963], [113.9015002, 22.4704093], [113.9014794, 22.4704165], [113.9014578, 22.470417], [113.9014371, 22.4704111], [113.9014195, 22.4703994], [113.901407, 22.470383], [113.9014008, 22.4703638]]]]}}, {"type": "Feature", "id": "way/998073127", "properties": {"tags": {"building": "yes"}, "heightStatus": "unknown", "source": "OpenStreetMap", "license": "ODbL-1.0"}, "geometry": {"type": "MultiPolygon", "coordinates": [[[[113.9012893, 22.4704862], [113.9012901, 22.4704662], [113.9012978, 22.4704475], [113.9013116, 22.4704321], [113.9013301, 22.4704215], [113.9013517, 22.470417], [113.9013737, 22.4704193], [113.9013936, 22.4704281], [113.9014094, 22.4704425], [113.9014192, 22.4704609], [113.9014219, 22.4704812], [113.9014172, 22.4705012], [113.9014058, 22.4705187], [113.9013887, 22.4705317], [113.901368, 22.4705389], [113.9013463, 22.4705394], [113.9013256, 22.4705335], [113.901308, 22.4705218], [113.9012955, 22.4705054], [113.9012893, 22.4704862]]]]}}, {"type": "Feature", "id": "way/998073128", "properties": {"tags": {"building": "yes"}, "heightStatus": "unknown", "source": "OpenStreetMap", "license": "ODbL-1.0"}, "geometry": {"type": "MultiPolygon", "coordinates": [[[[113.9005757, 22.4701937], [113.9006982, 22.4700527], [113.9008347, 22.470154], [113.9008158, 22.4701757], [113.900863, 22.4702108], [113.9007594, 22.47033], [113.9005757, 22.4701937]]]]}}, {"type": "Feature", "id": "way/998073129", "properties": {"tags": {"building": "yes"}, "heightStatus": "unknown", "source": "OpenStreetMap", "license": "ODbL-1.0"}, "geometry": {"type": "MultiPolygon", "coordinates": [[[[113.9004043, 22.4700746], [113.900527, 22.4699307], [113.900689, 22.4700487], [113.9005662, 22.4701926], [113.9004043, 22.4700746]]]]}}, {"type": "Feature", "id": "way/998073130", "properties": {"tags": {"building": "yes"}, "heightStatus": "unknown", "source": "OpenStreetMap", "license": "ODbL-1.0"}, "geometry": {"type": "MultiPolygon", "coordinates": [[[[113.9006139, 22.4698835], [113.9006917, 22.4697933], [113.9009595, 22.4699905], [113.9008817, 22.4700807], [113.9006139, 22.4698835]]]]}}, {"type": "Feature", "id": "way/998073131", "properties": {"tags": {"building": "yes"}, "heightStatus": "unknown", "source": "OpenStreetMap", "license": "ODbL-1.0"}, "geometry": {"type": "MultiPolygon", "coordinates": [[[[113.9006828, 22.4696589], [113.9008089, 22.4695172], [113.9009038, 22.4695893], [113.9007777, 22.4697311], [113.9006828, 22.4696589]]]]}}, {"type": "Feature", "id": "way/998073132", "properties": {"tags": {"building": "yes"}, "heightStatus": "unknown", "source": "OpenStreetMap", "license": "ODbL-1.0"}, "geometry": {"type": "MultiPolygon", "coordinates": [[[[113.9006244, 22.4695474], [113.9006962, 22.4694648], [113.9007733, 22.4695221], [113.9007014, 22.4696047], [113.9006244, 22.4695474]]]]}}, {"type": "Feature", "id": "way/998073133", "properties": {"tags": {"building": "yes"}, "heightStatus": "unknown", "source": "OpenStreetMap", "license": "ODbL-1.0"}, "geometry": {"type": "MultiPolygon", "coordinates": [[[[113.9001992, 22.4699356], [113.9004046, 22.4697122], [113.9005183, 22.4698015], [113.9003129, 22.4700249], [113.9001992, 22.4699356]]]]}}, {"type": "Feature", "id": "way/998073136", "properties": {"tags": {"building": "yes"}, "heightStatus": "unknown", "source": "OpenStreetMap", "license": "ODbL-1.0"}, "geometry": {"type": "MultiPolygon", "coordinates": [[[[113.9018717, 22.4705292], [113.9030298, 22.4691751], [113.9035343, 22.4695434], [113.9023764, 22.4708978], [113.9018717, 22.4705292]]]]}}, {"type": "Feature", "id": "way/998073137", "properties": {"tags": {"building": "yes"}, "heightStatus": "unknown", "source": "OpenStreetMap", "license": "ODbL-1.0"}, "geometry": {"type": "MultiPolygon", "coordinates": [[[[113.900547, 22.4720928], [113.9015168, 22.4709328], [113.9021469, 22.4713826], [113.9014604, 22.4722039], [113.9012686, 22.472067], [113.9009854, 22.4724058], [113.900547, 22.4720928]]]]}}, {"type": "Feature", "id": "way/998073138", "properties": {"tags": {"building": "yes"}, "heightStatus": "unknown", "source": "OpenStreetMap", "license": "ODbL-1.0"}, "geometry": {"type": "MultiPolygon", "coordinates": [[[[113.8990319, 22.4714175], [113.8992181, 22.4712008], [113.8997598, 22.4715982], [113.8995738, 22.4718148], [113.8990319, 22.4714175]]]]}}, {"type": "Feature", "id": "way/998073139", "properties": {"tags": {"building": "yes"}, "heightStatus": "unknown", "source": "OpenStreetMap", "license": "ODbL-1.0"}, "geometry": {"type": "MultiPolygon", "coordinates": [[[[113.8992823, 22.471061], [113.8994496, 22.4708688], [113.8998303, 22.4711518], [113.8998648, 22.4711122], [113.9005477, 22.4716199], [113.9003459, 22.4718516], [113.8992823, 22.471061]]]]}}, {"type": "Feature", "id": "way/998073140", "properties": {"tags": {"building": "yes"}, "heightStatus": "unknown", "source": "OpenStreetMap", "license": "ODbL-1.0"}, "geometry": {"type": "MultiPolygon", "coordinates": [[[[113.899705, 22.470641], [113.8999263, 22.4703825], [113.9000883, 22.470501], [113.899867, 22.4707595], [113.899705, 22.470641]]]]}}]}