{"type": "FeatureCollection", "features": [{"type": "Feature", "id": "way/613847972", "properties": {"tags": {"building": "school"}, "heightStatus": "unknown", "source": "OpenStreetMap", "license": "ODbL-1.0"}, "geometry": {"type": "MultiPolygon", "coordinates": [[[[113.8917591, 22.5084646], [113.8918832, 22.5083945], [113.8919335, 22.5084704], [113.8919768, 22.508446], [113.892061, 22.5085732], [113.8919805, 22.5086186], [113.891845, 22.5085944], [113.8917591, 22.5084646]]]]}}, {"type": "Feature", "id": "way/613847973", "properties": {"tags": {"building": "school"}, "heightStatus": "unknown", "source": "OpenStreetMap", "license": "ODbL-1.0"}, "geometry": {"type": "MultiPolygon", "coordinates": [[[[113.891995, 22.5083786], [113.8920394, 22.5083539], [113.8920173, 22.50832], [113.8925973, 22.5079974], [113.8926115, 22.5080169], [113.8926262, 22.5080396], [113.892725, 22.5081932], [113.8921434, 22.5085166], [113.892109, 22.5084637], [113.892066, 22.5084876], [113.891995, 22.5083786]]]]}}, {"type": "Feature", "id": "way/613847974", "properties": {"tags": {"building": "school"}, "heightStatus": "unknown", "source": "OpenStreetMap", "license": "ODbL-1.0"}, "geometry": {"type": "MultiPolygon", "coordinates": [[[[113.8919699, 22.506696], [113.8921752, 22.5065791], [113.8923619, 22.5068589], [113.8922382, 22.5069314], [113.8921693, 22.5069711], [113.8921613, 22.5069769], [113.8919699, 22.506696]]]]}}, {"type": "Feature", "id": "way/613847975", "properties": {"tags": {"building": "school", "name": "深大师院国际高中"}, "heightStatus": "unknown", "source": "OpenStreetMap", "license": "ODbL-1.0"}, "geometry": {"type": "MultiPolygon", "coordinates": [[[[113.8922283, 22.507237], [113.8922547, 22.5071523], [113.8923489, 22.5071774], [113.8923704, 22.5071831], [113.8923921, 22.507217], [113.8924084, 22.5072428], [113.8925673, 22.5071574], [113.8925379, 22.5071108], [113.8925011, 22.5071027], [113.8925096, 22.5070696], [113.8924713, 22.5070612], [113.8924818, 22.5070202], [113.8929453, 22.5071218], [113.8929279, 22.5071895], [113.8931127, 22.50723], [113.893158, 22.5070536], [113.8932374, 22.507071], [113.8932277, 22.5071088], [113.8932604, 22.507116], [113.8932268, 22.5072466], [113.893308, 22.5072644], [113.8932619, 22.5074442], [113.893082, 22.5074048], [113.8931057, 22.5073125], [113.8925967, 22.5072009], [113.8924381, 22.507287], [113.8925201, 22.5074161], [113.8925487, 22.5074157], [113.8925558, 22.50739], [113.8925674, 22.5073718], [113.8925836, 22.5073569], [113.8926036, 22.5073461], [113.8926259, 22.5073403], [113.8926515, 22.5073402], [113.8926761, 22.5073466], [113.8927003, 22.5073613], [113.8927183, 22.5073823], [113.8927275, 22.5074043], [113.8927297, 22.5074278], [113.8927396, 22.5074301], [113.8926622, 22.5077126], [113.8926066, 22.5076996], [113.8925453, 22.5076855], [113.8925079, 22.5076771], [113.8922283, 22.507237]]]]}}, {"type": "Feature", "id": "way/613847977", "properties": {"tags": {"building": "roof", "layer": "1"}, "heightStatus": "unknown", "source": "OpenStreetMap", "license": "ODbL-1.0"}, "geometry": {"type": "MultiPolygon", "coordinates": [[[[113.8921693, 22.5069711], [113.8922382, 22.5069314], [113.8924199, 22.507201], [113.8923921, 22.507217], [113.8923704, 22.5071831], [113.8923489, 22.5071774], [113.8922235, 22.5069912], [113.8921943, 22.5070081], [113.8921693, 22.5069711]]]]}}, {"type": "Feature", "id": "way/613847978", "properties": {"tags": {"building": "school"}, "heightStatus": "unknown", "source": "OpenStreetMap", "license": "ODbL-1.0"}, "geometry": {"type": "MultiPolygon", "coordinates": [[[[113.8921444, 22.5064238], [113.8926746, 22.5061222], [113.8927268, 22.5062006], [113.8921966, 22.5065021], [113.8921444, 22.5064238]]]]}}, {"type": "Feature", "id": "way/613847979", "properties": {"tags": {"building": "school"}, "heightStatus": "unknown", "source": "OpenStreetMap", "license": "ODbL-1.0"}, "geometry": {"type": "MultiPolygon", "coordinates": [[[[113.8929298, 22.5066657], [113.8930193, 22.5066254], [113.8930813, 22.5067229], [113.8931272, 22.5068289], [113.8931685, 22.5069583], [113.8930652, 22.506988], [113.8929298, 22.5066657]]]]}}, {"type": "Feature", "id": "way/613847980", "properties": {"tags": {"building": "school"}, "heightStatus": "unknown", "source": "OpenStreetMap", "license": "ODbL-1.0"}, "geometry": {"type": "MultiPolygon", "coordinates": [[[[113.8926999, 22.5062483], [113.8927822, 22.5062086], [113.8930062, 22.5066054], [113.8929239, 22.506645], [113.8926999, 22.5062483]]]]}}, {"type": "Feature", "id": "way/613847981", "properties": {"tags": {"building": "school"}, "heightStatus": "unknown", "source": "OpenStreetMap", "license": "ODbL-1.0"}, "geometry": {"type": "MultiPolygon", "coordinates": [[[[113.8926593, 22.5078842], [113.8926724, 22.507877], [113.8929121, 22.5077436], [113.8931824, 22.507809], [113.8932465, 22.5079067], [113.8928289, 22.5081407], [113.8927247, 22.5079852], [113.8926593, 22.5078842]]]]}}, {"type": "Feature", "id": "way/613847982", "properties": {"tags": {"building": "roof", "layer": "1"}, "heightStatus": "unknown", "source": "OpenStreetMap", "license": "ODbL-1.0"}, "geometry": {"type": "MultiPolygon", "coordinates": [[[[113.8925038, 22.5076969], [113.8925079, 22.5076771], [113.8925453, 22.5076855], [113.8925745, 22.5077307], [113.892601, 22.5077173], [113.8926066, 22.5076996], [113.8926622, 22.5077126], [113.8926477, 22.5077537], [113.8926071, 22.5077761], [113.8926724, 22.507877], [113.8926593, 22.5078842], [113.8927247, 22.5079852], [113.8926262, 22.5080396], [113.8926115, 22.5080169], [113.8926848, 22.5079764], [113.8925038, 22.5076969]]]]}}, {"type": "Feature", "id": "way/1360506325", "properties": {"tags": {"building": "yes"}, "heightStatus": "unknown", "source": "OpenStreetMap", "license": "ODbL-1.0"}, "geometry": {"type": "MultiPolygon", "coordinates": [[[[113.8960496, 22.5022712], [113.8962485, 22.5020939], [113.8965409, 22.5023739], [113.8963419, 22.5025512], [113.8960496, 22.5022712]]]]}}, {"type": "Feature", "id": "way/1360506326", "properties": {"tags": {"building": "yes"}, "heightStatus": "unknown", "source": "OpenStreetMap", "license": "ODbL-1.0"}, "geometry": {"type": "MultiPolygon", "coordinates": [[[[113.8963231, 22.5026131], [113.8964895, 22.5024688], [113.8967389, 22.5027141], [113.8965726, 22.5028585], [113.8963231, 22.5026131]]]]}}, {"type": "Feature", "id": "way/1360506327", "properties": {"tags": {"building": "yes"}, "heightStatus": "unknown", "source": "OpenStreetMap", "license": "ODbL-1.0"}, "geometry": {"type": "MultiPolygon", "coordinates": [[[[113.8961671, 22.5030943], [113.8961703, 22.5029749], [113.8963929, 22.5029799], [113.8963898, 22.5030992], [113.8961671, 22.5030943]]]]}}, {"type": "Feature", "id": "way/1360506328", "properties": {"tags": {"building": "yes"}, "heightStatus": "unknown", "source": "OpenStreetMap", "license": "ODbL-1.0"}, "geometry": {"type": "MultiPolygon", "coordinates": [[[[113.8959262, 22.5032921], [113.8959296, 22.5031236], [113.8963614, 22.503131], [113.896358, 22.5032995], [113.8959262, 22.5032921]]]]}}, {"type": "Feature", "id": "way/1414379216", "properties": {"tags": {"building": "yes"}, "heightStatus": "unknown", "source": "OpenStreetMap", "license": "ODbL-1.0"}, "geometry": {"type": "MultiPolygon", "coordinates": [[[[113.8885488, 22.5067024], [113.8888965, 22.5063897], [113.8891157, 22.5065977], [113.8889394, 22.5067562], [113.8896555, 22.5074358], [113.889484, 22.50759], [113.8885488, 22.5067024]]]]}}, {"type": "Feature", "id": "way/1414379217", "properties": {"tags": {"addr:housename": "恒立·心海湾花园", "addr:housename:en": "Hengli Xin Haiwan Garden", "addr:housename:zh": "恒立·心海湾花园", "building": "apartments", "building:levels": "18", "name": "2栋", "name:en": "Block 2", "name:zh": "2栋"}, "heightStatus": "levels_only_unverified", "source": "OpenStreetMap", "license": "ODbL-1.0"}, "geometry": {"type": "MultiPolygon", "coordinates": [[[[113.8900255, 22.50315], [113.8901843, 22.5030617], [113.8902514, 22.5031646], [113.8903847, 22.5030904], [113.8903176, 22.5029875], [113.8904764, 22.5028991], [113.8905146, 22.5029577], [113.8904831, 22.5029752], [113.8905061, 22.5030104], [113.89058, 22.5030273], [113.890574, 22.5030497], [113.8906943, 22.5030773], [113.8907003, 22.5030549], [113.8907742, 22.5030719], [113.8908123, 22.5030507], [113.8907934, 22.5030216], [113.8908568, 22.5029863], [113.8909524, 22.5031331], [113.890841, 22.5031951], [113.8908811, 22.5032566], [113.8908123, 22.5032949], [113.8907722, 22.5032333], [113.8907467, 22.5032475], [113.8907177, 22.503203], [113.8907543, 22.5031827], [113.8907425, 22.5031646], [113.8904872, 22.503106], [113.8904676, 22.5031169], [113.8904897, 22.5031508], [113.8904415, 22.5031776], [113.8904261, 22.503154], [113.8902929, 22.5032282], [113.8903082, 22.5032517], [113.8901494, 22.5033401], [113.8901341, 22.5033165], [113.8900674, 22.5033536], [113.890026, 22.5032901], [113.8900926, 22.503253], [113.8900255, 22.50315]]]]}}, {"type": "Feature", "id": "way/1434978642", "properties": {"tags": {"addr:housename": "中海·阳光玫瑰园", "addr:housename:en": "China Overseas Sunshine Rose Garden", "addr:housename:zh": "中海·阳光玫瑰园", "building": "apartments", "building:levels": "17", "name": "4栋", "name:en": "Block 4", "name:zh": "4栋"}, "heightStatus": "levels_only_unverified", "source": "OpenStreetMap", "license": "ODbL-1.0"}, "geometry": {"type": "MultiPolygon", "coordinates": [[[[113.8902531, 22.5055423], [113.8903061, 22.5055124], [113.8902876, 22.5054843], [113.8905102, 22.5053589], [113.8906022, 22.5054983], [113.8905057, 22.5055527], [113.8904823, 22.5055173], [113.8904044, 22.5055611], [113.8905086, 22.505719], [113.890537, 22.505703], [113.8906348, 22.5058512], [113.8906904, 22.5058199], [113.8907513, 22.5059122], [113.8906405, 22.5059747], [113.8906784, 22.5060321], [113.8907892, 22.5059696], [113.8908501, 22.5060619], [113.8907946, 22.5060932], [113.8908924, 22.5062414], [113.8908641, 22.5062574], [113.8909641, 22.5064089], [113.8910663, 22.50645], [113.8909893, 22.5066139], [113.8908523, 22.5065589], [113.8908822, 22.5064953], [113.8906646, 22.5061656], [113.8906871, 22.5061529], [113.8905281, 22.5059122], [113.8905056, 22.5059249], [113.8902531, 22.5055423]]]]}}, {"type": "Feature", "id": "way/1434978643", "properties": {"tags": {"addr:housename": "中海·阳光玫瑰园", "addr:housename:en": "China Overseas Sunshine Rose Garden", "addr:housename:zh": "中海·阳光玫瑰园", "building": "apartments", "building:levels": "17", "name": "2栋", "name:en": "Block 2", "name:zh": "2栋"}, "heightStatus": "levels_only_unverified", "source": "OpenStreetMap", "license": "ODbL-1.0"}, "geometry": {"type": "MultiPolygon", "coordinates": [[[[113.8913277, 22.5050285], [113.8913992, 22.5049869], [113.8913331, 22.5048899], [113.8915007, 22.5047925], [113.8915668, 22.5048895], [113.8916263, 22.5048549], [113.8916044, 22.5048228], [113.8917222, 22.5047543], [113.8917463, 22.5047897], [113.8918269, 22.5047428], [113.8919497, 22.5049232], [113.891747, 22.505041], [113.8917018, 22.5049747], [113.8917372, 22.5049542], [113.8916913, 22.5048868], [113.8915147, 22.5049894], [113.8915377, 22.5050232], [113.8915733, 22.5050025], [113.8916195, 22.5050704], [113.8914666, 22.5051593], [113.8914203, 22.5050914], [113.8914924, 22.5050495], [113.8914694, 22.5050157], [113.8913617, 22.5050784], [113.8913277, 22.5050285]]]]}}, {"type": "Feature", "id": "way/1434978644", "properties": {"tags": {"addr:housename": "中海·阳光玫瑰园", "addr:housename:en": "China Overseas Sunshine Rose Garden", "addr:housename:zh": "中海·阳光玫瑰园", "building": "apartments", "building:levels": "31", "name": "5栋", "name:en": "Block 5", "name:zh": "5栋"}, "heightStatus": "levels_only_unverified", "source": "OpenStreetMap", "license": "ODbL-1.0"}, "geometry": {"type": "MultiPolygon", "coordinates": [[[[113.8911086, 22.5062682], [113.8911621, 22.5061582], [113.8913306, 22.5062281], [113.891487, 22.5061372], [113.8915565, 22.5062393], [113.8914177, 22.5063201], [113.891457, 22.5063778], [113.8913987, 22.5064117], [113.8913377, 22.5063223], [113.8912909, 22.5064187], [113.891228, 22.5063926], [113.8912583, 22.5063303], [113.8911086, 22.5062682]]]]}}, {"type": "Feature", "id": "way/1434978645", "properties": {"tags": {"addr:housename": "中海·阳光玫瑰园", "addr:housename:en": "China Overseas Sunshine Rose Garden", "addr:housename:zh": "中海·阳光玫瑰园", "building": "apartments", "building:levels": "31", "name": "6栋", "name:en": "Block 6", "name:zh": "6栋"}, "heightStatus": "levels_only_unverified", "source": "OpenStreetMap", "license": "ODbL-1.0"}, "geometry": {"type": "MultiPolygon", "coordinates": [[[[113.8915474, 22.5060261], [113.891601, 22.5059161], [113.8917695, 22.505986], [113.8919258, 22.5058951], [113.8919954, 22.5059972], [113.8918565, 22.5060779], [113.8918958, 22.5061357], [113.8918375, 22.5061696], [113.8917766, 22.5060802], [113.8917297, 22.5061765], [113.8916668, 22.5061504], [113.8916971, 22.5060882], [113.8915474, 22.5060261]]]]}}, {"type": "Feature", "id": "way/1434978646", "properties": {"tags": {"addr:housename": "中海·阳光玫瑰园", "addr:housename:en": "China Overseas Sunshine Rose Garden", "addr:housename:zh": "中海·阳光玫瑰园", "building": "apartments", "building:levels": "31", "name": "7栋", "name:en": "Block 7", "name:zh": "7栋"}, "heightStatus": "levels_only_unverified", "source": "OpenStreetMap", "license": "ODbL-1.0"}, "geometry": {"type": "MultiPolygon", "coordinates": [[[[113.8919639, 22.5057882], [113.8920174, 22.5056782], [113.892186, 22.5057482], [113.8923423, 22.5056573], [113.8924119, 22.5057593], [113.892273, 22.5058401], [113.8923123, 22.5058978], [113.892254, 22.5059317], [113.8921931, 22.5058423], [113.8921462, 22.5059387], [113.8920833, 22.5059126], [113.8921136, 22.5058503], [113.8919639, 22.5057882]]]]}}, {"type": "Feature", "id": "way/1434978647", "properties": {"tags": {"addr:housename": "中海·阳光玫瑰园", "addr:housename:en": "China Overseas Sunshine Rose Garden", "addr:housename:zh": "中海·阳光玫瑰园", "building": "apartments", "building:levels": "17", "name": "3栋", "name:en": "Block 3", "name:zh": "3栋"}, "heightStatus": "levels_only_unverified", "source": "OpenStreetMap", "license": "ODbL-1.0"}, "geometry": {"type": "MultiPolygon", "coordinates": [[[[113.8906762, 22.5053903], [113.8907477, 22.5053487], [113.8906816, 22.5052517], [113.8908492, 22.5051543], [113.8909153, 22.5052513], [113.8909741, 22.5052171], [113.8909081, 22.5051201], [113.8910757, 22.5050227], [113.8911417, 22.5051197], [113.8912132, 22.5050781], [113.8912472, 22.5051281], [113.8911395, 22.5051907], [113.8911624, 22.5052245], [113.8912345, 22.5051826], [113.8912807, 22.5052504], [113.8911278, 22.5053393], [113.8910816, 22.5052715], [113.8911172, 22.5052508], [113.8910942, 22.505217], [113.8908633, 22.5053513], [113.8908862, 22.505385], [113.8909218, 22.5053643], [113.890968, 22.5054322], [113.8908151, 22.5055211], [113.8907689, 22.5054532], [113.890841, 22.5054113], [113.890818, 22.5053776], [113.8907102, 22.5054402], [113.8906762, 22.5053903]]]]}}, {"type": "Feature", "id": "way/1434978791", "properties": {"tags": {"addr:housename": "恒立·心海湾花园", "addr:housename:en": "Hengli Xin Haiwan Garden", "addr:housename:zh": "恒立·心海湾花园", "building": "apartments", "building:levels": "32", "name": "4C栋", "name:en": "Block 4C", "name:zh": "4C栋"}, "heightStatus": "levels_only_unverified", "source": "OpenStreetMap", "license": "ODbL-1.0"}, "geometry": {"type": "MultiPolygon", "coordinates": [[[[113.8901567, 22.5047888], [113.8902618, 22.5047299], [113.8901956, 22.5046292], [113.8902909, 22.5045757], [113.8903575, 22.5046771], [113.8904568, 22.5046214], [113.8905172, 22.5047132], [113.8902175, 22.5048813], [113.8901567, 22.5047888]]]]}}, {"type": "Feature", "id": "way/1434978792", "properties": {"tags": {"addr:housename": "恒立·心海湾花园", "addr:housename:en": "Hengli Xin Haiwan Garden", "addr:housename:zh": "恒立·心海湾花园", "building": "apartments", "building:levels": "32", "name": "4A栋", "name:en": "Block 4A", "name:zh": "4A栋"}, "heightStatus": "levels_only_unverified", "source": "OpenStreetMap", "license": "ODbL-1.0"}, "geometry": {"type": "MultiPolygon", "coordinates": [[[[113.8908127, 22.5044003], [113.8909127, 22.5043447], [113.8908519, 22.5042514], [113.8909473, 22.5041983], [113.8910082, 22.5042916], [113.8911081, 22.504236], [113.8911735, 22.5043363], [113.8908781, 22.5045006], [113.8908127, 22.5044003]]]]}}, {"type": "Feature", "id": "way/1434978793", "properties": {"tags": {"addr:housename": "恒立·心海湾花园", "addr:housename:en": "Hengli Xin Haiwan Garden", "addr:housename:zh": "恒立·心海湾花园", "building": "apartments", "building:levels": "32", "name": "5栋", "name:en": "Block 5", "name:zh": "5栋"}, "heightStatus": "levels_only_unverified", "source": "OpenStreetMap", "license": "ODbL-1.0"}, "geometry": {"type": "MultiPolygon", "coordinates": [[[[113.8892996, 22.5041029], [113.8893547, 22.504073], [113.8893874, 22.5041244], [113.8894165, 22.5041086], [113.8894352, 22.5041379], [113.8895372, 22.5040825], [113.8896333, 22.5042337], [113.8895313, 22.504289], [113.8895499, 22.5043184], [113.8895208, 22.5043342], [113.8895861, 22.5044369], [113.8896153, 22.5044211], [113.8896339, 22.5044505], [113.8897359, 22.5043951], [113.889832, 22.5045462], [113.88973, 22.5046016], [113.8897487, 22.5046309], [113.8897195, 22.5046467], [113.8897522, 22.5046981], [113.8896971, 22.504728], [113.8896332, 22.5046276], [113.8896556, 22.5046154], [113.8895846, 22.5045038], [113.8895622, 22.5045159], [113.8894345, 22.504315], [113.8894568, 22.5043029], [113.8893858, 22.5041913], [113.8893635, 22.5042034], [113.8892996, 22.5041029]]]]}}, {"type": "Feature", "id": "way/1434978794", "properties": {"tags": {"addr:housename": "恒立·心海湾花园", "addr:housename:en": "Hengli Xin Haiwan Garden", "addr:housename:zh": "恒立·心海湾花园", "building": "apartments", "building:levels": "32", "name": "4D栋", "name:en": "Block 4D", "name:zh": "4D栋"}, "heightStatus": "levels_only_unverified", "source": "OpenStreetMap", "license": "ODbL-1.0"}, "geometry": {"type": "MultiPolygon", "coordinates": [[[[113.8897917, 22.5048684], [113.8898257, 22.5048051], [113.889991, 22.5048808], [113.8901567, 22.5047888], [113.8902175, 22.5048813], [113.8899964, 22.5050036], [113.8898004, 22.5049138], [113.8898183, 22.5048806], [113.8897917, 22.5048684]]]]}}, {"type": "Feature", "id": "way/1434978795", "properties": {"tags": {"addr:housename": "恒立·心海湾花园", "addr:housename:en": "Hengli Xin Haiwan Garden", "addr:housename:zh": "恒立·心海湾花园", "building": "apartments", "building:levels": "32", "name": "4B栋", "name:en": "Block 4B", "name:zh": "4B栋"}, "heightStatus": "levels_only_unverified", "source": "OpenStreetMap", "license": "ODbL-1.0"}, "geometry": {"type": "MultiPolygon", "coordinates": [[[[113.8905174, 22.5045647], [113.8906173, 22.5045091], [113.8905565, 22.5044158], [113.890652, 22.5043627], [113.8907128, 22.504456], [113.8908127, 22.5044003], [113.8908781, 22.5045006], [113.8905827, 22.504665], [113.8905174, 22.5045647]]]]}}, {"type": "Feature", "id": "way/1434978796", "properties": {"tags": {"addr:housename": "恒立·心海湾花园", "addr:housename:en": "Hengli Xin Haiwan Garden", "addr:housename:zh": "恒立·心海湾花园", "building": "apartments", "building:levels": "32", "name": "3栋", "name:en": "Block 3", "name:zh": "3栋"}, "heightStatus": "levels_only_unverified", "source": "OpenStreetMap", "license": "ODbL-1.0"}, "geometry": {"type": "MultiPolygon", "coordinates": [[[[113.8911362, 22.503914], [113.891198, 22.5038796], [113.8912481, 22.5039565], [113.8912652, 22.503947], [113.8913131, 22.5040205], [113.8913361, 22.5040256], [113.8913581, 22.5040134], [113.891328, 22.5039672], [113.8913953, 22.5039298], [113.8914956, 22.5040837], [113.8914283, 22.5041212], [113.8913982, 22.504075], [113.8913864, 22.5040816], [113.8913613, 22.5041778], [113.8913465, 22.5041745], [113.8913306, 22.5042354], [113.8912568, 22.504219], [113.8912864, 22.5041054], [113.8912419, 22.5040371], [113.8912232, 22.5040475], [113.8911362, 22.503914]]]]}}, {"type": "Feature", "id": "way/1434978797", "properties": {"tags": {"addr:housename": "恒立·心海湾花园", "addr:housename:en": "Hengli Xin Haiwan Garden", "addr:housename:zh": "恒立·心海湾花园", "building": "apartments", "building:levels": "32", "name": "3栋", "name:en": "Block 3", "name:zh": "3栋"}, "heightStatus": "levels_only_unverified", "source": "OpenStreetMap", "license": "ODbL-1.0"}, "geometry": {"type": "MultiPolygon", "coordinates": [[[[113.8909171, 22.5034443], [113.8909695, 22.5034151], [113.8909589, 22.503399], [113.8910338, 22.5033573], [113.8910876, 22.5034397], [113.8911397, 22.5034107], [113.8911627, 22.503446], [113.8911106, 22.503475], [113.8911651, 22.5035587], [113.8912172, 22.5035296], [113.8912402, 22.5035649], [113.8911881, 22.5035939], [113.8912418, 22.5036764], [113.891167, 22.503718], [113.8911564, 22.5037019], [113.8911041, 22.503731], [113.8909171, 22.5034443]]]]}}, {"type": "Feature", "id": "way/1434978798", "properties": {"tags": {"addr:housename": "恒立·心海湾花园", "addr:housename:en": "Hengli Xin Haiwan Garden", "addr:housename:zh": "恒立·心海湾花园", "building": "apartments", "building:levels": "18", "name": "1栋", "name:en": "Block 1", "name:zh": "1栋"}, "heightStatus": "levels_only_unverified", "source": "OpenStreetMap", "license": "ODbL-1.0"}, "geometry": {"type": "MultiPolygon", "coordinates": [[[[113.8892754, 22.5035653], [113.8894342, 22.5034769], [113.8895013, 22.5035799], [113.8896346, 22.5035057], [113.8895674, 22.5034028], [113.8897262, 22.5033144], [113.8897934, 22.5034174], [113.88986, 22.5033803], [113.8899014, 22.5034438], [113.8898348, 22.5034809], [113.8898502, 22.5035045], [113.8896913, 22.5035928], [113.889676, 22.5035693], [113.8896094, 22.5036064], [113.8895427, 22.5036434], [113.8895581, 22.503667], [113.8893993, 22.5037554], [113.8893839, 22.5037318], [113.8893173, 22.5037689], [113.8892758, 22.5037053], [113.8893425, 22.5036683], [113.8892754, 22.5035653]]]]}}, {"type": "Feature", "id": "way/1434979591", "properties": {"tags": {"addr:housename": "观峰阁", "addr:housename:en": "Guanfeng Tower", "addr:housename:zh": "观峰阁", "building": "apartments", "building:levels": "8", "name": "E栋", "name:en": "Block E", "name:zh": "E栋"}, "heightStatus": "levels_only_unverified", "source": "OpenStreetMap", "license": "ODbL-1.0"}, "geometry": {"type": "MultiPolygon", "coordinates": [[[[113.888977, 22.5000784], [113.8890249, 22.5000359], [113.8890488, 22.5000148], [113.8891233, 22.5000866], [113.8891729, 22.5000426], [113.8892289, 22.5000966], [113.8891075, 22.5002042], [113.888977, 22.5000784]]]]}}, {"type": "Feature", "id": "way/1434979952", "properties": {"tags": {"addr:housename": "南山花园", "addr:housename:en": "Nanshan Garden", "addr:housename:zh": "南山花园", "building": "house", "building:levels": "3", "name": "16栋", "name:en": "Block 16", "name:zh": "16栋"}, "heightStatus": "levels_only_unverified", "source": "OpenStreetMap", "license": "ODbL-1.0"}, "geometry": {"type": "MultiPolygon", "coordinates": [[[[113.8916128, 22.5031443], [113.891764, 22.5030953], [113.8918121, 22.5032218], [113.8916608, 22.5032708], [113.8916128, 22.5031443]]]]}}, {"type": "Feature", "id": "way/1434979953", "properties": {"tags": {"addr:housename": "南山花园", "addr:housename:en": "Nanshan Garden", "addr:housename:zh": "南山花园", "building": "house", "building:levels": "3", "name": "15栋", "name:en": "Block 15", "name:zh": "15栋"}, "heightStatus": "levels_only_unverified", "source": "OpenStreetMap", "license": "ODbL-1.0"}, "geometry": {"type": "MultiPolygon", "coordinates": [[[[113.891542, 22.503003], [113.8915456, 22.5028689], [113.8917058, 22.5028725], [113.8917023, 22.5030066], [113.891542, 22.503003]]]]}}, {"type": "Feature", "id": "way/1434979954", "properties": {"tags": {"addr:housename": "南山花园", "addr:housename:en": "Nanshan Garden", "addr:housename:zh": "南山花园", "building": "house", "building:levels": "3", "name": "14栋", "name:en": "Block 14", "name:zh": "14栋"}, "heightStatus": "levels_only_unverified", "source": "OpenStreetMap", "license": "ODbL-1.0"}, "geometry": {"type": "MultiPolygon", "coordinates": [[[[113.8913658, 22.5027462], [113.8913687, 22.5026351], [113.8918019, 22.5026449], [113.891799, 22.502756], [113.8913658, 22.5027462]]]]}}, {"type": "Feature", "id": "way/1434979955", "properties": {"tags": {"addr:housename": "南山花园", "addr:housename:en": "Nanshan Garden", "addr:housename:zh": "南山花园", "building": "house", "building:levels": "3", "name": "13栋", "name:en": "Block 13", "name:zh": "13栋"}, "heightStatus": "levels_only_unverified", "source": "OpenStreetMap", "license": "ODbL-1.0"}, "geometry": {"type": "MultiPolygon", "coordinates": [[[[113.8912595, 22.5024819], [113.8912624, 22.5023708], [113.8916956, 22.5023806], [113.8916927, 22.5024917], [113.8912595, 22.5024819]]]]}}, {"type": "Feature", "id": "way/1434979956", "properties": {"tags": {"addr:housename": "南山花园", "addr:housename:en": "Nanshan Garden", "addr:housename:zh": "南山花园", "building": "house", "building:levels": "3", "name": "17栋", "name:en": "Block 17", "name:zh": "17栋"}, "heightStatus": "levels_only_unverified", "source": "OpenStreetMap", "license": "ODbL-1.0"}, "geometry": {"type": "MultiPolygon", "coordinates": [[[[113.8922743, 22.5010826], [113.8922778, 22.5009485], [113.892438, 22.5009522], [113.8924345, 22.5010862], [113.8922743, 22.5010826]]]]}}, {"type": "Feature", "id": "way/1434979957", "properties": {"tags": {"addr:housename": "南山花园", "addr:housename:en": "Nanshan Garden", "addr:housename:zh": "南山花园", "building": "house", "building:levels": "3", "name": "18栋", "name:en": "Block 18", "name:zh": "18栋"}, "heightStatus": "levels_only_unverified", "source": "OpenStreetMap", "license": "ODbL-1.0"}, "geometry": {"type": "MultiPolygon", "coordinates": [[[[113.8922833, 22.5013451], [113.8922868, 22.5012111], [113.892447, 22.5012147], [113.8924435, 22.5013487], [113.8922833, 22.5013451]]]]}}, {"type": "Feature", "id": "way/1434979958", "properties": {"tags": {"addr:housename": "南山花园", "addr:housename:en": "Nanshan Garden", "addr:housename:zh": "南山花园", "building": "house", "building:levels": "3", "name": "19栋", "name:en": "Block 19", "name:zh": "19栋"}, "heightStatus": "levels_only_unverified", "source": "OpenStreetMap", "license": "ODbL-1.0"}, "geometry": {"type": "MultiPolygon", "coordinates": [[[[113.8920059, 22.5013764], [113.8920094, 22.5012423], [113.8921696, 22.501246], [113.8921661, 22.50138], [113.8920059, 22.5013764]]]]}}, {"type": "Feature", "id": "way/1434979959", "properties": {"tags": {"addr:housename": "南山花园", "addr:housename:en": "Nanshan Garden", "addr:housename:zh": "南山花园", "building": "house", "building:levels": "3", "name": "20栋", "name:en": "Block 20", "name:zh": "20栋"}, "heightStatus": "levels_only_unverified", "source": "OpenStreetMap", "license": "ODbL-1.0"}, "geometry": {"type": "MultiPolygon", "coordinates": [[[[113.8918151, 22.5014665], [113.8918187, 22.5013325], [113.8919789, 22.5013361], [113.8919753, 22.5014701], [113.8918151, 22.5014665]]]]}}, {"type": "Feature", "id": "way/1434979960", "properties": {"tags": {"addr:housename": "南山花园", "addr:housename:en": "Nanshan Garden", "addr:housename:zh": "南山花园", "building": "house", "building:levels": "3", "name": "21栋", "name:en": "Block 21", "name:zh": "21栋"}, "heightStatus": "levels_only_unverified", "source": "OpenStreetMap", "license": "ODbL-1.0"}, "geometry": {"type": "MultiPolygon", "coordinates": [[[[113.8916327, 22.5015571], [113.8916363, 22.5014231], [113.8917965, 22.5014267], [113.891793, 22.5015608], [113.8916327, 22.5015571]]]]}}, {"type": "Feature", "id": "way/1434979961", "properties": {"tags": {"addr:housename": "南山花园", "addr:housename:en": "Nanshan Garden", "addr:housename:zh": "南山花园", "building": "house", "building:levels": "3", "name": "23栋", "name:en": "Block 23", "name:zh": "23栋"}, "heightStatus": "levels_only_unverified", "source": "OpenStreetMap", "license": "ODbL-1.0"}, "geometry": {"type": "MultiPolygon", "coordinates": [[[[113.8912638, 22.5017494], [113.8912674, 22.5016153], [113.8914276, 22.501619], [113.891424, 22.501753], [113.8912638, 22.5017494]]]]}}, {"type": "Feature", "id": "way/1434979962", "properties": {"tags": {"addr:housename": "南山花园", "addr:housename:en": "Nanshan Garden", "addr:housename:zh": "南山花园", "building": "house", "building:levels": "3", "name": "22栋", "name:en": "Block 22", "name:zh": "22栋"}, "heightStatus": "levels_only_unverified", "source": "OpenStreetMap", "license": "ODbL-1.0"}, "geometry": {"type": "MultiPolygon", "coordinates": [[[[113.8914462, 22.5016587], [113.8914497, 22.5015247], [113.89161, 22.5015283], [113.8916064, 22.5016623], [113.8914462, 22.5016587]]]]}}, {"type": "Feature", "id": "way/1434979963", "properties": {"tags": {"addr:housename": "南山花园", "addr:housename:en": "Nanshan Garden", "addr:housename:zh": "南山花园", "building": "house", "building:levels": "3", "name": "12栋", "name:en": "Block 12", "name:zh": "12栋"}, "heightStatus": "levels_only_unverified", "source": "OpenStreetMap", "license": "ODbL-1.0"}, "geometry": {"type": "MultiPolygon", "coordinates": [[[[113.8906874, 22.5017477], [113.8906903, 22.5016366], [113.8911235, 22.5016464], [113.8911205, 22.5017575], [113.8906874, 22.5017477]]]]}}, {"type": "Feature", "id": "way/1434979964", "properties": {"tags": {"addr:housename": "南山花园", "addr:housename:en": "Nanshan Garden", "addr:housename:zh": "南山花园", "building": "house", "building:levels": "3", "name": "11栋", "name:en": "Block 11", "name:zh": "11栋"}, "heightStatus": "levels_only_unverified", "source": "OpenStreetMap", "license": "ODbL-1.0"}, "geometry": {"type": "MultiPolygon", "coordinates": [[[[113.8903806, 22.5014016], [113.8903835, 22.5012905], [113.8905371, 22.501294], [113.8905361, 22.5013328], [113.8911132, 22.5013458], [113.8911103, 22.5014569], [113.8905326, 22.5014439], [113.8905337, 22.5014051], [113.8903806, 22.5014016]]]]}}, {"type": "Feature", "id": "way/1434979965", "properties": {"tags": {"addr:housename": "南山花园", "addr:housename:en": "Nanshan Garden", "addr:housename:zh": "南山花园", "building": "house", "building:levels": "3", "name": "10栋", "name:en": "Block 10", "name:zh": "10栋"}, "heightStatus": "levels_only_unverified", "source": "OpenStreetMap", "license": "ODbL-1.0"}, "geometry": {"type": "MultiPolygon", "coordinates": [[[[113.890239, 22.5011564], [113.8902419, 22.5010453], [113.8909596, 22.5010615], [113.8909567, 22.5011727], [113.890239, 22.5011564]]]]}}, {"type": "Feature", "id": "way/1434979966", "properties": {"tags": {"addr:housename": "南山花园", "addr:housename:en": "Nanshan Garden", "addr:housename:zh": "南山花园", "building": "house", "building:levels": "3", "name": "9栋", "name:en": "Block 9", "name:zh": "9栋"}, "heightStatus": "levels_only_unverified", "source": "OpenStreetMap", "license": "ODbL-1.0"}, "geometry": {"type": "MultiPolygon", "coordinates": [[[[113.8902447, 22.5008482], [113.8902476, 22.5007371], [113.8908306, 22.5007503], [113.8908276, 22.5008614], [113.8902447, 22.5008482]]]]}}, {"type": "Feature", "id": "way/1434979967", "properties": {"tags": {"addr:housename": "南山花园", "addr:housename:en": "Nanshan Garden", "addr:housename:zh": "南山花园", "building": "house", "building:levels": "3", "name": "6栋", "name:en": "Block 6", "name:zh": "6栋"}, "heightStatus": "levels_only_unverified", "source": "OpenStreetMap", "license": "ODbL-1.0"}, "geometry": {"type": "MultiPolygon", "coordinates": [[[[113.8898574, 22.50025], [113.8898604, 22.5001389], [113.8901573, 22.5001456], [113.8901544, 22.5002567], [113.8898574, 22.50025]]]]}}, {"type": "Feature", "id": "way/1434979968", "properties": {"tags": {"addr:housename": "南山花园", "addr:housename:en": "Nanshan Garden", "addr:housename:zh": "南山花园", "building": "house", "building:levels": "3", "name": "8栋", "name:en": "Block 8", "name:zh": "8栋"}, "heightStatus": "levels_only_unverified", "source": "OpenStreetMap", "license": "ODbL-1.0"}, "geometry": {"type": "MultiPolygon", "coordinates": [[[[113.88955, 22.500536], [113.8895529, 22.5004249], [113.8901359, 22.500438], [113.8901329, 22.5005491], [113.88955, 22.500536]]]]}}, {"type": "Feature", "id": "way/1434979969", "properties": {"tags": {"addr:housename": "南山花园", "addr:housename:en": "Nanshan Garden", "addr:housename:zh": "南山花园", "building": "house", "building:levels": "3", "name": "7栋", "name:en": "Block 7", "name:zh": "7栋"}, "heightStatus": "levels_only_unverified", "source": "OpenStreetMap", "license": "ODbL-1.0"}, "geometry": {"type": "MultiPolygon", "coordinates": [[[[113.8902524, 22.5005543], [113.8902553, 22.5004432], [113.890973, 22.5004594], [113.8909701, 22.5005705], [113.8902524, 22.5005543]]]]}}, {"type": "Feature", "id": "way/1434979974", "properties": {"tags": {"addr:housename": "南山花园", "addr:housename:en": "Nanshan Garden", "addr:housename:zh": "南山花园", "building": "house", "building:levels": "3", "name": "5栋", "name:en": "Block 5", "name:zh": "5栋"}, "heightStatus": "levels_only_unverified", "source": "OpenStreetMap", "license": "ODbL-1.0"}, "geometry": {"type": "MultiPolygon", "coordinates": [[[[113.8902595, 22.5002597], [113.8902625, 22.5001486], [113.8909802, 22.5001648], [113.8909772, 22.5002759], [113.8902595, 22.5002597]]]]}}]}