{"type": "FeatureCollection", "features": [{"type": "Feature", "id": "way/638899225", "properties": {"tags": {"brand": "BMW", "brand:wikidata": "Q26678", "building": "yes", "name": "深圳宝创", "second_hand": "yes", "shop": "car"}, "heightStatus": "unknown", "source": "OpenStreetMap", "license": "ODbL-1.0"}, "geometry": {"type": "MultiPolygon", "coordinates": [[[[113.8833215, 22.5114419], [113.8835763, 22.5111472], [113.8836299, 22.5111868], [113.8836648, 22.5111464], [113.8837133, 22.5111822], [113.8837358, 22.5111562], [113.8836993, 22.5110656], [113.8837609, 22.5110729], [113.8838301, 22.5110883], [113.8838901, 22.5111133], [113.8839422, 22.5111474], [113.8842765, 22.511394], [113.8838792, 22.5118535], [113.8833215, 22.5114419]]]]}}, {"type": "Feature", "id": "way/638899227", "properties": {"tags": {"building": "yes", "shop": "car"}, "heightStatus": "unknown", "source": "OpenStreetMap", "license": "ODbL-1.0"}, "geometry": {"type": "MultiPolygon", "coordinates": [[[[113.8841323, 22.5107246], [113.8845888, 22.5101979], [113.8850688, 22.510553], [113.8846123, 22.5110796], [113.8841323, 22.5107246]]]]}}, {"type": "Feature", "id": "way/775770556", "properties": {"tags": {"building": "apartments", "building:levels": "44", "name": "1栋"}, "heightStatus": "levels_only_unverified", "source": "OpenStreetMap", "license": "ODbL-1.0"}, "geometry": {"type": "MultiPolygon", "coordinates": [[[[113.8843447, 22.509062], [113.8844972, 22.5089135], [113.8846653, 22.5090608], [113.8846391, 22.5090863], [113.8847424, 22.5091768], [113.8846584, 22.5092586], [113.8845512, 22.5091646], [113.8845293, 22.509186], [113.8844402, 22.5091078], [113.8844197, 22.5091278], [113.8843447, 22.509062]]]]}}, {"type": "Feature", "id": "way/1256882239", "properties": {"tags": {"brand": "奥迪", "building": "industrial", "name": "奥迪4S店", "shop": "car"}, "heightStatus": "unknown", "source": "OpenStreetMap", "license": "ODbL-1.0"}, "geometry": {"type": "MultiPolygon", "coordinates": [[[[113.8817369, 22.5105259], [113.8820969, 22.510014], [113.8824421, 22.5099069], [113.8835371, 22.5107238], [113.8829213, 22.5113187], [113.8817369, 22.5105259]]]]}}, {"type": "Feature", "id": "way/1338772124", "properties": {"tags": {"building": "train_station", "building:levels": "0", "building:levels:underground": "2", "layer": "-1", "location": "underground", "name": "妈湾站", "name:en": "Mawan Station", "name:zh": "妈湾站", "public_transport": "station", "start_date": "2019-09-28", "wikidata": "Q69780448", "wikipedia": "zh:妈湾站 (地铁)"}, "heightStatus": "levels_only_unverified", "source": "OpenStreetMap", "license": "ODbL-1.0"}, "geometry": {"type": "MultiPolygon", "coordinates": [[[[113.880076, 22.51174], [113.8802386, 22.5115306], [113.880317, 22.5115831], [113.8804685, 22.5113962], [113.8805774, 22.5114772], [113.8810489, 22.5108971], [113.8809085, 22.5109583], [113.8806401, 22.5107372], [113.8806976, 22.5106848], [113.8809168, 22.5108779], [113.8810701, 22.5108134], [113.8811023, 22.5108384], [113.8816487, 22.5101262], [113.8814807, 22.5100264], [113.8811702, 22.5102359], [113.8811225, 22.5101888], [113.881414, 22.5099794], [113.8811261, 22.5097919], [113.880839, 22.509992], [113.8807902, 22.5099404], [113.8811246, 22.5097032], [113.8816886, 22.5100751], [113.8825068, 22.5090172], [113.8823573, 22.5089263], [113.8820804, 22.5091191], [113.8820315, 22.5090652], [113.8823507, 22.5088363], [113.8825434, 22.5089654], [113.8828687, 22.5085529], [113.8827849, 22.5084916], [113.8830271, 22.5081623], [113.8830817, 22.5081979], [113.8828824, 22.5084679], [113.8829142, 22.5084922], [113.8830549, 22.5083203], [113.883235, 22.5084399], [113.8833581, 22.5085159], [113.8831303, 22.5088119], [113.8829953, 22.5087313], [113.8828176, 22.5089495], [113.8829216, 22.5090789], [113.8826142, 22.5092974], [113.8825715, 22.5092683], [113.8821469, 22.5098207], [113.8824083, 22.5100345], [113.8823709, 22.5100719], [113.8821133, 22.509867], [113.8818731, 22.5101734], [113.8819886, 22.5102575], [113.881851, 22.5104438], [113.8815678, 22.5105663], [113.8815434, 22.5106016], [113.8819753, 22.5109584], [113.8819253, 22.5110047], [113.8816597, 22.5107888], [113.8813206, 22.5110156], [113.8813481, 22.511232], [113.8815851, 22.5114205], [113.8815318, 22.5114806], [113.8812767, 22.5112627], [113.8812263, 22.5110195], [113.8807667, 22.5115995], [113.8807829, 22.5116102], [113.8807391, 22.5116646], [113.880723, 22.5116558], [113.8805665, 22.5118593], [113.8805801, 22.5118689], [113.8804994, 22.5119736], [113.8802917, 22.5118392], [113.8802328, 22.5118434], [113.880076, 22.51174]]]]}}, {"type": "Feature", "id": "way/1434827843", "properties": {"tags": {"addr:housename": "锦尚公馆", "addr:housename:en": "Jinshang Mansion", "addr:housename:zh": "锦尚公馆", "building": "apartments", "name": "2栋", "name:en": "Block 2", "name:zh": "2栋"}, "heightStatus": "unknown", "source": "OpenStreetMap", "license": "ODbL-1.0"}, "geometry": {"type": "MultiPolygon", "coordinates": [[[[113.8822152, 22.513642], [113.8822796, 22.5135631], [113.882414, 22.5136567], [113.8824289, 22.5136383], [113.8825208, 22.5137039], [113.8827113, 22.5135278], [113.8826451, 22.5134667], [113.8826627, 22.5134504], [113.8825293, 22.5133273], [113.882605, 22.5132573], [113.8827376, 22.5133797], [113.8827559, 22.5133629], [113.8828881, 22.5134849], [113.8824823, 22.513858], [113.8823331, 22.5137541], [113.8823486, 22.513735], [113.8822152, 22.513642]]]]}}, {"type": "Feature", "id": "way/1434827844", "properties": {"tags": {"addr:housename": "锦尚公馆", "addr:housename:en": "Jinshang Mansion", "addr:housename:zh": "锦尚公馆", "building": "apartments", "name": "1栋", "name:en": "Block 1", "name:zh": "1栋"}, "heightStatus": "unknown", "source": "OpenStreetMap", "license": "ODbL-1.0"}, "geometry": {"type": "MultiPolygon", "coordinates": [[[[113.8829878, 22.5130871], [113.8830516, 22.5129988], [113.8831415, 22.5130542], [113.8832294, 22.512973], [113.8832821, 22.5130216], [113.8834726, 22.5128455], [113.8834064, 22.5127844], [113.883424, 22.5127681], [113.8833123, 22.512665], [113.883388, 22.5125951], [113.883499, 22.5126974], [113.8835172, 22.5126806], [113.8836494, 22.5128026], [113.883176, 22.5132404], [113.8830544, 22.5131282], [113.8829878, 22.5130871]]]]}}, {"type": "Feature", "id": "way/1434827847", "properties": {"tags": {"addr:housename": "前海湾花园三期", "addr:housename:en": "Qianhaiwan Garden Phase III", "addr:housename:zh": "前海湾花园三期", "building": "apartments", "name": "12栋", "name:en": "Block 12", "name:zh": "12栋"}, "heightStatus": "unknown", "source": "OpenStreetMap", "license": "ODbL-1.0"}, "geometry": {"type": "MultiPolygon", "coordinates": [[[[113.882496, 22.512293], [113.882589, 22.5121778], [113.8827137, 22.5122638], [113.882926, 22.5122731], [113.8832287, 22.5124817], [113.8830131, 22.5127487], [113.8828884, 22.5126627], [113.883011, 22.512511], [113.8828711, 22.5124146], [113.8826588, 22.5124052], [113.882496, 22.512293]]]]}}, {"type": "Feature", "id": "way/1434827848", "properties": {"tags": {"addr:housename": "前海湾花园三期", "addr:housename:en": "Qianhaiwan Garden Phase III", "addr:housename:zh": "前海湾花园三期", "building": "apartments", "name": "11栋", "name:en": "Block 11", "name:zh": "11栋"}, "heightStatus": "unknown", "source": "OpenStreetMap", "license": "ODbL-1.0"}, "geometry": {"type": "MultiPolygon", "coordinates": [[[[113.8822427, 22.5126066], [113.8824209, 22.512386], [113.8825456, 22.5124719], [113.8824413, 22.512601], [113.8826449, 22.5127414], [113.8828136, 22.5127391], [113.8828159, 22.5128828], [113.8825943, 22.5128858], [113.8822973, 22.5126811], [113.8823165, 22.5126575], [113.8822427, 22.5126066]]]]}}, {"type": "Feature", "id": "way/1434827849", "properties": {"tags": {"addr:housename": "前海湾花园三期", "addr:housename:en": "Qianhaiwan Garden Phase III", "addr:housename:zh": "前海湾花园三期", "building": "apartments", "building:levels": "12", "name": "10栋", "name:en": "Block 10", "name:zh": "10栋"}, "heightStatus": "levels_only_unverified", "source": "OpenStreetMap", "license": "ODbL-1.0"}, "geometry": {"type": "MultiPolygon", "coordinates": [[[[113.8817959, 22.5131464], [113.8819659, 22.5129359], [113.8821922, 22.5129379], [113.8824188, 22.513094], [113.882349, 22.5131805], [113.882153, 22.5130454], [113.882024, 22.5130442], [113.8818894, 22.5132109], [113.8817959, 22.5131464]]]]}}, {"type": "Feature", "id": "way/1434827850", "properties": {"tags": {"addr:housename": "前海湾花园三期", "addr:housename:en": "Qianhaiwan Garden Phase III", "addr:housename:zh": "前海湾花园三期", "building": "apartments", "building:levels": "12", "name": "9栋", "name:en": "Block 9", "name:zh": "9栋"}, "heightStatus": "levels_only_unverified", "source": "OpenStreetMap", "license": "ODbL-1.0"}, "geometry": {"type": "MultiPolygon", "coordinates": [[[[113.8814052, 22.5136741], [113.8816519, 22.5133686], [113.8816827, 22.5133899], [113.8817376, 22.5133898], [113.8817376, 22.5133449], [113.882118, 22.5133448], [113.8822042, 22.5132381], [113.8822821, 22.5132918], [113.8821668, 22.5134346], [113.8820496, 22.5134346], [113.8820496, 22.5134706], [113.8819709, 22.5134706], [113.8819709, 22.5134347], [113.8817198, 22.5134348], [113.8816658, 22.5135017], [113.8816969, 22.5135232], [113.8816348, 22.5136001], [113.8816036, 22.5135786], [113.8815413, 22.5136558], [113.8818471, 22.5138665], [113.881789, 22.5139385], [113.8814052, 22.5136741]]]]}}, {"type": "Feature", "id": "way/1434827851", "properties": {"tags": {"addr:housename": "前海湾花园二期", "addr:housename:en": "Qianhaiwan Garden Phase II", "addr:housename:zh": "前海湾花园二期", "building": "apartments", "building:levels": "12", "name": "7栋", "name:en": "Block 7", "name:zh": "7栋"}, "heightStatus": "levels_only_unverified", "source": "OpenStreetMap", "license": "ODbL-1.0"}, "geometry": {"type": "MultiPolygon", "coordinates": [[[[113.8811106, 22.511354], [113.8811778, 22.5112446], [113.881366, 22.5113434], [113.8816387, 22.5113419], [113.8818492, 22.5114936], [113.8817655, 22.5115928], [113.8815922, 22.5114679], [113.8813304, 22.5114693], [113.8811106, 22.511354]]]]}}, {"type": "Feature", "id": "way/1434827852", "properties": {"tags": {"addr:housename": "前海湾花园二期", "addr:housename:en": "Qianhaiwan Garden Phase II", "addr:housename:zh": "前海湾花园二期", "building": "apartments", "building:levels": "12", "name": "8栋", "name:en": "Block 8", "name:zh": "8栋"}, "heightStatus": "levels_only_unverified", "source": "OpenStreetMap", "license": "ODbL-1.0"}, "geometry": {"type": "MultiPolygon", "coordinates": [[[[113.8819234, 22.5116989], [113.8820071, 22.5115997], [113.8823674, 22.511859], [113.8821911, 22.5120833], [113.8820809, 22.5120094], [113.8821799, 22.5118835], [113.8819234, 22.5116989]]]]}}, {"type": "Feature", "id": "way/1434827853", "properties": {"tags": {"addr:housename": "前海湾花园二期", "addr:housename:en": "Qianhaiwan Garden Phase II", "addr:housename:zh": "前海湾花园二期", "building": "apartments", "building:levels": "12", "name": "6栋", "name:en": "Block 6", "name:zh": "6栋"}, "heightStatus": "levels_only_unverified", "source": "OpenStreetMap", "license": "ODbL-1.0"}, "geometry": {"type": "MultiPolygon", "coordinates": [[[[113.8814931, 22.5120903], [113.8815871, 22.5119758], [113.88171, 22.5120619], [113.8819771, 22.5120601], [113.8821349, 22.51217], [113.8820412, 22.5122848], [113.8819255, 22.5122042], [113.8816581, 22.5122059], [113.8814931, 22.5120903]]]]}}, {"type": "Feature", "id": "way/1434827854", "properties": {"tags": {"addr:housename": "前海湾花园二期", "addr:housename:en": "Qianhaiwan Garden Phase II", "addr:housename:zh": "前海湾花园二期", "building": "apartments", "building:levels": "12", "name": "5栋", "name:en": "Block 5", "name:zh": "5栋"}, "heightStatus": "levels_only_unverified", "source": "OpenStreetMap", "license": "ODbL-1.0"}, "geometry": {"type": "MultiPolygon", "coordinates": [[[[113.8809602, 22.5116085], [113.881036, 22.5114841], [113.8811716, 22.5115546], [113.8811113, 22.5116534], [113.8812954, 22.5117807], [113.8814058, 22.5117819], [113.881404, 22.5119256], [113.8812428, 22.5119239], [113.8809615, 22.5117294], [113.8809602, 22.5116085]]]]}}, {"type": "Feature", "id": "way/1434827855", "properties": {"tags": {"addr:housename": "前海湾花园一期", "addr:housename:en": "Qianhaiwan Garden Phase I", "addr:housename:zh": "前海湾花园一期", "building": "apartments", "building:levels": "12", "name": "3栋", "name:en": "Block 3", "name:zh": "3栋"}, "heightStatus": "levels_only_unverified", "source": "OpenStreetMap", "license": "ODbL-1.0"}, "geometry": {"type": "MultiPolygon", "coordinates": [[[[113.8810605, 22.5127641], [113.8814313, 22.5127629], [113.8815017, 22.512676], [113.881273, 22.5125228], [113.8813643, 22.5124065], [113.8816292, 22.5125839], [113.8815748, 22.5126533], [113.8816643, 22.5127151], [113.8815094, 22.5129064], [113.881061, 22.5129078], [113.8810605, 22.5127641]]]]}}, {"type": "Feature", "id": "way/1434827856", "properties": {"tags": {"addr:housename": "前海湾花园一期", "addr:housename:en": "Qianhaiwan Garden Phase I", "addr:housename:zh": "前海湾花园一期", "building": "apartments", "name": "4栋", "name:en": "Block 4", "name:zh": "4栋"}, "heightStatus": "unknown", "source": "OpenStreetMap", "license": "ODbL-1.0"}, "geometry": {"type": "MultiPolygon", "coordinates": [[[[113.880488, 22.5122975], [113.8806397, 22.5120439], [113.8807143, 22.5120819], [113.8807713, 22.5120093], [113.8812257, 22.5123137], [113.8811344, 22.51243], [113.8807432, 22.512168], [113.8806242, 22.512367], [113.880488, 22.5122975]]]]}}, {"type": "Feature", "id": "way/1434827857", "properties": {"tags": {"addr:housename": "前海湾花园一期", "addr:housename:en": "Qianhaiwan Garden Phase I", "addr:housename:zh": "前海湾花园一期", "building": "apartments", "building:levels": "12", "name": "2栋", "name:en": "Block 2", "name:zh": "2栋"}, "heightStatus": "levels_only_unverified", "source": "OpenStreetMap", "license": "ODbL-1.0"}, "geometry": {"type": "MultiPolygon", "coordinates": [[[[113.8806325, 22.5132296], [113.8807161, 22.5131084], [113.881011, 22.5132817], [113.8811808, 22.5130721], [113.8813054, 22.5131582], [113.8810968, 22.5134157], [113.881043, 22.5133786], [113.8809978, 22.5134443], [113.8806325, 22.5132296]]]]}}, {"type": "Feature", "id": "way/1434827858", "properties": {"tags": {"addr:housename": "前海湾花园一期", "addr:housename:en": "Qianhaiwan Garden Phase I", "addr:housename:zh": "前海湾花园一期", "building": "apartments", "building:levels": "12", "name": "1栋", "name:en": "Block 1", "name:zh": "1栋"}, "heightStatus": "levels_only_unverified", "source": "OpenStreetMap", "license": "ODbL-1.0"}, "geometry": {"type": "MultiPolygon", "coordinates": [[[[113.8801719, 22.5128281], [113.8803783, 22.5125284], [113.8807573, 22.5125344], [113.8807546, 22.5126781], [113.8804628, 22.5126735], [113.8803226, 22.512877], [113.8805662, 22.5130203], [113.8804827, 22.5131415], [113.8802085, 22.5129804], [113.8801719, 22.5128281]]]]}}, {"type": "Feature", "id": "way/1434832653", "properties": {"tags": {"building": "hospital"}, "heightStatus": "unknown", "source": "OpenStreetMap", "license": "ODbL-1.0"}, "geometry": {"type": "MultiPolygon", "coordinates": [[[[113.8875824, 22.5175764], [113.887821, 22.5173689], [113.8882775, 22.5178165], [113.888039, 22.5180241], [113.8875824, 22.5175764]]]]}}, {"type": "Feature", "id": "way/1434832654", "properties": {"tags": {"building": "hospital"}, "heightStatus": "unknown", "source": "OpenStreetMap", "license": "ODbL-1.0"}, "geometry": {"type": "MultiPolygon", "coordinates": [[[[113.8863684, 22.5175944], [113.8866837, 22.51732], [113.887328, 22.5179518], [113.8870127, 22.5182262], [113.8863684, 22.5175944]]]]}}, {"type": "Feature", "id": "way/1434832665", "properties": {"tags": {"addr:housename": "前海润峯府", "addr:housename:en": "Royal Peak", "addr:housename:zh": "前海润峯府", "building": "apartments", "building:levels": "23", "name": "E栋", "name:en": "Block E", "name:zh": "E栋"}, "heightStatus": "levels_only_unverified", "source": "OpenStreetMap", "license": "ODbL-1.0"}, "geometry": {"type": "MultiPolygon", "coordinates": [[[[113.8823158, 22.5179187], [113.8823933, 22.517846], [113.8823401, 22.5177977], [113.8824845, 22.5176623], [113.8825376, 22.5177106], [113.8824668, 22.517777], [113.8824801, 22.517789], [113.8825445, 22.5177843], [113.882543, 22.5177664], [113.8825631, 22.5177649], [113.8825616, 22.517747], [113.8826488, 22.5177405], [113.8826662, 22.5179412], [113.882579, 22.5179477], [113.8825753, 22.5179049], [113.8825551, 22.5179064], [113.8825536, 22.5178885], [113.8825145, 22.5178914], [113.8824019, 22.517997], [113.8823158, 22.5179187]]]]}}, {"type": "Feature", "id": "way/1434832668", "properties": {"tags": {"addr:housename": "前海天境", "addr:housename:en": "Qianhai Tianjing", "addr:housename:zh": "前海天境", "building": "apartments", "name": "1栋4单元", "name:en": "Block 1 Unit 4", "name:zh": "1栋4单元"}, "heightStatus": "unknown", "source": "OpenStreetMap", "license": "ODbL-1.0"}, "geometry": {"type": "MultiPolygon", "coordinates": [[[[113.8838176, 22.5177864], [113.8839945, 22.5176216], [113.8841523, 22.5177662], [113.8840483, 22.5178631], [113.8841235, 22.517932], [113.8842275, 22.5178351], [113.8843884, 22.5179826], [113.8842115, 22.5181474], [113.8838176, 22.5177864]]]]}}, {"type": "Feature", "id": "way/1434832669", "properties": {"tags": {"addr:housename": "前海天境", "addr:housename:en": "Qianhai Tianjing", "addr:housename:zh": "前海天境", "building": "apartments", "building:levels": "39", "height": "135", "name": "2栋", "name:en": "Block 2", "name:zh": "2栋"}, "heightStatus": "height_tag_unverified", "source": "OpenStreetMap", "license": "ODbL-1.0"}, "geometry": {"type": "MultiPolygon", "coordinates": [[[[113.8842728, 22.5176613], [113.8843589, 22.5174716], [113.8844312, 22.5174997], [113.8844233, 22.5175172], [113.8844496, 22.5175273], [113.8844265, 22.5175781], [113.884486, 22.5176012], [113.8846437, 22.5174651], [113.8845993, 22.5174212], [113.8845568, 22.5174578], [113.8845366, 22.5174378], [113.8845225, 22.51745], [113.8844706, 22.5173986], [113.8846333, 22.5172582], [113.8846858, 22.5173101], [113.8846714, 22.5173225], [113.8846914, 22.5173423], [113.8846486, 22.5173793], [113.8846927, 22.5174228], [113.8847898, 22.517339], [113.88486, 22.5174084], [113.8845617, 22.5176671], [113.884502, 22.5177987], [113.8844162, 22.5177654], [113.8844642, 22.5176596], [113.8843987, 22.5176343], [113.8843766, 22.5176831], [113.8843485, 22.5176722], [113.8843414, 22.5176878], [113.8842728, 22.5176613]]]]}}, {"type": "Feature", "id": "way/1434832670", "properties": {"tags": {"addr:housename": "前海天境", "addr:housename:en": "Qianhai Tianjing", "addr:housename:zh": "前海天境", "building": "apartments", "building:levels": "39", "height": "135", "name": "3栋", "name:en": "Block 3", "name:zh": "3栋"}, "heightStatus": "height_tag_unverified", "source": "OpenStreetMap", "license": "ODbL-1.0"}, "geometry": {"type": "MultiPolygon", "coordinates": [[[[113.8845119, 22.5170928], [113.8845135, 22.5169985], [113.8846497, 22.5170005], [113.8846509, 22.5169273], [113.8845928, 22.5169265], [113.8845932, 22.5168991], [113.884574, 22.5168988], [113.8845752, 22.5168286], [113.8847977, 22.5168317], [113.8847966, 22.5169027], [113.8847769, 22.5169024], [113.8847765, 22.5169295], [113.8847179, 22.5169287], [113.8847167, 22.5170007], [113.8848648, 22.5170028], [113.8848632, 22.5170978], [113.8845119, 22.5170928]]]]}}, {"type": "Feature", "id": "way/1434832671", "properties": {"tags": {"addr:housename": "前海天境", "addr:housename:en": "Qianhai Tianjing", "addr:housename:zh": "前海天境", "building": "apartments", "building:levels": "38", "height": "135", "name": "1栋3单元", "name:en": "Block 1 Unit 3", "name:zh": "1栋3单元"}, "heightStatus": "height_tag_unverified", "source": "OpenStreetMap", "license": "ODbL-1.0"}, "geometry": {"type": "MultiPolygon", "coordinates": [[[[113.8834846, 22.5174821], [113.8835565, 22.5174151], [113.8836532, 22.5175038], [113.883709, 22.5174518], [113.8836677, 22.517414], [113.8836886, 22.5173945], [113.8836749, 22.517382], [113.8837285, 22.5173322], [113.8838865, 22.517477], [113.8838324, 22.5175274], [113.8838185, 22.5175146], [113.8837978, 22.5175338], [113.8837562, 22.5174957], [113.8837013, 22.5175469], [113.8838064, 22.5176432], [113.883734, 22.5177107], [113.8834846, 22.5174821]]]]}}, {"type": "Feature", "id": "way/1434832672", "properties": {"tags": {"addr:housename": "前海天境", "addr:housename:en": "Qianhai Tianjing", "addr:housename:zh": "前海天境", "building": "apartments", "building:levels": "39", "height": "135", "name": "5栋", "name:en": "Block 5", "name:zh": "5栋"}, "heightStatus": "height_tag_unverified", "source": "OpenStreetMap", "license": "ODbL-1.0"}, "geometry": {"type": "MultiPolygon", "coordinates": [[[[113.8839379, 22.5170243], [113.8840781, 22.5169779], [113.8840786, 22.5169269], [113.8840397, 22.5169266], [113.88404, 22.5168985], [113.8840205, 22.5168984], [113.8840212, 22.516828], [113.8842412, 22.5168297], [113.8842405, 22.5169001], [113.8842211, 22.5169], [113.8842208, 22.516928], [113.8841819, 22.5169277], [113.8841814, 22.5169869], [113.8842049, 22.5170006], [113.8842256, 22.5169702], [113.8842513, 22.5169851], [113.8842617, 22.5169698], [113.8843262, 22.5170073], [113.8842093, 22.5171794], [113.8841447, 22.517142], [113.8841551, 22.5171268], [113.8841293, 22.5171119], [113.88415, 22.5170814], [113.8841268, 22.517068], [113.8839745, 22.5171184], [113.8839379, 22.5170243]]]]}}, {"type": "Feature", "id": "way/1434832673", "properties": {"tags": {"addr:housename": "前海天境", "addr:housename:en": "Qianhai Tianjing", "addr:housename:zh": "前海天境", "building": "apartments", "building:levels": "22", "height": "78", "name": "1栋1单元", "name:en": "Block 1 Unit 1", "name:zh": "1栋1单元"}, "heightStatus": "height_tag_unverified", "source": "OpenStreetMap", "license": "ODbL-1.0"}, "geometry": {"type": "MultiPolygon", "coordinates": [[[[113.8834822, 22.5167279], [113.8836399, 22.5165791], [113.8837219, 22.5166533], [113.8836675, 22.5167047], [113.8836939, 22.5167285], [113.8838301, 22.5166788], [113.8838683, 22.5167679], [113.8837401, 22.5168148], [113.8837071, 22.5169282], [113.8835853, 22.516898], [113.883621, 22.5167754], [113.8836065, 22.5167623], [113.8835642, 22.5168021], [113.8834822, 22.5167279]]]]}}, {"type": "Feature", "id": "way/1434832674", "properties": {"tags": {"addr:housename": "前海天境", "addr:housename:en": "Qianhai Tianjing", "addr:housename:zh": "前海天境", "building": "apartments", "building:levels": "22", "height": "78", "name": "1栋2单元", "name:en": "Block 1 Unit 2", "name:zh": "1栋2单元"}, "heightStatus": "height_tag_unverified", "source": "OpenStreetMap", "license": "ODbL-1.0"}, "geometry": {"type": "MultiPolygon", "coordinates": [[[[113.8832019, 22.5171176], [113.8833595, 22.5169688], [113.8834416, 22.517043], [113.8833872, 22.5170944], [113.8834234, 22.5171271], [113.8834532, 22.5171224], [113.8834434, 22.5170693], [113.8834779, 22.5170638], [113.8834747, 22.5170461], [113.8835542, 22.5170336], [113.8835909, 22.5172325], [113.8835113, 22.517245], [113.8835081, 22.5172273], [113.8834735, 22.5172327], [113.8834637, 22.5171796], [113.8834567, 22.5171807], [113.8833899, 22.5173314], [113.8832958, 22.5172958], [113.8833572, 22.5171575], [113.8833383, 22.5171404], [113.8832839, 22.5171918], [113.8832019, 22.5171176]]]]}}]}