{"type": "FeatureCollection", "features": [{"type": "Feature", "id": "way/376255759", "properties": {"tags": {"building": "yes"}, "heightStatus": "unknown", "source": "OpenStreetMap", "license": "ODbL-1.0"}, "geometry": {"type": "MultiPolygon", "coordinates": [[[[113.8741779, 22.5091895], [113.8744012, 22.5085401], [113.8757177, 22.5089263], [113.8754944, 22.5095757], [113.8741779, 22.5091895]]]]}}, {"type": "Feature", "id": "way/376255771", "properties": {"tags": {"building": "yes"}, "heightStatus": "unknown", "source": "OpenStreetMap", "license": "ODbL-1.0"}, "geometry": {"type": "MultiPolygon", "coordinates": [[[[113.8763593, 22.5165278], [113.8767643, 22.5160385], [113.8778069, 22.5167912], [113.8772179, 22.5174783], [113.876457, 22.5169287], [113.8763593, 22.5165278]]]]}}, {"type": "Feature", "id": "way/376255772", "properties": {"tags": {"building": "yes"}, "heightStatus": "unknown", "source": "OpenStreetMap", "license": "ODbL-1.0"}, "geometry": {"type": "MultiPolygon", "coordinates": [[[[113.8763976, 22.5155045], [113.8766889, 22.5148707], [113.8779237, 22.5153552], [113.8776323, 22.5159889], [113.8763976, 22.5155045]]]]}}, {"type": "Feature", "id": "way/630361454", "properties": {"tags": {"building": "yes"}, "heightStatus": "unknown", "source": "OpenStreetMap", "license": "ODbL-1.0"}, "geometry": {"type": "MultiPolygon", "coordinates": [[[[113.8722858, 22.5097518], [113.8724077, 22.509425], [113.8736884, 22.5098081], [113.8735867, 22.5101386], [113.8722858, 22.5097518]]]]}}, {"type": "Feature", "id": "way/630361455", "properties": {"tags": {"building": "yes"}, "heightStatus": "unknown", "source": "OpenStreetMap", "license": "ODbL-1.0"}, "geometry": {"type": "MultiPolygon", "coordinates": [[[[113.8724687, 22.5092448], [113.8725947, 22.5089105], [113.8738713, 22.5093199], [113.8737493, 22.5096391], [113.8724687, 22.5092448]]]]}}, {"type": "Feature", "id": "way/630361456", "properties": {"tags": {"building": "yes"}, "heightStatus": "unknown", "source": "OpenStreetMap", "license": "ODbL-1.0"}, "geometry": {"type": "MultiPolygon", "coordinates": [[[[113.873792, 22.51018], [113.873979, 22.5095941], [113.8753002, 22.5099809], [113.8751051, 22.5105818], [113.873792, 22.51018]]]]}}]}