{"type": "FeatureCollection", "features": [{"type": "Feature", "id": "way/1075932277", "properties": {"tags": {"building": "yes"}, "heightStatus": "unknown", "source": "OpenStreetMap", "license": "ODbL-1.0"}, "geometry": {"type": "MultiPolygon", "coordinates": [[[[113.8693011, 22.4817799], [113.8693338, 22.481687], [113.8693753, 22.4816996], [113.8693609, 22.4817405], [113.8693426, 22.4817925], [113.8693011, 22.4817799]]]]}}, {"type": "Feature", "id": "way/1075932278", "properties": {"tags": {"building": "yes"}, "heightStatus": "unknown", "source": "OpenStreetMap", "license": "ODbL-1.0"}, "geometry": {"type": "MultiPolygon", "coordinates": [[[[113.8691249, 22.4817264], [113.8691576, 22.4816335], [113.8691713, 22.4816376], [113.8691738, 22.4816305], [113.8692767, 22.4816618], [113.8692742, 22.4816689], [113.8693338, 22.481687], [113.8693011, 22.4817799], [113.8691249, 22.4817264]]]]}}]}