{"type": "FeatureCollection", "features": [{"type": "Feature", "id": "way/219867203", "properties": {"tags": {"building": "yes"}, "heightStatus": "unknown", "source": "OpenStreetMap", "license": "ODbL-1.0"}, "geometry": {"type": "MultiPolygon", "coordinates": [[[[113.8513288, 22.5092516], [113.8513386, 22.5089457], [113.8515049, 22.5089503], [113.8514951, 22.5092562], [113.8513288, 22.5092516]]]]}}, {"type": "Feature", "id": "way/219867204", "properties": {"tags": {"building": "yes"}, "heightStatus": "unknown", "source": "OpenStreetMap", "license": "ODbL-1.0"}, "geometry": {"type": "MultiPolygon", "coordinates": [[[[113.8506441, 22.5113916], [113.8506466, 22.5110183], [113.8508956, 22.5110197], [113.8508931, 22.5113931], [113.8506441, 22.5113916]]]]}}]}