{"type": "FeatureCollection", "features": [{"type": "Feature", "id": "way/242008711", "properties": {"tags": {"building": "yes", "source": "Bing"}, "heightStatus": "unknown", "source": "OpenStreetMap", "license": "ODbL-1.0"}, "geometry": {"type": "MultiPolygon", "coordinates": [[[[113.8130208, 22.4122215], [113.8130831, 22.4121224], [113.8131419, 22.4121539], [113.8130796, 22.4122531], [113.8130208, 22.4122215]]]]}}, {"type": "Feature", "id": "way/242008715", "properties": {"tags": {"building": "yes", "source": "Bing"}, "heightStatus": "unknown", "source": "OpenStreetMap", "license": "ODbL-1.0"}, "geometry": {"type": "MultiPolygon", "coordinates": [[[[113.8126359, 22.4119524], [113.8127233, 22.4118795], [113.8127945, 22.4119524], [113.8127072, 22.4120253], [113.8126359, 22.4119524]]]]}}]}