{"type": "FeatureCollection", "features": [{"type": "Feature", "id": "way/364840103", "properties": {"tags": {"addr:city": "深圳", "addr:housename": "南山智园", "addr:housename:zh": "南山智园", "addr:housenumber": "10001号", "addr:street": "学苑大道", "building": "commercial", "building:levels": "30", "name": "B1栋", "name:zh": "B1栋"}, "heightStatus": "levels_only_unverified", "source": "OpenStreetMap", "license": "ODbL-1.0"}, "geometry": {"type": "MultiPolygon", "coordinates": [[[[113.997978, 22.5969671], [113.9979782, 22.5969547], [113.9980191, 22.5968111], [113.9980309, 22.5967778], [113.9980491, 22.596747], [113.9980731, 22.5967198], [113.9981019, 22.596697], [113.9983265, 22.596541], [113.998337, 22.5965331], [113.9983502, 22.5965304], [113.9983633, 22.5965334], [113.9983739, 22.5965418], [113.9983791, 22.5965538], [113.9983784, 22.5965668], [113.9983783, 22.5965781], [113.998384, 22.5965881], [113.998394, 22.5965946], [113.9984061, 22.596596], [113.9984176, 22.5965921], [113.9984307, 22.5965872], [113.9984447, 22.5965875], [113.9984569, 22.5965938], [113.9984645, 22.5966042], [113.9984662, 22.5966166], [113.9984617, 22.5966284], [113.9983799, 22.5968766], [113.9983666, 22.5969095], [113.9983471, 22.5969395], [113.998322, 22.5969659], [113.9982922, 22.5969876], [113.9981601, 22.5970723], [113.9981475, 22.5970767], [113.9981341, 22.597076], [113.9981221, 22.5970705], [113.9981136, 22.597061], [113.998075, 22.5970057], [113.9980056, 22.5969912], [113.9979929, 22.596987], [113.9979832, 22.5969785], [113.997978, 22.5969671]]]]}}, {"type": "Feature", "id": "way/364840104", "properties": {"tags": {"addr:housename": "南山智园", "addr:housename:zh": "南山智园", "building": "commercial", "building:levels": "16", "name": "A1栋", "name:zh": "A1栋"}, "heightStatus": "levels_only_unverified", "source": "OpenStreetMap", "license": "ODbL-1.0"}, "geometry": {"type": "MultiPolygon", "coordinates": [[[[113.9972035, 22.5947156], [113.997206, 22.5946999], [113.9973294, 22.5944098], [113.9973394, 22.5943972], [113.9973539, 22.5943892], [113.9973706, 22.594387], [113.9973869, 22.5943908], [113.9978257, 22.5945579], [113.9978394, 22.5945685], [113.9978468, 22.5945834], [113.9978471, 22.5945974], [113.9978417, 22.5946105], [113.9976218, 22.5948698], [113.997612, 22.5948775], [113.9976, 22.5948821], [113.9975871, 22.5948831], [113.9975745, 22.5948803], [113.9972309, 22.5947534], [113.9972169, 22.5947442], [113.9972073, 22.594731], [113.9972035, 22.5947156]]]]}}, {"type": "Feature", "id": "way/364840106", "properties": {"tags": {"addr:housename": "南山智园", "addr:housename:zh": "南山智园", "building": "commercial", "building:levels": "20", "name": "A3栋", "name:zh": "A3栋"}, "heightStatus": "levels_only_unverified", "source": "OpenStreetMap", "license": "ODbL-1.0"}, "geometry": {"type": "MultiPolygon", "coordinates": [[[[113.9984805, 22.5952599], [113.9984817, 22.595248], [113.9986054, 22.5949131], [113.9986139, 22.5949015], [113.9986265, 22.5948937], [113.998644, 22.5948907], [113.9986612, 22.594895], [113.9990948, 22.595144], [113.9991076, 22.5951542], [113.9991152, 22.5951681], [113.9991164, 22.5951836], [113.999111, 22.5951984], [113.9988384, 22.5954992], [113.9988259, 22.5955101], [113.99881, 22.5955162], [113.9987929, 22.5955165], [113.9987767, 22.5955111], [113.9984996, 22.5952899], [113.9984899, 22.5952819], [113.9984833, 22.5952716], [113.9984805, 22.5952599]]]]}}, {"type": "Feature", "id": "way/535403488", "properties": {"tags": {"addr:housename": "南山智园", "addr:housename:zh": "南山智园", "building": "commercial", "building:levels": "18", "name": "A2栋", "name:zh": "A2栋"}, "heightStatus": "levels_only_unverified", "source": "OpenStreetMap", "license": "ODbL-1.0"}, "geometry": {"type": "MultiPolygon", "coordinates": [[[[113.9978476, 22.5949537], [113.9978501, 22.594938], [113.9979735, 22.5946479], [113.9979835, 22.5946353], [113.9979979, 22.5946273], [113.9980146, 22.5946251], [113.998031, 22.594629], [113.9984698, 22.594796], [113.9984835, 22.5948066], [113.9984909, 22.5948216], [113.9984912, 22.5948356], [113.9984858, 22.5948486], [113.9982659, 22.5951079], [113.9982561, 22.5951157], [113.9982441, 22.5951203], [113.9982312, 22.5951212], [113.9982186, 22.5951184], [113.997875, 22.5949915], [113.997861, 22.5949823], [113.9978514, 22.5949692], [113.9978476, 22.5949537]]]]}}, {"type": "Feature", "id": "way/614006618", "properties": {"tags": {"building": "yes"}, "heightStatus": "unknown", "source": "OpenStreetMap", "license": "ODbL-1.0"}, "geometry": {"type": "MultiPolygon", "coordinates": [[[[113.9961967, 22.5918829], [113.9962181, 22.5918362], [113.9962923, 22.5918653], [113.9963625, 22.5919284], [113.9963252, 22.5919638], [113.9962649, 22.5919095], [113.9962492, 22.5919034], [113.9961967, 22.5918829]]]]}}, {"type": "Feature", "id": "way/614172712", "properties": {"tags": {"building": "apartments", "building:levels": "54"}, "heightStatus": "levels_only_unverified", "source": "OpenStreetMap", "license": "ODbL-1.0"}, "geometry": {"type": "MultiPolygon", "coordinates": [[[[113.9958901, 22.591232], [113.995919, 22.5911664], [113.9959525, 22.591179], [113.9959936, 22.5910858], [113.9963172, 22.5912076], [113.9962842, 22.5912823], [113.9963203, 22.5912959], [113.9962832, 22.59138], [113.9958901, 22.591232]]]]}}, {"type": "Feature", "id": "way/614172713", "properties": {"tags": {"building": "apartments", "building:levels": "54"}, "heightStatus": "levels_only_unverified", "source": "OpenStreetMap", "license": "ODbL-1.0"}, "geometry": {"type": "MultiPolygon", "coordinates": [[[[113.9966515, 22.5915732], [113.9967068, 22.5915163], [113.9967335, 22.5915384], [113.9968066, 22.5914631], [113.9970664, 22.5916781], [113.9970017, 22.5917449], [113.9970434, 22.5917794], [113.9969798, 22.5918449], [113.9966515, 22.5915732]]]]}}, {"type": "Feature", "id": "way/614172714", "properties": {"tags": {"building": "apartments", "building:levels": "54"}, "heightStatus": "levels_only_unverified", "source": "OpenStreetMap", "license": "ODbL-1.0"}, "geometry": {"type": "MultiPolygon", "coordinates": [[[[113.9973467, 22.5921395], [113.997402, 22.5920825], [113.9974287, 22.5921046], [113.9975018, 22.5920293], [113.9977617, 22.5922443], [113.9976969, 22.5923111], [113.9977386, 22.5923456], [113.997675, 22.5924111], [113.9973467, 22.5921395]]]]}}, {"type": "Feature", "id": "way/639319952", "properties": {"tags": {"addr:housename": "南山智园", "building": "commercial", "building:levels": "24", "name": "A4栋", "name:zh": "A4栋"}, "heightStatus": "levels_only_unverified", "source": "OpenStreetMap", "license": "ODbL-1.0"}, "geometry": {"type": "MultiPolygon", "coordinates": [[[[113.9991, 22.5958001], [113.9991013, 22.5957882], [113.9993189, 22.5953127], [113.9993275, 22.5953011], [113.99934, 22.5952933], [113.9993576, 22.5952903], [113.9993748, 22.5952946], [113.9997534, 22.5956253], [113.9997662, 22.5956355], [113.9997738, 22.5956494], [113.999775, 22.5956649], [113.9997696, 22.5956797], [113.99935, 22.5961237], [113.9993385, 22.596136], [113.9993223, 22.5961423], [113.9993048, 22.5961415], [113.9992895, 22.5961337], [113.9992794, 22.5961204], [113.9991094, 22.5958221], [113.9991028, 22.5958118], [113.9991, 22.5958001]]]]}}, {"type": "Feature", "id": "way/639319953", "properties": {"tags": {"addr:housename": "南山智园", "building": "commercial", "building:levels": "26", "name": "A5栋", "name:zh": "A5栋"}, "heightStatus": "levels_only_unverified", "source": "OpenStreetMap", "license": "ODbL-1.0"}, "geometry": {"type": "MultiPolygon", "coordinates": [[[[113.9996567, 22.5961503], [113.9996585, 22.5961357], [113.9998195, 22.5957944], [113.99983, 22.5957814], [113.9998456, 22.595774], [113.9998631, 22.5957737], [113.9998791, 22.5957805], [113.9998901, 22.5957931], [114.000295, 22.5962487], [114.0002999, 22.5962636], [114.0002982, 22.5962791], [114.0002901, 22.5962928], [114.000277, 22.5963025], [114.00002, 22.5965017], [114.0000027, 22.5965056], [113.9999852, 22.5965021], [113.999973, 22.5964939], [113.9999648, 22.5964821], [113.9996621, 22.5961641], [113.9996567, 22.5961503]]]]}}, {"type": "Feature", "id": "way/639319954", "properties": {"tags": {"addr:housename": "南山智园", "building": "commercial", "building:levels": "24", "name": "A7栋", "name:zh": "A7栋"}, "heightStatus": "levels_only_unverified", "source": "OpenStreetMap", "license": "ODbL-1.0"}, "geometry": {"type": "MultiPolygon", "coordinates": [[[[113.9994845, 22.5965021], [113.9994883, 22.5964887], [113.9994978, 22.596478], [113.9995113, 22.5964719], [113.9995263, 22.5964716], [113.9995401, 22.5964772], [113.9999551, 22.5966521], [113.9999675, 22.5966609], [113.999976, 22.5966731], [113.9999796, 22.5966872], [113.9999778, 22.5967016], [113.9998153, 22.5970151], [113.9998062, 22.5970261], [113.999793, 22.5970327], [113.999778, 22.5970335], [113.999764, 22.5970285], [113.9997536, 22.5970185], [113.9997487, 22.5970054], [113.9994871, 22.5965157], [113.9994845, 22.5965021]]]]}}, {"type": "Feature", "id": "way/639319958", "properties": {"tags": {"addr:housename": "南山智园", "addr:housename:zh": "南山智园", "building": "commercial", "building:levels": "20", "name": "B2栋", "name:zh": "B2栋", "office": "yes"}, "heightStatus": "levels_only_unverified", "source": "OpenStreetMap", "license": "ODbL-1.0"}, "geometry": {"type": "MultiPolygon", "coordinates": [[[[113.9983312, 22.5971129], [113.9983339, 22.5970966], [113.9983417, 22.5970817], [113.998354, 22.5970696], [113.9986089, 22.5968926], [113.9986246, 22.5968806], [113.9986439, 22.5968747], [113.9986642, 22.5968756], [113.9986829, 22.5968831], [113.9992137, 22.5972405], [113.9992264, 22.5972488], [113.9992356, 22.5972606], [113.9992402, 22.5972744], [113.9992397, 22.5972888], [113.9992343, 22.5973023], [113.999144, 22.5974212], [113.9991292, 22.5974306], [113.9991118, 22.5974348], [113.999094, 22.5974332], [113.9990778, 22.5974261], [113.998784, 22.5972282], [113.9987578, 22.5972134], [113.998729, 22.5972034], [113.9986987, 22.5971986], [113.998668, 22.5971991], [113.9986379, 22.597205], [113.9986095, 22.597216], [113.998582, 22.597237], [113.998563, 22.5972482], [113.998541, 22.5972531], [113.9985185, 22.597251], [113.9984979, 22.5972422], [113.9983623, 22.5971608], [113.9983458, 22.5971487], [113.9983351, 22.597132], [113.9983312, 22.5971129]]]]}}, {"type": "Feature", "id": "way/661156630", "properties": {"tags": {"addr:housename": "南山智园", "addr:housename:zh": "南山智园", "building": "commercial", "building:levels": "30", "name": "C1栋", "name:zh": "C1栋"}, "heightStatus": "levels_only_unverified", "source": "OpenStreetMap", "license": "ODbL-1.0"}, "geometry": {"type": "MultiPolygon", "coordinates": [[[[113.9994463, 22.5980069], [113.999535, 22.597734], [113.9996532, 22.5975805], [113.9998269, 22.5976931], [113.9997345, 22.5979626], [113.9996015, 22.5981161], [113.9994463, 22.5980069]]]]}}, {"type": "Feature", "id": "way/661156631", "properties": {"tags": {"addr:housename": "南山智园", "addr:housename:zh": "南山智园", "building": "commercial", "building:levels": "30", "name": "C2栋", "name:zh": "C2栋"}, "heightStatus": "levels_only_unverified", "source": "OpenStreetMap", "license": "ODbL-1.0"}, "geometry": {"type": "MultiPolygon", "coordinates": [[[[113.99991, 22.5983123], [113.9999987, 22.5980394], [114.0001169, 22.5978858], [114.0002906, 22.5979984], [114.0001982, 22.5982679], [114.0000652, 22.5984214], [113.99991, 22.5983123]]]]}}, {"type": "Feature", "id": "way/661156632", "properties": {"tags": {"addr:housename": "南山智园", "addr:housename:zh": "南山智园", "building": "commercial", "building:levels": "30", "name": "C3栋", "name:zh": "C3栋"}, "heightStatus": "levels_only_unverified", "source": "OpenStreetMap", "license": "ODbL-1.0"}, "geometry": {"type": "MultiPolygon", "coordinates": [[[[114.0003497, 22.5985954], [114.0004384, 22.5983225], [114.0005566, 22.598169], [114.0007303, 22.5982816], [114.0006379, 22.5985511], [114.0005049, 22.5987046], [114.0003497, 22.5985954]]]]}}, {"type": "Feature", "id": "way/669046560", "properties": {"tags": {"addr:housename": "华晖云门", "addr:housename:zh": "华晖云门", "building": "apartments", "building:levels": "20", "name": "5栋", "name:zh": "5栋"}, "heightStatus": "levels_only_unverified", "source": "OpenStreetMap", "license": "ODbL-1.0"}, "geometry": {"type": "MultiPolygon", "coordinates": [[[[113.9962483, 22.5951372], [113.9962883, 22.5949941], [113.9966199, 22.5950729], [113.9965483, 22.5953294], [113.9964121, 22.595297], [113.9964302, 22.595232], [113.9963276, 22.5952076], [113.9963411, 22.5951593], [113.9962483, 22.5951372]]]]}}, {"type": "Feature", "id": "way/703098307", "properties": {"tags": {"building": "university", "building:levels": "8", "name": "商学院", "name:en": "College of Business", "name:zh": "商学院", "name:zh-Hans": "商学院", "name:zh-Hant": "商學院"}, "heightStatus": "levels_only_unverified", "source": "OpenStreetMap", "license": "ODbL-1.0"}, "geometry": {"type": "MultiPolygon", "coordinates": [[[[113.9951398, 22.5984089], [113.9957379, 22.5979754], [113.996265, 22.5985951], [113.9960835, 22.5987267], [113.9956858, 22.5982591], [113.9953838, 22.5984781], [113.9957931, 22.5989594], [113.9956786, 22.5990424], [113.99522, 22.5985032], [113.9951687, 22.5984429], [113.9951398, 22.5984089]]]]}}, {"type": "Feature", "id": "way/813752055", "properties": {"tags": {"building": "yes", "building:levels": "54"}, "heightStatus": "levels_only_unverified", "source": "OpenStreetMap", "license": "ODbL-1.0"}, "geometry": {"type": "MultiPolygon", "coordinates": [[[[113.9974192, 22.5931199], [113.9974853, 22.592975], [113.9977966, 22.593096], [113.9977305, 22.593241], [113.9974192, 22.5931199]]]]}}, {"type": "Feature", "id": "way/813752056", "properties": {"tags": {"building": "yes", "building:levels": "54"}, "heightStatus": "levels_only_unverified", "source": "OpenStreetMap", "license": "ODbL-1.0"}, "geometry": {"type": "MultiPolygon", "coordinates": [[[[113.9960943, 22.592551], [113.9961537, 22.59241], [113.9962203, 22.5924339], [113.9962613, 22.5923364], [113.9974185, 22.5927521], [113.9973613, 22.592888], [113.9974228, 22.5929101], [113.9973796, 22.5930127], [113.9960943, 22.592551]]]]}}, {"type": "Feature", "id": "way/919008908", "properties": {"tags": {"building": "kindergarten", "building:levels": "6", "name": "南科大学幼儿园", "name:en": "SUSTech Kindergarten", "name:zh": "南科大学幼儿园"}, "heightStatus": "levels_only_unverified", "source": "OpenStreetMap", "license": "ODbL-1.0"}, "geometry": {"type": "MultiPolygon", "coordinates": [[[[113.9960194, 22.5948735], [113.9961084, 22.5946057], [113.9968207, 22.5948074], [113.9967695, 22.5949615], [113.9966793, 22.594936], [113.9966973, 22.5948816], [113.9962514, 22.5947554], [113.9961956, 22.5949234], [113.9960194, 22.5948735]]]]}}, {"type": "Feature", "id": "way/919021692", "properties": {"tags": {"amenity": "place_of_worship", "building": "religious", "name": "陆纛宫", "name:en": "Liudao Palace", "name:zh": "陆纛宫", "name:zh-Hans": "陆纛宫", "religion": "chinese_folk", "wheelchair": "no"}, "heightStatus": "unknown", "source": "OpenStreetMap", "license": "ODbL-1.0"}, "geometry": {"type": "MultiPolygon", "coordinates": [[[[113.9968339, 22.5959752], [113.9969355, 22.5959647], [113.9969426, 22.5960231], [113.996841, 22.5960336], [113.9968339, 22.5959752]]]]}}, {"type": "Feature", "id": "way/919022453", "properties": {"tags": {"building": "yes", "building:levels": "9"}, "heightStatus": "levels_only_unverified", "source": "OpenStreetMap", "license": "ODbL-1.0"}, "geometry": {"type": "MultiPolygon", "coordinates": [[[[113.9981537, 22.5956087], [113.9983722, 22.5955783], [113.9984391, 22.5959876], [113.9982206, 22.596018], [113.9981537, 22.5956087]]]]}}, {"type": "Feature", "id": "way/1089345934", "properties": {"tags": {"building": "school", "building:levels": "6"}, "heightStatus": "levels_only_unverified", "source": "OpenStreetMap", "license": "ODbL-1.0"}, "geometry": {"type": "MultiPolygon", "coordinates": [[[[114.0045014, 22.5990073], [114.0049375, 22.5986617], [114.0050916, 22.5985196], [114.0051423, 22.5984556], [114.005313, 22.5984438], [114.0054193, 22.5985704], [114.0053946, 22.5986633], [114.0054938, 22.5989223], [114.0055262, 22.5989954], [114.005489, 22.5990147], [114.0054659, 22.5990372], [114.0052892, 22.5990578], [114.0049412, 22.5990828], [114.0046912, 22.5991077], [114.0045949, 22.5990844], [114.0045334, 22.5990498], [114.0045014, 22.5990073]]]]}}, {"type": "Feature", "id": "way/1089345942", "properties": {"tags": {"building": "yes", "building:levels": "4"}, "heightStatus": "levels_only_unverified", "source": "OpenStreetMap", "license": "ODbL-1.0"}, "geometry": {"type": "MultiPolygon", "coordinates": [[[[114.0042869, 22.5983101], [114.0047126, 22.5980023], [114.0047767, 22.5980775], [114.0048241, 22.5980418], [114.0049226, 22.5981637], [114.0048806, 22.5981992], [114.0049536, 22.598278], [114.0048783, 22.598325], [114.0048848, 22.5983398], [114.0048264, 22.5983908], [114.0048094, 22.598379], [114.0046638, 22.5984753], [114.0046699, 22.598491], [114.0045891, 22.5985579], [114.0045781, 22.5985519], [114.0045511, 22.5985725], [114.0045235, 22.5985917], [114.0044603, 22.5985135], [114.0044371, 22.5985272], [114.0043532, 22.5984298], [114.0043715, 22.5984131], [114.0042869, 22.5983101]]]]}}, {"type": "Feature", "id": "way/1089345943", "properties": {"tags": {"building": "yes", "building:levels": "6"}, "heightStatus": "levels_only_unverified", "source": "OpenStreetMap", "license": "ODbL-1.0"}, "geometry": {"type": "MultiPolygon", "coordinates": [[[[114.0038299, 22.598712], [114.0039, 22.5986556], [114.0038897, 22.5986431], [114.0041168, 22.5984801], [114.0041253, 22.5984886], [114.0041945, 22.5984421], [114.0042549, 22.5985013], [114.0042907, 22.5984736], [114.0044066, 22.5986211], [114.0043634, 22.5986536], [114.0044237, 22.5987278], [114.0043068, 22.5987918], [114.0043196, 22.5988141], [114.0041477, 22.5989483], [114.0041352, 22.5989286], [114.004059, 22.5989892], [114.0038993, 22.5987988], [114.0038299, 22.598712]]]]}}, {"type": "Feature", "id": "way/1187613467", "properties": {"tags": {"addr:housename": "南山智园", "addr:housename:zh": "南山智园", "building": "commercial", "building:levels": "30", "name": "D1栋", "name:zh": "D1栋"}, "heightStatus": "levels_only_unverified", "source": "OpenStreetMap", "license": "ODbL-1.0"}, "geometry": {"type": "MultiPolygon", "coordinates": [[[[114.0010346, 22.5988258], [114.0012533, 22.5985585], [114.0013643, 22.5985698], [114.0015183, 22.5988799], [114.001432, 22.5989766], [114.0010693, 22.5989212], [114.0010346, 22.5988258]]]]}}, {"type": "Feature", "id": "way/1187613468", "properties": {"tags": {"building": "yes", "building:levels": "4"}, "heightStatus": "levels_only_unverified", "source": "OpenStreetMap", "license": "ODbL-1.0"}, "geometry": {"type": "MultiPolygon", "coordinates": [[[[114.0001537, 22.5975256], [114.0001789, 22.5973433], [114.0002455, 22.5973412], [114.0005326, 22.5973518], [114.0005142, 22.5975553], [114.000443, 22.5975489], [114.000443, 22.5976464], [114.0002639, 22.5975765], [114.0002616, 22.597532], [114.0001537, 22.5975256]]]]}}, {"type": "Feature", "id": "way/1187613469", "properties": {"tags": {"building": "yes", "building:levels": "2"}, "heightStatus": "levels_only_unverified", "source": "OpenStreetMap", "license": "ODbL-1.0"}, "geometry": {"type": "MultiPolygon", "coordinates": [[[[114.0003507, 22.5971588], [114.0008271, 22.59715], [114.0008292, 22.5972444], [114.0003528, 22.5972532], [114.0003507, 22.5971588]]]]}}, {"type": "Feature", "id": "way/1187613471", "properties": {"tags": {"addr:housename": "南山智园", "addr:housename:zh": "南山智园", "building": "commercial", "building:levels": "30", "name": "D2栋", "name:zh": "D2栋"}, "heightStatus": "levels_only_unverified", "source": "OpenStreetMap", "license": "ODbL-1.0"}, "geometry": {"type": "MultiPolygon", "coordinates": [[[[114.0016268, 22.598049], [114.0016406, 22.5980155], [114.0016784, 22.5979757], [114.0017215, 22.5979658], [114.00177, 22.597975], [114.0017974, 22.5979932], [114.0021783, 22.5984439], [114.0021944, 22.5984996], [114.0021703, 22.5985442], [114.0021153, 22.5985652], [114.0017733, 22.5984538], [114.0016995, 22.5984055], [114.0016472, 22.5983263], [114.0016306, 22.5981798], [114.0016268, 22.598049]]]]}}, {"type": "Feature", "id": "way/1187613472", "properties": {"tags": {"building": "residential", "building:levels": "30", "name": "弘基朗寓"}, "heightStatus": "levels_only_unverified", "source": "OpenStreetMap", "license": "ODbL-1.0"}, "geometry": {"type": "MultiPolygon", "coordinates": [[[[113.9957956, 22.5940033], [113.9959592, 22.5936432], [113.9961874, 22.593733], [113.9961777, 22.5938213], [113.9966429, 22.5939976], [113.9965597, 22.5942081], [113.9965351, 22.5941968], [113.9964919, 22.5943276], [113.9963194, 22.594265], [113.9963779, 22.5941228], [113.9961838, 22.5940545], [113.9960945, 22.5941057], [113.9957956, 22.5940033]]]]}}, {"type": "Feature", "id": "way/1360544287", "properties": {"tags": {"addr:housename": "华晖云门", "addr:housename:zh": "华晖云门", "building": "apartments", "building:levels": "30", "name": "3栋", "name:zh": "3栋"}, "heightStatus": "levels_only_unverified", "source": "OpenStreetMap", "license": "ODbL-1.0"}, "geometry": {"type": "MultiPolygon", "coordinates": [[[[113.9959183, 22.5956459], [113.9959848, 22.5955552], [113.9960885, 22.59562], [113.9960725, 22.5956418], [113.9961156, 22.5956687], [113.9961358, 22.5956411], [113.9960853, 22.5956096], [113.9961428, 22.5955313], [113.9963316, 22.5956492], [113.99627, 22.5957333], [113.9962519, 22.5957219], [113.9962414, 22.5957362], [113.996338, 22.5957965], [113.9963229, 22.5958172], [113.9962819, 22.5958731], [113.9959183, 22.5956459]]]]}}, {"type": "Feature", "id": "way/1425708858", "properties": {"tags": {"addr:housename": "南山智园", "addr:housename:zh": "南山智园", "building": "commercial", "building:levels": "20", "name": "B2栋", "name:zh": "B2栋", "office": "yes"}, "heightStatus": "levels_only_unverified", "source": "OpenStreetMap", "license": "ODbL-1.0"}, "geometry": {"type": "MultiPolygon", "coordinates": [[[[113.9985547, 22.5973851], [113.9985598, 22.5973697], [113.9986508, 22.5972957], [113.9986712, 22.597291], [113.9986923, 22.5972907], [113.9987194, 22.5972971], [113.9987433, 22.5973105], [113.9991892, 22.5975887], [113.9992039, 22.5975987], [113.9992146, 22.5976125], [113.9992203, 22.5976285], [113.9992205, 22.5976454], [113.9992151, 22.5976616], [113.9991971, 22.5977292], [113.9991878, 22.5977437], [113.9991747, 22.5977554], [113.9991587, 22.5977636], [113.9991403, 22.5977676], [113.9991214, 22.5977669], [113.9991035, 22.5977615], [113.9985847, 22.5974387], [113.9985707, 22.5974293], [113.9985605, 22.5974163], [113.998555, 22.5974011], [113.9985547, 22.5973851]]]]}}, {"type": "Feature", "id": "way/1425708868", "properties": {"tags": {"building": "construction", "construction": "university"}, "heightStatus": "unknown", "source": "OpenStreetMap", "license": "ODbL-1.0"}, "geometry": {"type": "MultiPolygon", "coordinates": [[[[114.0027157, 22.5950411], [114.0027512, 22.5949808], [114.0032264, 22.5952191], [114.0031909, 22.5952795], [114.0027157, 22.5950411]]]]}}, {"type": "Feature", "id": "way/1425708869", "properties": {"tags": {"building": "construction", "construction": "university"}, "heightStatus": "unknown", "source": "OpenStreetMap", "license": "ODbL-1.0"}, "geometry": {"type": "MultiPolygon", "coordinates": [[[[114.002799, 22.5948994], [114.0028345, 22.5948391], [114.0034777, 22.5951616], [114.0034422, 22.595222], [114.002799, 22.5948994]]]]}}, {"type": "Feature", "id": "way/1425708870", "properties": {"tags": {"building": "construction", "construction": "university"}, "heightStatus": "unknown", "source": "OpenStreetMap", "license": "ODbL-1.0"}, "geometry": {"type": "MultiPolygon", "coordinates": [[[[114.0032227, 22.5945802], [114.0032584, 22.5945199], [114.0038295, 22.5948082], [114.0037938, 22.5948685], [114.0032227, 22.5945802]]]]}}, {"type": "Feature", "id": "way/1425708871", "properties": {"tags": {"building": "construction", "construction": "university"}, "heightStatus": "unknown", "source": "OpenStreetMap", "license": "ODbL-1.0"}, "geometry": {"type": "MultiPolygon", "coordinates": [[[[114.0029671, 22.5946177], [114.0030028, 22.5945574], [114.0036412, 22.5948796], [114.0036055, 22.5949399], [114.0029671, 22.5946177]]]]}}, {"type": "Feature", "id": "relation/19537220", "properties": {"tags": {"building": "construction", "construction": "university"}, "heightStatus": "unknown", "source": "OpenStreetMap", "license": "ODbL-1.0"}, "geometry": {"type": "MultiPolygon", "coordinates": [[[[114.005263, 22.5961622], [114.0054576, 22.595803], [114.0059424, 22.5960268], [114.0057479, 22.5963861], [114.005263, 22.5961622]], [[114.0055084, 22.5961148], [114.0056564, 22.5961831], [114.0057235, 22.5960593], [114.0055755, 22.595991], [114.0055084, 22.5961148]]]]}}, {"type": "Feature", "id": "relation/19537221", "properties": {"tags": {"building": "construction", "construction": "university"}, "heightStatus": "unknown", "source": "OpenStreetMap", "license": "ODbL-1.0"}, "geometry": {"type": "MultiPolygon", "coordinates": [[[[114.0045981, 22.5960087], [114.0047926, 22.5956494], [114.0052775, 22.5958732], [114.0050829, 22.5962325], [114.0045981, 22.5960087]], [[114.0048435, 22.5959613], [114.0049914, 22.5960296], [114.0050585, 22.5959057], [114.0049106, 22.5958374], [114.0048435, 22.5959613]]]]}}, {"type": "Feature", "id": "relation/19537219", "properties": {"tags": {"building": "construction", "construction": "university"}, "heightStatus": "unknown", "source": "OpenStreetMap", "license": "ODbL-1.0"}, "geometry": {"type": "MultiPolygon", "coordinates": [[[[114.0052366, 22.5953917], [114.0054312, 22.5950324], [114.005916, 22.5952562], [114.0057215, 22.5956155], [114.0052366, 22.5953917]], [[114.0054703, 22.595366], [114.0056182, 22.5954343], [114.0056853, 22.5953104], [114.0055374, 22.5952421], [114.0054703, 22.595366]]]]}}, {"type": "Feature", "id": "relation/19537216", "properties": {"tags": {"building": "construction", "construction": "university"}, "heightStatus": "unknown", "source": "OpenStreetMap", "license": "ODbL-1.0"}, "geometry": {"type": "MultiPolygon", "coordinates": [[[[114.0045742, 22.5952432], [114.0047687, 22.5948839], [114.0052536, 22.5951077], [114.005059, 22.595467], [114.0045742, 22.5952432]], [[114.0048078, 22.5952175], [114.0049558, 22.5952858], [114.0050228, 22.5951619], [114.0048749, 22.5950936], [114.0048078, 22.5952175]]]]}}, {"type": "Feature", "id": "way/1470235326", "properties": {"tags": {"building": "yes"}, "heightStatus": "unknown", "source": "OpenStreetMap", "license": "ODbL-1.0"}, "geometry": {"type": "MultiPolygon", "coordinates": [[[[113.9967097, 22.5974539], [113.9968942, 22.597315], [113.9970088, 22.5974447], [113.9969, 22.5975266], [113.9970794, 22.5977298], [113.9971899, 22.5976465], [113.9973062, 22.5977782], [113.9971934, 22.5978631], [113.9972782, 22.597959], [113.9972048, 22.5980143], [113.9967097, 22.5974539]]]]}}, {"type": "Feature", "id": "way/1470235327", "properties": {"tags": {"building": "yes"}, "heightStatus": "unknown", "source": "OpenStreetMap", "license": "ODbL-1.0"}, "geometry": {"type": "MultiPolygon", "coordinates": [[[[113.9973347, 22.5980314], [113.9975295, 22.5978742], [113.9976711, 22.598039], [113.997663, 22.5981245], [113.9975022, 22.5982276], [113.9973347, 22.5980314]]]]}}, {"type": "Feature", "id": "way/1470235328", "properties": {"tags": {"building": "construction", "construction": "hospital"}, "heightStatus": "unknown", "source": "OpenStreetMap", "license": "ODbL-1.0"}, "geometry": {"type": "MultiPolygon", "coordinates": [[[[113.9977705, 22.5984162], [113.9980996, 22.5983621], [113.998043, 22.5979459], [113.9983562, 22.5978906], [113.9983998, 22.5981597], [113.9986738, 22.5983234], [113.9987868, 22.5981701], [113.9990717, 22.5983586], [113.9990045, 22.5984464], [113.999341, 22.5986576], [113.9994019, 22.5985771], [113.9996307, 22.5987285], [113.9995416, 22.5988422], [113.9998217, 22.5990097], [114.0000379, 22.5989956], [114.0000996, 22.5992889], [113.999652, 22.5993633], [113.9996937, 22.5996837], [113.9994104, 22.5997202], [113.9993723, 22.5994724], [113.9991557, 22.5993359], [113.999007, 22.599526], [113.9988338, 22.599411], [113.9989106, 22.5993065], [113.9986259, 22.5991229], [113.998545, 22.5992193], [113.9981967, 22.5989881], [113.9983267, 22.5988121], [113.9980702, 22.5986501], [113.9978196, 22.5986677], [113.9977705, 22.5984162]]]]}}, {"type": "Feature", "id": "way/1470235329", "properties": {"tags": {"building": "construction", "construction": "hospital"}, "heightStatus": "unknown", "source": "OpenStreetMap", "license": "ODbL-1.0"}, "geometry": {"type": "MultiPolygon", "coordinates": [[[[113.9977705, 22.5984162], [113.9980996, 22.5983621], [113.998043, 22.5979459], [113.9983562, 22.5978906], [113.998403, 22.5979161], [113.9984257, 22.5980314], [113.9987109, 22.5982142], [113.9987586, 22.5981514], [113.9987868, 22.5981701], [113.9990717, 22.5983586], [113.9994019, 22.5985771], [113.9996307, 22.5987285], [113.9996575, 22.5987462], [113.9996125, 22.5988127], [113.9998762, 22.598982], [113.9999938, 22.5989687], [114.0000379, 22.5989956], [114.0000996, 22.5992889], [113.999652, 22.5993633], [113.9996937, 22.5996837], [113.9994104, 22.5997202], [113.9992773, 22.5996322], [113.9992742, 22.5995529], [113.9991101, 22.5994578], [113.9990399, 22.5995479], [113.999007, 22.599526], [113.9988338, 22.599411], [113.998545, 22.5992193], [113.9981967, 22.5989881], [113.9981383, 22.5989493], [113.9982024, 22.598867], [113.9980538, 22.5987746], [113.9979909, 22.598781], [113.9978196, 22.5986677], [113.9977705, 22.5984162]]]]}}]}