{"type": "FeatureCollection", "features": [{"type": "Feature", "id": "way/322644645", "properties": {"tags": {"building": "retail"}, "heightStatus": "unknown", "source": "OpenStreetMap", "license": "ODbL-1.0"}, "geometry": {"type": "MultiPolygon", "coordinates": [[[[113.9862248, 22.5266247], [113.9863267, 22.5266245], [113.9863266, 22.5265896], [113.9864349, 22.5265894], [113.9864352, 22.5267033], [113.9863551, 22.5267794], [113.986252, 22.5267795], [113.9862519, 22.5267225], [113.986225, 22.5267225], [113.9862248, 22.5266247]]]]}}, {"type": "Feature", "id": "way/322644656", "properties": {"tags": {"building": "retail"}, "heightStatus": "unknown", "source": "OpenStreetMap", "license": "ODbL-1.0"}, "geometry": {"type": "MultiPolygon", "coordinates": [[[[113.9867816, 22.5265338], [113.9867998, 22.5264292], [113.9869314, 22.5263428], [113.9870745, 22.526529], [113.9870146, 22.5265683], [113.9867816, 22.5265338]]]]}}, {"type": "Feature", "id": "way/322644657", "properties": {"tags": {"building": "retail"}, "heightStatus": "unknown", "source": "OpenStreetMap", "license": "ODbL-1.0"}, "geometry": {"type": "MultiPolygon", "coordinates": [[[[113.9869643, 22.5263183], [113.9871656, 22.5261726], [113.987194, 22.526192], [113.9872822, 22.5262522], [113.9871084, 22.5264913], [113.9869643, 22.5263183]]]]}}, {"type": "Feature", "id": "way/322644658", "properties": {"tags": {"branch": "欢乐海岸店", "brand": "小米", "brand:en": "Xiaomi", "brand:wikidata": "Q1636958", "brand:zh": "小米", "building": "retail", "name": "小米之家", "name:en": "Mi", "name:zh": "小米之家", "operator": "小米", "shop": "mobile_phone"}, "heightStatus": "unknown", "source": "OpenStreetMap", "license": "ODbL-1.0"}, "geometry": {"type": "MultiPolygon", "coordinates": [[[[113.9865654, 22.5261083], [113.9867017, 22.5259971], [113.9866689, 22.5259636], [113.9868238, 22.525844], [113.9869119, 22.5259561], [113.9867798, 22.5260771], [113.9868109, 22.5261088], [113.9866729, 22.5262338], [113.9865654, 22.5261083]]]]}}, {"type": "Feature", "id": "way/323827675", "properties": {"tags": {"building": "yes"}, "heightStatus": "unknown", "source": "OpenStreetMap", "license": "ODbL-1.0"}, "geometry": {"type": "MultiPolygon", "coordinates": [[[[113.9888724, 22.5262269], [113.9888997, 22.5261036], [113.9889449, 22.5261121], [113.9889176, 22.5262355], [113.9888724, 22.5262269]]]]}}, {"type": "Feature", "id": "way/357184731", "properties": {"tags": {"building": "retail"}, "heightStatus": "unknown", "source": "OpenStreetMap", "license": "ODbL-1.0"}, "geometry": {"type": "MultiPolygon", "coordinates": [[[[113.9862459, 22.5263905], [113.9863104, 22.5261744], [113.9863688, 22.5261378], [113.9865114, 22.5263773], [113.9864041, 22.5264399], [113.9862459, 22.5263905]]]]}}, {"type": "Feature", "id": "way/357184733", "properties": {"tags": {"amenity": "cinema", "brand": "中影国际影城", "brand:en": "China Film International Cinema", "brand:wikidata": "Q10875534", "brand:zh": "中影国际影城", "building": "retail", "name": "中影国际影城", "name:en": "China Film International Cinema", "name:zh": "中影国际影城"}, "heightStatus": "unknown", "source": "OpenStreetMap", "license": "ODbL-1.0"}, "geometry": {"type": "MultiPolygon", "coordinates": [[[[113.9869898, 22.5256301], [113.9878193, 22.525061], [113.9879863, 22.5252661], [113.9878435, 22.5262076], [113.9875329, 22.5261773], [113.9874245, 22.5260431], [113.9873539, 22.5260851], [113.9869898, 22.5256301]]]]}}, {"type": "Feature", "id": "way/357475378", "properties": {"tags": {"building": "retail"}, "heightStatus": "unknown", "source": "OpenStreetMap", "license": "ODbL-1.0"}, "geometry": {"type": "MultiPolygon", "coordinates": [[[[113.9866812, 22.5269342], [113.9867714, 22.5267603], [113.9869334, 22.526832], [113.9868432, 22.5270059], [113.9866812, 22.5269342]]]]}}, {"type": "Feature", "id": "way/357475380", "properties": {"tags": {"building": "retail"}, "heightStatus": "unknown", "source": "OpenStreetMap", "license": "ODbL-1.0"}, "geometry": {"type": "MultiPolygon", "coordinates": [[[[113.9867414, 22.5266919], [113.9867687, 22.5265832], [113.987118, 22.526658], [113.9870418, 22.5267917], [113.9867414, 22.5266919]]]]}}, {"type": "Feature", "id": "way/357475382", "properties": {"tags": {"building": "retail"}, "heightStatus": "unknown", "source": "OpenStreetMap", "license": "ODbL-1.0"}, "geometry": {"type": "MultiPolygon", "coordinates": [[[[113.9873722, 22.5266541], [113.9874298, 22.5262568], [113.9875329, 22.5261773], [113.9878435, 22.5262076], [113.9877676, 22.5267499], [113.9876032, 22.5267282], [113.9876067, 22.5266826], [113.9873722, 22.5266541]]]]}}, {"type": "Feature", "id": "way/357479527", "properties": {"tags": {"amenity": "fuel", "brand": "中国石化", "brand:en": "Sinopec", "brand:wikidata": "Q831445", "brand:zh": "中国石化", "building": "yes", "fuel:octane_92": "yes", "fuel:octane_95": "yes", "fuel:octane_98": "yes", "name": "中国石化滨海加油站", "name:en": "Sinopec", "name:zh": "中国石化"}, "heightStatus": "unknown", "source": "OpenStreetMap", "license": "ODbL-1.0"}, "geometry": {"type": "MultiPolygon", "coordinates": [[[[113.988313, 22.5254687], [113.9883605, 22.5251738], [113.9885069, 22.5251939], [113.988661, 22.5252151], [113.9886135, 22.52551], [113.9884579, 22.5254886], [113.988313, 22.5254687]]]]}}, {"type": "Feature", "id": "way/359287997", "properties": {"tags": {"building": "yes", "information": "office", "name": "深圳市旅游信息中心", "name:en": "Shenzhen Tourism Information Center", "name:zh": "深圳市旅游信息中心", "tourism": "information"}, "heightStatus": "unknown", "source": "OpenStreetMap", "license": "ODbL-1.0"}, "geometry": {"type": "MultiPolygon", "coordinates": [[[[113.9866895, 22.5246827], [113.9869737, 22.5246635], [113.9872545, 22.5247876], [113.9870662, 22.5249102], [113.9867549, 22.5249978], [113.9867172, 22.5249151], [113.9866925, 22.524861], [113.9866895, 22.5246827]]]]}}, {"type": "Feature", "id": "way/359287998", "properties": {"tags": {"building": "retail"}, "heightStatus": "unknown", "source": "OpenStreetMap", "license": "ODbL-1.0"}, "geometry": {"type": "MultiPolygon", "coordinates": [[[[113.9858867, 22.5250399], [113.9860157, 22.5249506], [113.9862302, 22.5249907], [113.9864047, 22.5249904], [113.9866895, 22.5246827], [113.9866925, 22.524861], [113.9867172, 22.5249151], [113.9864978, 22.5251275], [113.9859928, 22.5250698], [113.9858867, 22.5250399]]]]}}, {"type": "Feature", "id": "way/548404945", "properties": {"tags": {"building": "retail"}, "heightStatus": "unknown", "source": "OpenStreetMap", "license": "ODbL-1.0"}, "geometry": {"type": "MultiPolygon", "coordinates": [[[[113.9860561, 22.5260613], [113.9861249, 22.5258994], [113.9862331, 22.5259386], [113.9861643, 22.5261005], [113.9860561, 22.5260613]]]]}}, {"type": "Feature", "id": "way/1194924337", "properties": {"tags": {"building": "train_station", "building:levels": "0", "building:levels:underground": "2", "layer": "-1", "location": "underground", "name": "深圳湾公园站", "name:en": "Shenzhen Bay Park Station", "name:zh": "深圳湾公园站"}, "heightStatus": "levels_only_unverified", "source": "OpenStreetMap", "license": "ODbL-1.0"}, "geometry": {"type": "MultiPolygon", "coordinates": [[[[113.9859159, 22.5239768], [113.9859545, 22.5238762], [113.9863002, 22.5239892], [113.9863673, 22.5238142], [113.9864912, 22.5238547], [113.9865261, 22.5238032], [113.986584, 22.5236237], [113.9862654, 22.5235361], [113.9862827, 22.5234825], [113.9866583, 22.5235859], [113.9865784, 22.5238337], [113.9865425, 22.5238888], [113.988613, 22.5245858], [113.9887533, 22.5242351], [113.9891232, 22.5243613], [113.9890983, 22.5244236], [113.9887835, 22.5243161], [113.9886681, 22.5246044], [113.9896079, 22.5249207], [113.9896354, 22.5248492], [113.9897705, 22.5248935], [113.9898553, 22.5246731], [113.9899001, 22.5246878], [113.9900069, 22.52441], [113.9900648, 22.524429], [113.9900302, 22.5245191], [113.9900535, 22.5245267], [113.9899775, 22.5247245], [113.989921, 22.5247499], [113.9898271, 22.5249945], [113.9901274, 22.5250956], [113.9900906, 22.5251915], [113.9911448, 22.5255368], [113.9914402, 22.5256503], [113.9917147, 22.5257752], [113.9919434, 22.5258956], [113.9918577, 22.5260302], [113.9916036, 22.525904], [113.9913649, 22.5257955], [113.9910873, 22.5256867], [113.9900034, 22.5253302], [113.9899911, 22.5253681], [113.9897125, 22.5252855], [113.989696, 22.5253221], [113.9896154, 22.525395], [113.9895811, 22.5256365], [113.9895514, 22.5256329], [113.9895377, 22.5257292], [113.989467, 22.5257207], [113.9895171, 22.525367], [113.9896193, 22.5252655], [113.9896405, 22.5252106], [113.9878152, 22.5246093], [113.9878017, 22.524644], [113.9876167, 22.524745], [113.9872517, 22.5246264], [113.9872755, 22.524564], [113.9876147, 22.5246742], [113.9876808, 22.5246333], [113.9876505, 22.524592], [113.987663, 22.5245594], [113.9867807, 22.524269], [113.9867389, 22.5243774], [113.98669, 22.5243613], [113.9866695, 22.5244139], [113.9865776, 22.524383], [113.9866433, 22.5242138], [113.9859159, 22.5239768]]]]}}, {"type": "Feature", "id": "way/1363835070", "properties": {"tags": {"building": "yes"}, "heightStatus": "unknown", "source": "OpenStreetMap", "license": "ODbL-1.0"}, "geometry": {"type": "MultiPolygon", "coordinates": [[[[113.9883519, 22.5265057], [113.9883662, 22.5264136], [113.9885047, 22.526432], [113.9884903, 22.5265241], [113.9883519, 22.5265057]]]]}}, {"type": "Feature", "id": "way/1363835071", "properties": {"tags": {"building": "yes"}, "heightStatus": "unknown", "source": "OpenStreetMap", "license": "ODbL-1.0"}, "geometry": {"type": "MultiPolygon", "coordinates": [[[[113.9881794, 22.5263639], [113.9881859, 22.5263199], [113.988493, 22.5263583], [113.9884865, 22.5264023], [113.9881794, 22.5263639]]]]}}]}