{"type": "FeatureCollection", "features": [{"type": "Feature", "id": "way/333871652", "properties": {"tags": {"addr:housename": "华侨城创意文化园", "addr:housename:en": "OCT-LOFT Creative Culture Park", "addr:housename:zh": "华侨城创意文化园", "building": "commercial", "name": "Loft A3", "name:en": "Loft A3"}, "heightStatus": "unknown", "source": "OpenStreetMap", "license": "ODbL-1.0"}, "geometry": {"type": "MultiPolygon", "coordinates": [[[[113.9871909, 22.5418737], [113.9872036, 22.5417229], [113.9873171, 22.5417311], [113.9873231, 22.5416603], [113.987682, 22.541686], [113.9876884, 22.5416106], [113.9881684, 22.5416451], [113.9881483, 22.5418833], [113.987793, 22.5418577], [113.987788, 22.5419167], [113.9871909, 22.5418737]]]]}}, {"type": "Feature", "id": "way/435827461", "properties": {"tags": {"addr:city": "Shenzhen", "addr:housename": "华侨城创意文化园", "addr:housename:en": "OCT-LOFT Creative Culture Park", "addr:housename:zh": "华侨城创意文化园", "addr:housenumber": "A5", "addr:street": "Wenchang South Street", "building": "commercial", "name": "Loft A5", "name:en": "Loft A5"}, "heightStatus": "unknown", "source": "OpenStreetMap", "license": "ODbL-1.0"}, "geometry": {"type": "MultiPolygon", "coordinates": [[[[113.9874082, 22.5427001], [113.9874189, 22.5425284], [113.9874522, 22.5425302], [113.9874555, 22.5424769], [113.9879263, 22.5425018], [113.987925, 22.542522], [113.987969, 22.5425244], [113.9879549, 22.5427511], [113.9879148, 22.5427489], [113.9879125, 22.5427858], [113.9874379, 22.5427607], [113.9874416, 22.5427018], [113.9874082, 22.5427001]]]]}}, {"type": "Feature", "id": "way/435827465", "properties": {"tags": {"addr:housename": "华侨城创意文化园", "addr:housename:en": "OCT-LOFT Creative Culture Park", "addr:housename:zh": "华侨城创意文化园", "building": "commercial", "name": "Loft A4", "name:en": "Loft A4"}, "heightStatus": "unknown", "source": "OpenStreetMap", "license": "ODbL-1.0"}, "geometry": {"type": "MultiPolygon", "coordinates": [[[[113.9874338, 22.5422657], [113.9874473, 22.5420712], [113.9874975, 22.5420742], [113.9874992, 22.5420495], [113.9880678, 22.5420832], [113.988066, 22.5421079], [113.9881118, 22.5421106], [113.9880983, 22.5423051], [113.9880525, 22.5423024], [113.9880492, 22.542351], [113.9874806, 22.5423173], [113.9874839, 22.5422687], [113.9874338, 22.5422657]]]]}}, {"type": "Feature", "id": "way/435827466", "properties": {"tags": {"addr:housename": "华侨城创意文化园", "addr:housename:en": "OCT-LOFT Creative Culture Park", "addr:housename:zh": "华侨城创意文化园", "building": "commercial", "name": "Loft A1", "name:en": "Loft A1"}, "heightStatus": "unknown", "source": "OpenStreetMap", "license": "ODbL-1.0"}, "geometry": {"type": "MultiPolygon", "coordinates": [[[[113.9863065, 22.54262], [113.9863122, 22.5425288], [113.9863376, 22.5425302], [113.9863413, 22.5424718], [113.9867313, 22.5424926], [113.9867355, 22.5424249], [113.9872843, 22.5424542], [113.9872825, 22.542483], [113.9873172, 22.5424849], [113.9873073, 22.5426437], [113.9872696, 22.5426417], [113.9872661, 22.5426976], [113.9863349, 22.542648], [113.9863366, 22.5426216], [113.9863065, 22.54262]]]]}}, {"type": "Feature", "id": "way/435827467", "properties": {"tags": {"addr:housename": "华侨城创意文化园", "addr:housename:en": "OCT-LOFT Creative Culture Park", "addr:housename:zh": "华侨城创意文化园", "building": "commercial", "name": "Loft A2", "name:en": "Loft A2"}, "heightStatus": "unknown", "source": "OpenStreetMap", "license": "ODbL-1.0"}, "geometry": {"type": "MultiPolygon", "coordinates": [[[[113.9863631, 22.5422372], [113.9863801, 22.5419798], [113.9873627, 22.5420353], [113.987347, 22.5422728], [113.9872411, 22.5422668], [113.9872378, 22.542316], [113.9868918, 22.5422965], [113.9868946, 22.5422543], [113.9866186, 22.5422387], [113.9866162, 22.542276], [113.9864118, 22.5422645], [113.9864134, 22.54224], [113.9863631, 22.5422372]]]]}}, {"type": "Feature", "id": "way/435827468", "properties": {"tags": {"addr:housename": "华侨城创意文化园", "addr:housename:en": "OCT-LOFT Creative Culture Park", "addr:housename:zh": "华侨城创意文化园", "building": "commercial", "name": "Loft B10", "name:en": "Loft B10"}, "heightStatus": "unknown", "source": "OpenStreetMap", "license": "ODbL-1.0"}, "geometry": {"type": "MultiPolygon", "coordinates": [[[[113.9883224, 22.5427811], [113.9883587, 22.5423373], [113.9888907, 22.5423744], [113.9888544, 22.5428182], [113.9883224, 22.5427811]]]]}}, {"type": "Feature", "id": "way/435827469", "properties": {"tags": {"addr:housename": "华侨城创意文化园", "addr:housename:en": "OCT-LOFT Creative Culture Park", "addr:housename:zh": "华侨城创意文化园", "building": "commercial", "name": "Loft B2", "name:en": "Loft B2"}, "heightStatus": "unknown", "source": "OpenStreetMap", "license": "ODbL-1.0"}, "geometry": {"type": "MultiPolygon", "coordinates": [[[[113.98833, 22.542229], [113.9883446, 22.5420456], [113.9888745, 22.5420815], [113.9888599, 22.5422648], [113.98833, 22.542229]]]]}}, {"type": "Feature", "id": "way/435827470", "properties": {"tags": {"addr:housename": "华侨城创意文化园", "addr:housename:en": "OCT-LOFT Creative Culture Park", "addr:housename:zh": "华侨城创意文化园", "building": "commercial", "name": "Loft B5", "name:en": "Loft B5"}, "heightStatus": "unknown", "source": "OpenStreetMap", "license": "ODbL-1.0"}, "geometry": {"type": "MultiPolygon", "coordinates": [[[[113.9889473, 22.5425284], [113.9889574, 22.542401], [113.9894548, 22.5424346], [113.9894447, 22.542562], [113.9893598, 22.5425563], [113.9893563, 22.5426012], [113.9892008, 22.5425907], [113.9892044, 22.5425458], [113.9889473, 22.5425284]]]]}}, {"type": "Feature", "id": "way/435827471", "properties": {"tags": {"addr:housename": "华侨城创意文化园", "addr:housename:en": "OCT-LOFT Creative Culture Park", "addr:housename:zh": "华侨城创意文化园", "building": "commercial", "name": "Loft B4", "name:en": "Loft B4"}, "heightStatus": "unknown", "source": "OpenStreetMap", "license": "ODbL-1.0"}, "geometry": {"type": "MultiPolygon", "coordinates": [[[[113.9891611, 22.542287], [113.9891757, 22.5421036], [113.9897056, 22.5421395], [113.989691, 22.5423228], [113.9891611, 22.542287]]]]}}, {"type": "Feature", "id": "way/435827472", "properties": {"tags": {"addr:housename": "华侨城创意文化园", "addr:housename:en": "OCT-LOFT Creative Culture Park", "addr:housename:zh": "华侨城创意文化园", "building": "commercial", "name": "Loft B7", "name:en": "Loft B7"}, "heightStatus": "unknown", "source": "OpenStreetMap", "license": "ODbL-1.0"}, "geometry": {"type": "MultiPolygon", "coordinates": [[[[113.9898385, 22.542255], [113.9898445, 22.5421908], [113.9900742, 22.5422089], [113.9900779, 22.5421686], [113.9901594, 22.542175], [113.9901365, 22.5424235], [113.9900824, 22.5424192], [113.9900884, 22.5423544], [113.9900376, 22.5423505], [113.9900413, 22.5423104], [113.9898801, 22.5422977], [113.9898837, 22.5422585], [113.9898385, 22.542255]]]]}}, {"type": "Feature", "id": "way/532810249", "properties": {"tags": {"addr:housename": "华侨城创意文化园", "addr:housename:en": "OCT-LOFT Creative Culture Park", "addr:housename:zh": "华侨城创意文化园", "building": "commercial", "name": "Loft A3+", "name:en": "Loft A3+"}, "heightStatus": "unknown", "source": "OpenStreetMap", "license": "ODbL-1.0"}, "geometry": {"type": "MultiPolygon", "coordinates": [[[[113.9876607, 22.5419796], [113.9876625, 22.5419551], [113.9878235, 22.5419632], [113.9880748, 22.5419208], [113.988227, 22.5419387], [113.9882305, 22.5419796], [113.9879669, 22.5420041], [113.9876607, 22.5419796]]]]}}, {"type": "Feature", "id": "way/532810255", "properties": {"tags": {"addr:housename": "华侨城创意文化园", "addr:housename:en": "OCT-LOFT Creative Culture Park", "addr:housename:zh": "华侨城创意文化园", "building": "commercial", "name": "Loft C2", "name:en": "Loft C2"}, "heightStatus": "unknown", "source": "OpenStreetMap", "license": "ODbL-1.0"}, "geometry": {"type": "MultiPolygon", "coordinates": [[[[113.9870202, 22.543958], [113.9870468, 22.5434615], [113.9874526, 22.5434824], [113.9874276, 22.5438522], [113.9872185, 22.5439562], [113.9870202, 22.543958]]]]}}, {"type": "Feature", "id": "way/532810256", "properties": {"tags": {"addr:housename": "华侨城创意文化园", "addr:housename:en": "OCT-LOFT Creative Culture Park", "addr:housename:zh": "华侨城创意文化园", "building": "commercial", "name": "Loft C1", "name:en": "Loft C1"}, "heightStatus": "unknown", "source": "OpenStreetMap", "license": "ODbL-1.0"}, "geometry": {"type": "MultiPolygon", "coordinates": [[[[113.9862957, 22.543143], [113.9863145, 22.5429178], [113.9872686, 22.5429856], [113.9872499, 22.5432108], [113.9871927, 22.5432067], [113.9871883, 22.5432594], [113.9871362, 22.5432557], [113.9871406, 22.543203], [113.9869705, 22.543191], [113.9869645, 22.5432627], [113.9865849, 22.5432358], [113.9865909, 22.543164], [113.9862957, 22.543143]]]]}}, {"type": "Feature", "id": "way/532810257", "properties": {"tags": {"addr:housename": "华侨城创意文化园", "addr:housename:en": "OCT-LOFT Creative Culture Park", "addr:housename:zh": "华侨城创意文化园", "building": "commercial", "name": "Loft C3", "name:en": "Loft C3"}, "heightStatus": "unknown", "source": "OpenStreetMap", "license": "ODbL-1.0"}, "geometry": {"type": "MultiPolygon", "coordinates": [[[[113.9874669, 22.5437985], [113.987519, 22.54302], [113.9878185, 22.5430371], [113.9877663, 22.5438157], [113.9874669, 22.5437985]]]]}}, {"type": "Feature", "id": "way/532810258", "properties": {"tags": {"addr:housename": "华侨城创意文化园", "addr:housename:en": "OCT-LOFT Creative Culture Park", "addr:housename:zh": "华侨城创意文化园", "building": "commercial", "name": "Loft B8", "name:en": "Loft B8"}, "heightStatus": "unknown", "source": "OpenStreetMap", "license": "ODbL-1.0"}, "geometry": {"type": "MultiPolygon", "coordinates": [[[[113.9896001, 22.542615], [113.9896088, 22.5424774], [113.990007, 22.542499], [113.9899982, 22.5426366], [113.9896001, 22.542615]]]]}}, {"type": "Feature", "id": "way/532810259", "properties": {"tags": {"addr:housename": "华侨城创意文化园", "addr:housename:en": "OCT-LOFT Creative Culture Park", "addr:housename:zh": "华侨城创意文化园", "building": "commercial", "name": "Loft B9", "name:en": "Loft B9"}, "heightStatus": "unknown", "source": "OpenStreetMap", "license": "ODbL-1.0"}, "geometry": {"type": "MultiPolygon", "coordinates": [[[[113.9895563, 22.5428642], [113.9895681, 22.5426994], [113.9901219, 22.5427332], [113.9901101, 22.5428979], [113.9895563, 22.5428642]]]]}}, {"type": "Feature", "id": "way/532810260", "properties": {"tags": {"addr:housename": "华侨城创意文化园", "addr:housename:en": "OCT-LOFT Creative Culture Park", "addr:housename:zh": "华侨城创意文化园", "building": "commercial", "name": "Loft B1", "name:en": "Loft B1"}, "heightStatus": "unknown", "source": "OpenStreetMap", "license": "ODbL-1.0"}, "geometry": {"type": "MultiPolygon", "coordinates": [[[[113.9883771, 22.541845], [113.98839, 22.5416936], [113.9884151, 22.5416954], [113.9884181, 22.5416596], [113.9890624, 22.5417061], [113.9890594, 22.541742], [113.989111, 22.5417457], [113.9890982, 22.5418971], [113.9890466, 22.5418934], [113.9890435, 22.5419292], [113.9883992, 22.5418826], [113.9884023, 22.5418468], [113.9883771, 22.541845]]]]}}, {"type": "Feature", "id": "way/532810262", "properties": {"tags": {"addr:housename": "华侨城创意文化园", "addr:housename:en": "OCT-LOFT Creative Culture Park", "addr:housename:zh": "华侨城创意文化园", "building": "commercial", "name": "Loft B3", "name:en": "Loft B3"}, "heightStatus": "unknown", "source": "OpenStreetMap", "license": "ODbL-1.0"}, "geometry": {"type": "MultiPolygon", "coordinates": [[[[113.9892029, 22.5419019], [113.9892157, 22.5417505], [113.9892408, 22.5417524], [113.9892439, 22.5417165], [113.9900912, 22.5417777], [113.9900881, 22.5418135], [113.9901398, 22.5418173], [113.9901269, 22.5419687], [113.9900753, 22.5419649], [113.9900723, 22.5420008], [113.989225, 22.5419396], [113.989228, 22.5419038], [113.9892029, 22.5419019]]]]}}, {"type": "Feature", "id": "way/532810264", "properties": {"tags": {"building": "yes", "name": "恩平南街3栋", "name:en": "Enping South Street Block 3", "name:zh": "恩平南街3栋"}, "heightStatus": "unknown", "source": "OpenStreetMap", "license": "ODbL-1.0"}, "geometry": {"type": "MultiPolygon", "coordinates": [[[[113.9878019, 22.5411341], [113.9878106, 22.5410178], [113.9882855, 22.5410479], [113.9882769, 22.5411642], [113.9878019, 22.5411341]]]]}}, {"type": "Feature", "id": "way/532810266", "properties": {"tags": {"building": "yes", "name": "恩平南街2栋", "name:en": "Enping South Street Block 2", "name:zh": "恩平南街2栋"}, "heightStatus": "unknown", "source": "OpenStreetMap", "license": "ODbL-1.0"}, "geometry": {"type": "MultiPolygon", "coordinates": [[[[113.9883921, 22.5411875], [113.9884002, 22.5410854], [113.9887199, 22.5411071], [113.9887118, 22.5412092], [113.9883921, 22.5411875]]]]}}, {"type": "Feature", "id": "way/532810267", "properties": {"tags": {"building": "yes", "name": "恩平南街1栋", "name:en": "Enping South Street Block 1", "name:zh": "恩平南街1栋"}, "heightStatus": "unknown", "source": "OpenStreetMap", "license": "ODbL-1.0"}, "geometry": {"type": "MultiPolygon", "coordinates": [[[[113.9884165, 22.5408927], [113.9884247, 22.5407906], [113.9887443, 22.5408123], [113.9887362, 22.5409144], [113.9884165, 22.5408927]]]]}}, {"type": "Feature", "id": "way/532810268", "properties": {"tags": {"addr:housename": "华侨城创意文化园", "addr:housename:en": "OCT-LOFT Creative Culture Park", "addr:housename:zh": "华侨城创意文化园", "building": "yes", "name": "Loft F7", "name:en": "Loft F7"}, "heightStatus": "unknown", "source": "OpenStreetMap", "license": "ODbL-1.0"}, "geometry": {"type": "MultiPolygon", "coordinates": [[[[113.9887719, 22.5411653], [113.988805, 22.5407419], [113.9891253, 22.5407633], [113.9890922, 22.5411867], [113.9887719, 22.5411653]]]]}}, {"type": "Feature", "id": "way/532810269", "properties": {"tags": {"addr:housename": "华侨城创意文化园", "addr:housename:en": "OCT-LOFT Creative Culture Park", "addr:housename:zh": "华侨城创意文化园", "building": "retail", "name": "Loft F1", "name:en": "Loft F1"}, "heightStatus": "unknown", "source": "OpenStreetMap", "license": "ODbL-1.0"}, "geometry": {"type": "MultiPolygon", "coordinates": [[[[113.9877882, 22.5406016], [113.9878224, 22.5401257], [113.9885694, 22.5401715], [113.9886025, 22.5401735], [113.9886098, 22.5400729], [113.9892115, 22.5401097], [113.9891702, 22.5406862], [113.9885352, 22.5406473], [113.9877882, 22.5406016]]]]}}, {"type": "Feature", "id": "way/532810274", "properties": {"tags": {"addr:housename": "华侨城创意文化园", "addr:housename:en": "OCT-LOFT Creative Culture Park", "addr:housename:zh": "华侨城创意文化园", "building": "commercial", "name": "Loft F3", "name:en": "Loft F3"}, "heightStatus": "unknown", "source": "OpenStreetMap", "license": "ODbL-1.0"}, "geometry": {"type": "MultiPolygon", "coordinates": [[[[113.9878324, 22.540034], [113.9878606, 22.539664], [113.9884722, 22.5397038], [113.988444, 22.5400738], [113.9878324, 22.540034]]]]}}, {"type": "Feature", "id": "way/532810275", "properties": {"tags": {"addr:housename": "华侨城创意文化园", "addr:housename:en": "OCT-LOFT Creative Culture Park", "addr:housename:zh": "华侨城创意文化园", "building": "commercial", "name": "Loft F2", "name:en": "Loft F2"}, "heightStatus": "unknown", "source": "OpenStreetMap", "license": "ODbL-1.0"}, "geometry": {"type": "MultiPolygon", "coordinates": [[[[113.9886053, 22.5399465], [113.9886229, 22.5397015], [113.9891283, 22.5397327], [113.9891106, 22.5399776], [113.9886053, 22.5399465]]]]}}, {"type": "Feature", "id": "way/532810277", "properties": {"tags": {"addr:housename": "华侨城创意文化园", "addr:housename:en": "OCT-LOFT Creative Culture Park", "addr:housename:zh": "华侨城创意文化园", "building": "commercial", "name": "Loft F4", "name:en": "Loft F4"}, "heightStatus": "unknown", "source": "OpenStreetMap", "license": "ODbL-1.0"}, "geometry": {"type": "MultiPolygon", "coordinates": [[[[113.9881512, 22.539589], [113.9881578, 22.539494], [113.9884938, 22.5395138], [113.9884872, 22.5396089], [113.9881512, 22.539589]]]]}}, {"type": "Feature", "id": "way/532810279", "properties": {"tags": {"addr:housename": "华侨城创意文化园", "addr:housename:en": "OCT-LOFT Creative Culture Park", "addr:housename:zh": "华侨城创意文化园", "building": "yes", "name": "Loft E5", "name:en": "Loft E5"}, "heightStatus": "unknown", "source": "OpenStreetMap", "license": "ODbL-1.0"}, "geometry": {"type": "MultiPolygon", "coordinates": [[[[113.9879039, 22.539311], [113.9879143, 22.5391377], [113.988553, 22.5391703], [113.9885426, 22.5393436], [113.9879039, 22.539311]]]]}}, {"type": "Feature", "id": "way/532810280", "properties": {"tags": {"addr:housename": "华侨城创意文化园", "addr:housename:en": "OCT-LOFT Creative Culture Park", "addr:housename:zh": "华侨城创意文化园", "building": "yes", "name": "Loft E6", "name:en": "Loft E6"}, "heightStatus": "unknown", "source": "OpenStreetMap", "license": "ODbL-1.0"}, "geometry": {"type": "MultiPolygon", "coordinates": [[[[113.988732, 22.5393513], [113.9887376, 22.5392713], [113.9887641, 22.5392728], [113.9887681, 22.5392153], [113.988839, 22.5392053], [113.9892529, 22.5392298], [113.9892243, 22.5396418], [113.9888115, 22.5396174], [113.9888223, 22.5394627], [113.9890428, 22.5394757], [113.9890501, 22.5393701], [113.988732, 22.5393513]]]]}}, {"type": "Feature", "id": "way/532810282", "properties": {"tags": {"building": "yes", "name": "文昌北街1栋", "name:en": "Wenchang North Street Block 1", "name:zh": "文昌北街1栋"}, "heightStatus": "unknown", "source": "OpenStreetMap", "license": "ODbL-1.0"}, "geometry": {"type": "MultiPolygon", "coordinates": [[[[113.987833, 22.5432448], [113.9878406, 22.5431382], [113.9881563, 22.5431574], [113.9881487, 22.543264], [113.987833, 22.5432448]]]]}}, {"type": "Feature", "id": "way/532810284", "properties": {"tags": {"building": "yes", "name": "文昌北街2栋", "name:en": "Wenchang North Street Block 2", "name:zh": "文昌北街2栋"}, "heightStatus": "unknown", "source": "OpenStreetMap", "license": "ODbL-1.0"}, "geometry": {"type": "MultiPolygon", "coordinates": [[[[113.9882393, 22.5432253], [113.9882485, 22.5431198], [113.9885506, 22.5431422], [113.9885414, 22.5432476], [113.9882393, 22.5432253]]]]}}, {"type": "Feature", "id": "way/532810285", "properties": {"tags": {"building": "yes", "name": "文昌北街3栋", "name:en": "Wenchang North Street Block 3", "name:zh": "文昌北街3栋"}, "heightStatus": "unknown", "source": "OpenStreetMap", "license": "ODbL-1.0"}, "geometry": {"type": "MultiPolygon", "coordinates": [[[[113.9886936, 22.5432533], [113.988704, 22.5431479], [113.9890058, 22.5431733], [113.9889954, 22.5432787], [113.9886936, 22.5432533]]]]}}, {"type": "Feature", "id": "way/532810286", "properties": {"tags": {"building": "yes"}, "heightStatus": "unknown", "source": "OpenStreetMap", "license": "ODbL-1.0"}, "geometry": {"type": "MultiPolygon", "coordinates": [[[[113.9879198, 22.5437342], [113.9879516, 22.5433434], [113.9881679, 22.5433545], [113.9881694, 22.5433298], [113.9884657, 22.5433444], [113.9884644, 22.5433666], [113.9885219, 22.5433694], [113.988503, 22.5436601], [113.9879198, 22.5437342]]]]}}, {"type": "Feature", "id": "way/532810287", "properties": {"tags": {"addr:city": "深圳市", "addr:country": "CN", "addr:neighbourhood": "香山街社区", "addr:postcode": "518051", "addr:province": "广东省", "addr:street": "文昌街", "addr:subdistrict": "沙河街道", "building": "yes", "building:levels": "6", "name": "玺程设计酒店", "name:en": "XW Hotel", "name:zh": "玺程设计酒店", "name:zh-Hans": "玺程设计酒店", "name:zh-Hant": "玺程設計酒店", "tourism": "hotel"}, "heightStatus": "levels_only_unverified", "source": "OpenStreetMap", "license": "ODbL-1.0"}, "geometry": {"type": "MultiPolygon", "coordinates": [[[[113.9886288, 22.5435603], [113.9886468, 22.5433343], [113.9887246, 22.5433396], [113.9887274, 22.5433045], [113.9892906, 22.5433428], [113.9892717, 22.5435795], [113.9888109, 22.5435482], [113.9888089, 22.5435725], [113.9886288, 22.5435603]]]]}}, {"type": "Feature", "id": "way/532810288", "properties": {"tags": {"addr:housename": "华侨城创意文化园", "addr:housename:en": "OCT-LOFT Creative Culture Park", "addr:housename:zh": "华侨城创意文化园", "building": "commercial", "name": "Loft C8", "name:en": "Loft C8"}, "heightStatus": "unknown", "source": "OpenStreetMap", "license": "ODbL-1.0"}, "geometry": {"type": "MultiPolygon", "coordinates": [[[[113.9896104, 22.5433306], [113.989623, 22.5431093], [113.9900562, 22.5431304], [113.9900436, 22.5433517], [113.9896104, 22.5433306]]]]}}, {"type": "Feature", "id": "way/532810292", "properties": {"tags": {"addr:housename": "华侨城创意文化园", "addr:housename:en": "OCT-LOFT Creative Culture Park", "addr:housename:zh": "华侨城创意文化园", "building": "yes", "name": "Loft E2", "name:en": "Loft E2"}, "heightStatus": "unknown", "source": "OpenStreetMap", "license": "ODbL-1.0"}, "geometry": {"type": "MultiPolygon", "coordinates": [[[[113.9869401, 22.5402349], [113.9869533, 22.5400729], [113.9875911, 22.5401173], [113.9875779, 22.5402794], [113.9869401, 22.5402349]]]]}}, {"type": "Feature", "id": "way/532810293", "properties": {"tags": {"addr:housename": "华侨城创意文化园", "addr:housename:en": "OCT-LOFT Creative Culture Park", "addr:housename:zh": "华侨城创意文化园", "building": "yes", "name": "Loft E3", "name:en": "Loft E3"}, "heightStatus": "unknown", "source": "OpenStreetMap", "license": "ODbL-1.0"}, "geometry": {"type": "MultiPolygon", "coordinates": [[[[113.9869096, 22.5406028], [113.9869228, 22.5404407], [113.9875606, 22.5404852], [113.9875474, 22.5406472], [113.9869096, 22.5406028]]]]}}, {"type": "Feature", "id": "way/532810294", "properties": {"tags": {"addr:housename": "华侨城创意文化园", "addr:housename:en": "OCT-LOFT Creative Culture Park", "addr:housename:zh": "华侨城创意文化园", "building": "yes", "name": "Loft E4", "name:en": "Loft E4"}, "heightStatus": "unknown", "source": "OpenStreetMap", "license": "ODbL-1.0"}, "geometry": {"type": "MultiPolygon", "coordinates": [[[[113.986959, 22.5409175], [113.9870446, 22.5408796], [113.9870516, 22.5408053], [113.9875879, 22.5408023], [113.9876397, 22.5411254], [113.9876091, 22.5411357], [113.9876117, 22.5411661], [113.9876494, 22.5411656], [113.9876489, 22.5412534], [113.9875613, 22.5412534], [113.98756, 22.5412], [113.9875047, 22.5412156], [113.9875182, 22.5412667], [113.9871847, 22.5413596], [113.9870697, 22.5413065], [113.986959, 22.5409175]]]]}}, {"type": "Feature", "id": "way/532810295", "properties": {"tags": {"addr:housename": "华侨城创意文化园", "addr:housename:en": "OCT-LOFT Creative Culture Park", "addr:housename:zh": "华侨城创意文化园", "building": "retail", "name": "Loft E1", "name:en": "Loft E1"}, "heightStatus": "unknown", "source": "OpenStreetMap", "license": "ODbL-1.0"}, "geometry": {"type": "MultiPolygon", "coordinates": [[[[113.9870209, 22.5398434], [113.9870343, 22.5396199], [113.9875909, 22.5396484], [113.9875775, 22.5398719], [113.9870209, 22.5398434]]]]}}, {"type": "Feature", "id": "way/532810298", "properties": {"tags": {"building": "yes", "layer": "1"}, "heightStatus": "unknown", "source": "OpenStreetMap", "license": "ODbL-1.0"}, "geometry": {"type": "MultiPolygon", "coordinates": [[[[113.9890486, 22.5368856], [113.989058, 22.5368068], [113.9890865, 22.5368103], [113.9890998, 22.5365843], [113.9892951, 22.5366001], [113.9892724, 22.5368225], [113.9892932, 22.536826], [113.9892875, 22.5368944], [113.9890486, 22.5368856]]]]}}, {"type": "Feature", "id": "way/532810314", "properties": {"tags": {"building": "residential"}, "heightStatus": "unknown", "source": "OpenStreetMap", "license": "ODbL-1.0"}, "geometry": {"type": "MultiPolygon", "coordinates": [[[[113.9870737, 22.539525], [113.9870851, 22.5393581], [113.9874741, 22.5393809], [113.9874974, 22.5393658], [113.9876059, 22.5393714], [113.9876217, 22.5391116], [113.9875468, 22.5391077], [113.9875527, 22.5390118], [113.9873962, 22.5390036], [113.9873984, 22.5389668], [113.9873267, 22.5389629], [113.9873223, 22.5390325], [113.9872608, 22.5390292], [113.9872658, 22.5389517], [113.987195, 22.5389478], [113.9871991, 22.538885], [113.987337, 22.5388926], [113.987339, 22.5388621], [113.9876018, 22.5388771], [113.9875962, 22.5389604], [113.9876826, 22.5389654], [113.9876785, 22.5390254], [113.9877288, 22.5390284], [113.9876923, 22.5395611], [113.9870737, 22.539525]]]]}}, {"type": "Feature", "id": "way/532810318", "properties": {"tags": {"building": "residential"}, "heightStatus": "unknown", "source": "OpenStreetMap", "license": "ODbL-1.0"}, "geometry": {"type": "MultiPolygon", "coordinates": [[[[113.9871974, 22.5386095], [113.987221, 22.5383405], [113.9877147, 22.5383775], [113.9876911, 22.5386464], [113.9871974, 22.5386095]]]]}}, {"type": "Feature", "id": "way/532810319", "properties": {"tags": {"building": "yes", "name": "美林大厦", "name:en": "Meilin Building", "name:zh": "美林大厦"}, "heightStatus": "unknown", "source": "OpenStreetMap", "license": "ODbL-1.0"}, "geometry": {"type": "MultiPolygon", "coordinates": [[[[113.9878103, 22.5389074], [113.9878279, 22.5387064], [113.9886027, 22.5387645], [113.9885851, 22.5389654], [113.9878103, 22.5389074]]]]}}, {"type": "Feature", "id": "way/532810321", "properties": {"tags": {"building": "residential"}, "heightStatus": "unknown", "source": "OpenStreetMap", "license": "ODbL-1.0"}, "geometry": {"type": "MultiPolygon", "coordinates": [[[[113.9868205, 22.5385115], [113.9868228, 22.5384718], [113.9868487, 22.5384731], [113.9868534, 22.5383928], [113.9868871, 22.5383945], [113.9869395, 22.5383383], [113.9869606, 22.53834], [113.9869637, 22.5383072], [113.987075, 22.538316], [113.9870716, 22.5383524], [113.9871005, 22.5383547], [113.9871405, 22.538413], [113.9871752, 22.5384155], [113.9871688, 22.5384911], [113.9871872, 22.5384925], [113.9871834, 22.5385381], [113.987161, 22.5385365], [113.9871586, 22.5385652], [113.9871117, 22.5385618], [113.9870798, 22.5385837], [113.9870561, 22.5385822], [113.9870542, 22.5386085], [113.9869409, 22.5386013], [113.9869431, 22.5385724], [113.9869202, 22.5385709], [113.9868887, 22.5385396], [113.9868485, 22.5385376], [113.98685, 22.538513], [113.9868205, 22.5385115]]]]}}, {"type": "Feature", "id": "way/532810322", "properties": {"tags": {"addr:housename": "华侨城创意文化园", "addr:housename:en": "OCT-LOFT Creative Culture Park", "addr:housename:zh": "华侨城创意文化园", "building": "commercial", "name": "Loft G2", "name:en": "Loft G2"}, "heightStatus": "unknown", "source": "OpenStreetMap", "license": "ODbL-1.0"}, "geometry": {"type": "MultiPolygon", "coordinates": [[[[113.9893781, 22.5413547], [113.9893968, 22.5411373], [113.9902082, 22.5411969], [113.9901894, 22.5414143], [113.9893781, 22.5413547]]]]}}, {"type": "Feature", "id": "way/532810323", "properties": {"tags": {"addr:housename": "华侨城创意文化园", "addr:housename:en": "OCT-LOFT Creative Culture Park", "addr:housename:zh": "华侨城创意文化园", "building": "commercial", "name": "Loft G1", "name:en": "Loft G1"}, "heightStatus": "unknown", "source": "OpenStreetMap", "license": "ODbL-1.0"}, "geometry": {"type": "MultiPolygon", "coordinates": [[[[113.9893516, 22.5409035], [113.9893826, 22.5405316], [113.9901944, 22.5405895], [113.9901764, 22.5408048], [113.9895446, 22.5407598], [113.9895316, 22.5409163], [113.9893516, 22.5409035]]]]}}, {"type": "Feature", "id": "way/532810324", "properties": {"tags": {"building": "yes", "name": "华里酒店", "tourism": "hotel"}, "heightStatus": "unknown", "source": "OpenStreetMap", "license": "ODbL-1.0"}, "geometry": {"type": "MultiPolygon", "coordinates": [[[[113.99063, 22.5396147], [113.9906326, 22.5394487], [113.9910422, 22.5394542], [113.9910418, 22.5394793], [113.9912594, 22.5394823], [113.991263, 22.5392554], [113.9906922, 22.5392476], [113.9906958, 22.5390216], [113.9913162, 22.5390301], [113.9913155, 22.5390757], [113.9913631, 22.5390764], [113.9913543, 22.5396246], [113.99063, 22.5396147]]]]}}, {"type": "Feature", "id": "way/532810325", "properties": {"tags": {"addr:housename": "华侨城创意文化园东部工业区", "addr:housename:en": "OCT-LOFT Creative Culture Park East Industrial Area", "addr:housename:zh": "华侨城创意文化园东部工业区", "building": "industrial", "name": "H1栋", "name:en": "Block H1", "name:zh": "H1栋"}, "heightStatus": "unknown", "source": "OpenStreetMap", "license": "ODbL-1.0"}, "geometry": {"type": "MultiPolygon", "coordinates": [[[[113.9904808, 22.5399346], [113.9904954, 22.5397491], [113.9916834, 22.5398286], [113.9916665, 22.5400447], [113.9914718, 22.5400316], [113.9914676, 22.5400843], [113.9913365, 22.5400755], [113.9913406, 22.5400228], [113.9905437, 22.5399695], [113.9905461, 22.539939], [113.9904808, 22.5399346]]]]}}, {"type": "Feature", "id": "relation/7654579", "properties": {"tags": {"addr:housename": "华侨城创意文化园东部工业区", "addr:housename:en": "OCT-LOFT Creative Culture Park East Industrial Area", "addr:housename:zh": "华侨城创意文化园东部工业区", "building": "industrial", "name": "H2栋", "name:en": "Block H2", "name:zh": "H2栋"}, "heightStatus": "unknown", "source": "OpenStreetMap", "license": "ODbL-1.0"}, "geometry": {"type": "MultiPolygon", "coordinates": [[[[113.9905201, 22.5403034], [113.9905334, 22.5401339], [113.9913561, 22.540189], [113.9913297, 22.5405258], [113.991393, 22.54053], [113.9913747, 22.5407634], [113.9905439, 22.5407077], [113.9905616, 22.5404813], [113.9906144, 22.5404848], [113.990628, 22.5403107], [113.9905201, 22.5403034]], [[113.9906975, 22.5404973], [113.9911615, 22.5405284], [113.9911757, 22.5403473], [113.9907118, 22.5403163], [113.9906975, 22.5404973]]]]}}, {"type": "Feature", "id": "relation/7654580", "properties": {"tags": {"addr:housename": "华侨城创意文化园东部工业区", "addr:housename:en": "OCT-LOFT Creative Culture Park East Industrial Area", "addr:housename:zh": "华侨城创意文化园东部工业区", "building": "industrial", "name": "H3栋", "name:en": "Block H3", "name:zh": "H3栋"}, "heightStatus": "unknown", "source": "OpenStreetMap", "license": "ODbL-1.0"}, "geometry": {"type": "MultiPolygon", "coordinates": [[[[113.9904856, 22.5411244], [113.990503, 22.5409021], [113.991509, 22.5409694], [113.9914915, 22.5411917], [113.9913903, 22.541185], [113.9913766, 22.5413593], [113.9914136, 22.5413617], [113.9914069, 22.5414473], [113.9913699, 22.5414448], [113.991363, 22.5415327], [113.9906957, 22.541488], [113.9907015, 22.5414142], [113.9906803, 22.5413915], [113.9907002, 22.5411388], [113.9904856, 22.5411244]], [[113.9908838, 22.5413268], [113.9912882, 22.5413539], [113.9913019, 22.5411799], [113.9908975, 22.5411528], [113.9908838, 22.5413268]]]]}}, {"type": "Feature", "id": "way/532810331", "properties": {"tags": {"building": "yes"}, "heightStatus": "unknown", "source": "OpenStreetMap", "license": "ODbL-1.0"}, "geometry": {"type": "MultiPolygon", "coordinates": [[[[113.9904249, 22.5427562], [113.9905495, 22.5418193], [113.9910474, 22.5418758], [113.9909228, 22.5428127], [113.9904249, 22.5427562]]]]}}, {"type": "Feature", "id": "way/532810332", "properties": {"tags": {"building": "yes"}, "heightStatus": "unknown", "source": "OpenStreetMap", "license": "ODbL-1.0"}, "geometry": {"type": "MultiPolygon", "coordinates": [[[[113.9904011, 22.5429707], [113.9905166, 22.5429554], [113.9905368, 22.5430859], [113.9907974, 22.5430515], [113.9907772, 22.542921], [113.9908928, 22.5429058], [113.9909294, 22.5431429], [113.9904378, 22.5432078], [113.9904011, 22.5429707]]]]}}, {"type": "Feature", "id": "way/1273285295", "properties": {"tags": {"building": "office", "building:levels": "50", "layer": "2", "name": "A栋", "name:en": "Block A", "name:zh": "A栋"}, "heightStatus": "levels_only_unverified", "source": "OpenStreetMap", "license": "ODbL-1.0"}, "geometry": {"type": "MultiPolygon", "coordinates": [[[[113.9889276, 22.5447468], [113.9889518, 22.5447089], [113.9892388, 22.5446817], [113.9892804, 22.5447201], [113.9893028, 22.5448726], [113.9892948, 22.5448832], [113.989279, 22.5448847], [113.9892868, 22.5449568], [113.989309, 22.5449625], [113.9893178, 22.5449797], [113.9893329, 22.5451259], [113.9893099, 22.5451553], [113.9890232, 22.5451823], [113.9889922, 22.5451652], [113.9889781, 22.5451415], [113.9889621, 22.5449952], [113.988994, 22.5449698], [113.9889816, 22.5449053], [113.9889515, 22.5448979], [113.9889276, 22.5447468]]]]}}, {"type": "Feature", "id": "way/1273285296", "properties": {"tags": {"building": "office", "building:levels": "50", "layer": "2", "name": "B栋", "name:en": "Block B", "name:zh": "B栋"}, "heightStatus": "levels_only_unverified", "source": "OpenStreetMap", "license": "ODbL-1.0"}, "geometry": {"type": "MultiPolygon", "coordinates": [[[[113.9884409, 22.5447697], [113.9884653, 22.5447519], [113.9887112, 22.5447416], [113.9887285, 22.5447528], [113.9887539, 22.5449631], [113.9887417, 22.5449781], [113.9884917, 22.5449941], [113.9884693, 22.5449828], [113.9884409, 22.5447697]]]]}}, {"type": "Feature", "id": "way/1273285297", "properties": {"tags": {"building": "office", "building:levels": "50", "layer": "2", "name": "C栋", "name:en": "Block C", "name:zh": "C栋"}, "heightStatus": "levels_only_unverified", "source": "OpenStreetMap", "license": "ODbL-1.0"}, "geometry": {"type": "MultiPolygon", "coordinates": [[[[113.9880791, 22.5448529], [113.9881061, 22.5448209], [113.9883895, 22.5447689], [113.9884126, 22.544781], [113.9884458, 22.5449816], [113.9884342, 22.5450001], [113.9881407, 22.5450528], [113.9881107, 22.5450414], [113.9880791, 22.5448529]]]]}}, {"type": "Feature", "id": "way/1273285298", "properties": {"tags": {"building": "retail", "building:levels": "3", "layer": "1"}, "heightStatus": "levels_only_unverified", "source": "OpenStreetMap", "license": "ODbL-1.0"}, "geometry": {"type": "MultiPolygon", "coordinates": [[[[113.9880221, 22.5447996], [113.98872, 22.5447171], [113.9887693, 22.5447412], [113.9888707, 22.544729], [113.9888987, 22.5447256], [113.9889202, 22.5446943], [113.9892334, 22.5446527], [113.9892918, 22.5446957], [113.9893585, 22.545209], [113.9889589, 22.5452412], [113.9889227, 22.5449873], [113.9880791, 22.5450963], [113.9880221, 22.5447996]]]]}}, {"type": "Feature", "id": "way/1348495976", "properties": {"tags": {"addr:housename": "锦绣花园", "addr:housename:en": "Jinxiu Garden", "addr:housename:zh": "锦绣花园", "building": "apartments", "name": "四期A栋", "name:en": "Phase 4 Block A", "name:zh": "四期A栋"}, "heightStatus": "unknown", "source": "OpenStreetMap", "license": "ODbL-1.0"}, "geometry": {"type": "MultiPolygon", "coordinates": [[[[113.9894706, 22.5396328], [113.9894881, 22.5393804], [113.9897751, 22.5393974], [113.9897575, 22.5396498], [113.9894706, 22.5396328]]]]}}, {"type": "Feature", "id": "way/1348495978", "properties": {"tags": {"addr:housename": "锦绣花园", "addr:housename:en": "Jinxiu Garden", "addr:housename:zh": "锦绣花园", "building": "apartments", "name": "四期A栋", "name:en": "Phase 4 Block A", "name:zh": "四期A栋"}, "heightStatus": "unknown", "source": "OpenStreetMap", "license": "ODbL-1.0"}, "geometry": {"type": "MultiPolygon", "coordinates": [[[[113.9894374, 22.5404015], [113.9894538, 22.5401658], [113.9895485, 22.5401714], [113.9895472, 22.5401899], [113.9900147, 22.5402176], [113.990016, 22.5401991], [113.9901107, 22.5402047], [113.9900943, 22.5404404], [113.9899167, 22.5404299], [113.9899213, 22.540364], [113.9896196, 22.5403461], [113.989615, 22.540412], [113.9894374, 22.5404015]]]]}}, {"type": "Feature", "id": "way/1348496007", "properties": {"tags": {"building": "apartments"}, "heightStatus": "unknown", "source": "OpenStreetMap", "license": "ODbL-1.0"}, "geometry": {"type": "MultiPolygon", "coordinates": [[[[113.9853612, 22.5370336], [113.9853657, 22.5369794], [113.9853879, 22.536981], [113.9853927, 22.5369226], [113.9855111, 22.5369309], [113.9855134, 22.5369035], [113.9856492, 22.536913], [113.9856453, 22.5369606], [113.9857576, 22.5369685], [113.9857599, 22.536941], [113.9858719, 22.5369488], [113.985865, 22.5370329], [113.9859547, 22.5370391], [113.9859616, 22.5369551], [113.9860736, 22.5369629], [113.9860714, 22.5369903], [113.9861837, 22.5369981], [113.9861876, 22.5369505], [113.9863235, 22.53696], [113.9863212, 22.5369874], [113.9864396, 22.5369957], [113.9864348, 22.5370541], [113.986457, 22.5370557], [113.9864526, 22.5371099], [113.9863703, 22.5371041], [113.986373, 22.5370704], [113.9862071, 22.5370588], [113.9862027, 22.5371127], [113.9861204, 22.537107], [113.9861232, 22.5370734], [113.9860649, 22.5370693], [113.9860622, 22.5371029], [113.9857485, 22.5370811], [113.9857512, 22.5370473], [113.9856928, 22.5370432], [113.9856901, 22.537077], [113.9856078, 22.5370712], [113.9856122, 22.5370173], [113.9854463, 22.5370057], [113.9854435, 22.5370394], [113.9853612, 22.5370336]]]]}}, {"type": "Feature", "id": "way/1348496009", "properties": {"tags": {"addr:housename": "锦绣花园", "addr:housename:en": "Jinxiu Garden", "addr:housename:zh": "锦绣花园", "building": "apartments", "building:levels": "33", "name": "二期C栋", "name:en": "Phase 2 Block C", "name:zh": "二期C栋"}, "heightStatus": "levels_only_unverified", "source": "OpenStreetMap", "license": "ODbL-1.0"}, "geometry": {"type": "MultiPolygon", "coordinates": [[[[113.9890575, 22.5381991], [113.9891195, 22.538155], [113.9890714, 22.5380973], [113.9891029, 22.5380749], [113.9890658, 22.5380304], [113.9891343, 22.5379817], [113.9891713, 22.5380261], [113.989195, 22.5380093], [113.9891579, 22.5379649], [113.9892321, 22.537912], [113.9892905, 22.537982], [113.9893434, 22.5379883], [113.9894192, 22.5379343], [113.9894764, 22.5380029], [113.9894283, 22.5380371], [113.9894466, 22.538059], [113.9894947, 22.5380247], [113.9895474, 22.5380879], [113.9894993, 22.5381222], [113.9895237, 22.5381513], [113.9894613, 22.5381958], [113.9895091, 22.538253], [113.9894159, 22.5383193], [113.9893128, 22.5381957], [113.9894102, 22.5381264], [113.9893953, 22.5381085], [113.9892073, 22.5380861], [113.989188, 22.5380998], [113.9892631, 22.5381898], [113.9891293, 22.5382851], [113.9890575, 22.5381991]]]]}}, {"type": "Feature", "id": "way/1348496010", "properties": {"tags": {"addr:housename": "锦绣花园", "addr:housename:en": "Jinxiu Garden", "addr:housename:zh": "锦绣花园", "building": "apartments", "building:levels": "33", "name": "二期B栋", "name:en": "Phase 2 Block B", "name:zh": "二期B栋"}, "heightStatus": "levels_only_unverified", "source": "OpenStreetMap", "license": "ODbL-1.0"}, "geometry": {"type": "MultiPolygon", "coordinates": [[[[113.9889946, 22.5374577], [113.9890636, 22.5374237], [113.9890266, 22.5373595], [113.9890618, 22.5373422], [113.9890332, 22.5372927], [113.9891094, 22.5372552], [113.989138, 22.5373047], [113.9891643, 22.5372917], [113.9891358, 22.5372422], [113.9892185, 22.5372015], [113.9892635, 22.5372795], [113.9893145, 22.5372938], [113.9893989, 22.5372523], [113.989443, 22.5373286], [113.9893894, 22.537355], [113.9894035, 22.5373794], [113.9894571, 22.537353], [113.9894977, 22.5374234], [113.9894441, 22.5374498], [113.9894628, 22.5374823], [113.9893933, 22.5375165], [113.9894301, 22.5375803], [113.9893263, 22.5376314], [113.9892469, 22.5374937], [113.9893554, 22.5374402], [113.989344, 22.5374203], [113.9891626, 22.5373693], [113.9891411, 22.5373799], [113.989199, 22.5374802], [113.9890499, 22.5375536], [113.9889946, 22.5374577]]]]}}, {"type": "Feature", "id": "way/1348496011", "properties": {"tags": {"building": "yes"}, "heightStatus": "unknown", "source": "OpenStreetMap", "license": "ODbL-1.0"}, "geometry": {"type": "MultiPolygon", "coordinates": [[[[113.9897679, 22.5377725], [113.9897796, 22.5376477], [113.9898872, 22.5376563], [113.9899144, 22.5373656], [113.9898067, 22.537357], [113.9898192, 22.5372235], [113.9898743, 22.5372279], [113.9898779, 22.5371897], [113.9898229, 22.5371426], [113.9898239, 22.5370733], [113.9898802, 22.5370276], [113.9899547, 22.5370355], [113.9899982, 22.537092], [113.9900481, 22.5370959], [113.9900346, 22.5372406], [113.9901271, 22.537248], [113.9901212, 22.5373117], [113.9902057, 22.5373184], [113.9901604, 22.5378038], [113.9897679, 22.5377725]]]]}}, {"type": "Feature", "id": "way/1348496012", "properties": {"tags": {"addr:housename": "锦绣花园", "addr:housename:en": "Jinxiu Garden", "addr:housename:zh": "锦绣花园", "building": "apartments", "building:levels": "33", "name": "观海阁", "name:en": "Guanhai Tower", "name:zh": "观海阁"}, "heightStatus": "levels_only_unverified", "source": "OpenStreetMap", "license": "ODbL-1.0"}, "geometry": {"type": "MultiPolygon", "coordinates": [[[[113.9917207, 22.536179], [113.9917249, 22.5361648], [113.9917331, 22.5361522], [113.9917447, 22.5361421], [113.9917513, 22.5360775], [113.991742, 22.5360656], [113.9917365, 22.5360518], [113.9917352, 22.5360372], [113.9917382, 22.5360227], [113.9917453, 22.5360096], [113.9918181, 22.535954], [113.9918335, 22.53595], [113.9918494, 22.53595], [113.9918647, 22.5359539], [113.9918783, 22.5359614], [113.9918893, 22.5359721], [113.9919592, 22.5359782], [113.9919721, 22.5359696], [113.9919871, 22.5359646], [113.9920029, 22.5359634], [113.9920186, 22.5359662], [113.9920328, 22.5359727], [113.992093, 22.53604], [113.9920973, 22.5360541], [113.9920973, 22.5360688], [113.9920931, 22.536083], [113.9920849, 22.5360956], [113.9920734, 22.5361057], [113.9920667, 22.5361703], [113.992076, 22.5361822], [113.9920815, 22.536196], [113.9920828, 22.5362106], [113.9920798, 22.5362251], [113.9920727, 22.5362382], [113.9919999, 22.5362939], [113.9919846, 22.5362978], [113.9919687, 22.5362978], [113.9919533, 22.5362939], [113.9919397, 22.5362864], [113.9919288, 22.5362757], [113.9918588, 22.5362696], [113.9918459, 22.5362782], [113.991831, 22.5362832], [113.9918151, 22.5362844], [113.9917995, 22.5362816], [113.9917852, 22.5362751], [113.991725, 22.5362079], [113.9917207, 22.5361937], [113.9917207, 22.536179]]]]}}, {"type": "Feature", "id": "way/1348496013", "properties": {"tags": {"addr:housename": "锦绣花园一期", "addr:housename:zh": "锦绣花园一期", "building": "yes"}, "heightStatus": "unknown", "source": "OpenStreetMap", "license": "ODbL-1.0"}, "geometry": {"type": "MultiPolygon", "coordinates": [[[[113.9906667, 22.5361741], [113.9913682, 22.5360032], [113.9913996, 22.536113], [113.9906981, 22.5362841], [113.9906667, 22.5361741]]]]}}, {"type": "Feature", "id": "way/1348496014", "properties": {"tags": {"addr:housename": "锦绣花园", "addr:housename:en": "Jinxiu Garden", "addr:housename:zh": "锦绣花园", "building": "apartments", "building:levels": "33", "name": "滨海阁", "name:en": "Binhai Tower", "name:zh": "滨海阁"}, "heightStatus": "levels_only_unverified", "source": "OpenStreetMap", "license": "ODbL-1.0"}, "geometry": {"type": "MultiPolygon", "coordinates": [[[[113.9906437, 22.5367532], [113.9906479, 22.5367391], [113.9906561, 22.5367265], [113.9906677, 22.5367164], [113.9906743, 22.5366517], [113.990665, 22.5366398], [113.9906595, 22.536626], [113.9906582, 22.5366114], [113.9906612, 22.5365969], [113.9906683, 22.5365838], [113.9907411, 22.5365282], [113.9907564, 22.5365242], [113.9907723, 22.5365242], [113.9907877, 22.5365281], [113.9908013, 22.5365357], [113.9908122, 22.5365463], [113.9908822, 22.5365524], [113.9908951, 22.5365439], [113.99091, 22.5365388], [113.9909259, 22.5365376], [113.9909415, 22.5365404], [113.9909558, 22.5365469], [113.991016, 22.5366142], [113.9910203, 22.5366283], [113.9910203, 22.536643], [113.9910161, 22.5366572], [113.9910079, 22.5366698], [113.9909963, 22.5366799], [113.9909897, 22.5367445], [113.990999, 22.5367564], [113.9910045, 22.5367702], [113.9910058, 22.5367849], [113.9910028, 22.5367993], [113.9909957, 22.5368124], [113.9909229, 22.5368681], [113.9909076, 22.536872], [113.9908916, 22.5368721], [113.9908763, 22.5368681], [113.9908627, 22.5368606], [113.9908517, 22.5368499], [113.9907818, 22.5368438], [113.9907689, 22.5368524], [113.9907539, 22.5368574], [113.9907381, 22.5368586], [113.9907225, 22.5368559], [113.9907082, 22.5368493], [113.990648, 22.5367821], [113.9906437, 22.5367679], [113.9906437, 22.5367532]]]]}}, {"type": "Feature", "id": "way/1348496015", "properties": {"tags": {"addr:housename": "锦绣花园", "addr:housename:en": "Jinxiu Garden", "addr:housename:zh": "锦绣花园", "building": "apartments", "building:levels": "33", "name": "倚海阁", "name:en": "Yihai Tower", "name:zh": "倚海阁"}, "heightStatus": "levels_only_unverified", "source": "OpenStreetMap", "license": "ODbL-1.0"}, "geometry": {"type": "MultiPolygon", "coordinates": [[[[113.9914713, 22.5368206], [113.9914755, 22.5368065], [113.9914837, 22.5367939], [113.9914952, 22.5367838], [113.9915019, 22.5367192], [113.9914926, 22.5367072], [113.9914871, 22.5366935], [113.9914858, 22.5366788], [113.9914888, 22.5366644], [113.9914959, 22.5366512], [113.9915687, 22.5365956], [113.991584, 22.5365916], [113.9915999, 22.5365916], [113.9916153, 22.5365955], [113.9916289, 22.5366031], [113.9916398, 22.5366138], [113.9917098, 22.5366199], [113.9917227, 22.5366113], [113.9917376, 22.5366062], [113.9917535, 22.536605], [113.9917691, 22.5366078], [113.9917834, 22.5366144], [113.9918436, 22.5366816], [113.9918479, 22.5366958], [113.9918479, 22.5367104], [113.9918437, 22.5367246], [113.9918355, 22.5367372], [113.9918239, 22.5367473], [113.9918173, 22.5368119], [113.9918266, 22.5368238], [113.9918321, 22.5368376], [113.9918334, 22.5368523], [113.9918304, 22.5368667], [113.9918233, 22.5368799], [113.9917505, 22.5369355], [113.9917351, 22.5369395], [113.9917192, 22.5369395], [113.9917039, 22.5369356], [113.9916903, 22.536928], [113.9916793, 22.5369173], [113.9916094, 22.5369112], [113.9915965, 22.5369198], [113.9915815, 22.5369249], [113.9915657, 22.5369261], [113.99155, 22.5369233], [113.9915358, 22.5369167], [113.9914756, 22.5368495], [113.9914713, 22.5368353], [113.9914713, 22.5368206]]]]}}, {"type": "Feature", "id": "way/1348496016", "properties": {"tags": {"addr:housename": "锦绣花园", "addr:housename:en": "Jinxiu Garden", "addr:housename:zh": "锦绣花园", "building": "apartments", "building:levels": "33", "name": "三期D栋", "name:en": "Phase 3 Block D", "name:zh": "三期D栋"}, "heightStatus": "levels_only_unverified", "source": "OpenStreetMap", "license": "ODbL-1.0"}, "geometry": {"type": "MultiPolygon", "coordinates": [[[[113.9913084, 22.5374497], [113.9914366, 22.5373471], [113.9914918, 22.5374058], [113.9915205, 22.5373959], [113.9915512, 22.5373939], [113.9915812, 22.5373999], [113.9916081, 22.5374135], [113.9916718, 22.5373625], [113.9917829, 22.5374809], [113.9916598, 22.5375795], [113.9917338, 22.5376582], [113.9916525, 22.5377233], [113.9915598, 22.5376246], [113.9916027, 22.5375902], [113.9915411, 22.5375245], [113.9914701, 22.5375815], [113.9915073, 22.5376211], [113.9914004, 22.5377068], [113.9913299, 22.5376317], [113.9914152, 22.5375634], [113.9913084, 22.5374497]]]]}}, {"type": "Feature", "id": "way/1348496017", "properties": {"tags": {"addr:housename": "锦绣花园", "addr:housename:en": "Jinxiu Garden", "addr:housename:zh": "锦绣花园", "building": "apartments", "building:levels": "33", "name": "三期C栋", "name:en": "Phase 3 Block C", "name:zh": "三期C栋"}, "heightStatus": "levels_only_unverified", "source": "OpenStreetMap", "license": "ODbL-1.0"}, "geometry": {"type": "MultiPolygon", "coordinates": [[[[113.991272, 22.5382236], [113.9913663, 22.5381284], [113.9914354, 22.5381869], [113.9914617, 22.5381604], [113.9915109, 22.538202], [113.9916153, 22.5380957], [113.9917017, 22.5381681], [113.9913846, 22.5384912], [113.9913091, 22.5384076], [113.9913648, 22.5383508], [113.9913148, 22.5383085], [113.9913411, 22.538282], [113.991272, 22.5382236]]]]}}, {"type": "Feature", "id": "way/1348496018", "properties": {"tags": {"addr:housename": "锦绣花园", "addr:housename:en": "Jinxiu Garden", "addr:housename:zh": "锦绣花园", "building": "apartments", "building:levels": "33", "name": "三期B栋", "name:en": "Phase 3 Block B", "name:zh": "三期B栋"}, "heightStatus": "levels_only_unverified", "source": "OpenStreetMap", "license": "ODbL-1.0"}, "geometry": {"type": "MultiPolygon", "coordinates": [[[[113.9909359, 22.538622], [113.9910539, 22.5385542], [113.9910184, 22.538502], [113.9910513, 22.5384829], [113.9910014, 22.5384096], [113.9911197, 22.538341], [113.9911696, 22.5384142], [113.9912025, 22.5383951], [113.9912386, 22.5384481], [113.9913091, 22.5384076], [113.9913846, 22.5384912], [113.9909836, 22.5387215], [113.9909359, 22.538622]]]]}}, {"type": "Feature", "id": "way/1348496019", "properties": {"tags": {"addr:housename": "锦绣花园", "addr:housename:en": "Jinxiu Garden", "addr:housename:zh": "锦绣花园", "building": "apartments", "building:levels": "33", "name": "三期A栋", "name:en": "Phase 3 Block A", "name:zh": "三期A栋"}, "heightStatus": "levels_only_unverified", "source": "OpenStreetMap", "license": "ODbL-1.0"}, "geometry": {"type": "MultiPolygon", "coordinates": [[[[113.9904976, 22.5387379], [113.9905931, 22.5387126], [113.9905748, 22.5386524], [113.9906122, 22.5386426], [113.9905869, 22.5385593], [113.9907213, 22.5385244], [113.9907467, 22.5386077], [113.9907841, 22.538598], [113.9908022, 22.5386574], [113.9909359, 22.538622], [113.9909836, 22.5387215], [113.9905297, 22.5388415], [113.9904976, 22.5387379]]]]}}, {"type": "Feature", "id": "way/1348496020", "properties": {"tags": {"addr:housename": "锦绣花园", "addr:housename:en": "Jinxiu Garden", "addr:housename:zh": "锦绣花园", "building": "apartments", "building:levels": "33", "name": "二期D栋", "name:en": "Phase 2 Block D", "name:zh": "二期D栋"}, "heightStatus": "levels_only_unverified", "source": "OpenStreetMap", "license": "ODbL-1.0"}, "geometry": {"type": "MultiPolygon", "coordinates": [[[[113.988913, 22.5386471], [113.9889777, 22.5385942], [113.989018, 22.5386362], [113.9890403, 22.5386179], [113.989, 22.5385759], [113.9890702, 22.5385186], [113.9891336, 22.5385847], [113.9891869, 22.5385877], [113.9892585, 22.5385291], [113.9893206, 22.5385939], [113.9892752, 22.5386311], [113.989295, 22.5386517], [113.9893404, 22.5386145], [113.9893977, 22.5386742], [113.9893523, 22.5387114], [113.9893787, 22.538739], [113.9893197, 22.5387872], [113.9893716, 22.5388413], [113.9892836, 22.5389134], [113.9891715, 22.5387966], [113.9892636, 22.5387212], [113.9892475, 22.5387044], [113.9890582, 22.5386938], [113.98904, 22.5387087], [113.9891216, 22.5387938], [113.9889951, 22.5388972], [113.9889172, 22.538816], [113.9889757, 22.538768], [113.9889235, 22.5387135], [113.9889533, 22.5386891], [113.988913, 22.5386471]]]]}}, {"type": "Feature", "id": "way/1348496021", "properties": {"tags": {"addr:housename": "锦绣花园", "addr:housename:en": "Jinxiu Garden", "addr:housename:zh": "锦绣花园", "building": "apartments", "building:levels": "33", "name": "二期E栋", "name:en": "Phase 2 Block E", "name:zh": "二期E栋"}, "heightStatus": "levels_only_unverified", "source": "OpenStreetMap", "license": "ODbL-1.0"}, "geometry": {"type": "MultiPolygon", "coordinates": [[[[113.9897166, 22.5387584], [113.9897843, 22.5387223], [113.9897449, 22.5386592], [113.9897794, 22.5386408], [113.989749, 22.5385922], [113.9898239, 22.5385523], [113.9898542, 22.5386009], [113.9898801, 22.5385871], [113.9898497, 22.5385385], [113.9899308, 22.5384952], [113.9899787, 22.5385718], [113.9900302, 22.5385845], [113.9901131, 22.5385403], [113.99016, 22.5386152], [113.9901074, 22.5386433], [113.9901223, 22.5386672], [113.9901749, 22.5386391], [113.9902181, 22.5387082], [113.9901655, 22.5387363], [113.9901855, 22.5387681], [113.9901172, 22.5388046], [113.9901564, 22.5388671], [113.9900545, 22.5389215], [113.98997, 22.5387863], [113.9900766, 22.5387295], [113.9900644, 22.53871], [113.9898813, 22.5386647], [113.9898601, 22.538676], [113.9899217, 22.5387744], [113.9897754, 22.5388524], [113.9897166, 22.5387584]]]]}}, {"type": "Feature", "id": "way/1426517016", "properties": {"tags": {"building": "industrial"}, "heightStatus": "unknown", "source": "OpenStreetMap", "license": "ODbL-1.0"}, "geometry": {"type": "MultiPolygon", "coordinates": [[[[113.985854, 22.5378759], [113.9858787, 22.5376272], [113.9863625, 22.5376681], [113.9863378, 22.5379168], [113.985854, 22.5378759]]]]}}, {"type": "Feature", "id": "way/1429435224", "properties": {"tags": {"addr:housename": "东组团社区", "addr:housename:en": "East Cluster Community", "addr:housename:zh": "东组团社区", "building": "apartments", "building:levels": "7", "name": "21栋", "name:en": "Block 21", "name:zh": "21栋"}, "heightStatus": "levels_only_unverified", "source": "OpenStreetMap", "license": "ODbL-1.0"}, "geometry": {"type": "MultiPolygon", "coordinates": [[[[113.9862229, 22.5412321], [113.986294, 22.5412108], [113.986304, 22.5411272], [113.9864098, 22.5411381], [113.9863998, 22.5412216], [113.9865219, 22.5412904], [113.9865933, 22.5412987], [113.9866574, 22.5412804], [113.9866747, 22.5413321], [113.9866033, 22.5413526], [113.986592, 22.541436], [113.9864864, 22.5414237], [113.9864977, 22.5413403], [113.9863764, 22.5412718], [113.9863049, 22.5412645], [113.986241, 22.5412836], [113.9862229, 22.5412321]]]]}}, {"type": "Feature", "id": "way/1429435233", "properties": {"tags": {"addr:housename": "东组团社区", "addr:housename:en": "East Cluster Community", "addr:housename:zh": "东组团社区", "building": "apartments", "building:levels": "7", "name": "5栋", "name:en": "Block 5", "name:zh": "5栋"}, "heightStatus": "levels_only_unverified", "source": "OpenStreetMap", "license": "ODbL-1.0"}, "geometry": {"type": "MultiPolygon", "coordinates": [[[[113.9858868, 22.5389484], [113.9858923, 22.5388516], [113.9861709, 22.5388656], [113.9861748, 22.538801], [113.9863466, 22.5388098], [113.9863407, 22.5389066], [113.9861693, 22.5388978], [113.9861654, 22.5389624], [113.9858868, 22.5389484]]]]}}, {"type": "Feature", "id": "way/1429435235", "properties": {"tags": {"addr:housename": "东组团社区", "addr:housename:en": "East Cluster Community", "addr:housename:zh": "东组团社区", "building": "apartments", "building:levels": "7", "name": "3栋", "name:en": "Block 3", "name:zh": "3栋"}, "heightStatus": "levels_only_unverified", "source": "OpenStreetMap", "license": "ODbL-1.0"}, "geometry": {"type": "MultiPolygon", "coordinates": [[[[113.9864691, 22.5396365], [113.986472, 22.5395681], [113.9865801, 22.5395721], [113.9865844, 22.5394733], [113.9866584, 22.5394761], [113.9866552, 22.5395497], [113.9866351, 22.5395489], [113.9866321, 22.5396163], [113.98666, 22.5396173], [113.9866587, 22.5396469], [113.9866824, 22.5396478], [113.9866809, 22.5396819], [113.9865653, 22.5396776], [113.986567, 22.5396402], [113.9864691, 22.5396365]]]]}}, {"type": "Feature", "id": "way/1429435236", "properties": {"tags": {"addr:housename": "东组团社区", "addr:housename:en": "East Cluster Community", "addr:housename:zh": "东组团社区", "building": "apartments", "building:levels": "7", "name": "2栋", "name:en": "Block 2", "name:zh": "2栋"}, "heightStatus": "levels_only_unverified", "source": "OpenStreetMap", "license": "ODbL-1.0"}, "geometry": {"type": "MultiPolygon", "coordinates": [[[[113.9865352, 22.5393117], [113.9865382, 22.5392433], [113.9866462, 22.5392474], [113.9866505, 22.5391486], [113.9867246, 22.5391513], [113.9867214, 22.5392249], [113.9867012, 22.5392242], [113.9866983, 22.5392915], [113.9867261, 22.5392925], [113.9867249, 22.5393221], [113.9867485, 22.539323], [113.986747, 22.5393571], [113.9866315, 22.5393528], [113.9866331, 22.5393154], [113.9865352, 22.5393117]]]]}}, {"type": "Feature", "id": "way/1429435237", "properties": {"tags": {"addr:housename": "东组团社区", "addr:housename:en": "East Cluster Community", "addr:housename:zh": "东组团社区", "building": "apartments", "building:levels": "7", "name": "1栋", "name:en": "Block 1", "name:zh": "1栋"}, "heightStatus": "levels_only_unverified", "source": "OpenStreetMap", "license": "ODbL-1.0"}, "geometry": {"type": "MultiPolygon", "coordinates": [[[[113.986381, 22.5390486], [113.9863839, 22.5389802], [113.9864919, 22.5389842], [113.9864962, 22.5388854], [113.9865703, 22.5388882], [113.9865671, 22.5389618], [113.986547, 22.538961], [113.986544, 22.5390283], [113.9865719, 22.5390294], [113.9865706, 22.539059], [113.9865942, 22.5390599], [113.9865928, 22.5390939], [113.9864772, 22.5390897], [113.9864788, 22.5390522], [113.986381, 22.5390486]]]]}}, {"type": "Feature", "id": "way/1434786871", "properties": {"tags": {"addr:housename": "东组团社区", "addr:housename:en": "East Cluster Community", "addr:housename:zh": "东组团社区", "building": "apartments", "name": "4栋", "name:en": "Block 4", "name:zh": "4栋"}, "heightStatus": "unknown", "source": "OpenStreetMap", "license": "ODbL-1.0"}, "geometry": {"type": "MultiPolygon", "coordinates": [[[[113.9863206, 22.5398536], [113.9863256, 22.5397352], [113.9865128, 22.5397419], [113.9865098, 22.5398112], [113.9866727, 22.539817], [113.9866677, 22.5399355], [113.9864806, 22.5399288], [113.9864835, 22.5398595], [113.9863206, 22.5398536]]]]}}]}