{"type": "FeatureCollection", "features": [{"type": "Feature", "id": "way/802924962", "properties": {"tags": {"building": "yes"}, "heightStatus": "unknown", "source": "OpenStreetMap", "license": "ODbL-1.0"}, "geometry": {"type": "MultiPolygon", "coordinates": [[[[113.992839, 22.5550237], [113.9929079, 22.5549317], [113.9933029, 22.5551836], [113.9932553, 22.5552472], [113.9929345, 22.5550427], [113.9929133, 22.5550711], [113.992839, 22.5550237]]]]}}, {"type": "Feature", "id": "way/802924964", "properties": {"tags": {"building": "shed"}, "heightStatus": "unknown", "source": "OpenStreetMap", "license": "ODbL-1.0"}, "geometry": {"type": "MultiPolygon", "coordinates": [[[[113.9928763, 22.5553353], [113.9929273, 22.5552707], [113.9930364, 22.5553443], [113.9929854, 22.5554088], [113.9928763, 22.5553353]]]]}}, {"type": "Feature", "id": "way/802924965", "properties": {"tags": {"building": "yes"}, "heightStatus": "unknown", "source": "OpenStreetMap", "license": "ODbL-1.0"}, "geometry": {"type": "MultiPolygon", "coordinates": [[[[113.9925203, 22.5555474], [113.9925918, 22.5554574], [113.9925948, 22.5554593], [113.9927902, 22.5552133], [113.9928108, 22.5552273], [113.9928422, 22.5551877], [113.992915, 22.555237], [113.992621, 22.5556071], [113.9926128, 22.5556015], [113.9926053, 22.5556109], [113.9925357, 22.5555638], [113.9925307, 22.5555551], [113.9925203, 22.5555474]]]]}}, {"type": "Feature", "id": "way/803638053", "properties": {"tags": {"building": "public"}, "heightStatus": "unknown", "source": "OpenStreetMap", "license": "ODbL-1.0"}, "geometry": {"type": "MultiPolygon", "coordinates": [[[[113.988055, 22.5578812], [113.9881079, 22.5578468], [113.9881835, 22.5578092], [113.9882753, 22.5577788], [113.9883556, 22.5577621], [113.988434, 22.5577527], [113.9885195, 22.5577516], [113.9885995, 22.5577596], [113.9886681, 22.557774], [113.9887351, 22.5577925], [113.9887637, 22.5578041], [113.9887747, 22.5578997], [113.9886931, 22.5579077], [113.9887015, 22.5579802], [113.9881594, 22.5580333], [113.9881574, 22.5580155], [113.9881523, 22.557971], [113.9880662, 22.5579794], [113.988055, 22.5578812]]]]}}, {"type": "Feature", "id": "way/803638054", "properties": {"tags": {"building": "commercial", "name": "福到来购物中心", "shop": "mall"}, "heightStatus": "unknown", "source": "OpenStreetMap", "license": "ODbL-1.0"}, "geometry": {"type": "MultiPolygon", "coordinates": [[[[113.9866889, 22.5569819], [113.9870447, 22.5567991], [113.9874079, 22.556786], [113.9876146, 22.5571233], [113.9869811, 22.5574614], [113.9866889, 22.5569819]]]]}}, {"type": "Feature", "id": "way/865658025", "properties": {"tags": {"building": "train_station", "building:levels": "0", "building:levels:underground": "2", "layer": "-1", "location": "underground", "name": "深云站", "name:en": "Shenyun Station", "name:zh": "深云站"}, "heightStatus": "levels_only_unverified", "source": "OpenStreetMap", "license": "ODbL-1.0"}, "geometry": {"type": "MultiPolygon", "coordinates": [[[[113.9870376, 22.5597827], [113.9873623, 22.5597204], [113.9873151, 22.5595108], [113.987443, 22.5594863], [113.9874524, 22.5595284], [113.9906033, 22.558924], [113.9906625, 22.5591871], [113.9900319, 22.559308], [113.9900412, 22.5593497], [113.9897703, 22.5594017], [113.9897612, 22.559361], [113.9891262, 22.5594828], [113.9891621, 22.5596424], [113.9887692, 22.5597177], [113.9887528, 22.5596446], [113.9890481, 22.559588], [113.9890289, 22.5595029], [113.9870596, 22.5598806], [113.9870376, 22.5597827]]]]}}, {"type": "Feature", "id": "relation/17481420", "properties": {"tags": {"building": "yes"}, "heightStatus": "unknown", "source": "OpenStreetMap", "license": "ODbL-1.0"}, "geometry": {"type": "MultiPolygon", "coordinates": [[[[113.9943509, 22.5594923], [113.9944448, 22.5590729], [113.9953203, 22.5592401], [113.9953094, 22.5592887], [113.9952506, 22.5595512], [113.9952263, 22.5596597], [113.9943509, 22.5594923]], [[113.9945512, 22.5593901], [113.9951082, 22.5594903], [113.9951465, 22.5593085], [113.9945896, 22.5592082], [113.9945512, 22.5593901]]]]}}, {"type": "Feature", "id": "way/1273285357", "properties": {"tags": {"building": "yes"}, "heightStatus": "unknown", "source": "OpenStreetMap", "license": "ODbL-1.0"}, "geometry": {"type": "MultiPolygon", "coordinates": [[[[113.9948292, 22.5602007], [113.9953271, 22.5599144], [113.9956341, 22.5603697], [113.9951361, 22.560656], [113.9948292, 22.5602007]]]]}}, {"type": "Feature", "id": "way/1426326990", "properties": {"tags": {"building": "construction", "construction": "commercial", "height": "19.65", "name": "5栋", "name:zh": "5栋"}, "heightStatus": "height_tag_unverified", "source": "OpenStreetMap", "license": "ODbL-1.0"}, "geometry": {"type": "MultiPolygon", "coordinates": [[[[113.9878907, 22.5608872], [113.9886576, 22.5605727], [113.988724, 22.5607108], [113.9879572, 22.5610253], [113.9878907, 22.5608872]]]]}}, {"type": "Feature", "id": "way/1426326992", "properties": {"tags": {"building": "construction", "building:levels": "32", "construction": "apartments", "height": "99.6", "name": "3栋", "name:zh": "3栋"}, "heightStatus": "height_tag_unverified", "source": "OpenStreetMap", "license": "ODbL-1.0"}, "geometry": {"type": "MultiPolygon", "coordinates": [[[[113.9880165, 22.5612983], [113.9880951, 22.5612481], [113.9880381, 22.5611721], [113.9881211, 22.5611191], [113.988178, 22.5611951], [113.9882315, 22.5611609], [113.9882908, 22.5612399], [113.9880758, 22.5613774], [113.9880165, 22.5612983]]]]}}, {"type": "Feature", "id": "way/1426326993", "properties": {"tags": {"building": "construction", "building:levels": "24", "construction": "apartments", "height": "93.25", "name": "2栋", "name:zh": "2栋"}, "heightStatus": "height_tag_unverified", "source": "OpenStreetMap", "license": "ODbL-1.0"}, "geometry": {"type": "MultiPolygon", "coordinates": [[[[113.9883231, 22.5610048], [113.9888255, 22.560809], [113.9888567, 22.5608772], [113.9888209, 22.5608912], [113.9888584, 22.5609733], [113.9886979, 22.5610359], [113.9886705, 22.560976], [113.9886837, 22.5609709], [113.9886735, 22.5609486], [113.9885697, 22.5609891], [113.9885799, 22.5610114], [113.988611, 22.5609992], [113.9886383, 22.5610591], [113.9884277, 22.5611412], [113.9883902, 22.5610591], [113.9883543, 22.5610731], [113.9883231, 22.5610048]]]]}}, {"type": "Feature", "id": "way/1426326994", "properties": {"tags": {"building": "construction", "building:levels": "32", "construction": "apartments", "height": "99.7", "name": "1栋", "name:zh": "1栋"}, "heightStatus": "height_tag_unverified", "source": "OpenStreetMap", "license": "ODbL-1.0"}, "geometry": {"type": "MultiPolygon", "coordinates": [[[[113.9890694, 22.5611211], [113.9891417, 22.5610462], [113.9892038, 22.5610973], [113.9893105, 22.5609867], [113.9893837, 22.5610469], [113.989277, 22.5611575], [113.9893848, 22.5612462], [113.9894916, 22.5611356], [113.989574, 22.5612034], [113.9894673, 22.5613141], [113.9894926, 22.5613349], [113.9894203, 22.5614098], [113.9890694, 22.5611211]]]]}}, {"type": "Feature", "id": "way/1426326995", "properties": {"tags": {"building": "construction", "building:levels": "29", "construction": "apartments", "height": "90.15", "name": "4栋", "name:zh": "4栋"}, "heightStatus": "height_tag_unverified", "source": "OpenStreetMap", "license": "ODbL-1.0"}, "geometry": {"type": "MultiPolygon", "coordinates": [[[[113.987827, 22.5615705], [113.9880025, 22.5614715], [113.98806, 22.5615582], [113.9880733, 22.5615507], [113.9881368, 22.5616467], [113.9880655, 22.561687], [113.9880355, 22.5616416], [113.9879759, 22.5616752], [113.988006, 22.5617206], [113.9879346, 22.5617608], [113.9878711, 22.5616648], [113.9878844, 22.5616573], [113.987827, 22.5615705]]]]}}, {"type": "Feature", "id": "way/1426326998", "properties": {"tags": {"building": "apartments", "building:levels": "12", "name": "南区9栋", "name:zh": "南区9栋"}, "heightStatus": "levels_only_unverified", "source": "OpenStreetMap", "license": "ODbL-1.0"}, "geometry": {"type": "MultiPolygon", "coordinates": [[[[113.9862183, 22.5609457], [113.986395, 22.560872], [113.9864216, 22.5609266], [113.9863862, 22.5609413], [113.986404, 22.5609779], [113.9864395, 22.5609631], [113.986458, 22.5610009], [113.9865289, 22.5609714], [113.9865104, 22.5609336], [113.9865459, 22.5609188], [113.9865281, 22.5608822], [113.9864926, 22.560897], [113.986466, 22.5608425], [113.9866427, 22.5607689], [113.9866693, 22.5608234], [113.9866339, 22.5608382], [113.9866517, 22.5608747], [113.9866872, 22.56086], [113.9867056, 22.5608977], [113.9867766, 22.5608682], [113.9867581, 22.5608304], [113.9867936, 22.5608156], [113.9867757, 22.5607791], [113.9867403, 22.5607938], [113.9867136, 22.5607393], [113.9868904, 22.5606657], [113.986917, 22.5607202], [113.9868815, 22.560735], [113.9868994, 22.5607716], [113.9869349, 22.5607568], [113.9869533, 22.5607946], [113.9869888, 22.5607798], [113.9870204, 22.5608444], [113.9862773, 22.561154], [113.9862458, 22.5610893], [113.9862812, 22.5610745], [113.9862628, 22.5610367], [113.9862982, 22.561022], [113.9862804, 22.5609854], [113.9862449, 22.5610002], [113.9862183, 22.5609457]]]]}}, {"type": "Feature", "id": "way/1426326999", "properties": {"tags": {"building": "apartments", "building:levels": "12", "name": "南区11栋", "name:zh": "南区11栋"}, "heightStatus": "levels_only_unverified", "source": "OpenStreetMap", "license": "ODbL-1.0"}, "geometry": {"type": "MultiPolygon", "coordinates": [[[[113.9861177, 22.5603746], [113.986305, 22.5603284], [113.9863217, 22.5603862], [113.9862841, 22.5603955], [113.9862953, 22.5604343], [113.9863329, 22.560425], [113.9863445, 22.5604651], [113.9864197, 22.5604465], [113.9864081, 22.5604065], [113.9864457, 22.5603972], [113.9864345, 22.5603585], [113.9863969, 22.5603677], [113.9863802, 22.5603099], [113.9865676, 22.5602638], [113.9865842, 22.5603216], [113.9865467, 22.5603308], [113.9865578, 22.5603696], [113.9865954, 22.5603603], [113.986607, 22.5604004], [113.9866822, 22.5603819], [113.9866706, 22.5603418], [113.9867082, 22.5603325], [113.986697, 22.5602938], [113.9866594, 22.560303], [113.9866427, 22.5602453], [113.9868301, 22.5601991], [113.9868468, 22.5602569], [113.9868092, 22.5602662], [113.9868204, 22.5603049], [113.986858, 22.5602956], [113.9868695, 22.5603357], [113.9869071, 22.5603264], [113.9869269, 22.560395], [113.9861393, 22.560589], [113.9861195, 22.5605205], [113.9861571, 22.5605112], [113.9861456, 22.5604711], [113.9861832, 22.5604619], [113.986172, 22.5604231], [113.9861344, 22.5604324], [113.9861177, 22.5603746]]]]}}, {"type": "Feature", "id": "way/1426327003", "properties": {"tags": {"building": "apartments", "building:levels": "12", "name": "北区7栋", "name:zh": "北区7栋"}, "heightStatus": "levels_only_unverified", "source": "OpenStreetMap", "license": "ODbL-1.0"}, "geometry": {"type": "MultiPolygon", "coordinates": [[[[113.9869025, 22.5624711], [113.9870314, 22.5623736], [113.9870826, 22.5624314], [113.9870525, 22.5624541], [113.9870712, 22.5624752], [113.9871013, 22.5624525], [113.9871209, 22.5624745], [113.9871442, 22.5624569], [113.9871719, 22.5624462], [113.98716, 22.5624199], [113.9871959, 22.562406], [113.9871845, 22.5623809], [113.9871486, 22.5623947], [113.9871174, 22.5623259], [113.9872712, 22.5622665], [113.9873023, 22.5623354], [113.9872664, 22.5623492], [113.9872778, 22.5623744], [113.9873137, 22.5623605], [113.9873257, 22.5623868], [113.9873534, 22.5623761], [113.9873833, 22.5623731], [113.98738, 22.5623448], [113.9874187, 22.562341], [113.9874156, 22.5623139], [113.9873769, 22.5623177], [113.9873683, 22.5622435], [113.987534, 22.5622272], [113.9875426, 22.5623014], [113.9875039, 22.5623052], [113.987507, 22.5623323], [113.9875457, 22.5623285], [113.987549, 22.5623568], [113.9875684, 22.5623549], [113.9875761, 22.5624218], [113.9873717, 22.5624419], [113.9871821, 22.5625152], [113.987023, 22.5626354], [113.9869769, 22.5625834], [113.986992, 22.562572], [113.9869724, 22.5625499], [113.9870025, 22.5625272], [113.9869838, 22.5625061], [113.9869537, 22.5625289], [113.9869025, 22.5624711]]]]}}, {"type": "Feature", "id": "way/1426327004", "properties": {"tags": {"building": "apartments", "building:levels": "12", "name": "北区6栋", "name:zh": "北区6栋"}, "heightStatus": "levels_only_unverified", "source": "OpenStreetMap", "license": "ODbL-1.0"}, "geometry": {"type": "MultiPolygon", "coordinates": [[[[113.9870889, 22.5629925], [113.9872179, 22.562895], [113.9872691, 22.5629528], [113.9872389, 22.5629755], [113.9872576, 22.5629966], [113.9872878, 22.5629739], [113.9873073, 22.5629959], [113.9873306, 22.5629783], [113.9873583, 22.5629676], [113.9873464, 22.5629413], [113.9873823, 22.5629274], [113.9873709, 22.5629023], [113.987335, 22.5629161], [113.9873038, 22.5628473], [113.9874576, 22.5627879], [113.9874888, 22.5628568], [113.9874529, 22.5628706], [113.9874643, 22.5628958], [113.9875002, 22.5628819], [113.9875121, 22.5629082], [113.9875398, 22.5628975], [113.9875697, 22.5628945], [113.9875665, 22.5628662], [113.9876051, 22.5628624], [113.987602, 22.5628353], [113.9875633, 22.5628391], [113.9875548, 22.5627649], [113.9877204, 22.5627485], [113.987729, 22.5628227], [113.9876903, 22.5628266], [113.9876935, 22.5628537], [113.9877321, 22.5628499], [113.9877354, 22.5628782], [113.9877548, 22.5628763], [113.9877625, 22.5629432], [113.9875581, 22.5629633], [113.9873685, 22.5630365], [113.9872095, 22.5631568], [113.9871633, 22.5631048], [113.9871784, 22.5630934], [113.9871588, 22.5630713], [113.9871889, 22.5630486], [113.9871702, 22.5630275], [113.9871401, 22.5630502], [113.9870889, 22.5629925]]]]}}, {"type": "Feature", "id": "way/1426335386", "properties": {"tags": {"addr:housename": "深云村", "addr:housename:en": "Shenyuncun", "addr:housename:zh": "深云村", "building": "apartments", "building:levels": "34", "name": "7栋", "name:zh": "7栋"}, "heightStatus": "levels_only_unverified", "source": "OpenStreetMap", "license": "ODbL-1.0"}, "geometry": {"type": "MultiPolygon", "coordinates": [[[[113.9863703, 22.5574812], [113.986372, 22.557404], [113.9864655, 22.5574057], [113.9865297, 22.5573074], [113.9866988, 22.5574017], [113.9866362, 22.5574974], [113.9867029, 22.557587], [113.9866547, 22.5576175], [113.9866388, 22.5575961], [113.9866063, 22.5576167], [113.986518, 22.5574982], [113.9864918, 22.5574835], [113.9863703, 22.5574812]]]]}}, {"type": "Feature", "id": "way/1426335387", "properties": {"tags": {"addr:housename": "深云村", "addr:housename:en": "Shenyuncun", "addr:housename:zh": "深云村", "building": "apartments", "building:levels": "34", "name": "8栋", "name:zh": "8栋"}, "heightStatus": "levels_only_unverified", "source": "OpenStreetMap", "license": "ODbL-1.0"}, "geometry": {"type": "MultiPolygon", "coordinates": [[[[113.9859303, 22.5567462], [113.9860039, 22.5567098], [113.9860339, 22.5567616], [113.9860406, 22.5566245], [113.9861832, 22.5566304], [113.9861765, 22.5567675], [113.9862114, 22.5567184], [113.9862812, 22.5567607], [113.9862269, 22.5568372], [113.9862646, 22.55686], [113.9862257, 22.5569148], [113.9861182, 22.5568497], [113.9861526, 22.5568012], [113.9860544, 22.5567971], [113.986084, 22.5568482], [113.9859706, 22.5569042], [113.9859372, 22.5568465], [113.985977, 22.5568268], [113.9859303, 22.5567462]]]]}}, {"type": "Feature", "id": "way/1426335390", "properties": {"tags": {"addr:housename": "深云村", "addr:housename:en": "Shenyuncun", "addr:housename:zh": "深云村", "building": "apartments", "building:levels": "34", "name": "14栋", "name:zh": "14栋"}, "heightStatus": "levels_only_unverified", "source": "OpenStreetMap", "license": "ODbL-1.0"}, "geometry": {"type": "MultiPolygon", "coordinates": [[[[113.9871602, 22.5581896], [113.9872368, 22.5581394], [113.9872244, 22.558103], [113.9872042, 22.5581089], [113.9871888, 22.5580638], [113.9873787, 22.5580085], [113.9873941, 22.5580537], [113.9873739, 22.5580596], [113.9873863, 22.5580959], [113.9874662, 22.5580964], [113.9874657, 22.5581682], [113.9875731, 22.5581689], [113.9875736, 22.5580971], [113.9876536, 22.5580976], [113.9876665, 22.5580614], [113.9876464, 22.5580553], [113.9876624, 22.5580103], [113.9878515, 22.5580679], [113.9878354, 22.5581129], [113.9878153, 22.5581067], [113.9878024, 22.5581429], [113.9878783, 22.5581941], [113.987851, 22.5582287], [113.9878275, 22.5582129], [113.987809, 22.5582363], [113.9878645, 22.5582737], [113.9878129, 22.5583389], [113.9877173, 22.5582744], [113.9877503, 22.5582326], [113.9877275, 22.5582172], [113.9876659, 22.5581984], [113.9876376, 22.5581983], [113.9876372, 22.55825], [113.9874004, 22.5582485], [113.9874008, 22.5581968], [113.9873725, 22.5581966], [113.9873106, 22.5582146], [113.9872876, 22.5582297], [113.98732, 22.5582719], [113.9872234, 22.5583352], [113.9871728, 22.5582693], [113.9872288, 22.5582326], [113.9872106, 22.558209], [113.987187, 22.5582245], [113.9871602, 22.5581896]]]]}}, {"type": "Feature", "id": "way/1426335391", "properties": {"tags": {"addr:housename": "深云村", "addr:housename:en": "Shenyuncun", "addr:housename:zh": "深云村", "building": "apartments", "building:levels": "34", "name": "13栋", "name:zh": "13栋"}, "heightStatus": "levels_only_unverified", "source": "OpenStreetMap", "license": "ODbL-1.0"}, "geometry": {"type": "MultiPolygon", "coordinates": [[[[113.9865702, 22.5580013], [113.9866427, 22.5579632], [113.9866742, 22.5580143], [113.9866769, 22.557877], [113.9868196, 22.5578794], [113.9868169, 22.5580167], [113.9868504, 22.5579667], [113.9869213, 22.5580072], [113.9868693, 22.558085], [113.9869077, 22.558107], [113.9868704, 22.5581627], [113.986761, 22.5581002], [113.986794, 22.5580508], [113.9866957, 22.5580492], [113.9867268, 22.5580996], [113.986615, 22.5581584], [113.9865799, 22.5581015], [113.9866192, 22.5580808], [113.9865702, 22.5580013]]]]}}, {"type": "Feature", "id": "way/1426335392", "properties": {"tags": {"addr:housename": "深云村", "addr:housename:en": "Shenyuncun", "addr:housename:zh": "深云村", "building": "apartments", "building:levels": "34", "name": "6栋", "name:zh": "6栋"}, "heightStatus": "levels_only_unverified", "source": "OpenStreetMap", "license": "ODbL-1.0"}, "geometry": {"type": "MultiPolygon", "coordinates": [[[[113.988279, 22.5574007], [113.9882807, 22.5573235], [113.9883742, 22.5573252], [113.9884384, 22.5572269], [113.9886075, 22.5573212], [113.9885449, 22.5574169], [113.9886116, 22.5575065], [113.9885635, 22.557537], [113.9885475, 22.5575156], [113.988515, 22.5575362], [113.9884268, 22.5574177], [113.9884005, 22.557403], [113.988279, 22.5574007]]]]}}, {"type": "Feature", "id": "way/1426335393", "properties": {"tags": {"addr:housename": "深云村", "addr:housename:en": "Shenyuncun", "addr:housename:zh": "深云村", "building": "apartments", "building:levels": "34", "name": "15栋", "name:zh": "15栋"}, "heightStatus": "levels_only_unverified", "source": "OpenStreetMap", "license": "ODbL-1.0"}, "geometry": {"type": "MultiPolygon", "coordinates": [[[[113.9889888, 22.5579459], [113.9890614, 22.5579078], [113.9890928, 22.5579588], [113.9890955, 22.5578216], [113.9892383, 22.557824], [113.9892356, 22.5579612], [113.989269, 22.5579113], [113.98934, 22.5579518], [113.9892879, 22.5580296], [113.9893263, 22.5580515], [113.989289, 22.5581072], [113.9891796, 22.5580448], [113.9892127, 22.5579954], [113.9891144, 22.5579938], [113.9891454, 22.5580442], [113.9890337, 22.558103], [113.9889986, 22.558046], [113.9890378, 22.5580254], [113.9889888, 22.5579459]]]]}}, {"type": "Feature", "id": "way/1426335394", "properties": {"tags": {"addr:housename": "深云村", "addr:housename:en": "Shenyuncun", "addr:housename:zh": "深云村", "building": "apartments", "building:levels": "34", "name": "16栋", "name:zh": "16栋"}, "heightStatus": "levels_only_unverified", "source": "OpenStreetMap", "license": "ODbL-1.0"}, "geometry": {"type": "MultiPolygon", "coordinates": [[[[113.9896174, 22.5577422], [113.9897793, 22.5576353], [113.9898091, 22.5576738], [113.9897919, 22.5576852], [113.9898159, 22.5577162], [113.989892, 22.5576938], [113.9899156, 22.5577622], [113.990018, 22.5577321], [113.9899944, 22.5576637], [113.9900705, 22.5576413], [113.9900707, 22.5576032], [113.9900495, 22.5576031], [113.9900497, 22.5575558], [113.9902488, 22.5575564], [113.9902486, 22.5576038], [113.9902274, 22.5576037], [113.9902273, 22.5576418], [113.9903166, 22.5576687], [113.9903022, 22.5577094], [113.9902746, 22.5577011], [113.9902649, 22.5577287], [113.9903302, 22.5577483], [113.990303, 22.5578251], [113.9901905, 22.5577912], [113.9902079, 22.557742], [113.990181, 22.5577339], [113.9901161, 22.5577337], [113.9900892, 22.5577416], [113.9901062, 22.5577909], [113.9898805, 22.5578573], [113.9898635, 22.557808], [113.9898366, 22.5578159], [113.9897838, 22.5578507], [113.9897669, 22.5578717], [113.9898119, 22.5579025], [113.9897413, 22.5579903], [113.9896711, 22.5579422], [113.989712, 22.5578913], [113.9896868, 22.557874], [113.9896695, 22.5578955], [113.9896323, 22.55787], [113.9896883, 22.5578003], [113.9896644, 22.5577693], [113.9896471, 22.5577807], [113.9896174, 22.5577422]]]]}}, {"type": "Feature", "id": "way/1426335395", "properties": {"tags": {"addr:housename": "深云村", "addr:housename:en": "Shenyuncun", "addr:housename:zh": "深云村", "building": "apartments", "building:levels": "34", "name": "1栋", "name:zh": "1栋"}, "heightStatus": "levels_only_unverified", "source": "OpenStreetMap", "license": "ODbL-1.0"}, "geometry": {"type": "MultiPolygon", "coordinates": [[[[113.9906669, 22.5573934], [113.9907479, 22.5573582], [113.9907752, 22.5574119], [113.9907746, 22.5573169], [113.9907534, 22.557317], [113.9907531, 22.5572725], [113.9909295, 22.5572715], [113.9909298, 22.5573161], [113.9909087, 22.5573162], [113.9909093, 22.5574111], [113.9909359, 22.5573572], [113.9910173, 22.5573915], [113.9909805, 22.5574661], [113.9910147, 22.5574805], [113.9909783, 22.5575543], [113.9908626, 22.5575056], [113.9908879, 22.5574544], [113.9907971, 22.5574549], [113.990823, 22.5575058], [113.990708, 22.5575558], [113.9906706, 22.5574824], [113.9907047, 22.5574676], [113.9906669, 22.5573934]]]]}}, {"type": "Feature", "id": "way/1426335396", "properties": {"tags": {"addr:housename": "深云村", "addr:housename:en": "Shenyuncun", "addr:housename:zh": "深云村", "building": "apartments", "building:levels": "34", "name": "2栋", "name:zh": "2栋"}, "heightStatus": "levels_only_unverified", "source": "OpenStreetMap", "license": "ODbL-1.0"}, "geometry": {"type": "MultiPolygon", "coordinates": [[[[113.9901776, 22.5570274], [113.9902585, 22.5569922], [113.9902859, 22.5570458], [113.9902852, 22.5569509], [113.9902641, 22.556951], [113.9902638, 22.5569064], [113.9904402, 22.5569055], [113.9904405, 22.55695], [113.9904193, 22.5569501], [113.99042, 22.557045], [113.9904466, 22.5569911], [113.990528, 22.5570254], [113.9904912, 22.5571], [113.9905254, 22.5571144], [113.990489, 22.5571882], [113.9903733, 22.5571395], [113.9903986, 22.5570883], [113.9903078, 22.5570888], [113.9903337, 22.5571397], [113.9902187, 22.5571897], [113.9901813, 22.5571163], [113.9902154, 22.5571015], [113.9901776, 22.5570274]]]]}}, {"type": "Feature", "id": "way/1426335397", "properties": {"tags": {"addr:housename": "深云村", "addr:housename:en": "Shenyuncun", "addr:housename:zh": "深云村", "building": "apartments", "building:levels": "34", "name": "3栋", "name:zh": "3栋"}, "heightStatus": "levels_only_unverified", "source": "OpenStreetMap", "license": "ODbL-1.0"}, "geometry": {"type": "MultiPolygon", "coordinates": [[[[113.989582, 22.5567594], [113.989663, 22.5567242], [113.9896903, 22.5567778], [113.9896897, 22.5566829], [113.9896686, 22.556683], [113.9896683, 22.5566384], [113.9898447, 22.5566375], [113.989845, 22.556682], [113.9898238, 22.5566821], [113.9898244, 22.5567771], [113.989851, 22.5567231], [113.9899325, 22.5567574], [113.9898956, 22.556832], [113.9899299, 22.5568464], [113.9898934, 22.5569202], [113.9897778, 22.5568715], [113.9898031, 22.5568203], [113.9897122, 22.5568208], [113.9897382, 22.5568717], [113.9896232, 22.5569217], [113.9895858, 22.5568483], [113.9896198, 22.5568336], [113.989582, 22.5567594]]]]}}, {"type": "Feature", "id": "way/1426335398", "properties": {"tags": {"addr:housename": "深云村", "addr:housename:en": "Shenyuncun", "addr:housename:zh": "深云村", "building": "apartments", "building:levels": "34", "name": "4栋", "name:zh": "4栋"}, "heightStatus": "levels_only_unverified", "source": "OpenStreetMap", "license": "ODbL-1.0"}, "geometry": {"type": "MultiPolygon", "coordinates": [[[[113.9888936, 22.5567489], [113.9889745, 22.5567137], [113.9890019, 22.5567673], [113.9890012, 22.5566724], [113.9889801, 22.5566725], [113.9889798, 22.5566279], [113.9891562, 22.556627], [113.9891565, 22.5566715], [113.9891353, 22.5566716], [113.9891359, 22.5567666], [113.9891626, 22.5567126], [113.989244, 22.5567469], [113.9892072, 22.5568215], [113.9892414, 22.5568359], [113.989205, 22.5569097], [113.9890893, 22.556861], [113.9891146, 22.5568098], [113.9890238, 22.5568103], [113.9890497, 22.5568612], [113.9889347, 22.5569112], [113.9888973, 22.5568378], [113.9889314, 22.556823], [113.9888936, 22.5567489]]]]}}, {"type": "Feature", "id": "way/1426335399", "properties": {"tags": {"addr:housename": "深云村", "addr:housename:en": "Shenyuncun", "addr:housename:zh": "深云村", "building": "apartments", "building:levels": "34", "name": "5栋", "name:zh": "5栋"}, "heightStatus": "levels_only_unverified", "source": "OpenStreetMap", "license": "ODbL-1.0"}, "geometry": {"type": "MultiPolygon", "coordinates": [[[[113.9879718, 22.5568049], [113.9880528, 22.5567697], [113.9880801, 22.5568233], [113.9880795, 22.5567284], [113.9880583, 22.5567285], [113.988058, 22.556684], [113.9882344, 22.556683], [113.9882347, 22.5567276], [113.9882136, 22.5567277], [113.9882142, 22.5568226], [113.9882408, 22.5567687], [113.9883223, 22.556803], [113.9882854, 22.5568776], [113.9883197, 22.556892], [113.9882832, 22.5569658], [113.9881676, 22.5569171], [113.9881928, 22.5568658], [113.988102, 22.5568664], [113.988128, 22.5569173], [113.9880129, 22.5569673], [113.9879755, 22.5568939], [113.9880096, 22.5568791], [113.9879718, 22.5568049]]]]}}, {"type": "Feature", "id": "way/1426335402", "properties": {"tags": {"building": "yes"}, "heightStatus": "unknown", "source": "OpenStreetMap", "license": "ODbL-1.0"}, "geometry": {"type": "MultiPolygon", "coordinates": [[[[113.9871875, 22.5575201], [113.9872672, 22.5574892], [113.9873555, 22.5574633], [113.9874459, 22.5574449], [113.9875377, 22.557434], [113.9876303, 22.5574309], [113.9877227, 22.5574354], [113.9877568, 22.5574399], [113.9877484, 22.557494], [113.9877987, 22.5575], [113.9878348, 22.5575046], [113.9878709, 22.5575], [113.9879043, 22.5574865], [113.9879324, 22.5574651], [113.9879531, 22.5574373], [113.9879648, 22.5574055], [113.9879666, 22.5573719], [113.9879584, 22.557339], [113.9880345, 22.5573238], [113.9880438, 22.5573636], [113.9880439, 22.5574044], [113.9880346, 22.5574442], [113.9880165, 22.5574813], [113.9879903, 22.5575141], [113.9879572, 22.5575411], [113.9879188, 22.557561], [113.9878766, 22.5575729], [113.9878326, 22.5575764], [113.9877889, 22.5575713], [113.9877094, 22.5575607], [113.9876292, 22.5575568], [113.9875489, 22.5575595], [113.9874693, 22.5575689], [113.9873908, 22.5575849], [113.9873143, 22.5576074], [113.9872402, 22.5576361], [113.9871875, 22.5575201]]]]}}, {"type": "Feature", "id": "way/1426338539", "properties": {"tags": {"addr:housename": "深铁懿府", "addr:housename:zh": "深铁懿府", "building": "apartments", "building:levels": "29", "name": "4栋A座", "name:zh": "4栋A座"}, "heightStatus": "levels_only_unverified", "source": "OpenStreetMap", "license": "ODbL-1.0"}, "geometry": {"type": "MultiPolygon", "coordinates": [[[[113.9868373, 22.5562175], [113.9869499, 22.5561477], [113.9869392, 22.5561182], [113.9868834, 22.5561353], [113.9868455, 22.5560301], [113.9870273, 22.5559742], [113.9870652, 22.5560794], [113.9870094, 22.5560966], [113.9870201, 22.5561261], [113.9871555, 22.5561197], [113.9871617, 22.55623], [113.9870209, 22.5562367], [113.986904, 22.5563092], [113.9868373, 22.5562175]]]]}}, {"type": "Feature", "id": "way/1426338551", "properties": {"tags": {"addr:housename": "深铁懿府", "addr:housename:zh": "深铁懿府", "building": "apartments", "building:levels": "39", "name": "11栋", "name:zh": "11栋"}, "heightStatus": "levels_only_unverified", "source": "OpenStreetMap", "license": "ODbL-1.0"}, "geometry": {"type": "MultiPolygon", "coordinates": [[[[113.9867027, 22.5544843], [113.9867348, 22.5543723], [113.9867912, 22.5543861], [113.9867993, 22.5543579], [113.9870475, 22.5544185], [113.9870395, 22.5544467], [113.9870959, 22.5544604], [113.9870638, 22.5545724], [113.9869604, 22.5545472], [113.9869492, 22.5545863], [113.986795, 22.5545487], [113.9868062, 22.5545095], [113.9867027, 22.5544843]]]]}}, {"type": "Feature", "id": "way/1426338553", "properties": {"tags": {"addr:housename": "深铁懿府", "addr:housename:zh": "深铁懿府", "building": "apartments", "building:levels": "29", "name": "13栋", "name:zh": "13栋"}, "heightStatus": "levels_only_unverified", "source": "OpenStreetMap", "license": "ODbL-1.0"}, "geometry": {"type": "MultiPolygon", "coordinates": [[[[113.9875514, 22.5541433], [113.9875834, 22.5540313], [113.9876398, 22.5540451], [113.9876479, 22.5540169], [113.9878961, 22.5540775], [113.9878881, 22.5541056], [113.9879445, 22.5541194], [113.9879125, 22.5542314], [113.987809, 22.5542061], [113.9877978, 22.5542453], [113.9876436, 22.5542077], [113.9876548, 22.5541685], [113.9875514, 22.5541433]]]]}}, {"type": "Feature", "id": "way/1426338554", "properties": {"tags": {"addr:housename": "深铁懿府", "addr:housename:zh": "深铁懿府", "building": "apartments", "building:levels": "29", "name": "18栋", "name:zh": "18栋"}, "heightStatus": "levels_only_unverified", "source": "OpenStreetMap", "license": "ODbL-1.0"}, "geometry": {"type": "MultiPolygon", "coordinates": [[[[113.9890118, 22.5540282], [113.9890702, 22.5540279], [113.98907, 22.5539988], [113.9893268, 22.5539975], [113.989327, 22.5540266], [113.9893853, 22.5540263], [113.989386, 22.5541422], [113.989279, 22.5541427], [113.9892792, 22.5541832], [113.9891197, 22.554184], [113.9891195, 22.5541435], [113.9890125, 22.554144], [113.9890118, 22.5540282]]]]}}, {"type": "Feature", "id": "way/1426338555", "properties": {"tags": {"addr:housename": "深铁懿府", "addr:housename:zh": "深铁懿府", "building": "apartments", "building:levels": "39", "name": "19栋", "name:zh": "19栋"}, "heightStatus": "levels_only_unverified", "source": "OpenStreetMap", "license": "ODbL-1.0"}, "geometry": {"type": "MultiPolygon", "coordinates": [[[[113.9884126, 22.5542981], [113.9885002, 22.5542976], [113.9884992, 22.5541327], [113.988673, 22.5541319], [113.9886739, 22.5542968], [113.9887615, 22.5542964], [113.9887621, 22.5544122], [113.9884133, 22.5544139], [113.9884126, 22.5542981]]]]}}, {"type": "Feature", "id": "way/1426338556", "properties": {"tags": {"addr:housename": "深铁懿府", "addr:housename:zh": "深铁懿府", "building": "apartments", "building:levels": "39", "name": "17栋", "name:zh": "17栋"}, "heightStatus": "levels_only_unverified", "source": "OpenStreetMap", "license": "ODbL-1.0"}, "geometry": {"type": "MultiPolygon", "coordinates": [[[[113.9889625, 22.5546199], [113.9890501, 22.5546195], [113.9890491, 22.5544546], [113.9892229, 22.5544537], [113.9892238, 22.5546186], [113.9893113, 22.5546182], [113.989312, 22.554734], [113.9889632, 22.5547357], [113.9889625, 22.5546199]]]]}}, {"type": "Feature", "id": "way/1426338557", "properties": {"tags": {"addr:housename": "深铁懿府", "addr:housename:zh": "深铁懿府", "building": "apartments", "name": "16栋", "name:zh": "16栋"}, "heightStatus": "unknown", "source": "OpenStreetMap", "license": "ODbL-1.0"}, "geometry": {"type": "MultiPolygon", "coordinates": [[[[113.9886925, 22.5550331], [113.98878, 22.5550327], [113.9887791, 22.5548678], [113.9889528, 22.5548669], [113.9889537, 22.5550318], [113.9890413, 22.5550314], [113.9890419, 22.5551472], [113.9886931, 22.5551489], [113.9886925, 22.5550331]]]]}}, {"type": "Feature", "id": "way/1426338558", "properties": {"tags": {"addr:housename": "深铁懿府", "addr:housename:zh": "深铁懿府", "building": "apartments", "building:levels": "39", "name": "15栋", "name:zh": "15栋"}, "heightStatus": "levels_only_unverified", "source": "OpenStreetMap", "license": "ODbL-1.0"}, "geometry": {"type": "MultiPolygon", "coordinates": [[[[113.9881798, 22.5549052], [113.988212, 22.5547932], [113.9882966, 22.554814], [113.9883425, 22.5546546], [113.9885104, 22.5546958], [113.9884645, 22.5548552], [113.9885492, 22.554876], [113.9885169, 22.5549879], [113.9881798, 22.5549052]]]]}}, {"type": "Feature", "id": "way/1426338559", "properties": {"tags": {"addr:housename": "深铁懿府", "addr:housename:zh": "深铁懿府", "building": "apartments", "building:levels": "39", "name": "14栋", "name:zh": "14栋"}, "heightStatus": "levels_only_unverified", "source": "OpenStreetMap", "license": "ODbL-1.0"}, "geometry": {"type": "MultiPolygon", "coordinates": [[[[113.9876695, 22.5547628], [113.9877017, 22.5546509], [113.9877863, 22.5546716], [113.9878322, 22.5545122], [113.9880001, 22.5545535], [113.9879542, 22.5547128], [113.9880388, 22.5547336], [113.9880066, 22.5548455], [113.9876695, 22.5547628]]]]}}, {"type": "Feature", "id": "way/1426338560", "properties": {"tags": {"addr:housename": "深铁懿府", "addr:housename:zh": "深铁懿府", "building": "apartments", "building:levels": "43", "name": "2栋A座", "name:zh": "2栋A座"}, "heightStatus": "levels_only_unverified", "source": "OpenStreetMap", "license": "ODbL-1.0"}, "geometry": {"type": "MultiPolygon", "coordinates": [[[[113.9859967, 22.5552063], [113.985997, 22.5550959], [113.9861326, 22.5550962], [113.9861417, 22.5550662], [113.9860851, 22.5550516], [113.9861174, 22.5549448], [113.9863019, 22.5549924], [113.9862696, 22.5550992], [113.986213, 22.5550846], [113.9862039, 22.5551146], [113.98632, 22.5551793], [113.9862583, 22.5552738], [113.9861376, 22.5552066], [113.9859967, 22.5552063]]]]}}, {"type": "Feature", "id": "way/1426338561", "properties": {"tags": {"addr:housename": "深铁懿府", "addr:housename:zh": "深铁懿府", "building": "apartments", "building:levels": "43", "name": "2栋B座", "name:zh": "2栋B座"}, "heightStatus": "levels_only_unverified", "source": "OpenStreetMap", "license": "ODbL-1.0"}, "geometry": {"type": "MultiPolygon", "coordinates": [[[[113.9865385, 22.5553376], [113.9865388, 22.5552272], [113.9866744, 22.5552275], [113.9866835, 22.5551975], [113.9866269, 22.5551829], [113.9866592, 22.5550761], [113.9868437, 22.5551237], [113.9868114, 22.5552305], [113.9867548, 22.5552159], [113.9867457, 22.5552459], [113.9868618, 22.5553105], [113.9868001, 22.5554051], [113.9866794, 22.5553379], [113.9865385, 22.5553376]]]]}}, {"type": "Feature", "id": "way/1426338562", "properties": {"tags": {"addr:housename": "深铁懿府", "addr:housename:zh": "深铁懿府", "building": "apartments", "building:levels": "43", "name": "8栋", "name:zh": "8栋"}, "heightStatus": "levels_only_unverified", "source": "OpenStreetMap", "license": "ODbL-1.0"}, "geometry": {"type": "MultiPolygon", "coordinates": [[[[113.9872332, 22.5555068], [113.9872335, 22.5553963], [113.9873692, 22.5553967], [113.9873782, 22.5553667], [113.9873216, 22.5553521], [113.9873539, 22.5552453], [113.9875384, 22.5552929], [113.9875061, 22.5553997], [113.9874495, 22.5553851], [113.9874404, 22.5554151], [113.9875566, 22.5554797], [113.9874948, 22.5555743], [113.9873741, 22.5555071], [113.9872332, 22.5555068]]]]}}, {"type": "Feature", "id": "way/1426338563", "properties": {"tags": {"addr:housename": "深铁懿府", "addr:housename:zh": "深铁懿府", "building": "apartments", "building:levels": "43", "name": "7栋", "name:zh": "7栋"}, "heightStatus": "levels_only_unverified", "source": "OpenStreetMap", "license": "ODbL-1.0"}, "geometry": {"type": "MultiPolygon", "coordinates": [[[[113.9877025, 22.5556767], [113.9877136, 22.5555667], [113.9878487, 22.5555784], [113.9878606, 22.5555493], [113.9878057, 22.55553], [113.9878484, 22.5554263], [113.9880275, 22.5554892], [113.9879848, 22.5555929], [113.9879298, 22.5555736], [113.9879178, 22.5556027], [113.9880272, 22.5556768], [113.9879564, 22.5557658], [113.9878428, 22.5556888], [113.9877025, 22.5556767]]]]}}, {"type": "Feature", "id": "way/1426338564", "properties": {"tags": {"addr:housename": "深铁懿府", "addr:housename:zh": "深铁懿府", "building": "apartments", "building:levels": "43", "name": "6栋", "name:zh": "6栋"}, "heightStatus": "levels_only_unverified", "source": "OpenStreetMap", "license": "ODbL-1.0"}, "geometry": {"type": "MultiPolygon", "coordinates": [[[[113.9879355, 22.5560768], [113.9879576, 22.5559683], [113.9880908, 22.5559914], [113.9881057, 22.5559634], [113.9880529, 22.5559395], [113.9881057, 22.5558399], [113.9882777, 22.5559177], [113.9882249, 22.5560173], [113.9881721, 22.5559935], [113.9881573, 22.5560214], [113.9882588, 22.5561045], [113.9881794, 22.5561871], [113.988074, 22.5561008], [113.9879355, 22.5560768]]]]}}, {"type": "Feature", "id": "way/1426338565", "properties": {"tags": {"addr:housename": "深铁懿府", "addr:housename:zh": "深铁懿府", "building": "apartments", "building:levels": "29", "name": "4栋B座", "name:zh": "4栋B座"}, "heightStatus": "levels_only_unverified", "source": "OpenStreetMap", "license": "ODbL-1.0"}, "geometry": {"type": "MultiPolygon", "coordinates": [[[[113.9871555, 22.5561197], [113.9872909, 22.5561132], [113.9872983, 22.5560829], [113.9872409, 22.5560711], [113.9872669, 22.5559628], [113.9874539, 22.5560012], [113.9874279, 22.5561095], [113.9873705, 22.5560977], [113.9873632, 22.556128], [113.9874829, 22.5561868], [113.9874268, 22.5562844], [113.9873024, 22.5562233], [113.9871617, 22.55623], [113.9871555, 22.5561197]]]]}}]}