{"type": "FeatureCollection", "features": [{"type": "Feature", "id": "way/614006605", "properties": {"tags": {"building": "commercial", "name": "地铁运营大厦", "name:zh": "地铁运营大厦", "name:zh-Hans": "地铁运营大厦", "name:zh-Hant": "地鐵運營大廈"}, "heightStatus": "unknown", "source": "OpenStreetMap", "license": "ODbL-1.0"}, "geometry": {"type": "MultiPolygon", "coordinates": [[[[113.988283, 22.5888653], [113.9883117, 22.5887489], [113.9883619, 22.5885451], [113.9885509, 22.5882748], [113.9887316, 22.588338], [113.9886464, 22.5886736], [113.9884637, 22.5889324], [113.988283, 22.5888653]]]]}}, {"type": "Feature", "id": "way/614006606", "properties": {"tags": {"building": "commercial"}, "heightStatus": "unknown", "source": "OpenStreetMap", "license": "ODbL-1.0"}, "geometry": {"type": "MultiPolygon", "coordinates": [[[[113.9875665, 22.5885413], [113.9881293, 22.588386], [113.9881584, 22.5884818], [113.9881148, 22.588547], [113.9880693, 22.588599], [113.9880189, 22.5886386], [113.9879694, 22.5886678], [113.9878884, 22.5887004], [113.987797, 22.5887119], [113.987689, 22.5887062], [113.9876081, 22.5886889], [113.9875665, 22.5885413]]]]}}, {"type": "Feature", "id": "way/614006607", "properties": {"tags": {"building": "yes"}, "heightStatus": "unknown", "source": "OpenStreetMap", "license": "ODbL-1.0"}, "geometry": {"type": "MultiPolygon", "coordinates": [[[[113.9880189, 22.5886386], [113.9880693, 22.588599], [113.9881148, 22.588547], [113.9881584, 22.5884818], [113.9881293, 22.588386], [113.9881569, 22.5883787], [113.9882061, 22.5883657], [113.9883933, 22.5883162], [113.9884504, 22.5883009], [113.9885509, 22.5882748], [113.9883619, 22.5885451], [113.9883117, 22.5887489], [113.9880189, 22.5886386]]]]}}, {"type": "Feature", "id": "way/614006608", "properties": {"tags": {"building": "yes"}, "heightStatus": "unknown", "source": "OpenStreetMap", "license": "ODbL-1.0"}, "geometry": {"type": "MultiPolygon", "coordinates": [[[[113.9881181, 22.5882483], [113.9881688, 22.5882356], [113.9882061, 22.5883657], [113.9881569, 22.5883787], [113.9881181, 22.5882483]]]]}}, {"type": "Feature", "id": "way/614006609", "properties": {"tags": {"building": "yes"}, "heightStatus": "unknown", "source": "OpenStreetMap", "license": "ODbL-1.0"}, "geometry": {"type": "MultiPolygon", "coordinates": [[[[113.9883525, 22.5881862], [113.9884096, 22.5881709], [113.9884504, 22.5883009], [113.9883933, 22.5883162], [113.9883525, 22.5881862]]]]}}, {"type": "Feature", "id": "way/614172681", "properties": {"tags": {"building": "apartments", "building:levels": "54", "layer": "1"}, "heightStatus": "levels_only_unverified", "source": "OpenStreetMap", "license": "ODbL-1.0"}, "geometry": {"type": "MultiPolygon", "coordinates": [[[[113.9902731, 22.5883188], [113.9903461, 22.5881603], [113.9910245, 22.5884267], [113.990924, 22.5886448], [113.9907692, 22.588584], [113.9907935, 22.5885314], [113.9908312, 22.5885462], [113.9908622, 22.588479], [113.9907149, 22.5884212], [113.9906859, 22.5884842], [113.9905705, 22.5884388], [113.9905914, 22.5883934], [113.9904516, 22.5883384], [113.9904319, 22.5883812], [113.9902731, 22.5883188]]]]}}, {"type": "Feature", "id": "way/614172682", "properties": {"tags": {"building": "apartments", "building:levels": "54", "layer": "1"}, "heightStatus": "levels_only_unverified", "source": "OpenStreetMap", "license": "ODbL-1.0"}, "geometry": {"type": "MultiPolygon", "coordinates": [[[[113.9894579, 22.5881054], [113.989563, 22.5878657], [113.9901687, 22.5880922], [113.9900905, 22.5882705], [113.9899642, 22.5882232], [113.9899937, 22.5881558], [113.9898657, 22.588108], [113.9898424, 22.588161], [113.9897308, 22.5881193], [113.9897636, 22.5880446], [113.9896117, 22.5879878], [113.9895778, 22.5880651], [113.9896426, 22.5880893], [113.9896105, 22.5881624], [113.9894579, 22.5881054]]]]}}, {"type": "Feature", "id": "way/614172683", "properties": {"tags": {"building": "apartments", "building:levels": "54", "layer": "1"}, "heightStatus": "levels_only_unverified", "source": "OpenStreetMap", "license": "ODbL-1.0"}, "geometry": {"type": "MultiPolygon", "coordinates": [[[[113.9913608, 22.5888452], [113.9914742, 22.5885897], [113.9921104, 22.5888304], [113.9920308, 22.5890097], [113.9918944, 22.5889581], [113.9919211, 22.5888979], [113.9917682, 22.5888401], [113.9917448, 22.5888928], [113.9916343, 22.588851], [113.9916634, 22.5887856], [113.9915092, 22.5887272], [113.9914735, 22.5888076], [113.991538, 22.588832], [113.9915075, 22.5889007], [113.9913608, 22.5888452]]]]}}, {"type": "Feature", "id": "way/614172684", "properties": {"tags": {"building": "apartments", "building:levels": "54", "layer": "1"}, "heightStatus": "levels_only_unverified", "source": "OpenStreetMap", "license": "ODbL-1.0"}, "geometry": {"type": "MultiPolygon", "coordinates": [[[[113.9909051, 22.5898223], [113.9911672, 22.5892444], [113.9918132, 22.5894941], [113.9917405, 22.5896544], [113.991623, 22.589609], [113.991643, 22.5895649], [113.9915361, 22.5895236], [113.99155, 22.5894931], [113.9912184, 22.5893647], [113.9911695, 22.5894722], [113.9912212, 22.5894922], [113.9911509, 22.5896468], [113.9911086, 22.5896304], [113.9910494, 22.5897606], [113.9911069, 22.5897829], [113.9911408, 22.5897083], [113.9915681, 22.589874], [113.9914868, 22.5900527], [113.9913719, 22.5900082], [113.991386, 22.5899773], [113.9913483, 22.5899627], [113.991371, 22.5899128], [113.9913414, 22.5899013], [113.9913196, 22.5899494], [113.9912478, 22.5899217], [113.9912716, 22.5898693], [113.9912179, 22.5898486], [113.9911814, 22.5899291], [113.9909051, 22.5898223]]]]}}, {"type": "Feature", "id": "way/614172686", "properties": {"tags": {"building": "apartments", "building:levels": "54", "layer": "1"}, "heightStatus": "levels_only_unverified", "source": "OpenStreetMap", "license": "ODbL-1.0"}, "geometry": {"type": "MultiPolygon", "coordinates": [[[[113.9898877, 22.5894373], [113.9899686, 22.5892584], [113.9903963, 22.5894232], [113.9903625, 22.5894979], [113.99042, 22.58952], [113.990479, 22.5893897], [113.9904367, 22.5893734], [113.9905067, 22.5892187], [113.9905583, 22.5892386], [113.990607, 22.5891311], [113.9902752, 22.589003], [113.9902614, 22.5890336], [113.9901545, 22.5889923], [113.9901345, 22.5890363], [113.9900171, 22.5889909], [113.9900897, 22.5888307], [113.9907357, 22.5890803], [113.9904737, 22.5896582], [113.9901974, 22.5895515], [113.9902339, 22.5894709], [113.9901803, 22.5894502], [113.9901565, 22.5895025], [113.9900848, 22.5894748], [113.9901066, 22.5894267], [113.990077, 22.5894153], [113.9900544, 22.5894652], [113.9900167, 22.5894507], [113.9900027, 22.5894816], [113.9898877, 22.5894373]]]]}}, {"type": "Feature", "id": "way/614172688", "properties": {"tags": {"building": "apartments", "building:levels": "54", "layer": "1"}, "heightStatus": "levels_only_unverified", "source": "OpenStreetMap", "license": "ODbL-1.0"}, "geometry": {"type": "MultiPolygon", "coordinates": [[[[113.9891622, 22.5888308], [113.9892969, 22.588528], [113.9899334, 22.5887694], [113.9898636, 22.5889263], [113.9897364, 22.5888781], [113.9897536, 22.5888395], [113.9896093, 22.5887848], [113.9895859, 22.5888374], [113.9894592, 22.5887894], [113.9894883, 22.5887239], [113.9893315, 22.5886644], [113.9892938, 22.5887492], [113.9893581, 22.5887736], [113.989308, 22.5888861], [113.9891622, 22.5888308]]]]}}, {"type": "Feature", "id": "way/614172689", "properties": {"tags": {"building": "apartments", "building:levels": "54", "layer": "1"}, "heightStatus": "levels_only_unverified", "source": "OpenStreetMap", "license": "ODbL-1.0"}, "geometry": {"type": "MultiPolygon", "coordinates": [[[[113.9919086, 22.5897239], [113.9919804, 22.5895668], [113.9923605, 22.5897149], [113.9923456, 22.5897474], [113.9925969, 22.5898453], [113.9924522, 22.5901619], [113.9922928, 22.5900998], [113.9923643, 22.5899434], [113.9924289, 22.5899686], [113.9924522, 22.5899177], [113.9922939, 22.5898561], [113.9922808, 22.5898848], [113.9921531, 22.589835], [113.9921767, 22.5897834], [113.9920564, 22.5897366], [113.992039, 22.5897747], [113.9919086, 22.5897239]]]]}}, {"type": "Feature", "id": "way/614172697", "properties": {"tags": {"building": "apartments", "building:levels": "54", "layer": "1"}, "heightStatus": "levels_only_unverified", "source": "OpenStreetMap", "license": "ODbL-1.0"}, "geometry": {"type": "MultiPolygon", "coordinates": [[[[113.988757, 22.5896647], [113.9890026, 22.5891085], [113.98965, 22.5893522], [113.9895779, 22.5895156], [113.9894744, 22.5894767], [113.9894825, 22.5894584], [113.9894517, 22.5894468], [113.9894674, 22.5894112], [113.9893346, 22.5893613], [113.9893084, 22.5894206], [113.9891679, 22.5893678], [113.9891788, 22.5893431], [113.9891242, 22.5893226], [113.9891477, 22.5892692], [113.9890647, 22.5892381], [113.9890387, 22.5892973], [113.9890025, 22.5892837], [113.9889699, 22.5893578], [113.9890153, 22.5893749], [113.9889483, 22.5895274], [113.9888827, 22.5895028], [113.9888384, 22.5896035], [113.9888929, 22.5896239], [113.9889104, 22.5895841], [113.9889441, 22.5895967], [113.9889534, 22.5895756], [113.9894217, 22.5897515], [113.9893553, 22.5899022], [113.9892454, 22.5898609], [113.9892767, 22.58979], [113.9892201, 22.5897687], [113.9892013, 22.5898114], [113.9891387, 22.5897879], [113.9891595, 22.5897408], [113.9890058, 22.589683], [113.9889773, 22.5897476], [113.988757, 22.5896647]]]]}}, {"type": "Feature", "id": "way/614172700", "properties": {"tags": {"building": "yes", "building:levels": "54", "layer": "1"}, "heightStatus": "levels_only_unverified", "source": "OpenStreetMap", "license": "ODbL-1.0"}, "geometry": {"type": "MultiPolygon", "coordinates": [[[[113.9919283, 22.5894034], [113.9920008, 22.5892402], [113.9926108, 22.589471], [113.9925233, 22.5896681], [113.9923261, 22.5895935], [113.9923412, 22.5895596], [113.9919283, 22.5894034]]]]}}, {"type": "Feature", "id": "way/614172702", "properties": {"tags": {"building": "yes", "building:levels": "54"}, "heightStatus": "levels_only_unverified", "source": "OpenStreetMap", "license": "ODbL-1.0"}, "geometry": {"type": "MultiPolygon", "coordinates": [[[[113.9926514, 22.5892545], [113.9926971, 22.5891508], [113.9927289, 22.5890785], [113.9929604, 22.5891653], [113.9928522, 22.589411], [113.9927959, 22.5893899], [113.9927836, 22.5894179], [113.9927068, 22.589389], [113.9927482, 22.5892951], [113.9927924, 22.5893117], [113.9928254, 22.5892367], [113.9927689, 22.5892155], [113.9927375, 22.5892868], [113.9926514, 22.5892545]]]]}}, {"type": "Feature", "id": "way/1348667412", "properties": {"tags": {"building": "apartments", "height": "150", "layer": "1", "name": "1栋B座"}, "heightStatus": "height_tag_unverified", "source": "OpenStreetMap", "license": "ODbL-1.0"}, "geometry": {"type": "MultiPolygon", "coordinates": [[[[113.9871526, 22.5889413], [113.9872143, 22.5889194], [113.9871768, 22.5888293], [113.9871965, 22.5888223], [113.987318, 22.5887792], [113.9873565, 22.5888715], [113.9874524, 22.5888374], [113.9874742, 22.5888898], [113.9875062, 22.5889665], [113.9874113, 22.5890002], [113.9874344, 22.5890558], [113.9873414, 22.5890888], [113.9873075, 22.5890075], [113.987272, 22.5889933], [113.9871869, 22.5890235], [113.9871526, 22.5889413]]]]}}, {"type": "Feature", "id": "way/1348667413", "properties": {"tags": {"building": "apartments", "height": "150", "layer": "1", "name": "1栋A座"}, "heightStatus": "height_tag_unverified", "source": "OpenStreetMap", "license": "ODbL-1.0"}, "geometry": {"type": "MultiPolygon", "coordinates": [[[[113.9876333, 22.5892293], [113.9876957, 22.5892077], [113.9876594, 22.5891182], [113.9877939, 22.5890717], [113.9878317, 22.5891652], [113.9879089, 22.5891385], [113.9879505, 22.5892412], [113.9878725, 22.5892681], [113.9879047, 22.5893476], [113.9878193, 22.589377], [113.987786, 22.5892946], [113.9877505, 22.5892804], [113.9876658, 22.5893096], [113.9876333, 22.5892293]]]]}}, {"type": "Feature", "id": "way/1348667414", "properties": {"tags": {"building": "apartments", "height": "150", "layer": "1", "name": "1栋C座"}, "heightStatus": "height_tag_unverified", "source": "OpenStreetMap", "license": "ODbL-1.0"}, "geometry": {"type": "MultiPolygon", "coordinates": [[[[113.9866105, 22.5887525], [113.9866688, 22.5887269], [113.986625, 22.5886421], [113.9867249, 22.5885982], [113.9867603, 22.5885827], [113.9868045, 22.5886683], [113.9869012, 22.5886258], [113.9869555, 22.5887311], [113.9869663, 22.5887519], [113.9868719, 22.5887934], [113.9869003, 22.5888485], [113.9868142, 22.5888864], [113.986775, 22.5888104], [113.9867387, 22.5887981], [113.9866534, 22.5888356], [113.9866105, 22.5887525]]]]}}, {"type": "Feature", "id": "way/1348667415", "properties": {"tags": {"building": "apartments", "height": "150", "layer": "1", "name": "1栋D座"}, "heightStatus": "height_tag_unverified", "source": "OpenStreetMap", "license": "ODbL-1.0"}, "geometry": {"type": "MultiPolygon", "coordinates": [[[[113.9860444, 22.5886706], [113.9861027, 22.5886449], [113.9860589, 22.5885602], [113.9861942, 22.5885007], [113.9862383, 22.5885864], [113.9863351, 22.5885438], [113.9864002, 22.58867], [113.9863058, 22.5887115], [113.9863342, 22.5887665], [113.9862481, 22.5888044], [113.9862089, 22.5887284], [113.9861726, 22.5887161], [113.9860873, 22.5887537], [113.9860444, 22.5886706]]]]}}, {"type": "Feature", "id": "way/1348667420", "properties": {"tags": {"building": "kindergarten", "name": "阅山境幼儿园"}, "heightStatus": "unknown", "source": "OpenStreetMap", "license": "ODbL-1.0"}, "geometry": {"type": "MultiPolygon", "coordinates": [[[[113.9880123, 22.5894516], [113.9880524, 22.589364], [113.9881621, 22.5894068], [113.9882028, 22.5893178], [113.9880931, 22.589275], [113.9881576, 22.5891338], [113.9883586, 22.5892122], [113.9882133, 22.58953], [113.9880123, 22.5894516]]]]}}, {"type": "Feature", "id": "way/1348667421", "properties": {"tags": {"building": "retail"}, "heightStatus": "unknown", "source": "OpenStreetMap", "license": "ODbL-1.0"}, "geometry": {"type": "MultiPolygon", "coordinates": [[[[113.9853497, 22.5884518], [113.9859442, 22.5884572], [113.9859606, 22.5884887], [113.9864789, 22.5885059], [113.9867249, 22.5885982], [113.9867603, 22.5885827], [113.9868045, 22.5886683], [113.9869012, 22.5886258], [113.9869555, 22.5887311], [113.9870007, 22.588713], [113.9870228, 22.5887118], [113.987041, 22.5887167], [113.9871443, 22.5887523], [113.9871581, 22.5887605], [113.9871691, 22.5887711], [113.9871965, 22.5888223], [113.987318, 22.5887792], [113.9873565, 22.5888715], [113.9874524, 22.5888374], [113.9874742, 22.5888898], [113.9877801, 22.5889971], [113.9878239, 22.5891084], [113.9879089, 22.5891385], [113.9879505, 22.5892412], [113.9879047, 22.5893476], [113.9878193, 22.589377], [113.9877882, 22.589388], [113.9863449, 22.5888549], [113.9860462, 22.5887408], [113.9853497, 22.5884518]]]]}}]}