{"type": "FeatureCollection", "features": [{"type": "Feature", "id": "way/533170981", "properties": {"tags": {"building": "university", "building:levels": "6", "name": "第一科研楼", "name:en": "Faculty Building 1", "name:zh": "第一科研楼", "name:zh-Hans": "第一科研楼", "name:zh-Hant": "第一科研樓"}, "heightStatus": "levels_only_unverified", "source": "OpenStreetMap", "license": "ODbL-1.0"}, "geometry": {"type": "MultiPolygon", "coordinates": [[[[113.9911849, 22.5991955], [113.9917064, 22.5988776], [113.9920831, 22.5993546], [113.9917021, 22.5996014], [113.991595, 22.599455], [113.9911849, 22.5991955]]]]}}, {"type": "Feature", "id": "way/533171021", "properties": {"tags": {"addr:city": "shenzhen", "addr:district": "Nanshan", "addr:province": "Guangdong", "building": "dormitory", "building:levels": "6", "name": "湖畔宿舍3栋", "name:en": "Dorm Block 3", "name:zh": "湖畔宿舍3栋", "name:zh-Hans": "湖畔宿舍3栋", "name:zh-Hant": "湖畔宿舍3棟"}, "heightStatus": "levels_only_unverified", "source": "OpenStreetMap", "license": "ODbL-1.0"}, "geometry": {"type": "MultiPolygon", "coordinates": [[[[113.993026, 22.6031011], [113.9933575, 22.6030607], [113.9933395, 22.6029674], [113.9934627, 22.6029474], [113.9937635, 22.6028986], [113.9937894, 22.6030154], [113.9938074, 22.6030964], [113.993452, 22.6031525], [113.9934669, 22.6032269], [113.9930642, 22.6032847], [113.993026, 22.6031011]]]]}}, {"type": "Feature", "id": "way/533171022", "properties": {"tags": {"addr:city": "shenzhen", "addr:district": "Nanshan", "building": "dormitory", "building:levels": "6", "name": "湖畔宿舍2栋", "name:en": "Dorm Block 2", "name:zh": "湖畔宿舍2栋", "name:zh-Hans": "湖畔宿舍2栋", "name:zh-Hant": "湖畔宿舍2棟"}, "heightStatus": "levels_only_unverified", "source": "OpenStreetMap", "license": "ODbL-1.0"}, "geometry": {"type": "MultiPolygon", "coordinates": [[[[113.9934578, 22.6026064], [113.9934675, 22.6025216], [113.9934898, 22.6025229], [113.9934905, 22.6024921], [113.9934738, 22.6024908], [113.9934732, 22.6024148], [113.9936021, 22.6024141], [113.9938705, 22.6024125], [113.9938711, 22.6025017], [113.9938495, 22.6025036], [113.9938478, 22.6025402], [113.993846, 22.6025775], [113.9938641, 22.6025788], [113.9938608, 22.6026609], [113.993626, 22.6026295], [113.9934578, 22.6026064]]]]}}, {"type": "Feature", "id": "way/533171023", "properties": {"tags": {"addr:city": "shenzhen", "addr:district": "Nanshan", "addr:street": "南科一路", "building": "dormitory", "building:levels": "6", "name": "湖畔宿舍1栋", "name:en": "Dorm Block 1", "name:zh": "湖畔宿舍1栋", "name:zh-Hans": "湖畔宿舍1栋", "name:zh-Hant": "湖畔宿舍1棟"}, "heightStatus": "levels_only_unverified", "source": "OpenStreetMap", "license": "ODbL-1.0"}, "geometry": {"type": "MultiPolygon", "coordinates": [[[[113.9932987, 22.6021015], [113.9933005, 22.6018881], [113.9938731, 22.6019337], [113.993867, 22.6020383], [113.9938614, 22.6021339], [113.9936367, 22.6021098], [113.993481, 22.6020931], [113.9932987, 22.6021015]]]]}}, {"type": "Feature", "id": "way/533171024", "properties": {"tags": {"building": "dormitory", "building:levels": "7", "name": "湖畔宿舍4栋", "name:en": "Dorm Block 4", "name:zh": "湖畔宿舍4栋", "name:zh-Hans": "湖畔宿舍4栋", "name:zh-Hant": "湖畔宿舍4棟"}, "heightStatus": "levels_only_unverified", "source": "OpenStreetMap", "license": "ODbL-1.0"}, "geometry": {"type": "MultiPolygon", "coordinates": [[[[113.993572, 22.6035255], [113.9936196, 22.6033769], [113.9939204, 22.6034052], [113.994055, 22.6034606], [113.9941312, 22.603492], [113.994095, 22.6036362], [113.9937356, 22.6035713], [113.993572, 22.6035255]]]]}}, {"type": "Feature", "id": "way/533171025", "properties": {"tags": {"building": "dormitory", "name": "湖畔宿舍6栋", "name:en": "Dorm block 6", "name:zh": "湖畔宿舍6栋", "name:zh-Hans": "湖畔宿舍6栋", "name:zh-Hant": "湖畔宿舍6棟"}, "heightStatus": "unknown", "source": "OpenStreetMap", "license": "ODbL-1.0"}, "geometry": {"type": "MultiPolygon", "coordinates": [[[[113.9944, 22.6034416], [113.9947376, 22.6034356], [113.9947414, 22.6036152], [113.9944037, 22.6036212], [113.9944, 22.6034416]]]]}}, {"type": "Feature", "id": "way/533171026", "properties": {"tags": {"building": "dormitory", "name": "湖畔宿舍5栋", "name:en": "Dorm block 5", "name:zh": "湖畔宿舍5栋", "name:zh-Hans": "湖畔宿舍5栋", "name:zh-Hant": "湖畔宿舍5棟"}, "heightStatus": "unknown", "source": "OpenStreetMap", "license": "ODbL-1.0"}, "geometry": {"type": "MultiPolygon", "coordinates": [[[[113.9941017, 22.6038824], [113.9941196, 22.6037188], [113.9944835, 22.6037578], [113.9944719, 22.6039262], [113.9941017, 22.6038824]]]]}}, {"type": "Feature", "id": "way/533171027", "properties": {"tags": {"building": "school", "building:levels": "2", "name": "树德书院活动室", "name:en": "Shude College Activity Room", "name:zh": "树德书院活动室", "name:zh-Hans": "树德书院活动室", "name:zh-Hant": "樹德書院活動室"}, "heightStatus": "levels_only_unverified", "source": "OpenStreetMap", "license": "ODbL-1.0"}, "geometry": {"type": "MultiPolygon", "coordinates": [[[[113.99393, 22.6033128], [113.9939764, 22.6032233], [113.9943086, 22.6033635], [113.9942591, 22.6034491], [113.99393, 22.6033128]]]]}}, {"type": "Feature", "id": "way/533171028", "properties": {"tags": {"building": "school", "building:levels": "2", "name": "舞蹈室与健身房", "name:en": "dance & fit", "name:zh": "舞蹈室与健身房", "name:zh-Hans": "舞蹈室与健身房", "name:zh-Hant": "舞蹈室與健身房"}, "heightStatus": "levels_only_unverified", "source": "OpenStreetMap", "license": "ODbL-1.0"}, "geometry": {"type": "MultiPolygon", "coordinates": [[[[113.9938304, 22.6028306], [113.9938662, 22.6027585], [113.9939854, 22.6027595], [113.9939622, 22.6028131], [113.994017, 22.6030925], [113.9938937, 22.60311], [113.9938304, 22.6028306]]]]}}, {"type": "Feature", "id": "way/533171029", "properties": {"tags": {"building": "school", "building:levels": "1", "name": "致诚书院活动室", "name:en": "Zhicheng College Activity Room", "name:zh": "致诚书院活动室", "name:zh-Hans": "致诚书院活动室", "name:zh-Hant": "致誠書院活動室"}, "heightStatus": "levels_only_unverified", "source": "OpenStreetMap", "license": "ODbL-1.0"}, "geometry": {"type": "MultiPolygon", "coordinates": [[[[113.9939331, 22.6023713], [113.9940549, 22.6023712], [113.9940553, 22.6026331], [113.9939335, 22.6026332], [113.9939331, 22.6023713]]]]}}, {"type": "Feature", "id": "way/533171030", "properties": {"tags": {"building": "school", "building:levels": "1", "name": "致仁书院活动室", "name:en": "Zhiren College Activity Room", "name:zh": "致仁书院活动室", "name:zh-Hans": "致仁书院活动室", "name:zh-Hant": "致仁書院活動室"}, "heightStatus": "levels_only_unverified", "source": "OpenStreetMap", "license": "ODbL-1.0"}, "geometry": {"type": "MultiPolygon", "coordinates": [[[[113.9939302, 22.6022555], [113.9939411, 22.6019253], [113.9940255, 22.6019287], [113.9940568, 22.6022555], [113.9939302, 22.6022555]]]]}}, {"type": "Feature", "id": "way/533171031", "properties": {"tags": {"building": "school"}, "heightStatus": "unknown", "source": "OpenStreetMap", "license": "ODbL-1.0"}, "geometry": {"type": "MultiPolygon", "coordinates": [[[[113.9944564, 22.603143], [113.9945509, 22.6031429], [113.9945509, 22.6031158], [113.9944584, 22.6031159], [113.9944583, 22.6030615], [113.9945981, 22.6030614], [113.9945982, 22.6031874], [113.9944564, 22.6031875], [113.9944564, 22.603143]]]]}}, {"type": "Feature", "id": "way/533171032", "properties": {"tags": {"building": "school"}, "heightStatus": "unknown", "source": "OpenStreetMap", "license": "ODbL-1.0"}, "geometry": {"type": "MultiPolygon", "coordinates": [[[[113.9945937, 22.6029277], [113.9946883, 22.6029277], [113.9946883, 22.6029006], [113.9945957, 22.6029006], [113.9945957, 22.6028463], [113.9947354, 22.6028462], [113.9947355, 22.6029722], [113.9945937, 22.6029722], [113.9945937, 22.6029277]]]]}}, {"type": "Feature", "id": "way/533171033", "properties": {"tags": {"building": "school"}, "heightStatus": "unknown", "source": "OpenStreetMap", "license": "ODbL-1.0"}, "geometry": {"type": "MultiPolygon", "coordinates": [[[[113.9949401, 22.6031794], [113.9949404, 22.6030592], [113.9950557, 22.6030595], [113.9950556, 22.6031055], [113.9949684, 22.6031054], [113.9949683, 22.6031326], [113.9950558, 22.6031327], [113.9950557, 22.6031668], [113.9950556, 22.6031796], [113.9949401, 22.6031794]]]]}}, {"type": "Feature", "id": "way/533171034", "properties": {"tags": {"building": "school"}, "heightStatus": "unknown", "source": "OpenStreetMap", "license": "ODbL-1.0"}, "geometry": {"type": "MultiPolygon", "coordinates": [[[[113.9949388, 22.6030281], [113.9949391, 22.6029079], [113.9950544, 22.6029082], [113.9950543, 22.6029543], [113.9949671, 22.6029541], [113.994967, 22.6029813], [113.9950544, 22.6029815], [113.9950543, 22.6030283], [113.9949388, 22.6030281]]]]}}, {"type": "Feature", "id": "way/533171035", "properties": {"tags": {"building": "school"}, "heightStatus": "unknown", "source": "OpenStreetMap", "license": "ODbL-1.0"}, "geometry": {"type": "MultiPolygon", "coordinates": [[[[113.9949414, 22.6028771], [113.9949417, 22.6027569], [113.995057, 22.6027571], [113.9950569, 22.6028032], [113.9949697, 22.602803], [113.9949696, 22.6028302], [113.995057, 22.6028304], [113.9950569, 22.6028773], [113.9949414, 22.6028771]]]]}}, {"type": "Feature", "id": "way/533171036", "properties": {"tags": {"building": "school"}, "heightStatus": "unknown", "source": "OpenStreetMap", "license": "ODbL-1.0"}, "geometry": {"type": "MultiPolygon", "coordinates": [[[[113.994784, 22.602851], [113.9947842, 22.6027309], [113.9948341, 22.6027314], [113.9948331, 22.6028119], [113.9948626, 22.6028122], [113.9948635, 22.6027315], [113.9949143, 22.602732], [113.9949141, 22.6028513], [113.994784, 22.602851]]]]}}, {"type": "Feature", "id": "way/533171037", "properties": {"tags": {"building": "school"}, "heightStatus": "unknown", "source": "OpenStreetMap", "license": "ODbL-1.0"}, "geometry": {"type": "MultiPolygon", "coordinates": [[[[113.994609, 22.6028135], [113.9946092, 22.6026934], [113.9946591, 22.6026939], [113.9946582, 22.6027744], [113.9946876, 22.6027747], [113.9946886, 22.602694], [113.9947394, 22.6026945], [113.9947392, 22.6028139], [113.994609, 22.6028135]]]]}}, {"type": "Feature", "id": "way/533171038", "properties": {"tags": {"building": "school"}, "heightStatus": "unknown", "source": "OpenStreetMap", "license": "ODbL-1.0"}, "geometry": {"type": "MultiPolygon", "coordinates": [[[[113.9946185, 22.6031635], [113.9946187, 22.6030434], [113.9946686, 22.6030439], [113.9946677, 22.6031244], [113.9946971, 22.6031247], [113.9946981, 22.603044], [113.9947489, 22.6030445], [113.9947487, 22.6031639], [113.9946185, 22.6031635]]]]}}, {"type": "Feature", "id": "way/536044907", "properties": {"tags": {"building": "university", "name": "文汇礼堂", "name:en": "Wenhui Hall", "name:zh": "文汇礼堂", "name:zh-Hans": "文汇礼堂", "name:zh-Hant": "文匯禮堂"}, "heightStatus": "unknown", "source": "OpenStreetMap", "license": "ODbL-1.0"}, "geometry": {"type": "MultiPolygon", "coordinates": [[[[113.9885797, 22.6024026], [113.9886771, 22.6018046], [113.9891648, 22.6018724], [113.9890729, 22.6024738], [113.9885797, 22.6024026]]]]}}, {"type": "Feature", "id": "way/536044908", "properties": {"tags": {"building": "university", "name": "学术交流中心（B3）", "name:zh": "学术交流中心（B3）", "name:zh-Hans": "学术交流中心（B3）", "name:zh-Hant": "學術交流中心（B3）"}, "heightStatus": "unknown", "source": "OpenStreetMap", "license": "ODbL-1.0"}, "geometry": {"type": "MultiPolygon", "coordinates": [[[[113.9892263, 22.6021933], [113.9892754, 22.6019229], [113.9896037, 22.6019736], [113.9900004, 22.6016359], [113.9902827, 22.6019186], [113.9898476, 22.6022889], [113.9896756, 22.6022624], [113.9894711, 22.6022309], [113.9892263, 22.6021933]]]]}}, {"type": "Feature", "id": "way/536044909", "properties": {"tags": {"building": "university", "name": "学术交流中心（B3）", "name:zh": "学术交流中心（B3）", "name:zh-Hans": "学术交流中心（B3）", "name:zh-Hant": "學術交流中心（B3）"}, "heightStatus": "unknown", "source": "OpenStreetMap", "license": "ODbL-1.0"}, "geometry": {"type": "MultiPolygon", "coordinates": [[[[113.9894039, 22.6026255], [113.9894711, 22.6022309], [113.9896756, 22.6022624], [113.9896087, 22.6026552], [113.9894039, 22.6026255]]]]}}, {"type": "Feature", "id": "way/536044910", "properties": {"tags": {"building": "university", "name": "材料学院（B2）", "name:zh": "材料学院（B2）", "name:zh-Hans": "材料学院（B2）", "name:zh-Hant": "材料學院（B2）"}, "heightStatus": "unknown", "source": "OpenStreetMap", "license": "ODbL-1.0"}, "geometry": {"type": "MultiPolygon", "coordinates": [[[[113.9902071, 22.6014204], [113.9906948, 22.6010348], [113.9907988, 22.6011469], [113.9904202, 22.6014463], [113.99053, 22.6015647], [113.990907, 22.6012666], [113.9910415, 22.6011602], [113.9910957, 22.6009859], [113.9907329, 22.6008898], [113.9907725, 22.6007625], [113.9912511, 22.6008893], [113.9911429, 22.6012374], [113.9905052, 22.6017416], [113.9902071, 22.6014204]]]]}}, {"type": "Feature", "id": "way/536044911", "properties": {"tags": {"building": "university"}, "heightStatus": "unknown", "source": "OpenStreetMap", "license": "ODbL-1.0"}, "geometry": {"type": "MultiPolygon", "coordinates": [[[[113.9904202, 22.6014463], [113.9907988, 22.6011469], [113.990907, 22.6012666], [113.99053, 22.6015647], [113.9904202, 22.6014463]]]]}}, {"type": "Feature", "id": "way/536044912", "properties": {"tags": {"building": "university", "name": "化学与环境工程学院（B1）", "name:zh": "化学与环境工程学院（B1）", "name:zh-Hans": "化学与环境工程学院（B1）", "name:zh-Hant": "化學與環境工程學院（B1）"}, "heightStatus": "unknown", "source": "OpenStreetMap", "license": "ODbL-1.0"}, "geometry": {"type": "MultiPolygon", "coordinates": [[[[113.9903935, 22.6000198], [113.9905666, 22.5997028], [113.99076, 22.5997911], [113.9911474, 22.6000474], [113.9912853, 22.6002798], [113.9912832, 22.6005268], [113.990837, 22.6005077], [113.9908391, 22.6002598], [113.9911065, 22.6002678], [113.9911352, 22.6002686], [113.9911067, 22.6002216], [113.9910644, 22.6001521], [113.9910367, 22.600183], [113.9909317, 22.6001108], [113.9909079, 22.6001284], [113.9908803, 22.6001126], [113.9908517, 22.6000905], [113.9908593, 22.6000791], [113.9908682, 22.6000659], [113.9907634, 22.5999954], [113.9907941, 22.5999565], [113.990728, 22.5999076], [113.9906776, 22.5999928], [113.9906335, 22.6000672], [113.9905245, 22.6001145], [113.9904495, 22.6000816], [113.9904604, 22.600057], [113.9903935, 22.6000198]]]]}}, {"type": "Feature", "id": "way/628933252", "properties": {"tags": {"addr:city": "深圳市", "addr:district": "南山区", "addr:housenumber": "1088", "addr:street": "学苑大道", "building": "dormitory", "building:levels": "6", "name": "荔园1栋", "name:en": "Lychee 1", "name:zh": "荔园1栋", "name:zh-Hans": "荔园1栋", "name:zh-Hant": "荔園1棟"}, "heightStatus": "levels_only_unverified", "source": "OpenStreetMap", "license": "ODbL-1.0"}, "geometry": {"type": "MultiPolygon", "coordinates": [[[[113.9947797, 22.6069018], [113.9952523, 22.6067859], [113.995305, 22.6069692], [113.9948324, 22.6070851], [113.9947797, 22.6069018]]]]}}, {"type": "Feature", "id": "way/628933253", "properties": {"tags": {"addr:city": "深圳市", "addr:district": "南山区", "addr:housenumber": "1088", "addr:street": "学苑大道", "building": "dormitory", "building:levels": "6", "name": "荔园2栋", "name:en": "Lychee 2", "name:zh": "荔园2栋", "name:zh-Hans": "荔园2栋", "name:zh-Hant": "荔園2棟"}, "heightStatus": "levels_only_unverified", "source": "OpenStreetMap", "license": "ODbL-1.0"}, "geometry": {"type": "MultiPolygon", "coordinates": [[[[113.9948591, 22.6071776], [113.9953316, 22.6070618], [113.9953953, 22.6072832], [113.9949228, 22.6073991], [113.9948591, 22.6071776]]]]}}, {"type": "Feature", "id": "way/638398293", "properties": {"tags": {"addr:city": "深圳市", "addr:district": "南山区", "addr:housenumber": "1088", "addr:street": "学苑大道", "building": "dormitory", "building:levels": "6", "name": "荔园3栋", "name:en": "Lychee 3", "name:zh": "荔园3栋", "name:zh-Hans": "荔园3栋", "name:zh-Hant": "荔園3棟"}, "heightStatus": "levels_only_unverified", "source": "OpenStreetMap", "license": "ODbL-1.0"}, "geometry": {"type": "MultiPolygon", "coordinates": [[[[113.9949536, 22.6075061], [113.9954261, 22.6073903], [113.9954871, 22.6076023], [113.9950145, 22.6077181], [113.9949536, 22.6075061]]]]}}, {"type": "Feature", "id": "way/638398294", "properties": {"tags": {"addr:city": "深圳市", "addr:district": "南山区", "addr:housenumber": "1088", "addr:street": "学苑大道", "building": "dormitory", "building:levels": "6", "name": "荔园4栋", "name:en": "Lychee 4", "name:zh": "荔园4栋", "name:zh-Hans": "荔园4栋", "name:zh-Hant": "荔園4棟"}, "heightStatus": "levels_only_unverified", "source": "OpenStreetMap", "license": "ODbL-1.0"}, "geometry": {"type": "MultiPolygon", "coordinates": [[[[113.9943615, 22.6071615], [113.9944792, 22.6071349], [113.994546, 22.6073868], [113.9946568, 22.6073618], [113.9945899, 22.6071094], [113.9946986, 22.6070848], [113.9947886, 22.6074244], [113.9944514, 22.6075006], [113.9943615, 22.6071615]]]]}}, {"type": "Feature", "id": "way/638398295", "properties": {"tags": {"addr:city": "深圳市", "addr:district": "南山区", "addr:housenumber": "1088", "addr:street": "学苑大道", "building": "dormitory", "building:levels": "6", "name": "荔园6栋", "name:en": "Lychee 6", "name:zh": "荔园6栋", "name:zh-Hans": "荔园6栋", "name:zh-Hant": "荔園6棟"}, "heightStatus": "levels_only_unverified", "source": "OpenStreetMap", "license": "ODbL-1.0"}, "geometry": {"type": "MultiPolygon", "coordinates": [[[[113.9942906, 22.6076686], [113.9948065, 22.6075422], [113.9948675, 22.6077542], [113.9943516, 22.6078807], [113.9942906, 22.6076686]]]]}}, {"type": "Feature", "id": "way/638544884", "properties": {"tags": {"addr:city": "深圳市", "addr:district": "南山区", "addr:housenumber": "1088", "addr:street": "学苑大道", "building": "university", "building:levels": "6", "name": "创园9栋", "name:en": "Chuang Yuan 9", "name:zh": "创园9栋", "name:zh-Hans": "创园9栋", "name:zh-Hant": "創園9棟"}, "heightStatus": "levels_only_unverified", "source": "OpenStreetMap", "license": "ODbL-1.0"}, "geometry": {"type": "MultiPolygon", "coordinates": [[[[113.995481, 22.6070252], [113.9959531, 22.6069094], [113.9960169, 22.6071309], [113.9955447, 22.6072466], [113.995481, 22.6070252]]]]}}, {"type": "Feature", "id": "way/638544887", "properties": {"tags": {"addr:city": "深圳市", "addr:district": "南山区", "addr:housenumber": "1088", "addr:street": "学苑大道", "building": "university", "building:levels": "6", "name": "创园10栋", "name:en": "Chuang Yuan 10", "name:zh": "创园10栋", "name:zh-Hans": "创园10栋", "name:zh-Hant": "創園10棟"}, "heightStatus": "levels_only_unverified", "source": "OpenStreetMap", "license": "ODbL-1.0"}, "geometry": {"type": "MultiPolygon", "coordinates": [[[[113.9954017, 22.6067493], [113.9958738, 22.6066336], [113.9959265, 22.6068168], [113.9954544, 22.6069326], [113.9954017, 22.6067493]]]]}}, {"type": "Feature", "id": "way/695571951", "properties": {"tags": {"building": "dormitory", "building:levels": "7", "name": "宿舍15栋", "name:en": "Dorm Block 15", "name:zh": "宿舍15栋", "name:zh-Hans": "宿舍15栋", "name:zh-Hant": "宿舍15棟"}, "heightStatus": "levels_only_unverified", "source": "OpenStreetMap", "license": "ODbL-1.0"}, "geometry": {"type": "MultiPolygon", "coordinates": [[[[113.9951377, 22.6050409], [113.9952555, 22.6050027], [113.9955746, 22.6048992], [113.9956005, 22.6049673], [113.9956308, 22.6049575], [113.9956542, 22.6050189], [113.9953064, 22.6051317], [113.995187, 22.6051704], [113.9951377, 22.6050409]]]]}}, {"type": "Feature", "id": "way/695571952", "properties": {"tags": {"building": "dormitory", "building:levels": "7", "name": "宿舍14栋", "name:en": "Dorm Block 14", "name:zh": "宿舍14栋", "name:zh-Hans": "宿舍14栋", "name:zh-Hant": "宿舍14棟"}, "heightStatus": "levels_only_unverified", "source": "OpenStreetMap", "license": "ODbL-1.0"}, "geometry": {"type": "MultiPolygon", "coordinates": [[[[113.9948225, 22.6046997], [113.9948597, 22.604542], [113.9952731, 22.6046311], [113.9952385, 22.6047774], [113.9948225, 22.6046997]]]]}}, {"type": "Feature", "id": "way/695571953", "properties": {"tags": {"building": "dormitory", "building:levels": "7", "name": "宿舍13栋", "name:en": "Dorm Block 13", "name:zh": "宿舍13栋", "name:zh-Hans": "宿舍13栋", "name:zh-Hant": "宿舍13棟"}, "heightStatus": "levels_only_unverified", "source": "OpenStreetMap", "license": "ODbL-1.0"}, "geometry": {"type": "MultiPolygon", "coordinates": [[[[113.9942759, 22.6044212], [113.9947062, 22.6042833], [113.9947348, 22.6043595], [113.9947857, 22.6043432], [113.9948182, 22.6044297], [113.994337, 22.604584], [113.9942759, 22.6044212]]]]}}, {"type": "Feature", "id": "way/695571954", "properties": {"tags": {"building": "dormitory", "building:levels": "12", "name": "宿舍12栋", "name:en": "Dorm Block 12", "name:zh": "宿舍12栋", "name:zh-Hans": "宿舍12栋", "name:zh-Hant": "宿舍12棟"}, "heightStatus": "levels_only_unverified", "source": "OpenStreetMap", "license": "ODbL-1.0"}, "geometry": {"type": "MultiPolygon", "coordinates": [[[[113.9944411, 22.6054657], [113.9944752, 22.6053276], [113.9950291, 22.6054441], [113.994995, 22.6055823], [113.9944411, 22.6054657]]]]}}, {"type": "Feature", "id": "way/695571955", "properties": {"tags": {"building": "dormitory", "building:levels": "12", "name": "宿舍11栋", "name:en": "Dorm Block 11", "name:zh": "宿舍11栋", "name:zh-Hans": "宿舍11栋", "name:zh-Hant": "宿舍11棟"}, "heightStatus": "levels_only_unverified", "source": "OpenStreetMap", "license": "ODbL-1.0"}, "geometry": {"type": "MultiPolygon", "coordinates": [[[[113.9939332, 22.6050145], [113.9939636, 22.6048761], [113.9945209, 22.6049803], [113.9944905, 22.6051187], [113.9939332, 22.6050145]]]]}}, {"type": "Feature", "id": "way/695571956", "properties": {"tags": {"building": "dormitory", "building:levels": "24", "name": "宿舍10栋", "name:en": "Dorm Block 10", "name:zh": "宿舍10栋", "name:zh-Hans": "宿舍10栋", "name:zh-Hant": "宿舍10棟"}, "heightStatus": "levels_only_unverified", "source": "OpenStreetMap", "license": "ODbL-1.0"}, "geometry": {"type": "MultiPolygon", "coordinates": [[[[113.9930928, 22.604928], [113.9931222, 22.6048009], [113.9935923, 22.6048937], [113.993563, 22.6050207], [113.9930928, 22.604928]]]]}}, {"type": "Feature", "id": "way/695571957", "properties": {"tags": {"building": "dormitory", "building:levels": "17", "name": "宿舍9栋", "name:en": "Dorm Block 9", "name:zh": "宿舍9栋", "name:zh-Hans": "宿舍9栋", "name:zh-Hant": "宿舍9棟"}, "heightStatus": "levels_only_unverified", "source": "OpenStreetMap", "license": "ODbL-1.0"}, "geometry": {"type": "MultiPolygon", "coordinates": [[[[113.9927045, 22.6045194], [113.9927392, 22.6043754], [113.9931873, 22.6044714], [113.9931552, 22.60462], [113.9927045, 22.6045194]]]]}}, {"type": "Feature", "id": "way/695571958", "properties": {"tags": {"building": "dormitory", "building:levels": "17", "name": "宿舍8栋", "name:en": "Dorm Block 8", "name:zh": "宿舍8栋", "name:zh-Hans": "宿舍8栋", "name:zh-Hant": "宿舍8棟"}, "heightStatus": "levels_only_unverified", "source": "OpenStreetMap", "license": "ODbL-1.0"}, "geometry": {"type": "MultiPolygon", "coordinates": [[[[113.9920428, 22.6045382], [113.9920773, 22.6043709], [113.9921873, 22.6043845], [113.9921559, 22.6045433], [113.992416, 22.6045919], [113.9926676, 22.6046496], [113.9926292, 22.6047814], [113.9923891, 22.6047107], [113.9921353, 22.6046665], [113.9921511, 22.6045572], [113.9920428, 22.6045382]]]]}}, {"type": "Feature", "id": "way/695571961", "properties": {"tags": {"building": "university", "building:levels": "10", "name": "工学院大楼南座", "name:en": "College of Engineering South Tower", "name:zh": "工学院大楼南座", "name:zh-Hans": "工学院大楼南座", "name:zh-Hant": "工學院大樓南座"}, "heightStatus": "levels_only_unverified", "source": "OpenStreetMap", "license": "ODbL-1.0"}, "geometry": {"type": "MultiPolygon", "coordinates": [[[[113.9904113, 22.6032687], [113.9904443, 22.6030764], [113.9904966, 22.6027801], [113.9905572, 22.6026665], [113.9908582, 22.6024111], [113.9915074, 22.6018604], [113.9916011, 22.6020038], [113.9909372, 22.6026002], [113.9907173, 22.6027976], [113.9906679, 22.6031143], [113.9914568, 22.6032448], [113.9919624, 22.6027769], [113.9920267, 22.6027175], [113.9921604, 22.6028439], [113.9915031, 22.6034297], [113.9913873, 22.6034135], [113.9907372, 22.6033171], [113.9906025, 22.6032971], [113.9905389, 22.6032877], [113.9904113, 22.6032687]]]]}}, {"type": "Feature", "id": "way/695571962", "properties": {"tags": {"building": "university", "building:levels": "10", "name": "工学院大楼北座", "name:en": "College of Engineering North Tower", "name:zh": "工学院大楼北座", "name:zh-Hans": "工学院大楼北座", "name:zh-Hant": "工學院大樓北座"}, "heightStatus": "levels_only_unverified", "source": "OpenStreetMap", "license": "ODbL-1.0"}, "geometry": {"type": "MultiPolygon", "coordinates": [[[[113.9902261, 22.6044319], [113.9903351, 22.6037281], [113.9903638, 22.603543], [113.9905033, 22.6035622], [113.9905656, 22.6035708], [113.9914376, 22.6036909], [113.9914114, 22.6038789], [113.9905611, 22.6037589], [113.99048, 22.6043516], [113.9906305, 22.6043715], [113.9914372, 22.6044747], [113.9914167, 22.6046513], [113.9902675, 22.6044958], [113.9902261, 22.6044319]]]]}}, {"type": "Feature", "id": "way/703098306", "properties": {"tags": {"alt_name": "第三教学楼", "alt_name:en": "Lecture Hall 3", "alt_name:zh": "第三教学楼", "building": "university", "building:levels": "5", "name": "智华教学楼", "name:en": "Chi Wah Lecture Hall", "name:zh": "智华教学楼", "name:zh-Hans": "智华教学楼", "name:zh-Hant": "智華教學樓"}, "heightStatus": "levels_only_unverified", "source": "OpenStreetMap", "license": "ODbL-1.0"}, "geometry": {"type": "MultiPolygon", "coordinates": [[[[113.9945247, 22.5988763], [113.9949396, 22.5985635], [113.9949663, 22.5985956], [113.9950188, 22.598655], [113.9954812, 22.5991759], [113.9953649, 22.5992549], [113.9952046, 22.5990557], [113.9951039, 22.598938], [113.9949583, 22.5987759], [113.99479, 22.5988901], [113.9951948, 22.5993498], [113.9950309, 22.5994727], [113.9946108, 22.5989737], [113.9945247, 22.5988763]]]]}}, {"type": "Feature", "id": "way/710848314", "properties": {"tags": {"building:levels": "3", "building:part": "yes"}, "heightStatus": "levels_only_unverified", "source": "OpenStreetMap", "license": "ODbL-1.0"}, "geometry": {"type": "MultiPolygon", "coordinates": [[[[113.9925805, 22.6004342], [113.9927362, 22.6003008], [113.992857, 22.600412], [113.993026, 22.6007561], [113.9929112, 22.600811], [113.9925805, 22.6004342]]]]}}, {"type": "Feature", "id": "way/710848316", "properties": {"tags": {"amenity": "library", "building:levels": "5", "building:part": "yes", "internet_access": "yes", "name": "一丹图书馆", "name:en": "Yidan Library", "name:zh": "一丹图书馆", "name:zh-Hans": "一丹图书馆", "name:zh-Hant": "一丹圖書館", "opening_hours": "24/7", "operator": "SUSTech", "operator:type": "university"}, "heightStatus": "levels_only_unverified", "source": "OpenStreetMap", "license": "ODbL-1.0"}, "geometry": {"type": "MultiPolygon", "coordinates": [[[[113.9930851, 22.6003577], [113.9931107, 22.6002412], [113.9932778, 22.6000432], [113.9933239, 22.5999886], [113.9933962, 22.5999841], [113.9934245, 22.5999824], [113.9934149, 22.6005734], [113.9931875, 22.6006833], [113.9930866, 22.6004616], [113.9930851, 22.6003577]]]]}}, {"type": "Feature", "id": "way/710848317", "properties": {"tags": {"building:levels": "4", "building:part": "yes"}, "heightStatus": "levels_only_unverified", "source": "OpenStreetMap", "license": "ODbL-1.0"}, "geometry": {"type": "MultiPolygon", "coordinates": [[[[113.9922939, 22.5999366], [113.9923002, 22.5996849], [113.9924344, 22.5995985], [113.992452, 22.5999386], [113.9926367, 22.6001579], [113.992493, 22.6002021], [113.9923311, 22.6000435], [113.9923033, 22.5999635], [113.9922939, 22.5999366]]]]}}, {"type": "Feature", "id": "way/710848322", "properties": {"tags": {"building:levels": "4", "building:part": "yes"}, "heightStatus": "levels_only_unverified", "source": "OpenStreetMap", "license": "ODbL-1.0"}, "geometry": {"type": "MultiPolygon", "coordinates": [[[[113.9925297, 22.5995575], [113.9927366, 22.599449], [113.9927901, 22.5994346], [113.9928644, 22.5994391], [113.9932903, 22.5996485], [113.9932555, 22.5997125], [113.9932426, 22.5997382], [113.9930597, 22.5996395], [113.9930637, 22.5998004], [113.992597, 22.5997955], [113.992589, 22.5996092], [113.9925662, 22.5996231], [113.9925297, 22.5995575]]]]}}, {"type": "Feature", "id": "way/755562229", "properties": {"tags": {"access": "permit", "building": "yes", "historic": "ruins", "historic:civilization": "modern", "name": "避世楼", "name:en": "Bishi Building", "name:zh": "避世楼", "name:zh-Hans": "避世楼", "ruins": "building"}, "heightStatus": "unknown", "source": "OpenStreetMap", "license": "ODbL-1.0"}, "geometry": {"type": "MultiPolygon", "coordinates": [[[[113.9947109, 22.599416], [113.9947508, 22.5994155], [113.9947514, 22.599451], [113.9947114, 22.5994516], [113.9947109, 22.599416]]]]}}, {"type": "Feature", "id": "way/755562230", "properties": {"tags": {"building": "dormitory", "building:levels": "7", "name": "宿舍7栋", "name:en": "Dorm Block 7", "name:zh": "宿舍7栋", "name:zh-Hans": "宿舍7栋", "name:zh-Hant": "宿舍7棟"}, "heightStatus": "levels_only_unverified", "source": "OpenStreetMap", "license": "ODbL-1.0"}, "geometry": {"type": "MultiPolygon", "coordinates": [[[[113.9921263, 22.6041003], [113.9921521, 22.6039786], [113.992584, 22.6040567], [113.9925582, 22.6041783], [113.9921263, 22.6041003]]]]}}, {"type": "Feature", "id": "way/876065295", "properties": {"tags": {"amenity": "library", "building": "yes", "internet_access": "yes", "name": "涵泳图书馆", "name:en": "Learning Nexus", "name:zh": "涵泳图书馆", "name:zh-Hans": "涵泳图书馆", "name:zh-Hant": "涵泳圖書館", "opening_hours": "Mo-Su 08:00-22:00", "operator": "SUSTech", "operator:type": "university"}, "heightStatus": "unknown", "source": "OpenStreetMap", "license": "ODbL-1.0"}, "geometry": {"type": "MultiPolygon", "coordinates": [[[[113.9918893, 22.6045993], [113.9919651, 22.6042222], [113.992094, 22.6042443], [113.9920182, 22.6046214], [113.9918893, 22.6045993]]]]}}, {"type": "Feature", "id": "way/919044335", "properties": {"tags": {"building": "university"}, "heightStatus": "unknown", "source": "OpenStreetMap", "license": "ODbL-1.0"}, "geometry": {"type": "MultiPolygon", "coordinates": [[[[113.9931439, 22.6046959], [113.9931678, 22.6045836], [113.9934065, 22.6046269], [113.9934316, 22.6045092], [113.9936683, 22.6045522], [113.9936428, 22.6046724], [113.9937803, 22.6046974], [113.9937569, 22.6048072], [113.9931439, 22.6046959]]]]}}, {"type": "Feature", "id": "way/927400198", "properties": {"tags": {"building": "yes"}, "heightStatus": "unknown", "source": "OpenStreetMap", "license": "ODbL-1.0"}, "geometry": {"type": "MultiPolygon", "coordinates": [[[[113.9911768, 22.6042681], [113.9911841, 22.6042465], [113.991199, 22.6042285], [113.9912197, 22.6042163], [113.9912436, 22.6042113], [113.9912679, 22.6042142], [113.9912897, 22.6042246], [113.9913064, 22.6042413], [113.9913158, 22.6042622], [113.9913169, 22.6042848], [113.9913096, 22.6043065], [113.9912947, 22.6043245], [113.9912741, 22.6043367], [113.9912501, 22.6043416], [113.9912258, 22.6043387], [113.991204, 22.6043283], [113.9911874, 22.6043117], [113.9911779, 22.6042908], [113.9911768, 22.6042681]]]]}}, {"type": "Feature", "id": "relation/19871797", "properties": {"tags": {"building": "yes", "name": "工学院", "name:en": "College of Engineering", "name:zh": "工学院"}, "heightStatus": "unknown", "source": "OpenStreetMap", "license": "ODbL-1.0"}, "geometry": {"type": "MultiPolygon", "coordinates": [[[[113.9902261, 22.6044319], [113.9903351, 22.6037281], [113.9903638, 22.603543], [113.9905033, 22.6035622], [113.9905389, 22.6032877], [113.9904113, 22.6032687], [113.9904443, 22.6030764], [113.9904966, 22.6027801], [113.9905572, 22.6026665], [113.9908582, 22.6024111], [113.9915074, 22.6018604], [113.9916011, 22.6020038], [113.9909372, 22.6026002], [113.9907173, 22.6027976], [113.9906679, 22.6031143], [113.9914568, 22.6032448], [113.9919624, 22.6027769], [113.9920267, 22.6027175], [113.9921604, 22.6028439], [113.9915031, 22.6034297], [113.9913873, 22.6034135], [113.9907372, 22.6033171], [113.9906025, 22.6032971], [113.9905656, 22.6035708], [113.9914376, 22.6036909], [113.9914114, 22.6038789], [113.9905611, 22.6037589], [113.99048, 22.6043516], [113.9906305, 22.6043715], [113.9914372, 22.6044747], [113.9914167, 22.6046513], [113.9902675, 22.6044958], [113.9902261, 22.6044319]]]]}}, {"type": "Feature", "id": "way/927400201", "properties": {"tags": {"bridge": "yes", "building": "university", "level": "1"}, "heightStatus": "unknown", "source": "OpenStreetMap", "license": "ODbL-1.0"}, "geometry": {"type": "MultiPolygon", "coordinates": [[[[113.9905033, 22.6035622], [113.9905389, 22.6032877], [113.9906025, 22.6032971], [113.9905656, 22.6035708], [113.9905033, 22.6035622]]]]}}, {"type": "Feature", "id": "relation/12870273", "properties": {"tags": {"building": "university", "building:levels": "2"}, "heightStatus": "levels_only_unverified", "source": "OpenStreetMap", "license": "ODbL-1.0"}, "geometry": {"type": "MultiPolygon", "coordinates": [[[[113.994168, 22.6014292], [113.9943647, 22.6013152], [113.9943952, 22.6012975], [113.9944966, 22.6014577], [113.9948836, 22.6015643], [113.9951067, 22.6017227], [113.9947548, 22.6018854], [113.9950714, 22.6023571], [113.995243, 22.6024797], [113.9954308, 22.6023824], [113.9955116, 22.6025248], [113.9956588, 22.6026495], [113.9962016, 22.6027366], [113.9962044, 22.6028075], [113.9957157, 22.6027974], [113.9956059, 22.6027905], [113.9952288, 22.6025282], [113.994935, 22.6022976], [113.994733, 22.6021756], [113.9945604, 22.6020569], [113.994168, 22.6014292]], [[113.9944357, 22.6016167], [113.9945228, 22.6017455], [113.994673, 22.6016675], [113.9946221, 22.6015907], [113.9945188, 22.6015598], [113.9944357, 22.6016167]]]]}}, {"type": "Feature", "id": "relation/13168926", "properties": {"tags": {"building": "university", "name": "四方楼", "name:en": "Teaching Building", "name:zh": "四方楼", "name:zh-Hans": "四方楼", "name:zh-Hant": "四方樓"}, "heightStatus": "unknown", "source": "OpenStreetMap", "license": "ODbL-1.0"}, "geometry": {"type": "MultiPolygon", "coordinates": [[[[113.9858494, 22.6054013], [113.9861793, 22.6047625], [113.9862571, 22.6045075], [113.98641, 22.603928], [113.9870001, 22.6041088], [113.9869945, 22.6041244], [113.9868014, 22.6046591], [113.9867882, 22.6046956], [113.986746, 22.6046807], [113.9863241, 22.6045322], [113.9862517, 22.6047724], [113.986705, 22.6049185], [113.986676, 22.6050005], [113.9864717, 22.6055772], [113.9858494, 22.6054013]], [[113.9860457, 22.6052184], [113.9864185, 22.6053397], [113.9865338, 22.6050426], [113.9862093, 22.6049336], [113.9860457, 22.6052184]], [[113.986389, 22.6042675], [113.9867109, 22.604369], [113.9867914, 22.6041511], [113.9864534, 22.6040496], [113.986389, 22.6042675]]], [[[113.9866815, 22.6056111], [113.986692, 22.6055872], [113.9867781, 22.6053792], [113.9869068, 22.6050699], [113.9869176, 22.605044], [113.9869383, 22.6050508], [113.9873548, 22.6051876], [113.9874254, 22.6049203], [113.9870376, 22.6048138], [113.9870288, 22.6048113], [113.9870572, 22.6047406], [113.9872709, 22.6042096], [113.987279, 22.6041893], [113.9878242, 22.6043457], [113.9877198, 22.604525], [113.987585, 22.6047563], [113.9874621, 22.6049673], [113.9874166, 22.605196], [113.9874138, 22.6052099], [113.9873226, 22.6058141], [113.9866815, 22.6056111]], [[113.9869469, 22.6054263], [113.9873144, 22.6055452], [113.9873439, 22.6053075], [113.9870328, 22.6052159], [113.9869469, 22.6054263]], [[113.9872876, 22.6046266], [113.9875129, 22.6047033], [113.9876792, 22.6044384], [113.9874136, 22.6043467], [113.9872876, 22.6046266]]]]}}, {"type": "Feature", "id": "relation/13168927", "properties": {"tags": {"building": "university", "name": "明理楼", "name:en": "Mingli Building", "name:zh": "明理楼", "name:zh-Hans": "明理楼", "name:zh-Hant": "明理樓"}, "heightStatus": "unknown", "source": "OpenStreetMap", "license": "ODbL-1.0"}, "geometry": {"type": "MultiPolygon", "coordinates": [[[[113.9880238, 22.6044173], [113.9884637, 22.6038503], [113.9887199, 22.6040063], [113.9887212, 22.6044396], [113.9880238, 22.6044173]], [[113.9882626, 22.6042787], [113.9886703, 22.6042886], [113.9886743, 22.6040929], [113.9884865, 22.6039629], [113.9882626, 22.6042787]]]]}}, {"type": "Feature", "id": "relation/17467638", "properties": {"tags": {"amenity": "library", "building": "yes;university", "layer": "-1", "name": "启明楼", "name:en": "Qiming Building"}, "heightStatus": "unknown", "source": "OpenStreetMap", "license": "ODbL-1.0"}, "geometry": {"type": "MultiPolygon", "coordinates": [[[[113.9865637, 22.603434], [113.986575, 22.6031831], [113.9865798, 22.603075], [113.9870492, 22.6030849], [113.9867962, 22.6027284], [113.9869199, 22.6026528], [113.9871151, 22.6025388], [113.9872743, 22.6027895], [113.9874051, 22.6029955], [113.9874283, 22.6030293], [113.9875028, 22.6031374], [113.9875105, 22.6031616], [113.9877456, 22.6031034], [113.9877744, 22.6030451], [113.9877981, 22.6030527], [113.9878259, 22.6030617], [113.9877305, 22.6032645], [113.9877708, 22.6032816], [113.9882203, 22.6029547], [113.9883881, 22.6031777], [113.9880605, 22.6034099], [113.988281, 22.6035073], [113.9881871, 22.6036953], [113.9881171, 22.6038346], [113.9879527, 22.603763], [113.9872911, 22.6034683], [113.9872718, 22.6034588], [113.9865637, 22.603434]]]]}}, {"type": "Feature", "id": "way/980004154", "properties": {"tags": {"building": "university", "name": "守正楼", "name:en": "Administration Building", "name:zh": "守正楼", "name:zh-Hans": "守正楼", "name:zh-Hant": "守正樓"}, "heightStatus": "unknown", "source": "OpenStreetMap", "license": "ODbL-1.0"}, "geometry": {"type": "MultiPolygon", "coordinates": [[[[113.9887078, 22.6036188], [113.9887212, 22.6033687], [113.9887615, 22.6031049], [113.9893945, 22.6031631], [113.9893368, 22.6035333], [113.9893824, 22.6035346], [113.9893462, 22.6036868], [113.9890927, 22.6036386], [113.9887078, 22.6036188]]]]}}, {"type": "Feature", "id": "way/980004155", "properties": {"tags": {"building": "university", "name": "明律楼", "name:en": "Minglv Building", "name:zh": "明律楼", "name:zh-Hans": "明律楼", "name:zh-Hant": "明律樓"}, "heightStatus": "unknown", "source": "OpenStreetMap", "license": "ODbL-1.0"}, "geometry": {"type": "MultiPolygon", "coordinates": [[[[113.9888674, 22.6040558], [113.9888728, 22.6038701], [113.9894722, 22.6038775], [113.9894146, 22.6040595], [113.9888674, 22.6040558]]]]}}, {"type": "Feature", "id": "way/980004156", "properties": {"tags": {"building": "university", "name": "明德楼", "name:en": "Mingde Building", "name:zh": "明德楼", "name:zh-Hans": "明德楼", "name:zh-Hant": "明德樓"}, "heightStatus": "unknown", "source": "OpenStreetMap", "license": "ODbL-1.0"}, "geometry": {"type": "MultiPolygon", "coordinates": [[[[113.9888562, 22.6044246], [113.9888599, 22.6042772], [113.9893399, 22.6042875], [113.9893363, 22.6044348], [113.9888562, 22.6044246]]]]}}, {"type": "Feature", "id": "relation/12480428", "properties": {"tags": {"building": "university", "building:levels": "1", "layer": "1", "name": "南科大中心", "name:en": "SUSTech Center", "name:zh": "南科大中心", "name:zh-Hans": "南科大中心", "name:zh-Hant": "南科大中心"}, "heightStatus": "levels_only_unverified", "source": "OpenStreetMap", "license": "ODbL-1.0"}, "geometry": {"type": "MultiPolygon", "coordinates": [[[[113.9922577, 22.6001545], [113.9922604, 22.5996197], [113.9927445, 22.5993807], [113.9928465, 22.5993745], [113.9929256, 22.5993968], [113.9934325, 22.5996432], [113.9934151, 22.6006547], [113.9928988, 22.6008702], [113.9923422, 22.6002722], [113.9922577, 22.6001545]], [[113.9923033, 22.5999635], [113.9923114, 22.6001223], [113.9923663, 22.6002053], [113.992493, 22.6002021], [113.9923311, 22.6000435], [113.9923033, 22.5999635]], [[113.9924783, 22.599762], [113.9926594, 22.6001422], [113.9927512, 22.6001075], [113.9925735, 22.5998722], [113.992544, 22.5996816], [113.9925206, 22.5996286], [113.9924823, 22.5996286], [113.9924783, 22.599762]], [[113.992597, 22.5997955], [113.9926037, 22.59985], [113.9927888, 22.600084], [113.993399, 22.5998264], [113.9933923, 22.5997348], [113.993344, 22.5997088], [113.9933199, 22.599746], [113.9932555, 22.5997125], [113.9932426, 22.5997382], [113.9930597, 22.5996395], [113.9930637, 22.5998004], [113.992597, 22.5997955]], [[113.9926788, 22.6001743], [113.9927539, 22.6002486], [113.9928304, 22.6001855], [113.9927834, 22.600136], [113.9926788, 22.6001743]], [[113.9927781, 22.6002672], [113.992888, 22.6003898], [113.9930543, 22.6007364], [113.9931105, 22.6007184], [113.9929631, 22.6003291], [113.9928545, 22.6002102], [113.9927781, 22.6002672]], [[113.9928129, 22.6001124], [113.9928679, 22.6001644], [113.9929799, 22.6000879], [113.9930771, 22.6000852], [113.9930798, 22.6000022], [113.9928129, 22.6001124]], [[113.9931656, 22.5999651], [113.9931656, 22.6000798], [113.9932112, 22.6000811], [113.9932099, 22.6000406], [113.9932778, 22.6000432], [113.9932783, 22.5999886], [113.9933239, 22.5999886], [113.9933962, 22.5999841], [113.993395, 22.5998623], [113.9931656, 22.5999651]]]]}}, {"type": "Feature", "id": "relation/18083921", "properties": {"tags": {"amenity": "restaurant", "building": "university", "layer": "-1", "name": "采薇", "name:en": "Caiwei Canteen", "name:zh": "采薇", "name:zh-Hans": "采薇", "name:zh-Hant": "採薇"}, "heightStatus": "unknown", "source": "OpenStreetMap", "license": "ODbL-1.0"}, "geometry": {"type": "MultiPolygon", "coordinates": [[[[113.9866817, 22.599856], [113.9871565, 22.5995614], [113.9872019, 22.5995333], [113.9872471, 22.5996118], [113.9872971, 22.5996881], [113.9871005, 22.599927], [113.9868456, 22.6000894], [113.9866817, 22.599856]]]]}}, {"type": "Feature", "id": "way/1317796349", "properties": {"tags": {"building": "yes", "leisure": "sports_hall", "name": "风雨操场", "name:en": "Fengyu Playground"}, "heightStatus": "unknown", "source": "OpenStreetMap", "license": "ODbL-1.0"}, "geometry": {"type": "MultiPolygon", "coordinates": [[[[113.9860523, 22.6002358], [113.9866817, 22.599856], [113.9868456, 22.6000894], [113.9863463, 22.6003857], [113.9863513, 22.6009602], [113.9861157, 22.6010026], [113.986067, 22.6010029], [113.9860523, 22.6002358]]]]}}, {"type": "Feature", "id": "way/1419316420", "properties": {"tags": {"building": "yes", "name": "动力房"}, "heightStatus": "unknown", "source": "OpenStreetMap", "license": "ODbL-1.0"}, "geometry": {"type": "MultiPolygon", "coordinates": [[[[113.9909, 22.6073022], [113.9909208, 22.6070615], [113.9913579, 22.607063], [113.9913422, 22.6073038], [113.9909, 22.6073022]]]]}}, {"type": "Feature", "id": "way/1436002167", "properties": {"tags": {"building": "university", "name": "科研楼"}, "heightStatus": "unknown", "source": "OpenStreetMap", "license": "ODbL-1.0"}, "geometry": {"type": "MultiPolygon", "coordinates": [[[[113.9858389, 22.6061408], [113.9860571, 22.6057701], [113.986465, 22.6059503], [113.9872524, 22.6062086], [113.987376, 22.6064239], [113.98715, 22.6065585], [113.9870742, 22.6065408], [113.9870366, 22.606666], [113.9865549, 22.6065372], [113.9865823, 22.6064291], [113.9862223, 22.6063297], [113.9858389, 22.6061408]]]]}}, {"type": "Feature", "id": "way/1506997102", "properties": {"tags": {"building": "university", "building:levels": "10", "name": "第三科研楼", "name:en": "Research Building 3", "name:zh": "第三科研楼"}, "heightStatus": "levels_only_unverified", "source": "OpenStreetMap", "license": "ODbL-1.0"}, "geometry": {"type": "MultiPolygon", "coordinates": [[[[113.9902245, 22.6062638], [113.9902284, 22.6060004], [113.9902322, 22.6057438], [113.9904953, 22.6054594], [113.9905002, 22.6052093], [113.9913208, 22.6052079], [113.9913211, 22.6053774], [113.991324, 22.6067256], [113.9913244, 22.6069151], [113.9910698, 22.6069176], [113.9906253, 22.6062681], [113.9902245, 22.6062638]]]]}}, {"type": "Feature", "id": "way/1506997103", "properties": {"tags": {"building:part": "yes"}, "heightStatus": "unknown", "source": "OpenStreetMap", "license": "ODbL-1.0"}, "geometry": {"type": "MultiPolygon", "coordinates": [[[[113.9902245, 22.6062638], [113.9902284, 22.6060004], [113.9908549, 22.6060043], [113.9909558, 22.6061588], [113.9910199, 22.6061585], [113.9910161, 22.6053786], [113.9913211, 22.6053774], [113.991324, 22.6067256], [113.9909386, 22.6067253], [113.9906253, 22.6062681], [113.9902245, 22.6062638]]]]}}]}