{"type": "FeatureCollection", "features": [{"type": "Feature", "id": "way/322644643", "properties": {"tags": {"building": "retail"}, "heightStatus": "unknown", "source": "OpenStreetMap", "license": "ODbL-1.0"}, "geometry": {"type": "MultiPolygon", "coordinates": [[[[113.985773, 22.5270033], [113.9858551, 22.5268544], [113.9859453, 22.5268968], [113.9858631, 22.5270458], [113.985773, 22.5270033]]]]}}, {"type": "Feature", "id": "way/322644644", "properties": {"tags": {"amenity": "cafe", "brand": "喜茶", "brand:en": "Heytea", "brand:wikidata": "Q60875376", "brand:wikipedia": "zh:喜茶", "brand:zh": "喜茶", "building": "retail", "check_date": "2023-02-08", "cuisine": "bubble_tea", "name": "喜茶", "name:en": "Heytea", "name:zh": "喜茶", "takeaway": "yes"}, "heightStatus": "unknown", "source": "OpenStreetMap", "license": "ODbL-1.0"}, "geometry": {"type": "MultiPolygon", "coordinates": [[[[113.9859205, 22.526675], [113.9860456, 22.5265693], [113.9861308, 22.5266554], [113.9860057, 22.5267611], [113.9859205, 22.526675]]]]}}, {"type": "Feature", "id": "way/357161901", "properties": {"tags": {"building": "yes"}, "heightStatus": "unknown", "source": "OpenStreetMap", "license": "ODbL-1.0"}, "geometry": {"type": "MultiPolygon", "coordinates": [[[[113.9799834, 22.5238116], [113.9799846, 22.5236752], [113.980037, 22.5236755], [113.9800369, 22.5236921], [113.9801034, 22.5236926], [113.9801036, 22.5236771], [113.9801561, 22.5236774], [113.9801549, 22.5238125], [113.9801017, 22.5238121], [113.9801015, 22.5238321], [113.9800424, 22.5238317], [113.9800426, 22.523812], [113.9799834, 22.5238116]]]]}}, {"type": "Feature", "id": "way/357161903", "properties": {"tags": {"building": "yes"}, "heightStatus": "unknown", "source": "OpenStreetMap", "license": "ODbL-1.0"}, "geometry": {"type": "MultiPolygon", "coordinates": [[[[113.9797453, 22.5236053], [113.9797976, 22.523605], [113.9797978, 22.5236216], [113.9798644, 22.5236212], [113.9798643, 22.5236056], [113.9799168, 22.5236052], [113.9799178, 22.5237403], [113.9798645, 22.5237406], [113.9798647, 22.5237607], [113.9798055, 22.523761], [113.9798054, 22.5237413], [113.9797463, 22.5237417], [113.9797453, 22.5236053]]]]}}, {"type": "Feature", "id": "way/357161908", "properties": {"tags": {"building": "yes"}, "heightStatus": "unknown", "source": "OpenStreetMap", "license": "ODbL-1.0"}, "geometry": {"type": "MultiPolygon", "coordinates": [[[[113.9795604, 22.5235785], [113.9796128, 22.5235782], [113.9796129, 22.5235948], [113.9796795, 22.5235944], [113.9796794, 22.5235788], [113.979732, 22.5235785], [113.979733, 22.5237136], [113.9796797, 22.5237139], [113.9796798, 22.5237339], [113.9796207, 22.5237343], [113.9796206, 22.5237146], [113.9795615, 22.523715], [113.9795604, 22.5235785]]]]}}, {"type": "Feature", "id": "way/357161913", "properties": {"tags": {"building": "yes"}, "heightStatus": "unknown", "source": "OpenStreetMap", "license": "ODbL-1.0"}, "geometry": {"type": "MultiPolygon", "coordinates": [[[[113.9818016, 22.5242732], [113.9820176, 22.5242726], [113.982018, 22.5243814], [113.981802, 22.524382], [113.9818016, 22.5242732]]]]}}, {"type": "Feature", "id": "way/357161914", "properties": {"tags": {"building": "yes"}, "heightStatus": "unknown", "source": "OpenStreetMap", "license": "ODbL-1.0"}, "geometry": {"type": "MultiPolygon", "coordinates": [[[[113.9811839, 22.5240296], [113.9811845, 22.523928], [113.9813119, 22.5239287], [113.9813123, 22.5238674], [113.9814172, 22.5238679], [113.9814168, 22.5239257], [113.9817269, 22.5239273], [113.9817263, 22.5240348], [113.9814158, 22.5240333], [113.9814155, 22.5240881], [113.9813104, 22.5240876], [113.9813107, 22.5240302], [113.9811839, 22.5240296]]]]}}, {"type": "Feature", "id": "way/357161915", "properties": {"tags": {"building": "yes"}, "heightStatus": "unknown", "source": "OpenStreetMap", "license": "ODbL-1.0"}, "geometry": {"type": "MultiPolygon", "coordinates": [[[[113.980252, 22.5241308], [113.9802521, 22.524098], [113.9805298, 22.5240984], [113.9805295, 22.5242979], [113.9804744, 22.5242979], [113.9804745, 22.5241792], [113.9803018, 22.524179], [113.9803019, 22.5241309], [113.980252, 22.5241308]]]]}}, {"type": "Feature", "id": "way/357184715", "properties": {"tags": {"building": "commercial"}, "heightStatus": "unknown", "source": "OpenStreetMap", "license": "ODbL-1.0"}, "geometry": {"type": "MultiPolygon", "coordinates": [[[[113.9813149, 22.5238111], [113.9813166, 22.5236804], [113.9813835, 22.5236812], [113.9813841, 22.5236343], [113.9814649, 22.5236352], [113.9814642, 22.5236843], [113.9815466, 22.5236852], [113.981547, 22.5236559], [113.9817196, 22.5236578], [113.9817191, 22.5236982], [113.9818557, 22.5236997], [113.9818536, 22.5238663], [113.9814574, 22.5238619], [113.981458, 22.5238127], [113.9813149, 22.5238111]]]]}}, {"type": "Feature", "id": "way/357184719", "properties": {"tags": {"building": "residential"}, "heightStatus": "unknown", "source": "OpenStreetMap", "license": "ODbL-1.0"}, "geometry": {"type": "MultiPolygon", "coordinates": [[[[113.9782403, 22.5252359], [113.9784334, 22.5252348], [113.9784357, 22.5256008], [113.9782426, 22.5256019], [113.9782403, 22.5252359]]]]}}, {"type": "Feature", "id": "way/357184723", "properties": {"tags": {"building": "residential"}, "heightStatus": "unknown", "source": "OpenStreetMap", "license": "ODbL-1.0"}, "geometry": {"type": "MultiPolygon", "coordinates": [[[[113.9783253, 22.5241626], [113.9783367, 22.5237879], [113.9785296, 22.5237929], [113.9785182, 22.5241676], [113.9783253, 22.5241626]]]]}}, {"type": "Feature", "id": "way/357184725", "properties": {"tags": {"building": "residential"}, "heightStatus": "unknown", "source": "OpenStreetMap", "license": "ODbL-1.0"}, "geometry": {"type": "MultiPolygon", "coordinates": [[[[113.9782442, 22.5251532], [113.9782619, 22.5247706], [113.978454, 22.5247783], [113.9784363, 22.5251609], [113.9782442, 22.5251532]]]]}}, {"type": "Feature", "id": "way/357184726", "properties": {"tags": {"building": "residential"}, "heightStatus": "unknown", "source": "OpenStreetMap", "license": "ODbL-1.0"}, "geometry": {"type": "MultiPolygon", "coordinates": [[[[113.9781475, 22.526671], [113.9781577, 22.5262932], [113.9783573, 22.5262978], [113.9783471, 22.5266756], [113.9781475, 22.526671]]]]}}, {"type": "Feature", "id": "way/357184727", "properties": {"tags": {"building": "residential"}, "heightStatus": "unknown", "source": "OpenStreetMap", "license": "ODbL-1.0"}, "geometry": {"type": "MultiPolygon", "coordinates": [[[[113.9783075, 22.5246324], [113.9783166, 22.5242507], [113.9785063, 22.5242545], [113.9784972, 22.5246362], [113.9783075, 22.5246324]]]]}}, {"type": "Feature", "id": "way/357184728", "properties": {"tags": {"building": "yes"}, "heightStatus": "unknown", "source": "OpenStreetMap", "license": "ODbL-1.0"}, "geometry": {"type": "MultiPolygon", "coordinates": [[[[113.9790942, 22.5237026], [113.9790944, 22.5235999], [113.9792264, 22.5236002], [113.9792264, 22.5235923], [113.9793557, 22.5235926], [113.9793557, 22.5235823], [113.979487, 22.5235826], [113.9794868, 22.5236859], [113.9793562, 22.5236857], [113.9793562, 22.5236948], [113.9792243, 22.5236946], [113.9792243, 22.5237029], [113.9790942, 22.5237026]]]]}}, {"type": "Feature", "id": "way/357184729", "properties": {"tags": {"building": "residential"}, "heightStatus": "unknown", "source": "OpenStreetMap", "license": "ODbL-1.0"}, "geometry": {"type": "MultiPolygon", "coordinates": [[[[113.9782037, 22.5262333], [113.9782127, 22.5258617], [113.9784021, 22.5258655], [113.9783932, 22.5262372], [113.9782037, 22.5262333]]]]}}, {"type": "Feature", "id": "way/357196858", "properties": {"tags": {"building": "yes", "name": "华侨城华会所", "name:en": "OCT Club House", "name:zh": "华侨城华会所"}, "heightStatus": "unknown", "source": "OpenStreetMap", "license": "ODbL-1.0"}, "geometry": {"type": "MultiPolygon", "coordinates": [[[[113.9818511, 22.5259997], [113.9824031, 22.5259986], [113.9824002, 22.5262256], [113.9825072, 22.526228], [113.9826771, 22.5260321], [113.98273, 22.5260558], [113.982789, 22.5260938], [113.9828524, 22.5261497], [113.9829134, 22.5262303], [113.982954, 22.5263214], [113.9829716, 22.5264096], [113.9829699, 22.5264993], [113.9829505, 22.5265826], [113.9829185, 22.5266542], [113.9829866, 22.5267182], [113.982877, 22.5268355], [113.982813, 22.5267808], [113.9827628, 22.5268218], [113.9827054, 22.5268595], [113.9825141, 22.526668], [113.9825455, 22.5266585], [113.982577, 22.5266424], [113.9825599, 22.5266287], [113.9825352, 22.5266429], [113.9825082, 22.5266484], [113.9824661, 22.5266504], [113.9824691, 22.5264698], [113.982378, 22.5264305], [113.9823004, 22.5264326], [113.9823028, 22.526314], [113.9821928, 22.5263139], [113.982194, 22.526268], [113.9819035, 22.5262691], [113.9819035, 22.5262263], [113.9818511, 22.5262263], [113.9818511, 22.5259997]]]]}}, {"type": "Feature", "id": "way/357197583", "properties": {"tags": {"building": "yes", "leisure": "pitch"}, "heightStatus": "unknown", "source": "OpenStreetMap", "license": "ODbL-1.0"}, "geometry": {"type": "MultiPolygon", "coordinates": [[[[113.9814462, 22.5266414], [113.9814473, 22.5263124], [113.9817891, 22.5263133], [113.9817881, 22.5266424], [113.9814462, 22.5266414]]]]}}, {"type": "Feature", "id": "way/358907212", "properties": {"tags": {"building": "residential"}, "heightStatus": "unknown", "source": "OpenStreetMap", "license": "ODbL-1.0"}, "geometry": {"type": "MultiPolygon", "coordinates": [[[[113.9786728, 22.5262878], [113.9788688, 22.5262597], [113.978901, 22.5264516], [113.9788163, 22.5264637], [113.9788107, 22.5264305], [113.9786995, 22.5264464], [113.9786728, 22.5262878]]]]}}, {"type": "Feature", "id": "way/358907213", "properties": {"tags": {"building": "residential"}, "heightStatus": "unknown", "source": "OpenStreetMap", "license": "ODbL-1.0"}, "geometry": {"type": "MultiPolygon", "coordinates": [[[[113.9792644, 22.52434], [113.979345, 22.5243317], [113.9793383, 22.5242767], [113.9794053, 22.5242698], [113.9794328, 22.5244974], [113.9793574, 22.5245052], [113.9793603, 22.5245293], [113.9792882, 22.5245368], [113.9792644, 22.52434]]]]}}, {"type": "Feature", "id": "way/358907214", "properties": {"tags": {"building": "residential"}, "heightStatus": "unknown", "source": "OpenStreetMap", "license": "ODbL-1.0"}, "geometry": {"type": "MultiPolygon", "coordinates": [[[[113.9789351, 22.5262796], [113.9791575, 22.5262408], [113.9792002, 22.5264497], [113.9789778, 22.5264884], [113.9789351, 22.5262796]]]]}}, {"type": "Feature", "id": "way/358907215", "properties": {"tags": {"building": "residential"}, "heightStatus": "unknown", "source": "OpenStreetMap", "license": "ODbL-1.0"}, "geometry": {"type": "MultiPolygon", "coordinates": [[[[113.9789055, 22.5266986], [113.9791403, 22.526656], [113.9791887, 22.5268748], [113.9789543, 22.5269201], [113.9789055, 22.5266986]]]]}}, {"type": "Feature", "id": "way/358907216", "properties": {"tags": {"building": "residential"}, "heightStatus": "unknown", "source": "OpenStreetMap", "license": "ODbL-1.0"}, "geometry": {"type": "MultiPolygon", "coordinates": [[[[113.9794135, 22.5246825], [113.9794936, 22.5246739], [113.9795007, 22.5247302], [113.9796282, 22.5247166], [113.979647, 22.5248669], [113.9795201, 22.5248805], [113.9795238, 22.5249096], [113.979443, 22.5249182], [113.9794135, 22.5246825]]]]}}, {"type": "Feature", "id": "way/358907217", "properties": {"tags": {"building": "residential"}, "heightStatus": "unknown", "source": "OpenStreetMap", "license": "ODbL-1.0"}, "geometry": {"type": "MultiPolygon", "coordinates": [[[[113.9790861, 22.5256916], [113.979322, 22.5256756], [113.9793375, 22.5258696], [113.9791016, 22.5258856], [113.9790861, 22.5256916]]]]}}, {"type": "Feature", "id": "way/358907218", "properties": {"tags": {"building": "residential"}, "heightStatus": "unknown", "source": "OpenStreetMap", "license": "ODbL-1.0"}, "geometry": {"type": "MultiPolygon", "coordinates": [[[[113.9792404, 22.5262126], [113.9794619, 22.5261753], [113.9794916, 22.5263256], [113.9793608, 22.5263477], [113.9793711, 22.5263998], [113.9792804, 22.5264151], [113.9792404, 22.5262126]]]]}}, {"type": "Feature", "id": "way/358907222", "properties": {"tags": {"building": "residential"}, "heightStatus": "unknown", "source": "OpenStreetMap", "license": "ODbL-1.0"}, "geometry": {"type": "MultiPolygon", "coordinates": [[[[113.9806471, 22.5254098], [113.9807176, 22.5253457], [113.9807349, 22.525362], [113.980767, 22.5253328], [113.9806972, 22.5252674], [113.9807587, 22.5252114], [113.9810012, 22.5254389], [113.9808372, 22.5255881], [113.9806471, 22.5254098]]]]}}, {"type": "Feature", "id": "way/358907225", "properties": {"tags": {"building": "residential"}, "heightStatus": "unknown", "source": "OpenStreetMap", "license": "ODbL-1.0"}, "geometry": {"type": "MultiPolygon", "coordinates": [[[[113.9802705, 22.526647], [113.9805137, 22.5266465], [113.9805143, 22.5269192], [113.9802711, 22.5269197], [113.9802705, 22.526647]]]]}}, {"type": "Feature", "id": "way/358907227", "properties": {"tags": {"building": "residential"}, "heightStatus": "unknown", "source": "OpenStreetMap", "license": "ODbL-1.0"}, "geometry": {"type": "MultiPolygon", "coordinates": [[[[113.9805278, 22.5258117], [113.9807097, 22.5256508], [113.9807595, 22.5256989], [113.9807421, 22.5257143], [113.980795, 22.5257654], [113.9808362, 22.5257289], [113.9808933, 22.525784], [113.9806909, 22.525963], [113.9806262, 22.5259006], [113.9806551, 22.5258751], [113.9806032, 22.525825], [113.980571, 22.5258535], [113.9805278, 22.5258117]]]]}}, {"type": "Feature", "id": "way/358907229", "properties": {"tags": {"building": "yes"}, "heightStatus": "unknown", "source": "OpenStreetMap", "license": "ODbL-1.0"}, "geometry": {"type": "MultiPolygon", "coordinates": [[[[113.9817248, 22.524039], [113.9819496, 22.524039], [113.9819496, 22.5242255], [113.9817248, 22.5242255], [113.9817248, 22.524039]]]]}}, {"type": "Feature", "id": "way/358907235", "properties": {"tags": {"building": "residential"}, "heightStatus": "unknown", "source": "OpenStreetMap", "license": "ODbL-1.0"}, "geometry": {"type": "MultiPolygon", "coordinates": [[[[113.9794558, 22.5243129], [113.9795949, 22.5242975], [113.9796, 22.5243367], [113.979665, 22.5243295], [113.9796794, 22.5244395], [113.9796051, 22.5244478], [113.9796091, 22.5244787], [113.979575, 22.5244825], [113.9795681, 22.5245039], [113.979482, 22.5245135], [113.9794558, 22.5243129]]]]}}, {"type": "Feature", "id": "way/358907236", "properties": {"tags": {"building": "residential"}, "heightStatus": "unknown", "source": "OpenStreetMap", "license": "ODbL-1.0"}, "geometry": {"type": "MultiPolygon", "coordinates": [[[[113.9790523, 22.5252696], [113.979302, 22.5252576], [113.9793128, 22.5254495], [113.9790631, 22.5254615], [113.9790523, 22.5252696]]]]}}, {"type": "Feature", "id": "way/358907237", "properties": {"tags": {"building": "residential"}, "heightStatus": "unknown", "source": "OpenStreetMap", "license": "ODbL-1.0"}, "geometry": {"type": "MultiPolygon", "coordinates": [[[[113.9805503, 22.5266117], [113.9806359, 22.5266111], [113.9806362, 22.5266425], [113.9807021, 22.526642], [113.9807015, 22.5265687], [113.9807688, 22.5265682], [113.9807697, 22.5266667], [113.9808709, 22.526666], [113.980872, 22.5268008], [113.9808137, 22.5268013], [113.9808141, 22.5268473], [113.9805523, 22.526849], [113.9805503, 22.5266117]]]]}}, {"type": "Feature", "id": "way/358907239", "properties": {"tags": {"building": "residential"}, "heightStatus": "unknown", "source": "OpenStreetMap", "license": "ODbL-1.0"}, "geometry": {"type": "MultiPolygon", "coordinates": [[[[113.9791129, 22.5247049], [113.9793552, 22.5246772], [113.9793841, 22.5248929], [113.9791418, 22.5249207], [113.9791129, 22.5247049]]]]}}, {"type": "Feature", "id": "way/358907241", "properties": {"tags": {"building": "residential"}, "heightStatus": "unknown", "source": "OpenStreetMap", "license": "ODbL-1.0"}, "geometry": {"type": "MultiPolygon", "coordinates": [[[[113.9800489, 22.526175], [113.9801943, 22.5261744], [113.9801954, 22.5263776], [113.9801293, 22.5263779], [113.9801295, 22.5264086], [113.9800501, 22.526409], [113.9800489, 22.526175]]]]}}, {"type": "Feature", "id": "way/358907243", "properties": {"tags": {"building": "residential"}, "heightStatus": "unknown", "source": "OpenStreetMap", "license": "ODbL-1.0"}, "geometry": {"type": "MultiPolygon", "coordinates": [[[[113.9788312, 22.5247782], [113.9789612, 22.5247642], [113.9789661, 22.5247401], [113.9790599, 22.52473], [113.9790868, 22.5249423], [113.9789627, 22.5249556], [113.9789587, 22.5249236], [113.9788511, 22.5249352], [113.9788312, 22.5247782]]]]}}, {"type": "Feature", "id": "way/358907244", "properties": {"tags": {"building": "residential"}, "heightStatus": "unknown", "source": "OpenStreetMap", "license": "ODbL-1.0"}, "geometry": {"type": "MultiPolygon", "coordinates": [[[[113.979768, 22.5262358], [113.9798066, 22.5262357], [113.9798063, 22.5261728], [113.9800195, 22.5261721], [113.9800202, 22.5263419], [113.9799942, 22.5263419], [113.9799944, 22.5263964], [113.9799017, 22.5263967], [113.9799016, 22.5263618], [113.9797685, 22.5263623], [113.979768, 22.5262358]]]]}}, {"type": "Feature", "id": "way/358907245", "properties": {"tags": {"building": "residential"}, "heightStatus": "unknown", "source": "OpenStreetMap", "license": "ODbL-1.0"}, "geometry": {"type": "MultiPolygon", "coordinates": [[[[113.9804459, 22.5263195], [113.9804461, 22.5262302], [113.9807551, 22.5262307], [113.9807549, 22.5263199], [113.9806684, 22.5263198], [113.9806683, 22.5263591], [113.9808123, 22.5263593], [113.9808122, 22.5264456], [113.98055, 22.5264452], [113.9805501, 22.5263591], [113.9806217, 22.5263592], [113.9806218, 22.5263198], [113.9804459, 22.5263195]]]]}}, {"type": "Feature", "id": "way/358907246", "properties": {"tags": {"building": "residential"}, "heightStatus": "unknown", "source": "OpenStreetMap", "license": "ODbL-1.0"}, "geometry": {"type": "MultiPolygon", "coordinates": [[[[113.9790727, 22.5243418], [113.9791376, 22.5243348], [113.9791307, 22.5242811], [113.9792084, 22.5242727], [113.9792382, 22.5245069], [113.979164, 22.5245149], [113.9791684, 22.5245489], [113.9791, 22.5245564], [113.9790727, 22.5243418]]]]}}, {"type": "Feature", "id": "way/358907250", "properties": {"tags": {"building": "residential"}, "heightStatus": "unknown", "source": "OpenStreetMap", "license": "ODbL-1.0"}, "geometry": {"type": "MultiPolygon", "coordinates": [[[[113.9802425, 22.5262066], [113.9803879, 22.5262059], [113.980389, 22.5264092], [113.980323, 22.5264095], [113.9803232, 22.5264402], [113.9802438, 22.5264406], [113.9802425, 22.5262066]]]]}}, {"type": "Feature", "id": "way/358907251", "properties": {"tags": {"building": "residential"}, "heightStatus": "unknown", "source": "OpenStreetMap", "license": "ODbL-1.0"}, "geometry": {"type": "MultiPolygon", "coordinates": [[[[113.9796355, 22.5266837], [113.9796741, 22.5265856], [113.9798586, 22.5265837], [113.9798619, 22.5268534], [113.9797549, 22.5268545], [113.9797544, 22.5268198], [113.9796372, 22.5268211], [113.9796355, 22.5266837]]]]}}, {"type": "Feature", "id": "way/358907257", "properties": {"tags": {"building": "residential"}, "heightStatus": "unknown", "source": "OpenStreetMap", "license": "ODbL-1.0"}, "geometry": {"type": "MultiPolygon", "coordinates": [[[[113.9786393, 22.5268121], [113.9788391, 22.5267687], [113.9788864, 22.5269547], [113.9788042, 22.5269725], [113.9787976, 22.5269464], [113.97868, 22.5269719], [113.9786393, 22.5268121]]]]}}, {"type": "Feature", "id": "way/358907260", "properties": {"tags": {"building": "residential"}, "heightStatus": "unknown", "source": "OpenStreetMap", "license": "ODbL-1.0"}, "geometry": {"type": "MultiPolygon", "coordinates": [[[[113.9791977, 22.5266252], [113.9794042, 22.5265921], [113.9794366, 22.5267644], [113.9793968, 22.5267708], [113.9794047, 22.5268127], [113.979238, 22.5268394], [113.9791977, 22.5266252]]]]}}, {"type": "Feature", "id": "way/548404944", "properties": {"tags": {"building": "retail"}, "heightStatus": "unknown", "source": "OpenStreetMap", "license": "ODbL-1.0"}, "geometry": {"type": "MultiPolygon", "coordinates": [[[[113.9859098, 22.526334], [113.9859384, 22.5262019], [113.9861103, 22.5262337], [113.9860817, 22.5263657], [113.9859098, 22.526334]]]]}}, {"type": "Feature", "id": "way/549186297", "properties": {"tags": {"building": "residential"}, "heightStatus": "unknown", "source": "OpenStreetMap", "license": "ODbL-1.0"}, "geometry": {"type": "MultiPolygon", "coordinates": [[[[113.9788114, 22.5257128], [113.9790546, 22.525695], [113.9790788, 22.5259766], [113.9788356, 22.5259944], [113.9788114, 22.5257128]]]]}}, {"type": "Feature", "id": "way/549186299", "properties": {"tags": {"building": "residential"}, "heightStatus": "unknown", "source": "OpenStreetMap", "license": "ODbL-1.0"}, "geometry": {"type": "MultiPolygon", "coordinates": [[[[113.9793809, 22.5256232], [113.9794809, 22.5256186], [113.9794823, 22.5256445], [113.9796271, 22.5256378], [113.9796361, 22.5258049], [113.9794934, 22.5258115], [113.9794952, 22.5258444], [113.9793931, 22.5258491], [113.9793809, 22.5256232]]]]}}, {"type": "Feature", "id": "way/549186300", "properties": {"tags": {"building": "residential"}, "heightStatus": "unknown", "source": "OpenStreetMap", "license": "ODbL-1.0"}, "geometry": {"type": "MultiPolygon", "coordinates": [[[[113.9787612, 22.5253647], [113.9788396, 22.5253596], [113.9788357, 22.525309], [113.979021, 22.5252969], [113.9790251, 22.5253515], [113.9789894, 22.5253538], [113.9790023, 22.5255211], [113.9789051, 22.5255275], [113.9789025, 22.5254936], [113.9787717, 22.5255022], [113.9787612, 22.5253647]]]]}}, {"type": "Feature", "id": "way/549186302", "properties": {"tags": {"building": "residential"}, "heightStatus": "unknown", "source": "OpenStreetMap", "license": "ODbL-1.0"}, "geometry": {"type": "MultiPolygon", "coordinates": [[[[113.9793581, 22.525273], [113.9795979, 22.5252673], [113.979603, 22.5254547], [113.9794591, 22.5254581], [113.9794596, 22.5254797], [113.9793639, 22.5254819], [113.9793581, 22.525273]]]]}}, {"type": "Feature", "id": "way/549193898", "properties": {"tags": {"building": "residential"}, "heightStatus": "unknown", "source": "OpenStreetMap", "license": "ODbL-1.0"}, "geometry": {"type": "MultiPolygon", "coordinates": [[[[113.9798993, 22.5265357], [113.9800458, 22.526535], [113.9800471, 22.5267509], [113.9799737, 22.5267513], [113.9799741, 22.5268169], [113.9799011, 22.5268173], [113.9798993, 22.5265357]]]]}}, {"type": "Feature", "id": "way/549193900", "properties": {"tags": {"building": "residential"}, "heightStatus": "unknown", "source": "OpenStreetMap", "license": "ODbL-1.0"}, "geometry": {"type": "MultiPolygon", "coordinates": [[[[113.9800855, 22.5268561], [113.9800859, 22.5265933], [113.9802407, 22.5265934], [113.9802404, 22.5268014], [113.9801636, 22.5268013], [113.9801635, 22.5268562], [113.9800855, 22.5268561]]]]}}, {"type": "Feature", "id": "way/549193901", "properties": {"tags": {"building": "residential"}, "heightStatus": "unknown", "source": "OpenStreetMap", "license": "ODbL-1.0"}, "geometry": {"type": "MultiPolygon", "coordinates": [[[[113.978816, 22.5243988], [113.9789435, 22.524385], [113.9789364, 22.5243287], [113.9790165, 22.5243201], [113.9790464, 22.5245558], [113.9789657, 22.5245645], [113.978962, 22.5245353], [113.9788351, 22.5245491], [113.978816, 22.5243988]]]]}}, {"type": "Feature", "id": "way/549193902", "properties": {"tags": {"building": "residential"}, "heightStatus": "unknown", "source": "OpenStreetMap", "license": "ODbL-1.0"}, "geometry": {"type": "MultiPolygon", "coordinates": [[[[113.9802365, 22.5257674], [113.9804414, 22.5255793], [113.9805452, 22.5256758], [113.9803946, 22.525814], [113.9803439, 22.5257669], [113.9802896, 22.5258168], [113.9802365, 22.5257674]]]]}}, {"type": "Feature", "id": "way/549193903", "properties": {"tags": {"building": "residential"}, "heightStatus": "unknown", "source": "OpenStreetMap", "license": "ODbL-1.0"}, "geometry": {"type": "MultiPolygon", "coordinates": [[[[113.9801319, 22.5256003], [113.9803368, 22.5254122], [113.9804406, 22.5255087], [113.98029, 22.5256469], [113.9802393, 22.5255998], [113.9801849, 22.5256496], [113.9801319, 22.5256003]]]]}}, {"type": "Feature", "id": "way/549193904", "properties": {"tags": {"building": "residential"}, "heightStatus": "unknown", "source": "OpenStreetMap", "license": "ODbL-1.0"}, "geometry": {"type": "MultiPolygon", "coordinates": [[[[113.9799983, 22.525462], [113.9802033, 22.5252739], [113.9803071, 22.5253704], [113.9801565, 22.5255086], [113.9801058, 22.5254614], [113.9800514, 22.5255113], [113.9799983, 22.525462]]]]}}, {"type": "Feature", "id": "way/549193905", "properties": {"tags": {"building": "residential"}, "heightStatus": "unknown", "source": "OpenStreetMap", "license": "ODbL-1.0"}, "geometry": {"type": "MultiPolygon", "coordinates": [[[[113.9798757, 22.5253353], [113.9800806, 22.5251472], [113.9801844, 22.5252437], [113.9800338, 22.5253819], [113.9799831, 22.5253348], [113.9799287, 22.5253846], [113.9798757, 22.5253353]]]]}}, {"type": "Feature", "id": "way/549193906", "properties": {"tags": {"building": "residential"}, "heightStatus": "unknown", "source": "OpenStreetMap", "license": "ODbL-1.0"}, "geometry": {"type": "MultiPolygon", "coordinates": [[[[113.9804066, 22.5252453], [113.9805802, 22.525082], [113.9806833, 22.5251755], [113.9805097, 22.5253388], [113.9804066, 22.5252453]]]]}}, {"type": "Feature", "id": "way/549193907", "properties": {"tags": {"building": "residential"}, "heightStatus": "unknown", "source": "OpenStreetMap", "license": "ODbL-1.0"}, "geometry": {"type": "MultiPolygon", "coordinates": [[[[113.9802801, 22.5251077], [113.9804537, 22.5249445], [113.9805568, 22.525038], [113.9803832, 22.5252013], [113.9802801, 22.5251077]]]]}}, {"type": "Feature", "id": "way/549193908", "properties": {"tags": {"building": "residential"}, "heightStatus": "unknown", "source": "OpenStreetMap", "license": "ODbL-1.0"}, "geometry": {"type": "MultiPolygon", "coordinates": [[[[113.9801421, 22.5249756], [113.9803157, 22.5248123], [113.9804188, 22.5249058], [113.9802452, 22.5250691], [113.9801421, 22.5249756]]]]}}, {"type": "Feature", "id": "way/549193909", "properties": {"tags": {"building": "residential"}, "heightStatus": "unknown", "source": "OpenStreetMap", "license": "ODbL-1.0"}, "geometry": {"type": "MultiPolygon", "coordinates": [[[[113.9799868, 22.524793], [113.9801592, 22.5246413], [113.9803013, 22.5247791], [113.9801289, 22.5249308], [113.9799868, 22.524793]]]]}}, {"type": "Feature", "id": "way/549193910", "properties": {"tags": {"building": "residential"}, "heightStatus": "unknown", "source": "OpenStreetMap", "license": "ODbL-1.0"}, "geometry": {"type": "MultiPolygon", "coordinates": [[[[113.9797285, 22.5251459], [113.9798933, 22.5249903], [113.9800345, 22.525118], [113.9798697, 22.5252736], [113.9797285, 22.5251459]]]]}}, {"type": "Feature", "id": "way/549193912", "properties": {"tags": {"building": "yes"}, "heightStatus": "unknown", "source": "OpenStreetMap", "license": "ODbL-1.0"}, "geometry": {"type": "MultiPolygon", "coordinates": [[[[113.980172, 22.5238136], [113.9801732, 22.5236773], [113.9802256, 22.5236776], [113.9802254, 22.5236942], [113.980292, 22.5236946], [113.9802921, 22.5236791], [113.9803447, 22.5236794], [113.9803435, 22.5238145], [113.9802903, 22.5238141], [113.9802901, 22.5238341], [113.980231, 22.5238338], [113.9802311, 22.5238141], [113.980172, 22.5238136]]]]}}, {"type": "Feature", "id": "way/549193913", "properties": {"tags": {"building": "yes"}, "heightStatus": "unknown", "source": "OpenStreetMap", "license": "ODbL-1.0"}, "geometry": {"type": "MultiPolygon", "coordinates": [[[[113.980361, 22.5238155], [113.9803622, 22.5236792], [113.9804146, 22.5236795], [113.9804145, 22.5236961], [113.980481, 22.5236965], [113.9804812, 22.523681], [113.9805337, 22.5236813], [113.9805325, 22.5238164], [113.9804793, 22.523816], [113.9804791, 22.523836], [113.98042, 22.5238357], [113.9804202, 22.523816], [113.980361, 22.5238155]]]]}}, {"type": "Feature", "id": "way/549193914", "properties": {"tags": {"building": "yes"}, "heightStatus": "unknown", "source": "OpenStreetMap", "license": "ODbL-1.0"}, "geometry": {"type": "MultiPolygon", "coordinates": [[[[113.9805995, 22.5238079], [113.9806006, 22.5236716], [113.980653, 22.5236719], [113.9806529, 22.5236885], [113.9807194, 22.523689], [113.9807196, 22.5236735], [113.9807721, 22.5236738], [113.9807709, 22.5238088], [113.9807177, 22.5238084], [113.9807175, 22.5238284], [113.9806584, 22.5238281], [113.9806586, 22.5238084], [113.9805995, 22.5238079]]]]}}, {"type": "Feature", "id": "way/549193915", "properties": {"tags": {"building": "yes"}, "heightStatus": "unknown", "source": "OpenStreetMap", "license": "ODbL-1.0"}, "geometry": {"type": "MultiPolygon", "coordinates": [[[[113.980788, 22.52381], [113.9807892, 22.5236736], [113.9808416, 22.5236739], [113.9808414, 22.5236905], [113.980908, 22.523691], [113.9809082, 22.5236755], [113.9809607, 22.5236758], [113.9809595, 22.5238109], [113.9809063, 22.5238105], [113.9809061, 22.5238305], [113.980847, 22.5238301], [113.9808471, 22.5238104], [113.980788, 22.52381]]]]}}, {"type": "Feature", "id": "way/549193916", "properties": {"tags": {"building": "yes"}, "heightStatus": "unknown", "source": "OpenStreetMap", "license": "ODbL-1.0"}, "geometry": {"type": "MultiPolygon", "coordinates": [[[[113.980977, 22.5238119], [113.9809782, 22.5236755], [113.9810306, 22.5236758], [113.9810305, 22.5236924], [113.981097, 22.5236929], [113.9810972, 22.5236774], [113.9811497, 22.5236777], [113.9811485, 22.5238128], [113.9810953, 22.5238124], [113.9810951, 22.5238324], [113.981036, 22.523832], [113.9810362, 22.5238123], [113.980977, 22.5238119]]]]}}, {"type": "Feature", "id": "way/549193917", "properties": {"tags": {"building": "yes"}, "heightStatus": "unknown", "source": "OpenStreetMap", "license": "ODbL-1.0"}, "geometry": {"type": "MultiPolygon", "coordinates": [[[[113.9805911, 22.5242446], [113.9805933, 22.5241082], [113.9806525, 22.524109], [113.9806528, 22.5240893], [113.9807119, 22.5240902], [113.9807116, 22.5241102], [113.9807648, 22.5241109], [113.9807627, 22.524246], [113.9807102, 22.5242452], [113.9807103, 22.5242297], [113.9806438, 22.5242287], [113.9806436, 22.5242454], [113.9805911, 22.5242446]]]]}}, {"type": "Feature", "id": "way/549193918", "properties": {"tags": {"building": "yes"}, "heightStatus": "unknown", "source": "OpenStreetMap", "license": "ODbL-1.0"}, "geometry": {"type": "MultiPolygon", "coordinates": [[[[113.9807797, 22.5242465], [113.9807819, 22.5241101], [113.980841, 22.5241109], [113.9808413, 22.5240912], [113.9809004, 22.5240921], [113.9809001, 22.5241121], [113.9809533, 22.5241128], [113.9809512, 22.5242479], [113.9808987, 22.5242471], [113.9808989, 22.5242315], [113.9808324, 22.5242306], [113.9808321, 22.5242472], [113.9807797, 22.5242465]]]]}}, {"type": "Feature", "id": "way/549193919", "properties": {"tags": {"building": "yes"}, "heightStatus": "unknown", "source": "OpenStreetMap", "license": "ODbL-1.0"}, "geometry": {"type": "MultiPolygon", "coordinates": [[[[113.9809687, 22.5242485], [113.9809709, 22.5241122], [113.98103, 22.5241129], [113.9810304, 22.5240932], [113.9810895, 22.5240941], [113.9810892, 22.5241141], [113.9811424, 22.5241148], [113.9811403, 22.5242499], [113.9810877, 22.5242491], [113.9810879, 22.5242336], [113.9810214, 22.5242327], [113.9810212, 22.5242493], [113.9809687, 22.5242485]]]]}}, {"type": "Feature", "id": "way/549193921", "properties": {"tags": {"building": "yes"}, "heightStatus": "unknown", "source": "OpenStreetMap", "license": "ODbL-1.0"}, "geometry": {"type": "MultiPolygon", "coordinates": [[[[113.9809603, 22.5243498], [113.9811579, 22.5243493], [113.9811587, 22.524622], [113.9811085, 22.5246221], [113.9811082, 22.5245203], [113.9809608, 22.5245206], [113.9809603, 22.5243498]]]]}}, {"type": "Feature", "id": "way/549193922", "properties": {"tags": {"building": "commercial"}, "heightStatus": "unknown", "source": "OpenStreetMap", "license": "ODbL-1.0"}, "geometry": {"type": "MultiPolygon", "coordinates": [[[[113.9812899, 22.5244228], [113.9812901, 22.5241708], [113.9814376, 22.5241709], [113.9814377, 22.5240591], [113.9815513, 22.5240592], [113.9815512, 22.5241851], [113.9816908, 22.5241852], [113.9816906, 22.5244895], [113.9815578, 22.5244894], [113.9815579, 22.5243794], [113.9814158, 22.5243793], [113.9814157, 22.5244229], [113.9812899, 22.5244228]]]]}}, {"type": "Feature", "id": "way/573429663", "properties": {"tags": {"amenity": "fast_food", "brand": "麦当劳", "brand:en": "McDonald's", "brand:wikidata": "Q38076", "brand:wikipedia": "zh:麦当劳", "brand:zh": "麦当劳", "brand:zh-Hans": "麦当劳", "building": "commercial", "building:levels": "1", "cuisine": "burger", "delivery": "yes", "drive_through": "yes", "name": "麦当劳", "name:en": "McDonald's", "name:zh": "麦当劳", "name:zh-Hans": "麦当劳", "outdoor_seating": "yes", "smoking": "outside", "takeaway": "yes", "wheelchair": "yes"}, "heightStatus": "levels_only_unverified", "source": "OpenStreetMap", "license": "ODbL-1.0"}, "geometry": {"type": "MultiPolygon", "coordinates": [[[[113.9855415, 22.5243075], [113.9855495, 22.5242839], [113.9855938, 22.5242604], [113.9861879, 22.5244091], [113.9861946, 22.5244537], [113.9859693, 22.5245045], [113.9857654, 22.5244475], [113.9855415, 22.5243075]]]]}}, {"type": "Feature", "id": "way/1347580495", "properties": {"tags": {"building": "yes"}, "heightStatus": "unknown", "source": "OpenStreetMap", "license": "ODbL-1.0"}, "geometry": {"type": "MultiPolygon", "coordinates": [[[[113.9821605, 22.5223898], [113.9821649, 22.5223204], [113.9822802, 22.5223266], [113.9822759, 22.522396], [113.9821605, 22.5223898]]]]}}]}