{"type": "FeatureCollection", "features": [{"type": "Feature", "id": "way/292349393", "properties": {"tags": {"building": "yes"}, "heightStatus": "unknown", "source": "OpenStreetMap", "license": "ODbL-1.0"}, "geometry": {"type": "MultiPolygon", "coordinates": [[[[113.9823029, 22.5503609], [113.9827323, 22.5500648], [113.9829093, 22.5502838], [113.9824799, 22.5505798], [113.9823029, 22.5503609]]]]}}, {"type": "Feature", "id": "way/292349394", "properties": {"tags": {"building": "yes"}, "heightStatus": "unknown", "source": "OpenStreetMap", "license": "ODbL-1.0"}, "geometry": {"type": "MultiPolygon", "coordinates": [[[[113.9815934, 22.5497359], [113.9819125, 22.5495617], [113.982106, 22.5498641], [113.9817869, 22.5500382], [113.9815934, 22.5497359]]]]}}, {"type": "Feature", "id": "way/482249531", "properties": {"tags": {"area": "yes", "barrier": "toll_booth", "building": "yes", "layer": "1", "name": "南坪收费站", "name:en": "Nanping Toll Gate", "name:zh": "南坪收费站"}, "heightStatus": "unknown", "source": "OpenStreetMap", "license": "ODbL-1.0"}, "geometry": {"type": "MultiPolygon", "coordinates": [[[[113.985311, 22.5506796], [113.9854479, 22.5505921], [113.9856931, 22.5509193], [113.985556, 22.5510068], [113.985311, 22.5506796]]]]}}, {"type": "Feature", "id": "way/482249533", "properties": {"tags": {"area": "yes", "barrier": "toll_booth", "building": "yes", "layer": "1", "name": "南坪收费站", "name:en": "Nanping Toll Gate", "name:zh": "南坪收费站"}, "heightStatus": "unknown", "source": "OpenStreetMap", "license": "ODbL-1.0"}, "geometry": {"type": "MultiPolygon", "coordinates": [[[[113.9847489, 22.5501203], [113.9848954, 22.5500461], [113.9850186, 22.5502538], [113.984872, 22.5503279], [113.9847489, 22.5501203]]]]}}, {"type": "Feature", "id": "way/533174207", "properties": {"tags": {"building": "hospital"}, "heightStatus": "unknown", "source": "OpenStreetMap", "license": "ODbL-1.0"}, "geometry": {"type": "MultiPolygon", "coordinates": [[[[113.9848993, 22.5449897], [113.9850095, 22.5448764], [113.9852282, 22.5450331], [113.9852547, 22.5450521], [113.9852747, 22.5450724], [113.9854274, 22.5452277], [113.9853073, 22.5453248], [113.9851471, 22.5451653], [113.9848993, 22.5449897]]]]}}, {"type": "Feature", "id": "way/533174208", "properties": {"tags": {"building": "hospital"}, "heightStatus": "unknown", "source": "OpenStreetMap", "license": "ODbL-1.0"}, "geometry": {"type": "MultiPolygon", "coordinates": [[[[113.9852675, 22.5449988], [113.9853423, 22.5449365], [113.9853323, 22.5449134], [113.9853998, 22.5448546], [113.9854392, 22.5448918], [113.9854646, 22.5449167], [113.9855843, 22.5450406], [113.9854328, 22.5451674], [113.9853089, 22.5450412], [113.9852675, 22.5449988]]]]}}, {"type": "Feature", "id": "way/533174210", "properties": {"tags": {"building": "hospital"}, "heightStatus": "unknown", "source": "OpenStreetMap", "license": "ODbL-1.0"}, "geometry": {"type": "MultiPolygon", "coordinates": [[[[113.9852282, 22.5450331], [113.9852675, 22.5449988], [113.9853089, 22.5450412], [113.9852747, 22.5450724], [113.9852547, 22.5450521], [113.9852282, 22.5450331]]]]}}, {"type": "Feature", "id": "way/802893148", "properties": {"tags": {"building": "yes"}, "heightStatus": "unknown", "source": "OpenStreetMap", "license": "ODbL-1.0"}, "geometry": {"type": "MultiPolygon", "coordinates": [[[[113.9840347, 22.5522375], [113.9841413, 22.5521774], [113.9841661, 22.5522148], [113.9840594, 22.5522749], [113.9840347, 22.5522375]]]]}}, {"type": "Feature", "id": "way/802893149", "properties": {"tags": {"building": "yes"}, "heightStatus": "unknown", "source": "OpenStreetMap", "license": "ODbL-1.0"}, "geometry": {"type": "MultiPolygon", "coordinates": [[[[113.983812, 22.5524168], [113.983876, 22.5523814], [113.9839902, 22.5525579], [113.9839263, 22.5525932], [113.983812, 22.5524168]]]]}}, {"type": "Feature", "id": "way/1273285321", "properties": {"tags": {"building": "apartments", "building:levels": "34"}, "heightStatus": "levels_only_unverified", "source": "OpenStreetMap", "license": "ODbL-1.0"}, "geometry": {"type": "MultiPolygon", "coordinates": [[[[113.9838277, 22.5458009], [113.9838937, 22.5457688], [113.9838822, 22.5457486], [113.9838963, 22.5457418], [113.9838838, 22.5457199], [113.9838957, 22.5457141], [113.9838641, 22.5456586], [113.98399, 22.5455974], [113.9840229, 22.5456552], [113.9840357, 22.545649], [113.9840526, 22.5456787], [113.9840719, 22.5456694], [113.9840846, 22.5456916], [113.9841409, 22.5456642], [113.9841676, 22.545711], [113.9841027, 22.5457426], [113.9841103, 22.5457559], [113.9840363, 22.5457918], [113.9840299, 22.5457805], [113.9839739, 22.5458077], [113.9839814, 22.5458207], [113.9839159, 22.5458526], [113.9839087, 22.5458398], [113.9838626, 22.5458622], [113.9838277, 22.5458009]]]]}}, {"type": "Feature", "id": "way/1273285322", "properties": {"tags": {"building": "apartments", "building:levels": "34"}, "heightStatus": "levels_only_unverified", "source": "OpenStreetMap", "license": "ODbL-1.0"}, "geometry": {"type": "MultiPolygon", "coordinates": [[[[113.984175, 22.5456324], [113.984241, 22.5456003], [113.9842296, 22.5455802], [113.9842437, 22.5455733], [113.9842312, 22.5455514], [113.984243, 22.5455457], [113.9842114, 22.5454902], [113.9843373, 22.545429], [113.9843703, 22.5454868], [113.984383, 22.5454806], [113.9844, 22.5455103], [113.9844192, 22.5455009], [113.9844319, 22.5455231], [113.9844883, 22.5454957], [113.984515, 22.5455426], [113.98445, 22.5455741], [113.9844576, 22.5455874], [113.9843836, 22.5456233], [113.9843772, 22.5456121], [113.9843213, 22.5456392], [113.9843287, 22.5456523], [113.9842633, 22.5456841], [113.984256, 22.5456714], [113.98421, 22.5456937], [113.984175, 22.5456324]]]]}}, {"type": "Feature", "id": "way/1273285323", "properties": {"tags": {"building": "apartments", "building:levels": "34"}, "heightStatus": "levels_only_unverified", "source": "OpenStreetMap", "license": "ODbL-1.0"}, "geometry": {"type": "MultiPolygon", "coordinates": [[[[113.9845143, 22.5454701], [113.9845803, 22.545438], [113.9845689, 22.5454179], [113.984583, 22.5454111], [113.9845705, 22.5453892], [113.9845823, 22.5453834], [113.9845507, 22.5453279], [113.9846766, 22.5452667], [113.9847096, 22.5453245], [113.9847223, 22.5453183], [113.9847393, 22.545348], [113.9847585, 22.5453386], [113.9847712, 22.5453609], [113.9848276, 22.5453335], [113.9848543, 22.5453803], [113.9847893, 22.5454119], [113.9847969, 22.5454252], [113.9847229, 22.5454611], [113.9847165, 22.5454498], [113.9846606, 22.545477], [113.984668, 22.54549], [113.9846026, 22.5455218], [113.9845953, 22.5455091], [113.9845493, 22.5455315], [113.9845143, 22.5454701]]]]}}, {"type": "Feature", "id": "way/1311279287", "properties": {"tags": {"building": "train_station", "building:levels": "0", "building:levels:underground": "2", "layer": "-1", "location": "underground", "name": "侨城北站", "name:en": "Qiaocheng North Station", "name:zh": "侨城北站", "public_transport": "station", "start_date": "2011-06-28", "wikidata": "Q5941699", "wikipedia": "zh:侨城北站"}, "heightStatus": "levels_only_unverified", "source": "OpenStreetMap", "license": "ODbL-1.0"}, "geometry": {"type": "MultiPolygon", "coordinates": [[[[113.9831651, 22.5476259], [113.9832837, 22.5475318], [113.9832917, 22.5475404], [113.9837665, 22.5471637], [113.9835373, 22.5469283], [113.983299, 22.5471248], [113.9832599, 22.5470845], [113.9835431, 22.546851], [113.9838039, 22.5471188], [113.9843312, 22.5466903], [113.984205, 22.5465569], [113.9841481, 22.5463501], [113.9844124, 22.5461333], [113.9844627, 22.5461874], [113.9842327, 22.5463732], [113.9842703, 22.5465217], [113.984386, 22.5466424], [113.9846902, 22.5463975], [113.9846908, 22.5463981], [113.9847057, 22.5463863], [113.9847472, 22.546431], [113.984734, 22.5464414], [113.984777, 22.5464876], [113.9847928, 22.546475], [113.984834, 22.5465193], [113.9848214, 22.5465293], [113.9848289, 22.5465373], [113.9848216, 22.5465431], [113.9849202, 22.546649], [113.984619, 22.546888], [113.9847768, 22.5470576], [113.9850606, 22.5468324], [113.9851012, 22.546876], [113.9847719, 22.5471373], [113.9845253, 22.5468722], [113.9845019, 22.5468908], [113.9844707, 22.5468572], [113.9844879, 22.5468435], [113.9844766, 22.5468314], [113.9841072, 22.5471245], [113.9841516, 22.5471723], [113.9840468, 22.5472558], [113.9840359, 22.5472198], [113.9840972, 22.5471703], [113.9840816, 22.5471536], [113.9839557, 22.5472535], [113.984267, 22.5475882], [113.9839815, 22.5478148], [113.9839327, 22.5477623], [113.9841623, 22.54758], [113.9839064, 22.5473048], [113.983558, 22.5475813], [113.9836609, 22.547692], [113.9834206, 22.5478826], [113.9833416, 22.5477977], [113.983332, 22.5478054], [113.9831651, 22.5476259]]]]}}, {"type": "Feature", "id": "way/1347334251", "properties": {"tags": {"addr:housename": "天鹅湖花园", "addr:housename:zh": "天鹅湖花园", "building": "apartments", "building:levels": "36", "name": "A栋", "name:zh": "A栋"}, "heightStatus": "levels_only_unverified", "source": "OpenStreetMap", "license": "ODbL-1.0"}, "geometry": {"type": "MultiPolygon", "coordinates": [[[[113.9771027, 22.5498813], [113.9771351, 22.549816], [113.9771793, 22.5498347], [113.9772116, 22.5497698], [113.9771674, 22.549751], [113.9771999, 22.5496857], [113.977475, 22.5498023], [113.9774426, 22.5498677], [113.9773984, 22.5498489], [113.9773661, 22.5499139], [113.9774103, 22.5499326], [113.9773778, 22.549998], [113.9771027, 22.5498813]]]]}}, {"type": "Feature", "id": "way/1347334252", "properties": {"tags": {"addr:housename": "天鹅湖花园", "addr:housename:zh": "天鹅湖花园", "building": "apartments", "building:levels": "36", "name": "B栋", "name:zh": "B栋"}, "heightStatus": "levels_only_unverified", "source": "OpenStreetMap", "license": "ODbL-1.0"}, "geometry": {"type": "MultiPolygon", "coordinates": [[[[113.9776037, 22.5504121], [113.9776728, 22.5503959], [113.9776569, 22.5503375], [113.9776252, 22.5503449], [113.9776055, 22.5502726], [113.9780075, 22.5501789], [113.9779801, 22.5500787], [113.9782395, 22.5500182], [113.9782669, 22.5501184], [113.9783295, 22.5501038], [113.9783492, 22.5501762], [113.9778945, 22.5502822], [113.9779105, 22.5503406], [113.9779542, 22.5503304], [113.9779727, 22.5503978], [113.9776221, 22.5504795], [113.9776037, 22.5504121]]]]}}, {"type": "Feature", "id": "way/1347334254", "properties": {"tags": {"addr:housename": "天鹅湖花园", "addr:housename:zh": "天鹅湖花园", "building": "apartments", "building:levels": "36", "name": "C栋", "name:zh": "C栋"}, "heightStatus": "levels_only_unverified", "source": "OpenStreetMap", "license": "ODbL-1.0"}, "geometry": {"type": "MultiPolygon", "coordinates": [[[[113.9784791, 22.5498949], [113.9785483, 22.5498787], [113.9785323, 22.5498204], [113.9785007, 22.5498277], [113.9784809, 22.5497554], [113.9788829, 22.5496617], [113.9788556, 22.5495615], [113.9791149, 22.549501], [113.9791423, 22.5496012], [113.9792049, 22.5495866], [113.9792247, 22.549659], [113.9787699, 22.549765], [113.9787859, 22.5498234], [113.9788296, 22.5498132], [113.9788481, 22.5498806], [113.9784975, 22.5499623], [113.9784791, 22.5498949]]]]}}, {"type": "Feature", "id": "way/1347334256", "properties": {"tags": {"building": "yes"}, "heightStatus": "unknown", "source": "OpenStreetMap", "license": "ODbL-1.0"}, "geometry": {"type": "MultiPolygon", "coordinates": [[[[113.9802334, 22.5488521], [113.9807859, 22.5485202], [113.9809612, 22.5487691], [113.9804087, 22.549101], [113.9802334, 22.5488521]]]]}}, {"type": "Feature", "id": "way/1347334258", "properties": {"tags": {"addr:housename": "天鹅湖花园", "addr:housename:zh": "天鹅湖花园", "building": "apartments", "building:levels": "41", "name": "D栋", "name:zh": "D栋"}, "heightStatus": "levels_only_unverified", "source": "OpenStreetMap", "license": "ODbL-1.0"}, "geometry": {"type": "MultiPolygon", "coordinates": [[[[113.9795406, 22.5492887], [113.97973, 22.5491142], [113.979809, 22.5491874], [113.9801026, 22.5489169], [113.9801597, 22.5489697], [113.9801365, 22.548991], [113.9801826, 22.5490337], [113.9802331, 22.5489871], [113.9802863, 22.5490364], [113.9800303, 22.5492722], [113.9799771, 22.549223], [113.9800091, 22.5491935], [113.979963, 22.5491509], [113.979631, 22.5494568], [113.979574, 22.549404], [113.9796197, 22.5493619], [113.9795406, 22.5492887]]]]}}, {"type": "Feature", "id": "way/1347334260", "properties": {"tags": {"addr:housename": "天鹅湖花园", "addr:housename:zh": "天鹅湖花园", "building": "apartments", "building:levels": "41", "name": "E栋", "name:zh": "E栋"}, "heightStatus": "levels_only_unverified", "source": "OpenStreetMap", "license": "ODbL-1.0"}, "geometry": {"type": "MultiPolygon", "coordinates": [[[[113.9797647, 22.5482163], [113.9798358, 22.5482108], [113.9798303, 22.5481508], [113.9797978, 22.5481533], [113.979791, 22.5480789], [113.9802042, 22.5480467], [113.9801948, 22.5479437], [113.9804613, 22.547923], [113.9804707, 22.5480259], [113.980535, 22.5480209], [113.9805418, 22.5480953], [113.9800745, 22.5481317], [113.98008, 22.5481917], [113.980125, 22.5481882], [113.9801313, 22.5482575], [113.979771, 22.5482856], [113.9797647, 22.5482163]]]]}}, {"type": "Feature", "id": "way/1347334261", "properties": {"tags": {"building": "yes"}, "heightStatus": "unknown", "source": "OpenStreetMap", "license": "ODbL-1.0"}, "geometry": {"type": "MultiPolygon", "coordinates": [[[[113.9813465, 22.548114], [113.9815115, 22.5480271], [113.9816751, 22.5482921], [113.9815101, 22.548379], [113.9813465, 22.548114]]]]}}, {"type": "Feature", "id": "way/1347334262", "properties": {"tags": {"building": "yes"}, "heightStatus": "unknown", "source": "OpenStreetMap", "license": "ODbL-1.0"}, "geometry": {"type": "MultiPolygon", "coordinates": [[[[113.983503, 22.5458077], [113.9836145, 22.5457768], [113.9836804, 22.5459797], [113.9835689, 22.5460106], [113.983503, 22.5458077]]]]}}, {"type": "Feature", "id": "way/1347334264", "properties": {"tags": {"building": "commercial", "name": "欢乐时光 Oct Park", "name:en": "Oct Park", "name:zh": "欢乐时光", "shop": "mall"}, "heightStatus": "unknown", "source": "OpenStreetMap", "license": "ODbL-1.0"}, "geometry": {"type": "MultiPolygon", "coordinates": [[[[113.9816431, 22.5470469], [113.9819747, 22.5467819], [113.981931, 22.5467353], [113.9819988, 22.5466811], [113.9819065, 22.5465825], [113.9820466, 22.5464706], [113.9824878, 22.546118], [113.9826291, 22.5460051], [113.9826942, 22.5460745], [113.9827723, 22.5460121], [113.9828938, 22.5461419], [113.9833488, 22.5457783], [113.9837413, 22.5461973], [113.9838624, 22.5463265], [113.9837637, 22.5464054], [113.9838389, 22.5464856], [113.9837604, 22.5465484], [113.9824403, 22.5476033], [113.9823617, 22.5476661], [113.9822824, 22.5475814], [113.9821724, 22.5476693], [113.982104, 22.5475963], [113.9819849, 22.5474691], [113.9822762, 22.5472363], [113.9820992, 22.5470474], [113.9818386, 22.5472557], [113.9816431, 22.5470469]]]]}}, {"type": "Feature", "id": "way/1426338541", "properties": {"tags": {"building": "school"}, "heightStatus": "unknown", "source": "OpenStreetMap", "license": "ODbL-1.0"}, "geometry": {"type": "MultiPolygon", "coordinates": [[[[113.9847847, 22.5533958], [113.9848418, 22.5533277], [113.9856717, 22.5539212], [113.9857744, 22.5539421], [113.9857944, 22.5539395], [113.9858128, 22.5539316], [113.9858278, 22.5539192], [113.9858384, 22.5539033], [113.9858586, 22.5538187], [113.9858582, 22.5537934], [113.9858515, 22.5537689], [113.9858391, 22.5537463], [113.9858216, 22.553727], [113.9852255, 22.5533011], [113.9852633, 22.553256], [113.9853275, 22.5533019], [113.9853926, 22.5532243], [113.9858689, 22.5535649], [113.9859402, 22.5535794], [113.9859514, 22.5535329], [113.9859534, 22.553498], [113.9859475, 22.5534635], [113.9859338, 22.5534309], [113.9859131, 22.5534016], [113.9858861, 22.5533771], [113.9855601, 22.5531439], [113.9856256, 22.5530658], [113.9857181, 22.5531319], [113.9857693, 22.5530709], [113.9860191, 22.5532496], [113.986135, 22.5533324], [113.9859508, 22.5541031], [113.9856105, 22.5540337], [113.9848402, 22.5534828], [113.984865, 22.5534532], [113.9847847, 22.5533958]]]]}}, {"type": "Feature", "id": "way/1426347912", "properties": {"tags": {"addr:housename": "天鹅堡", "addr:housename:zh": "天鹅堡", "building": "apartments", "name": "P栋", "name:zh": "P栋"}, "heightStatus": "unknown", "source": "OpenStreetMap", "license": "ODbL-1.0"}, "geometry": {"type": "MultiPolygon", "coordinates": [[[[113.97613, 22.5493247], [113.9762321, 22.5491824], [113.9763581, 22.5492596], [113.9764789, 22.5493436], [113.976594, 22.5494341], [113.976703, 22.5495309], [113.9768055, 22.5496336], [113.9766696, 22.5497493], [113.9765709, 22.5496504], [113.9764699, 22.5495607], [113.9763633, 22.5494768], [113.9762514, 22.549399], [113.97613, 22.5493247]]]]}}, {"type": "Feature", "id": "way/1426347924", "properties": {"tags": {"addr:housename": "天鹅堡", "addr:housename:zh": "天鹅堡", "building": "apartments", "name": "T栋", "name:zh": "T栋"}, "heightStatus": "unknown", "source": "OpenStreetMap", "license": "ODbL-1.0"}, "geometry": {"type": "MultiPolygon", "coordinates": [[[[113.9767427, 22.5510046], [113.9768709, 22.5509374], [113.9767757, 22.5507827], [113.9769528, 22.5506897], [113.977048, 22.5508445], [113.9771905, 22.5507697], [113.9772482, 22.5508635], [113.9767932, 22.5511021], [113.9767427, 22.5510046]]]]}}, {"type": "Feature", "id": "way/1426347926", "properties": {"tags": {"addr:housename": "天鹅堡", "addr:housename:zh": "天鹅堡", "building": "apartments", "name": "S栋", "name:zh": "S栋"}, "heightStatus": "unknown", "source": "OpenStreetMap", "license": "ODbL-1.0"}, "geometry": {"type": "MultiPolygon", "coordinates": [[[[113.9762712, 22.5511759], [113.976416, 22.5511233], [113.9763455, 22.5509577], [113.9765351, 22.5508888], [113.9766056, 22.5510544], [113.9767427, 22.5510046], [113.9767932, 22.5511021], [113.9763062, 22.551279], [113.9762712, 22.5511759]]]]}}, {"type": "Feature", "id": "way/1426348627", "properties": {"tags": {"addr:housename": "天鹅湖花园三期", "addr:housename:zh": "天鹅湖花园三期", "building": "apartments", "building:levels": "52", "layer": "1", "name": "B栋", "name:zh": "B栋"}, "heightStatus": "levels_only_unverified", "source": "OpenStreetMap", "license": "ODbL-1.0"}, "geometry": {"type": "MultiPolygon", "coordinates": [[[[113.9834506, 22.5462978], [113.9835907, 22.5461858], [113.9836613, 22.5462612], [113.9837413, 22.5461973], [113.9838624, 22.5463265], [113.9837637, 22.5464054], [113.9838389, 22.5464856], [113.9837604, 22.5465484], [113.9836446, 22.5464248], [113.9835339, 22.5465133], [113.9834655, 22.5464402], [113.9835333, 22.5463861], [113.9834506, 22.5462978]]]]}}, {"type": "Feature", "id": "way/1426348628", "properties": {"tags": {"addr:housename": "天鹅湖花园三期", "addr:housename:zh": "天鹅湖花园三期", "building": "apartments", "building:levels": "52", "layer": "1", "name": "C栋", "name:zh": "C栋"}, "heightStatus": "levels_only_unverified", "source": "OpenStreetMap", "license": "ODbL-1.0"}, "geometry": {"type": "MultiPolygon", "coordinates": [[[[113.9824878, 22.546118], [113.9826291, 22.5460051], [113.9826942, 22.5460745], [113.9827723, 22.5460121], [113.9828938, 22.5461419], [113.982796, 22.5462201], [113.9828524, 22.5462804], [113.9827739, 22.5463432], [113.9826763, 22.5462391], [113.9825656, 22.5463275], [113.9824972, 22.5462545], [113.982565, 22.5462003], [113.9824878, 22.546118]]]]}}, {"type": "Feature", "id": "way/1426348629", "properties": {"tags": {"addr:housename": "天鹅湖花园三期", "addr:housename:zh": "天鹅湖花园三期", "building": "apartments", "building:levels": "52", "layer": "1", "name": "D栋", "name:zh": "D栋"}, "heightStatus": "levels_only_unverified", "source": "OpenStreetMap", "license": "ODbL-1.0"}, "geometry": {"type": "MultiPolygon", "coordinates": [[[[113.9819065, 22.5465825], [113.9820466, 22.5464706], [113.9821269, 22.5465563], [113.9822061, 22.546493], [113.9823271, 22.5466222], [113.9822293, 22.5467004], [113.9822862, 22.5467612], [113.9822077, 22.546824], [113.9821101, 22.5467199], [113.9819994, 22.5468083], [113.9819747, 22.5467819], [113.981931, 22.5467353], [113.9819988, 22.5466811], [113.9819065, 22.5465825]]]]}}, {"type": "Feature", "id": "way/1426348630", "properties": {"tags": {"addr:housename": "天鹅湖花园三期", "addr:housename:zh": "天鹅湖花园三期", "building": "apartments", "building:levels": "52", "layer": "1", "name": "A栋", "name:zh": "A栋"}, "heightStatus": "levels_only_unverified", "source": "OpenStreetMap", "license": "ODbL-1.0"}, "geometry": {"type": "MultiPolygon", "coordinates": [[[[113.9820884, 22.5474544], [113.9822285, 22.5473424], [113.9822992, 22.5474178], [113.9823784, 22.5473545], [113.9824995, 22.5474838], [113.9824016, 22.547562], [113.9824403, 22.5476033], [113.9823617, 22.5476661], [113.9822824, 22.5475814], [113.9821724, 22.5476693], [113.982104, 22.5475963], [113.9821711, 22.5475427], [113.9820884, 22.5474544]]]]}}, {"type": "Feature", "id": "way/1426350887", "properties": {"tags": {"addr:housename": "智慧广场", "addr:housename:zh": "智慧广场", "building": "commercial", "name": "C栋", "name:zh": "C栋"}, "heightStatus": "unknown", "source": "OpenStreetMap", "license": "ODbL-1.0"}, "geometry": {"type": "MultiPolygon", "coordinates": [[[[113.9769261, 22.5526075], [113.9769351, 22.5525903], [113.9769513, 22.5525783], [113.9772265, 22.5524586], [113.9772106, 22.5524535], [113.9771982, 22.5524429], [113.9771915, 22.5524287], [113.9771915, 22.5524131], [113.9771983, 22.5523988], [113.9772108, 22.5523883], [113.9772268, 22.5523833], [113.977448, 22.5522954], [113.9774739, 22.5522971], [113.9774979, 22.5523061], [113.9775178, 22.5523214], [113.9775318, 22.5523421], [113.9775381, 22.5523659], [113.9775359, 22.5523902], [113.9775257, 22.5524127], [113.9775082, 22.5524311], [113.9775285, 22.5524269], [113.9775487, 22.5524311], [113.9775649, 22.5524431], [113.9775738, 22.5524604], [113.9775738, 22.5524795], [113.9775648, 22.5524967], [113.9775486, 22.5525087], [113.9774561, 22.5525453], [113.9774759, 22.5525561], [113.9774908, 22.5525745], [113.977497, 22.5525967], [113.9774935, 22.5526194], [113.9774808, 22.5526391], [113.977461, 22.5526529], [113.9772683, 22.5527384], [113.9772443, 22.5527441], [113.9772197, 22.5527409], [113.9771983, 22.5527292], [113.9771834, 22.5527108], [113.9771772, 22.5526886], [113.9771799, 22.5526679], [113.977032, 22.5527335], [113.9770118, 22.5527377], [113.9769916, 22.5527334], [113.9769754, 22.5527215], [113.9769664, 22.5527042], [113.9769664, 22.5526851], [113.9769755, 22.5526678], [113.9769917, 22.5526559], [113.9769715, 22.5526602], [113.9769512, 22.5526559], [113.9769351, 22.5526439], [113.9769261, 22.5526267], [113.9769261, 22.5526075]]]]}}, {"type": "Feature", "id": "way/1426350888", "properties": {"tags": {"addr:housename": "智慧广场", "addr:housename:zh": "智慧广场", "building": "commercial", "name": "D栋", "name:zh": "D栋"}, "heightStatus": "unknown", "source": "OpenStreetMap", "license": "ODbL-1.0"}, "geometry": {"type": "MultiPolygon", "coordinates": [[[[113.9762986, 22.5530507], [113.9762987, 22.5530315], [113.9763077, 22.5530143], [113.9763239, 22.5530023], [113.9765991, 22.5528826], [113.9765832, 22.5528775], [113.9765708, 22.5528669], [113.976564, 22.5528526], [113.9765641, 22.5528371], [113.9765709, 22.5528228], [113.9765834, 22.5528123], [113.9765993, 22.5528073], [113.9768206, 22.5527194], [113.9768465, 22.5527211], [113.9768705, 22.55273], [113.9768904, 22.5527454], [113.9769044, 22.5527661], [113.9769106, 22.5527898], [113.9769085, 22.5528142], [113.9768982, 22.5528367], [113.9768808, 22.5528551], [113.976901, 22.5528508], [113.9769212, 22.5528551], [113.9769374, 22.5528671], [113.9769464, 22.5528843], [113.9769464, 22.5529035], [113.9769374, 22.5529207], [113.9769212, 22.5529327], [113.9768287, 22.5529693], [113.9768485, 22.5529801], [113.9768634, 22.5529985], [113.9768696, 22.5530207], [113.9768661, 22.5530434], [113.9768534, 22.5530631], [113.9768336, 22.5530769], [113.9766409, 22.5531624], [113.9766169, 22.5531681], [113.9765923, 22.5531648], [113.9765709, 22.5531532], [113.976556, 22.5531348], [113.9765498, 22.5531126], [113.9765524, 22.5530919], [113.9764046, 22.5531575], [113.9763844, 22.5531617], [113.9763642, 22.5531574], [113.976348, 22.5531455], [113.976339, 22.5531282], [113.976339, 22.5531091], [113.976348, 22.5530918], [113.9763642, 22.5530799], [113.976344, 22.5530841], [113.9763238, 22.5530799], [113.9763076, 22.5530679], [113.9762986, 22.5530507]]]]}}, {"type": "Feature", "id": "way/1426350889", "properties": {"tags": {"addr:housename": "智慧广场", "addr:housename:zh": "智慧广场", "building": "commercial", "name": "A栋", "name:zh": "A栋"}, "heightStatus": "unknown", "source": "OpenStreetMap", "license": "ODbL-1.0"}, "geometry": {"type": "MultiPolygon", "coordinates": [[[[113.9770583, 22.5532727], [113.9770674, 22.5532555], [113.9770836, 22.5532435], [113.9773319, 22.5531333], [113.9773283, 22.5531134], [113.9773311, 22.5530933], [113.9773401, 22.5530748], [113.9773545, 22.5530595], [113.9773732, 22.5530488], [113.9774818, 22.5529814], [113.9774623, 22.5529763], [113.9774471, 22.552964], [113.9774391, 22.5529468], [113.9774401, 22.5529281], [113.9774497, 22.5529117], [113.9774661, 22.5529007], [113.977533, 22.5528587], [113.9776032, 22.5528217], [113.9776763, 22.5527898], [113.9777519, 22.5527633], [113.9778295, 22.5527423], [113.9779086, 22.5527269], [113.9779286, 22.5527236], [113.9779481, 22.5527286], [113.9779633, 22.552741], [113.9779712, 22.5527582], [113.9779703, 22.5527769], [113.9779607, 22.5527933], [113.9779442, 22.5528043], [113.977873, 22.5528485], [113.9778922, 22.55289], [113.9779761, 22.5528733], [113.977996, 22.55287], [113.9780155, 22.552875], [113.9780307, 22.5528874], [113.9780386, 22.5529046], [113.9780377, 22.5529233], [113.9780281, 22.5529397], [113.9780113, 22.5529503], [113.9779433, 22.5530002], [113.9778705, 22.5530441], [113.9777935, 22.5530816], [113.9777132, 22.5531122], [113.9776301, 22.5531359], [113.977545, 22.5531523], [113.9775612, 22.5531642], [113.9775702, 22.5531815], [113.9775701, 22.5532006], [113.9775611, 22.5532179], [113.9775449, 22.5532298], [113.9774894, 22.553271], [113.97743, 22.5533073], [113.9773672, 22.5533385], [113.9773017, 22.5533643], [113.9772338, 22.5533844], [113.9771643, 22.5533987], [113.977144, 22.5534029], [113.9771238, 22.5533986], [113.9771076, 22.5533867], [113.9770987, 22.5533694], [113.9770987, 22.5533503], [113.9771077, 22.553333], [113.9771239, 22.5533211], [113.9771037, 22.5533253], [113.9770835, 22.5533211], [113.9770673, 22.5533091], [113.9770583, 22.5532918], [113.9770583, 22.5532727]]]]}}, {"type": "Feature", "id": "way/1426350890", "properties": {"tags": {"addr:housename": "智慧广场", "addr:housename:zh": "智慧广场", "building": "commercial", "name": "B栋", "name:zh": "B栋"}, "heightStatus": "unknown", "source": "OpenStreetMap", "license": "ODbL-1.0"}, "geometry": {"type": "MultiPolygon", "coordinates": [[[[113.9760579, 22.5540478], [113.9760669, 22.5540305], [113.9760832, 22.5540186], [113.9763315, 22.5539084], [113.9763279, 22.5538884], [113.9763307, 22.5538683], [113.9763397, 22.5538498], [113.9763541, 22.5538346], [113.9763728, 22.5538239], [113.9764814, 22.5537564], [113.9764619, 22.5537514], [113.9764466, 22.5537391], [113.9764387, 22.5537219], [113.9764397, 22.5537032], [113.9764493, 22.5536867], [113.9764657, 22.5536758], [113.9765326, 22.5536338], [113.9766028, 22.5535967], [113.9766759, 22.5535648], [113.9767515, 22.5535383], [113.9768291, 22.5535173], [113.9769082, 22.553502], [113.9769282, 22.5534987], [113.9769477, 22.5535037], [113.9769629, 22.553516], [113.9769708, 22.5535332], [113.9769699, 22.5535519], [113.9769602, 22.5535684], [113.9769438, 22.5535793], [113.9768726, 22.5536235], [113.9768918, 22.5536651], [113.9769756, 22.5536484], [113.9769956, 22.5536451], [113.9770151, 22.5536501], [113.9770303, 22.5536624], [113.9770382, 22.5536796], [113.9770373, 22.5536983], [113.9770277, 22.5537148], [113.9770109, 22.5537253], [113.9769429, 22.5537753], [113.9768701, 22.5538192], [113.9767931, 22.5538566], [113.9767128, 22.5538873], [113.9766297, 22.5539109], [113.9765446, 22.5539273], [113.9765608, 22.5539393], [113.9765698, 22.5539565], [113.9765697, 22.5539757], [113.9765607, 22.5539929], [113.9765445, 22.5540048], [113.976489, 22.5540461], [113.9764296, 22.5540824], [113.9763668, 22.5541136], [113.9763012, 22.5541393], [113.9762334, 22.5541594], [113.9761639, 22.5541737], [113.9761436, 22.554178], [113.9761234, 22.5541737], [113.9761072, 22.5541617], [113.9760983, 22.5541445], [113.9760983, 22.5541253], [113.9761073, 22.5541081], [113.9761235, 22.5540962], [113.9761033, 22.5541004], [113.9760831, 22.5540961], [113.9760669, 22.5540842], [113.9760579, 22.5540669], [113.9760579, 22.5540478]]]]}}, {"type": "Feature", "id": "way/1426350910", "properties": {"tags": {"building": "commercial", "building:levels": "57", "height": "248", "name": "侨城一号广场", "name:en": "Qiaocheng No.1 Plaza", "name:zh": "侨城一号广场"}, "heightStatus": "height_tag_unverified", "source": "OpenStreetMap", "license": "ODbL-1.0"}, "geometry": {"type": "MultiPolygon", "coordinates": [[[[113.9807254, 22.5506429], [113.9810503, 22.5503859], [113.9813235, 22.5506806], [113.9809986, 22.5509375], [113.9807254, 22.5506429]]]]}}]}