{"type": "FeatureCollection", "features": [{"type": "Feature", "id": "way/1447278743", "properties": {"tags": {"building": "industrial"}, "heightStatus": "unknown", "source": "OpenStreetMap", "license": "ODbL-1.0"}, "geometry": {"type": "MultiPolygon", "coordinates": [[[[113.9761984, 22.6243173], [113.9762569, 22.6234582], [113.9766146, 22.6234789], [113.9765561, 22.6243381], [113.9761984, 22.6243173]]]]}}, {"type": "Feature", "id": "way/1447278744", "properties": {"tags": {"building": "industrial"}, "heightStatus": "unknown", "source": "OpenStreetMap", "license": "ODbL-1.0"}, "geometry": {"type": "MultiPolygon", "coordinates": [[[[113.9766155, 22.6243452], [113.9766384, 22.6240092], [113.9768402, 22.6240209], [113.9769053, 22.6240247], [113.9768824, 22.6243607], [113.9766155, 22.6243452]]]]}}, {"type": "Feature", "id": "way/1447278745", "properties": {"tags": {"building": "industrial"}, "heightStatus": "unknown", "source": "OpenStreetMap", "license": "ODbL-1.0"}, "geometry": {"type": "MultiPolygon", "coordinates": [[[[113.9766384, 22.6240092], [113.9766839, 22.6233404], [113.9768857, 22.6233521], [113.9768402, 22.6240209], [113.9766384, 22.6240092]]]]}}, {"type": "Feature", "id": "way/1447278746", "properties": {"tags": {"building": "yes"}, "heightStatus": "unknown", "source": "OpenStreetMap", "license": "ODbL-1.0"}, "geometry": {"type": "MultiPolygon", "coordinates": [[[[113.9767141, 22.6246931], [113.9767221, 22.6245061], [113.9768221, 22.6245097], [113.9768141, 22.6246967], [113.9767141, 22.6246931]]]]}}, {"type": "Feature", "id": "way/1447278747", "properties": {"tags": {"building": "industrial"}, "heightStatus": "unknown", "source": "OpenStreetMap", "license": "ODbL-1.0"}, "geometry": {"type": "MultiPolygon", "coordinates": [[[[113.9765667, 22.6250929], [113.9767412, 22.624776], [113.9769575, 22.6248775], [113.976783, 22.6251943], [113.9765667, 22.6250929]]]]}}, {"type": "Feature", "id": "way/1447278748", "properties": {"tags": {"building": "industrial"}, "heightStatus": "unknown", "source": "OpenStreetMap", "license": "ODbL-1.0"}, "geometry": {"type": "MultiPolygon", "coordinates": [[[[113.9772766, 22.6256827], [113.9773293, 22.6248829], [113.9773884, 22.6248748], [113.9774236, 22.6251052], [113.9773851, 22.6256888], [113.9772766, 22.6256827]]]]}}, {"type": "Feature", "id": "way/1447278749", "properties": {"tags": {"building": "industrial"}, "heightStatus": "unknown", "source": "OpenStreetMap", "license": "ODbL-1.0"}, "geometry": {"type": "MultiPolygon", "coordinates": [[[[113.9774445, 22.6257369], [113.9774648, 22.6254288], [113.977609, 22.6254369], [113.9775887, 22.625745], [113.9774445, 22.6257369]]]]}}, {"type": "Feature", "id": "way/1447278756", "properties": {"tags": {"building": "industrial"}, "heightStatus": "unknown", "source": "OpenStreetMap", "license": "ODbL-1.0"}, "geometry": {"type": "MultiPolygon", "coordinates": [[[[113.9795736, 22.6252709], [113.9801175, 22.625155], [113.9801711, 22.6253694], [113.9796272, 22.6254853], [113.9795736, 22.6252709]]]]}}, {"type": "Feature", "id": "way/1447278757", "properties": {"tags": {"building": "industrial"}, "heightStatus": "unknown", "source": "OpenStreetMap", "license": "ODbL-1.0"}, "geometry": {"type": "MultiPolygon", "coordinates": [[[[113.9788847, 22.6254284], [113.9794677, 22.6253042], [113.9795213, 22.6255186], [113.9789383, 22.6256428], [113.9788847, 22.6254284]]]]}}, {"type": "Feature", "id": "way/1447278758", "properties": {"tags": {"building": "industrial"}, "heightStatus": "unknown", "source": "OpenStreetMap", "license": "ODbL-1.0"}, "geometry": {"type": "MultiPolygon", "coordinates": [[[[113.9788357, 22.6251297], [113.9799653, 22.6248891], [113.9800104, 22.6250695], [113.9788808, 22.6253101], [113.9788357, 22.6251297]]]]}}, {"type": "Feature", "id": "way/1447278759", "properties": {"tags": {"building": "industrial"}, "heightStatus": "unknown", "source": "OpenStreetMap", "license": "ODbL-1.0"}, "geometry": {"type": "MultiPolygon", "coordinates": [[[[113.9799157, 22.6237151], [113.9800138, 22.6233818], [113.9802401, 22.6234385], [113.9801421, 22.6237718], [113.9799157, 22.6237151]]]]}}, {"type": "Feature", "id": "way/1447278760", "properties": {"tags": {"building": "industrial"}, "heightStatus": "unknown", "source": "OpenStreetMap", "license": "ODbL-1.0"}, "geometry": {"type": "MultiPolygon", "coordinates": [[[[113.9798209, 22.6240302], [113.979893, 22.6237851], [113.9801357, 22.6238459], [113.9800636, 22.624091], [113.9798209, 22.6240302]]]]}}, {"type": "Feature", "id": "way/1447278761", "properties": {"tags": {"building": "industrial"}, "heightStatus": "unknown", "source": "OpenStreetMap", "license": "ODbL-1.0"}, "geometry": {"type": "MultiPolygon", "coordinates": [[[[113.9782379, 22.6240543], [113.9787497, 22.6239459], [113.9787308, 22.6238698], [113.978903, 22.6238333], [113.978946, 22.6240061], [113.9782619, 22.624151], [113.9782379, 22.6240543]]]]}}, {"type": "Feature", "id": "way/1447278762", "properties": {"tags": {"building": "industrial"}, "heightStatus": "unknown", "source": "OpenStreetMap", "license": "ODbL-1.0"}, "geometry": {"type": "MultiPolygon", "coordinates": [[[[113.9778661, 22.6240684], [113.9781538, 22.6240075], [113.9781931, 22.6241653], [113.9779053, 22.6242263], [113.9778661, 22.6240684]]]]}}, {"type": "Feature", "id": "way/1447278763", "properties": {"tags": {"building": "industrial"}, "heightStatus": "unknown", "source": "OpenStreetMap", "license": "ODbL-1.0"}, "geometry": {"type": "MultiPolygon", "coordinates": [[[[113.977387, 22.6241711], [113.9777639, 22.6240913], [113.9778024, 22.6242462], [113.9774255, 22.6243261], [113.977387, 22.6241711]]]]}}, {"type": "Feature", "id": "way/1447278764", "properties": {"tags": {"building": "industrial"}, "heightStatus": "unknown", "source": "OpenStreetMap", "license": "ODbL-1.0"}, "geometry": {"type": "MultiPolygon", "coordinates": [[[[113.977459, 22.624502], [113.977655, 22.6244603], [113.9776981, 22.6246326], [113.9775021, 22.6246744], [113.977459, 22.624502]]]]}}, {"type": "Feature", "id": "way/1447278765", "properties": {"tags": {"building": "industrial"}, "heightStatus": "unknown", "source": "OpenStreetMap", "license": "ODbL-1.0"}, "geometry": {"type": "MultiPolygon", "coordinates": [[[[113.9792831, 22.6240639], [113.979727, 22.6239694], [113.9797492, 22.624058], [113.9793052, 22.6241526], [113.9792831, 22.6240639]]]]}}, {"type": "Feature", "id": "way/1447278766", "properties": {"tags": {"building": "industrial"}, "heightStatus": "unknown", "source": "OpenStreetMap", "license": "ODbL-1.0"}, "geometry": {"type": "MultiPolygon", "coordinates": [[[[113.9793654, 22.6242247], [113.9796416, 22.6241658], [113.9798132, 22.6248522], [113.979537, 22.624911], [113.9793654, 22.6242247]]]]}}, {"type": "Feature", "id": "way/1447278767", "properties": {"tags": {"building": "industrial"}, "heightStatus": "unknown", "source": "OpenStreetMap", "license": "ODbL-1.0"}, "geometry": {"type": "MultiPolygon", "coordinates": [[[[113.9786061, 22.6242423], [113.9792424, 22.6241068], [113.9792855, 22.6242791], [113.9786492, 22.6244147], [113.9786061, 22.6242423]]]]}}, {"type": "Feature", "id": "way/1447278768", "properties": {"tags": {"building": "industrial"}, "heightStatus": "unknown", "source": "OpenStreetMap", "license": "ODbL-1.0"}, "geometry": {"type": "MultiPolygon", "coordinates": [[[[113.9777751, 22.6244313], [113.9783493, 22.624309], [113.9783924, 22.6244814], [113.9778182, 22.6246037], [113.9777751, 22.6244313]]]]}}, {"type": "Feature", "id": "way/1447278769", "properties": {"tags": {"building": "industrial"}, "heightStatus": "unknown", "source": "OpenStreetMap", "license": "ODbL-1.0"}, "geometry": {"type": "MultiPolygon", "coordinates": [[[[113.9790744, 22.6244969], [113.9792923, 22.6244505], [113.9794175, 22.6249514], [113.9791996, 22.6249978], [113.9790744, 22.6244969]]]]}}, {"type": "Feature", "id": "way/1447278770", "properties": {"tags": {"building": "industrial"}, "heightStatus": "unknown", "source": "OpenStreetMap", "license": "ODbL-1.0"}, "geometry": {"type": "MultiPolygon", "coordinates": [[[[113.9786909, 22.6245786], [113.9789087, 22.6245322], [113.9790339, 22.6250331], [113.9788161, 22.6250795], [113.9786909, 22.6245786]]]]}}, {"type": "Feature", "id": "way/1447278771", "properties": {"tags": {"building": "industrial"}, "heightStatus": "unknown", "source": "OpenStreetMap", "license": "ODbL-1.0"}, "geometry": {"type": "MultiPolygon", "coordinates": [[[[113.9782421, 22.6246809], [113.97846, 22.6246345], [113.9785852, 22.6251354], [113.9783674, 22.6251818], [113.9782421, 22.6246809]]]]}}, {"type": "Feature", "id": "way/1447278772", "properties": {"tags": {"building": "industrial"}, "heightStatus": "unknown", "source": "OpenStreetMap", "license": "ODbL-1.0"}, "geometry": {"type": "MultiPolygon", "coordinates": [[[[113.9778586, 22.6247627], [113.9780764, 22.6247163], [113.9782016, 22.6252171], [113.9779838, 22.6252635], [113.9778586, 22.6247627]]]]}}, {"type": "Feature", "id": "way/1447278773", "properties": {"tags": {"building": "industrial"}, "heightStatus": "unknown", "source": "OpenStreetMap", "license": "ODbL-1.0"}, "geometry": {"type": "MultiPolygon", "coordinates": [[[[113.977491, 22.6248512], [113.9777088, 22.6248048], [113.977834, 22.6253057], [113.9776162, 22.6253521], [113.977491, 22.6248512]]]]}}]}