{"type": "FeatureCollection", "features": [{"type": "Feature", "id": "way/1447278663", "properties": {"tags": {"building": "industrial"}, "heightStatus": "unknown", "source": "OpenStreetMap", "license": "ODbL-1.0"}, "geometry": {"type": "MultiPolygon", "coordinates": [[[[113.9685692, 22.6268569], [113.9686572, 22.6266904], [113.9693383, 22.6268673], [113.9693699, 22.6271546], [113.9686437, 22.6272733], [113.9685692, 22.6268569]]]]}}, {"type": "Feature", "id": "way/1447278664", "properties": {"tags": {"building": "apartments"}, "heightStatus": "unknown", "source": "OpenStreetMap", "license": "ODbL-1.0"}, "geometry": {"type": "MultiPolygon", "coordinates": [[[[113.9694448, 22.6258406], [113.969525, 22.6257288], [113.9698498, 22.6259274], [113.9697696, 22.6260393], [113.9694448, 22.6258406]]]]}}, {"type": "Feature", "id": "way/1447278665", "properties": {"tags": {"building": "apartments"}, "heightStatus": "unknown", "source": "OpenStreetMap", "license": "ODbL-1.0"}, "geometry": {"type": "MultiPolygon", "coordinates": [[[[113.9693459, 22.6259723], [113.9694262, 22.6258605], [113.969751, 22.6260592], [113.9696707, 22.626171], [113.9693459, 22.6259723]]]]}}, {"type": "Feature", "id": "way/1447278669", "properties": {"tags": {"building": "industrial"}, "heightStatus": "unknown", "source": "OpenStreetMap", "license": "ODbL-1.0"}, "geometry": {"type": "MultiPolygon", "coordinates": [[[[113.9685103, 22.6265801], [113.9687029, 22.6259595], [113.9694007, 22.6261441], [113.9692081, 22.6267647], [113.9685103, 22.6265801]]]]}}, {"type": "Feature", "id": "way/1471714835", "properties": {"tags": {"building": "yes"}, "heightStatus": "unknown", "source": "OpenStreetMap", "license": "ODbL-1.0"}, "geometry": {"type": "MultiPolygon", "coordinates": [[[[113.9709247, 22.6335095], [113.9710011, 22.6333015], [113.971083, 22.6333272], [113.9710066, 22.6335352], [113.9709247, 22.6335095]]]]}}, {"type": "Feature", "id": "way/1471714836", "properties": {"tags": {"building": "yes"}, "heightStatus": "unknown", "source": "OpenStreetMap", "license": "ODbL-1.0"}, "geometry": {"type": "MultiPolygon", "coordinates": [[[[113.9706056, 22.6333619], [113.9707709, 22.6333434], [113.970787, 22.6334659], [113.9706217, 22.6334844], [113.9706056, 22.6333619]]]]}}, {"type": "Feature", "id": "way/1471714837", "properties": {"tags": {"building": "yes"}, "heightStatus": "unknown", "source": "OpenStreetMap", "license": "ODbL-1.0"}, "geometry": {"type": "MultiPolygon", "coordinates": [[[[113.9706899, 22.6344419], [113.9707304, 22.6342661], [113.9708679, 22.634293], [113.9708338, 22.634441], [113.9708099, 22.6344363], [113.9707941, 22.634505], [113.9707064, 22.6344878], [113.9707158, 22.634447], [113.9706899, 22.6344419]]]]}}, {"type": "Feature", "id": "way/1471714839", "properties": {"tags": {"building": "yes"}, "heightStatus": "unknown", "source": "OpenStreetMap", "license": "ODbL-1.0"}, "geometry": {"type": "MultiPolygon", "coordinates": [[[[113.9700969, 22.6347902], [113.9701854, 22.6347184], [113.970261, 22.6347978], [113.9702472, 22.634809], [113.9701974, 22.6348493], [113.9701725, 22.6348696], [113.9700969, 22.6347902]]]]}}]}