{"type": "FeatureCollection", "features": [{"type": "Feature", "id": "way/172761057", "properties": {"tags": {"addr:housename": "香山里花园", "addr:housename:en": "Xiangshanli Garden", "addr:housename:zh": "香山里花园", "building": "apartments", "building:levels": "17", "name": "5栋", "name:en": "Block 5", "name:zh": "5栋", "residential": "apartments"}, "heightStatus": "levels_only_unverified", "source": "OpenStreetMap", "license": "ODbL-1.0"}, "geometry": {"type": "MultiPolygon", "coordinates": [[[[113.9698809, 22.5558726], [113.9698822, 22.5557732], [113.9702475, 22.5557771], [113.9702462, 22.5558763], [113.9698809, 22.5558726]]]]}}, {"type": "Feature", "id": "way/248623674", "properties": {"tags": {"building": "commercial", "name": "福到来购物广场", "shop": "mall"}, "heightStatus": "unknown", "source": "OpenStreetMap", "license": "ODbL-1.0"}, "geometry": {"type": "MultiPolygon", "coordinates": [[[[113.975131, 22.5617158], [113.9751611, 22.561693], [113.9751823, 22.5616768], [113.9751863, 22.5616389], [113.9751688, 22.5616193], [113.9752947, 22.5615237], [113.9754141, 22.561433], [113.9756124, 22.5613446], [113.9757592, 22.5612792], [113.9757712, 22.5613021], [113.9758101, 22.5613147], [113.9758349, 22.5613036], [113.97587, 22.561288], [113.9760034, 22.5615434], [113.9756235, 22.5617126], [113.9753281, 22.5619371], [113.975131, 22.5617158]]]]}}, {"type": "Feature", "id": "way/674564090", "properties": {"tags": {"building": "apartments", "building:levels": "30"}, "heightStatus": "levels_only_unverified", "source": "OpenStreetMap", "license": "ODbL-1.0"}, "geometry": {"type": "MultiPolygon", "coordinates": [[[[113.9673033, 22.5614547], [113.9674458, 22.5614249], [113.9674656, 22.5615062], [113.9679142, 22.5614125], [113.9678944, 22.5613313], [113.9680368, 22.5613016], [113.9681684, 22.561839], [113.9680832, 22.5618568], [113.9680772, 22.5618322], [113.9680489, 22.5618381], [113.9680207, 22.5617226], [113.9679922, 22.5617286], [113.9679549, 22.5615765], [113.9679834, 22.5615705], [113.9679683, 22.5615087], [113.9679259, 22.5615175], [113.9679307, 22.5615369], [113.9678067, 22.5615628], [113.9678149, 22.5615963], [113.9676409, 22.5616326], [113.9676327, 22.5615991], [113.9675087, 22.561625], [113.967504, 22.5616056], [113.9674616, 22.5616145], [113.9674768, 22.5616763], [113.9675053, 22.5616704], [113.9675425, 22.5618225], [113.967514, 22.5618284], [113.967547, 22.5619632], [113.9675187, 22.5619691], [113.967525, 22.5619948], [113.9674399, 22.5620126], [113.9673033, 22.5614547]]]]}}, {"type": "Feature", "id": "way/904208373", "properties": {"tags": {"building": "commercial", "building:levels": "38", "height": "161", "name": "绿景美景广场", "name:zh": "绿景美景广场"}, "heightStatus": "height_tag_unverified", "source": "OpenStreetMap", "license": "ODbL-1.0"}, "geometry": {"type": "MultiPolygon", "coordinates": [[[[113.9733648, 22.555691], [113.9739268, 22.5556894], [113.9739278, 22.5559985], [113.9733658, 22.556], [113.9733648, 22.555691]]]]}}, {"type": "Feature", "id": "way/913448506", "properties": {"tags": {"building": "yes"}, "heightStatus": "unknown", "source": "OpenStreetMap", "license": "ODbL-1.0"}, "geometry": {"type": "MultiPolygon", "coordinates": [[[[113.9743368, 22.5591192], [113.9745771, 22.5590122], [113.9748646, 22.5588101], [113.9750835, 22.5590994], [113.9749676, 22.5591687], [113.9750663, 22.5594105], [113.9745363, 22.5595948], [113.9743368, 22.5591192]]]]}}, {"type": "Feature", "id": "way/913448507", "properties": {"tags": {"building": "yes"}, "heightStatus": "unknown", "source": "OpenStreetMap", "license": "ODbL-1.0"}, "geometry": {"type": "MultiPolygon", "coordinates": [[[[113.9739751, 22.5594379], [113.9741447, 22.5593636], [113.97415, 22.559317], [113.9742938, 22.5593279], [113.9743002, 22.5594587], [113.9743303, 22.5595221], [113.9743131, 22.559529], [113.9743271, 22.5595607], [113.9743657, 22.5595479], [113.9744526, 22.5597272], [113.9743056, 22.5597807], [113.9742809, 22.5598104], [113.9742037, 22.5598074], [113.9742037, 22.5598226], [113.97409, 22.5598127], [113.9740696, 22.5597985], [113.9740663, 22.5597619], [113.9740781, 22.5597302], [113.9741157, 22.5597163], [113.9741286, 22.5595924], [113.9741125, 22.5595776], [113.9741017, 22.5595479], [113.9741039, 22.5594983], [113.9740052, 22.5595261], [113.9739751, 22.5594379]]]]}}, {"type": "Feature", "id": "way/913448508", "properties": {"tags": {"building": "yes"}, "heightStatus": "unknown", "source": "OpenStreetMap", "license": "ODbL-1.0"}, "geometry": {"type": "MultiPolygon", "coordinates": [[[[113.9736208, 22.5593929], [113.9738954, 22.559285], [113.9739379, 22.5593859], [113.9738999, 22.5594335], [113.9736723, 22.5595134], [113.9736208, 22.5593929]]]]}}, {"type": "Feature", "id": "way/913448509", "properties": {"tags": {"building": "yes"}, "heightStatus": "unknown", "source": "OpenStreetMap", "license": "ODbL-1.0"}, "geometry": {"type": "MultiPolygon", "coordinates": [[[[113.9732065, 22.5598329], [113.9733294, 22.5597922], [113.9733446, 22.5598301], [113.9733886, 22.559816], [113.9734098, 22.5598553], [113.9734766, 22.5598301], [113.9735889, 22.5598763], [113.9735525, 22.5599155], [113.9735661, 22.559959], [113.9736359, 22.5599351], [113.9736693, 22.560001], [113.9735449, 22.560043], [113.9735525, 22.5600655], [113.9733461, 22.5601397], [113.9732065, 22.5598329]]]]}}, {"type": "Feature", "id": "way/1349467555", "properties": {"tags": {"building": "commercial", "building:levels": "24", "building:material": "mirror"}, "heightStatus": "levels_only_unverified", "source": "OpenStreetMap", "license": "ODbL-1.0"}, "geometry": {"type": "MultiPolygon", "coordinates": [[[[113.9676221, 22.559774], [113.9678128, 22.5596617], [113.9679565, 22.5595785], [113.9680243, 22.5596782], [113.9681603, 22.5598789], [113.9678258, 22.5600747], [113.9676221, 22.559774]]]]}}, {"type": "Feature", "id": "way/1349467556", "properties": {"tags": {"building": "commercial", "building:levels": "24", "building:material": "mirror"}, "heightStatus": "levels_only_unverified", "source": "OpenStreetMap", "license": "ODbL-1.0"}, "geometry": {"type": "MultiPolygon", "coordinates": [[[[113.9685284, 22.5596141], [113.9688619, 22.5594213], [113.9690655, 22.559722], [113.9687317, 22.5599148], [113.9685536, 22.5596514], [113.9685284, 22.5596141]]]]}}, {"type": "Feature", "id": "way/1349467557", "properties": {"tags": {"building": "commercial", "building:levels": "24", "building:material": "mirror"}, "heightStatus": "levels_only_unverified", "source": "OpenStreetMap", "license": "ODbL-1.0"}, "geometry": {"type": "MultiPolygon", "coordinates": [[[[113.9683568, 22.5584656], [113.9689666, 22.5584311], [113.9689876, 22.5587482], [113.9685109, 22.5587751], [113.9683779, 22.5587826], [113.9683568, 22.5584656]]]]}}, {"type": "Feature", "id": "way/1349467558", "properties": {"tags": {"building": "commercial", "building:levels": "39", "building:material": "mirror"}, "heightStatus": "levels_only_unverified", "source": "OpenStreetMap", "license": "ODbL-1.0"}, "geometry": {"type": "MultiPolygon", "coordinates": [[[[113.9671471, 22.5587325], [113.9675953, 22.5586619], [113.9676732, 22.5590837], [113.9674452, 22.5591198], [113.9672251, 22.5591543], [113.9671471, 22.5587325]]]]}}, {"type": "Feature", "id": "relation/18521117", "properties": {"tags": {"building": "yes", "building:levels": "4", "building:material": "mirror", "layer": "1", "name": "方大城购物中心", "name:en": "Fangda City Shopping Center", "name:zh": "方大城购物中心", "shop": "mall"}, "heightStatus": "levels_only_unverified", "source": "OpenStreetMap", "license": "ODbL-1.0"}, "geometry": {"type": "MultiPolygon", "coordinates": [[[[113.9674452, 22.5591198], [113.9676732, 22.5590837], [113.9675951, 22.5586621], [113.9677223, 22.5586403], [113.9678602, 22.5585615], [113.9679281, 22.5585266], [113.9683568, 22.5584656], [113.9683779, 22.5587826], [113.9685109, 22.5587751], [113.9685525, 22.5589646], [113.9687511, 22.5592578], [113.9688619, 22.5594213], [113.9685284, 22.5596141], [113.9685536, 22.5596514], [113.9681603, 22.5598789], [113.9680243, 22.5596782], [113.9679565, 22.5595785], [113.9678128, 22.5596617], [113.9678122, 22.5596642], [113.9674692, 22.5591553], [113.9674452, 22.5591198]], [[113.9677912, 22.5590987], [113.9681392, 22.5596118], [113.9685067, 22.5593992], [113.9682484, 22.5590182], [113.9677912, 22.5590987]]]]}}, {"type": "Feature", "id": "way/1349467560", "properties": {"tags": {"building:levels": "4", "building:min_level": "2", "building:part": "yes"}, "heightStatus": "levels_only_unverified", "source": "OpenStreetMap", "license": "ODbL-1.0"}, "geometry": {"type": "MultiPolygon", "coordinates": [[[[113.9674692, 22.5591553], [113.9677912, 22.5590987], [113.9681392, 22.5596118], [113.9680243, 22.5596782], [113.9679565, 22.5595785], [113.9678128, 22.5596617], [113.9674692, 22.5591553]]]]}}, {"type": "Feature", "id": "way/1349467561", "properties": {"tags": {"building:levels": "4", "building:min_level": "2", "building:part": "yes"}, "heightStatus": "levels_only_unverified", "source": "OpenStreetMap", "license": "ODbL-1.0"}, "geometry": {"type": "MultiPolygon", "coordinates": [[[[113.9682484, 22.5590182], [113.9685525, 22.5589646], [113.9687511, 22.5592578], [113.9685067, 22.5593992], [113.9682484, 22.5590182]]]]}}, {"type": "Feature", "id": "way/1349467562", "properties": {"tags": {"building:levels": "4", "building:part": "yes"}, "heightStatus": "levels_only_unverified", "source": "OpenStreetMap", "license": "ODbL-1.0"}, "geometry": {"type": "MultiPolygon", "coordinates": [[[[113.9680243, 22.5596782], [113.9681392, 22.5596118], [113.9685067, 22.5593992], [113.9687511, 22.5592578], [113.9688619, 22.5594213], [113.9685284, 22.5596141], [113.9685536, 22.5596514], [113.9681603, 22.5598789], [113.9680243, 22.5596782]]]]}}, {"type": "Feature", "id": "way/1349467563", "properties": {"tags": {"building:levels": "4", "building:part": "yes"}, "heightStatus": "levels_only_unverified", "source": "OpenStreetMap", "license": "ODbL-1.0"}, "geometry": {"type": "MultiPolygon", "coordinates": [[[[113.9674452, 22.5591198], [113.9676732, 22.5590837], [113.9675951, 22.5586621], [113.9677223, 22.5586403], [113.9678602, 22.5585615], [113.9679281, 22.5585266], [113.9683568, 22.5584656], [113.9683779, 22.5587826], [113.9685109, 22.5587751], [113.9685525, 22.5589646], [113.9682484, 22.5590182], [113.9677912, 22.5590987], [113.9674692, 22.5591553], [113.9674452, 22.5591198]]]]}}, {"type": "Feature", "id": "way/1349477177", "properties": {"tags": {"addr:city": "深圳市", "addr:district": "南山区", "addr:province": "广东省", "addr:street": "高发西路", "building": "yes", "name": "安伴环保酒店", "tourism": "hotel"}, "heightStatus": "unknown", "source": "OpenStreetMap", "license": "ODbL-1.0"}, "geometry": {"type": "MultiPolygon", "coordinates": [[[[113.9690623, 22.5591626], [113.9694682, 22.5590741], [113.9695143, 22.5592543], [113.9691083, 22.5593427], [113.9690623, 22.5591626]]]]}}, {"type": "Feature", "id": "way/1349477179", "properties": {"tags": {"building": "yes"}, "heightStatus": "unknown", "source": "OpenStreetMap", "license": "ODbL-1.0"}, "geometry": {"type": "MultiPolygon", "coordinates": [[[[113.969712, 22.5590777], [113.9701682, 22.5589747], [113.9702138, 22.5591471], [113.9697577, 22.5592501], [113.969712, 22.5590777]]]]}}, {"type": "Feature", "id": "way/1426310195", "properties": {"tags": {"addr:housename": "桃源村", "addr:housename:en": "Taoyuancun", "addr:housename:zh": "桃源村", "building": "apartments", "building:levels": "7", "name": "14栋", "name:zh": "14栋"}, "heightStatus": "levels_only_unverified", "source": "OpenStreetMap", "license": "ODbL-1.0"}, "geometry": {"type": "MultiPolygon", "coordinates": [[[[113.9749559, 22.55862], [113.9749714, 22.5586098], [113.974956, 22.5585898], [113.9749717, 22.5585795], [113.9749667, 22.5585729], [113.9750278, 22.5585328], [113.9750329, 22.5585394], [113.9750486, 22.5585291], [113.975064, 22.5585492], [113.9750951, 22.5585288], [113.9750797, 22.5585088], [113.9750954, 22.5584985], [113.9750904, 22.5584919], [113.9751515, 22.5584518], [113.9751566, 22.5584584], [113.9751723, 22.5584481], [113.9751877, 22.5584682], [113.975218, 22.5584465], [113.9752026, 22.5584265], [113.9752183, 22.5584162], [113.9752133, 22.5584096], [113.9752744, 22.5583696], [113.9752795, 22.5583761], [113.9752952, 22.5583658], [113.9753106, 22.5583859], [113.9753417, 22.5583655], [113.9753262, 22.5583455], [113.975342, 22.5583352], [113.9753369, 22.5583286], [113.9753981, 22.5582886], [113.9754031, 22.5582951], [113.9754189, 22.5582848], [113.9754343, 22.5583049], [113.9754498, 22.5582947], [113.9754852, 22.5583408], [113.9749913, 22.5586661], [113.9749559, 22.55862]]]]}}, {"type": "Feature", "id": "way/1426310196", "properties": {"tags": {"addr:housename": "桃源村", "addr:housename:en": "Taoyuancun", "addr:housename:zh": "桃源村", "building": "apartments", "building:levels": "7", "name": "29栋", "name:zh": "29栋"}, "heightStatus": "levels_only_unverified", "source": "OpenStreetMap", "license": "ODbL-1.0"}, "geometry": {"type": "MultiPolygon", "coordinates": [[[[113.9759008, 22.5592426], [113.9759017, 22.5591925], [113.9759154, 22.5591928], [113.9759161, 22.5591571], [113.9760415, 22.5591591], [113.9760408, 22.5591948], [113.9760682, 22.5591952], [113.9760689, 22.5591596], [113.9761942, 22.5591616], [113.9761935, 22.5591973], [113.9762209, 22.5591977], [113.9762216, 22.5591621], [113.9763469, 22.5591641], [113.9763463, 22.5591998], [113.97636, 22.5592], [113.976359, 22.55925], [113.9759008, 22.5592426]]]]}}, {"type": "Feature", "id": "way/1426310197", "properties": {"tags": {"addr:housename": "桃源村", "addr:housename:en": "Taoyuancun", "addr:housename:zh": "桃源村", "building": "apartments", "building:levels": "7", "name": "25栋", "name:zh": "25栋"}, "heightStatus": "levels_only_unverified", "source": "OpenStreetMap", "license": "ODbL-1.0"}, "geometry": {"type": "MultiPolygon", "coordinates": [[[[113.9759008, 22.5590128], [113.9759017, 22.5589628], [113.9759154, 22.558963], [113.9759161, 22.5589273], [113.9760415, 22.5589294], [113.9760408, 22.558965], [113.9760682, 22.5589655], [113.9760689, 22.5589298], [113.9761942, 22.5589318], [113.9761935, 22.5589675], [113.9762209, 22.558968], [113.9762216, 22.5589323], [113.9763469, 22.5589343], [113.9763463, 22.55897], [113.97636, 22.5589703], [113.976359, 22.5590203], [113.9759008, 22.5590128]]]]}}, {"type": "Feature", "id": "way/1426310205", "properties": {"tags": {"addr:housename": "桃源村", "addr:housename:en": "Taoyuancun", "addr:housename:zh": "桃源村", "building": "apartments", "building:levels": "7", "name": "30栋", "name:zh": "30栋"}, "heightStatus": "levels_only_unverified", "source": "OpenStreetMap", "license": "ODbL-1.0"}, "geometry": {"type": "MultiPolygon", "coordinates": [[[[113.9757487, 22.5594771], [113.9757497, 22.5594206], [113.9763563, 22.5594317], [113.9763552, 22.5594882], [113.9763362, 22.5594879], [113.9763357, 22.5595125], [113.9763164, 22.5595122], [113.9763163, 22.5595202], [113.9762413, 22.559519], [113.9762415, 22.559511], [113.9762222, 22.5595107], [113.9762227, 22.5594861], [113.9761846, 22.5594855], [113.9761841, 22.5595101], [113.9761648, 22.5595098], [113.9761647, 22.5595178], [113.9760897, 22.5595166], [113.9760899, 22.5595086], [113.9760706, 22.5595083], [113.9760711, 22.5594837], [113.9760328, 22.5594816], [113.9760324, 22.5595062], [113.9760131, 22.5595059], [113.9760129, 22.5595139], [113.975938, 22.5595128], [113.9759381, 22.5595047], [113.9759188, 22.5595044], [113.9759193, 22.5594798], [113.9758812, 22.5594792], [113.9758808, 22.5595038], [113.9758615, 22.5595035], [113.9758613, 22.5595115], [113.9757864, 22.5595104], [113.9757865, 22.5595023], [113.9757673, 22.559502], [113.9757677, 22.5594774], [113.9757487, 22.5594771]]]]}}, {"type": "Feature", "id": "way/1426310206", "properties": {"tags": {"addr:housename": "桃源村", "addr:housename:en": "Taoyuancun", "addr:housename:zh": "桃源村", "building": "apartments", "building:levels": "7", "name": "15栋", "name:zh": "15栋"}, "heightStatus": "levels_only_unverified", "source": "OpenStreetMap", "license": "ODbL-1.0"}, "geometry": {"type": "MultiPolygon", "coordinates": [[[[113.9751101, 22.558837], [113.9756059, 22.558514], [113.9756413, 22.5585601], [113.9756257, 22.5585703], [113.9756411, 22.5585904], [113.9756254, 22.5586007], [113.9756304, 22.5586072], [113.9755693, 22.5586473], [113.9755643, 22.5586407], [113.9755485, 22.558651], [113.9755331, 22.5586309], [113.9755021, 22.5586513], [113.9755175, 22.5586714], [113.9755017, 22.5586817], [113.9755068, 22.5586882], [113.9754456, 22.5587283], [113.9754406, 22.5587217], [113.9754249, 22.558732], [113.9754094, 22.5587119], [113.9753773, 22.5587312], [113.9753927, 22.5587513], [113.975377, 22.5587616], [113.975382, 22.5587681], [113.9753209, 22.5588082], [113.9753159, 22.5588016], [113.9753001, 22.5588119], [113.9752847, 22.5587919], [113.9752537, 22.5588122], [113.9752691, 22.5588323], [113.9752533, 22.5588426], [113.9752584, 22.5588491], [113.9751972, 22.5588892], [113.9751922, 22.5588826], [113.9751765, 22.5588929], [113.975161, 22.5588729], [113.9751455, 22.558883], [113.9751101, 22.558837]]]]}}, {"type": "Feature", "id": "way/1426310211", "properties": {"tags": {"addr:housename": "桃源村", "addr:housename:en": "Taoyuancun", "addr:housename:zh": "桃源村", "building": "apartments", "building:levels": "7", "name": "13栋", "name:zh": "13栋"}, "heightStatus": "levels_only_unverified", "source": "OpenStreetMap", "license": "ODbL-1.0"}, "geometry": {"type": "MultiPolygon", "coordinates": [[[[113.9757002, 22.5583968], [113.9757483, 22.5583663], [113.9757795, 22.5584082], [113.9758042, 22.5583925], [113.975773, 22.5583506], [113.9758211, 22.5583201], [113.9758768, 22.5583949], [113.9759409, 22.5583542], [113.9758852, 22.5582793], [113.9759333, 22.5582488], [113.9759645, 22.5582907], [113.9759891, 22.5582751], [113.9759579, 22.5582331], [113.976006, 22.5582026], [113.9760617, 22.5582774], [113.9760938, 22.5582571], [113.9761292, 22.5583045], [113.9757593, 22.5585395], [113.9757239, 22.558492], [113.975756, 22.5584717], [113.9757002, 22.5583968]]]]}}, {"type": "Feature", "id": "way/1426310221", "properties": {"tags": {"addr:housename": "桃源村", "addr:housename:en": "Taoyuancun", "addr:housename:zh": "桃源村", "building": "apartments", "building:levels": "7", "name": "26栋", "name:zh": "26栋"}, "heightStatus": "levels_only_unverified", "source": "OpenStreetMap", "license": "ODbL-1.0"}, "geometry": {"type": "MultiPolygon", "coordinates": [[[[113.9755236, 22.5589066], [113.9755261, 22.5588566], [113.9755398, 22.5588572], [113.9755416, 22.5588215], [113.9756668, 22.558827], [113.975665, 22.5588626], [113.9756924, 22.5588638], [113.9756942, 22.5588282], [113.9758194, 22.5588336], [113.9758176, 22.5588693], [113.9758313, 22.5588699], [113.9758288, 22.5589198], [113.9755236, 22.5589066]]]]}}, {"type": "Feature", "id": "way/1426310223", "properties": {"tags": {"addr:housename": "桃源村", "addr:housename:en": "Taoyuancun", "addr:housename:zh": "桃源村", "building": "apartments", "building:levels": "7", "name": "27栋", "name:zh": "27栋"}, "heightStatus": "levels_only_unverified", "source": "OpenStreetMap", "license": "ODbL-1.0"}, "geometry": {"type": "MultiPolygon", "coordinates": [[[[113.9755254, 22.5591494], [113.975528, 22.5590994], [113.9755417, 22.5591], [113.9755435, 22.5590644], [113.9756687, 22.5590698], [113.9756669, 22.5591055], [113.9756943, 22.5591067], [113.9756961, 22.559071], [113.9758213, 22.5590764], [113.9758195, 22.5591121], [113.9758332, 22.5591127], [113.9758306, 22.5591627], [113.9755254, 22.5591494]]]]}}, {"type": "Feature", "id": "way/1426310224", "properties": {"tags": {"addr:housename": "桃源村", "addr:housename:en": "Taoyuancun", "addr:housename:zh": "桃源村", "building": "apartments", "building:levels": "7", "name": "28栋", "name:zh": "28栋"}, "heightStatus": "levels_only_unverified", "source": "OpenStreetMap", "license": "ODbL-1.0"}, "geometry": {"type": "MultiPolygon", "coordinates": [[[[113.9752981, 22.5591569], [113.9752996, 22.5590993], [113.9753385, 22.5591002], [113.9753409, 22.5590094], [113.9753992, 22.5590107], [113.9753979, 22.5590615], [113.9754278, 22.5590622], [113.9754291, 22.5590113], [113.9754875, 22.5590126], [113.9754851, 22.5591034], [113.975524, 22.5591043], [113.9755225, 22.5591619], [113.9752981, 22.5591569]]]]}}, {"type": "Feature", "id": "way/1426310225", "properties": {"tags": {"addr:housename": "桃源村", "addr:housename:en": "Taoyuancun", "addr:housename:zh": "桃源村", "building": "apartments", "building:levels": "7", "name": "31栋", "name:zh": "31栋"}, "heightStatus": "levels_only_unverified", "source": "OpenStreetMap", "license": "ODbL-1.0"}, "geometry": {"type": "MultiPolygon", "coordinates": [[[[113.9752216, 22.5594432], [113.975224, 22.5593762], [113.9752824, 22.559378], [113.9752831, 22.5593588], [113.9752636, 22.5593582], [113.9752658, 22.5592982], [113.9754048, 22.5593025], [113.9754026, 22.5593625], [113.9753831, 22.5593619], [113.9753824, 22.5593811], [113.9754991, 22.5593847], [113.9754998, 22.5593655], [113.9754804, 22.5593649], [113.9754825, 22.5593049], [113.9756215, 22.5593092], [113.9756193, 22.5593692], [113.9755999, 22.5593686], [113.9755992, 22.5593878], [113.9756575, 22.5593896], [113.9756551, 22.5594566], [113.9752216, 22.5594432]]]]}}, {"type": "Feature", "id": "way/1426310228", "properties": {"tags": {"addr:housename": "桃源村", "addr:housename:en": "Taoyuancun", "addr:housename:zh": "桃源村", "building": "apartments", "building:levels": "20", "layer": "1", "name": "96栋", "name:zh": "96栋"}, "heightStatus": "levels_only_unverified", "source": "OpenStreetMap", "license": "ODbL-1.0"}, "geometry": {"type": "MultiPolygon", "coordinates": [[[[113.975586, 22.5614145], [113.9756108, 22.5614035], [113.9756244, 22.5613675], [113.9756124, 22.5613446], [113.9757592, 22.5612792], [113.9757712, 22.5613021], [113.9758101, 22.5613147], [113.9758349, 22.5613036], [113.9759057, 22.5614392], [113.975881, 22.5614502], [113.9758674, 22.5614862], [113.9758793, 22.5615091], [113.9757325, 22.5615745], [113.9757206, 22.5615516], [113.9756816, 22.561539], [113.9756569, 22.5615501], [113.975586, 22.5614145]]]]}}, {"type": "Feature", "id": "way/1426310229", "properties": {"tags": {"addr:housename": "桃源村", "addr:housename:en": "Taoyuancun", "addr:housename:zh": "桃源村", "building": "apartments", "building:levels": "20", "layer": "1", "name": "97栋", "name:zh": "97栋"}, "heightStatus": "levels_only_unverified", "source": "OpenStreetMap", "license": "ODbL-1.0"}, "geometry": {"type": "MultiPolygon", "coordinates": [[[[113.9751611, 22.561693], [113.9751823, 22.5616768], [113.9751863, 22.5616389], [113.9751688, 22.5616193], [113.9752947, 22.5615237], [113.9753122, 22.5615433], [113.9753533, 22.561547], [113.9753745, 22.5615309], [113.975478, 22.5616471], [113.9754568, 22.5616633], [113.9754528, 22.5617012], [113.9754703, 22.5617208], [113.9753444, 22.5618164], [113.9753269, 22.5617968], [113.9752858, 22.5617931], [113.9752646, 22.5618092], [113.9751611, 22.561693]]]]}}, {"type": "Feature", "id": "way/1426310231", "properties": {"tags": {"addr:housename": "桃源村", "addr:housename:en": "Taoyuancun", "addr:housename:zh": "桃源村", "building": "apartments", "building:levels": "20", "layer": "1", "name": "95栋", "name:zh": "95栋"}, "heightStatus": "levels_only_unverified", "source": "OpenStreetMap", "license": "ODbL-1.0"}, "geometry": {"type": "MultiPolygon", "coordinates": [[[[113.9761527, 22.56127], [113.9761798, 22.5612659], [113.976204, 22.561235], [113.9761996, 22.5612099], [113.9763605, 22.561186], [113.9763649, 22.5612111], [113.9763983, 22.5612334], [113.9764255, 22.5612294], [113.9764514, 22.561378], [113.9764242, 22.561382], [113.9764001, 22.5614129], [113.9764045, 22.561438], [113.9762436, 22.5614619], [113.9762392, 22.5614368], [113.9762057, 22.5614145], [113.9761786, 22.5614185], [113.9761527, 22.56127]]]]}}, {"type": "Feature", "id": "way/1426310251", "properties": {"tags": {"addr:housename": "桃源村", "addr:housename:en": "Taoyuancun", "addr:housename:zh": "桃源村", "building": "apartments", "building:levels": "7", "name": "33栋", "name:zh": "33栋"}, "heightStatus": "levels_only_unverified", "source": "OpenStreetMap", "license": "ODbL-1.0"}, "geometry": {"type": "MultiPolygon", "coordinates": [[[[113.9751768, 22.5599384], [113.975178, 22.5598819], [113.9751971, 22.5598823], [113.9751976, 22.5598577], [113.9752169, 22.5598581], [113.9752171, 22.55985], [113.975292, 22.5598515], [113.9752918, 22.5598595], [113.9753111, 22.5598599], [113.9753106, 22.5598845], [113.9753486, 22.5598852], [113.9753492, 22.5598606], [113.9753685, 22.559861], [113.9753687, 22.5598529], [113.9754436, 22.5598543], [113.9754434, 22.5598624], [113.9754627, 22.5598627], [113.9754622, 22.5598874], [113.9755002, 22.5598881], [113.9755008, 22.5598635], [113.9755201, 22.5598638], [113.9755202, 22.5598558], [113.9755952, 22.5598572], [113.975595, 22.5598653], [113.9756143, 22.5598656], [113.9756137, 22.5598902], [113.9756328, 22.5598906], [113.9756315, 22.5599471], [113.9751768, 22.5599384]]]]}}, {"type": "Feature", "id": "way/1426310252", "properties": {"tags": {"addr:housename": "桃源村", "addr:housename:en": "Taoyuancun", "addr:housename:zh": "桃源村", "building": "apartments", "building:levels": "7", "name": "32栋", "name:zh": "32栋"}, "heightStatus": "levels_only_unverified", "source": "OpenStreetMap", "license": "ODbL-1.0"}, "geometry": {"type": "MultiPolygon", "coordinates": [[[[113.9756946, 22.5599323], [113.9756953, 22.5598823], [113.975709, 22.5598825], [113.9757096, 22.5598468], [113.9758349, 22.5598485], [113.9758344, 22.5598842], [113.9758618, 22.5598845], [113.9758624, 22.5598489], [113.9759877, 22.5598505], [113.9759871, 22.5598862], [113.9760146, 22.5598866], [113.9760151, 22.5598509], [113.9761404, 22.5598526], [113.9761399, 22.5598883], [113.9761673, 22.5598886], [113.9761679, 22.559853], [113.9762932, 22.5598546], [113.9762926, 22.5598903], [113.9763063, 22.5598905], [113.9763056, 22.5599405], [113.9756946, 22.5599323]]]]}}, {"type": "Feature", "id": "way/1426310253", "properties": {"tags": {"addr:housename": "桃源村", "addr:housename:en": "Taoyuancun", "addr:housename:zh": "桃源村", "building": "apartments", "building:levels": "7", "name": "43栋", "name:zh": "43栋"}, "heightStatus": "levels_only_unverified", "source": "OpenStreetMap", "license": "ODbL-1.0"}, "geometry": {"type": "MultiPolygon", "coordinates": [[[[113.9748616, 22.5613288], [113.9752803, 22.5611671], [113.9753041, 22.5612198], [113.9752874, 22.5612263], [113.9752976, 22.5612488], [113.9751928, 22.5612893], [113.9751825, 22.5612663], [113.9751473, 22.5612799], [113.9751576, 22.5613025], [113.9751397, 22.5613094], [113.975143, 22.5613167], [113.9750739, 22.5613434], [113.9750704, 22.5613359], [113.9750527, 22.5613427], [113.9750424, 22.5613199], [113.9750073, 22.5613335], [113.9750175, 22.5613561], [113.9749996, 22.561363], [113.9750029, 22.5613703], [113.9749338, 22.561397], [113.9749304, 22.5613895], [113.9749126, 22.5613963], [113.9749023, 22.5613735], [113.9748849, 22.5613803], [113.9748616, 22.5613288]]]]}}, {"type": "Feature", "id": "way/1426310254", "properties": {"tags": {"addr:housename": "桃源村", "addr:housename:en": "Taoyuancun", "addr:housename:zh": "桃源村", "building": "apartments", "building:levels": "7", "name": "40栋", "name:zh": "40栋"}, "heightStatus": "levels_only_unverified", "source": "OpenStreetMap", "license": "ODbL-1.0"}, "geometry": {"type": "MultiPolygon", "coordinates": [[[[113.9752287, 22.5607919], [113.9756498, 22.5606332], [113.9756729, 22.5606854], [113.9756553, 22.5606921], [113.9756653, 22.5607149], [113.9756475, 22.5607216], [113.9756508, 22.560729], [113.9755814, 22.5607552], [113.9755781, 22.5607478], [113.9755602, 22.5607545], [113.9755501, 22.5607317], [113.9755149, 22.560745], [113.975525, 22.5607678], [113.9755071, 22.5607745], [113.9755104, 22.560782], [113.975441, 22.5608081], [113.9754377, 22.5608007], [113.9754198, 22.5608074], [113.9754098, 22.5607846], [113.9753745, 22.5607979], [113.9753846, 22.5608207], [113.9753667, 22.5608274], [113.97537, 22.5608349], [113.9753006, 22.5608611], [113.9752973, 22.5608536], [113.9752795, 22.5608603], [113.9752694, 22.5608376], [113.9752518, 22.5608442], [113.9752287, 22.5607919]]]]}}, {"type": "Feature", "id": "way/1426310255", "properties": {"tags": {"addr:housename": "桃源村", "addr:housename:en": "Taoyuancun", "addr:housename:zh": "桃源村", "building": "apartments", "building:levels": "7", "name": "42栋", "name:zh": "42栋"}, "heightStatus": "levels_only_unverified", "source": "OpenStreetMap", "license": "ODbL-1.0"}, "geometry": {"type": "MultiPolygon", "coordinates": [[[[113.9753225, 22.5610202], [113.9757427, 22.5608594], [113.9757661, 22.5609116], [113.9757486, 22.5609183], [113.9757588, 22.5609411], [113.9756539, 22.5609812], [113.9756437, 22.5609585], [113.9756085, 22.5609719], [113.9756187, 22.5609947], [113.9756009, 22.5610015], [113.9756042, 22.5610089], [113.9755349, 22.5610354], [113.9755316, 22.561028], [113.9755138, 22.5610348], [113.9755036, 22.5610121], [113.9754684, 22.5610255], [113.9754786, 22.5610483], [113.9754608, 22.5610551], [113.9754641, 22.5610625], [113.9753949, 22.561089], [113.9753915, 22.5610816], [113.9753737, 22.5610884], [113.9753635, 22.5610657], [113.9753459, 22.5610724], [113.9753225, 22.5610202]]]]}}, {"type": "Feature", "id": "way/1426310256", "properties": {"tags": {"addr:housename": "桃源村", "addr:housename:en": "Taoyuancun", "addr:housename:zh": "桃源村", "building": "apartments", "building:levels": "7", "name": "38栋", "name:zh": "38栋"}, "heightStatus": "levels_only_unverified", "source": "OpenStreetMap", "license": "ODbL-1.0"}, "geometry": {"type": "MultiPolygon", "coordinates": [[[[113.9751358, 22.5605636], [113.9752516, 22.5605192], [113.9752664, 22.5605522], [113.9752917, 22.5605425], [113.9752769, 22.5605095], [113.9753927, 22.5604652], [113.9754075, 22.5604982], [113.9754328, 22.5604885], [113.975418, 22.5604555], [113.9755338, 22.5604111], [113.9755486, 22.5604441], [113.9755613, 22.5604392], [113.975582, 22.5604855], [113.9751587, 22.5606476], [113.9751379, 22.5606014], [113.9751506, 22.5605966], [113.9751358, 22.5605636]]]]}}, {"type": "Feature", "id": "way/1426310257", "properties": {"tags": {"addr:housename": "桃源村", "addr:housename:en": "Taoyuancun", "addr:housename:zh": "桃源村", "building": "apartments", "building:levels": "7", "name": "36栋", "name:zh": "36栋"}, "heightStatus": "levels_only_unverified", "source": "OpenStreetMap", "license": "ODbL-1.0"}, "geometry": {"type": "MultiPolygon", "coordinates": [[[[113.9751312, 22.5602606], [113.9751314, 22.5602067], [113.9751691, 22.5602068], [113.9751695, 22.5601153], [113.9752275, 22.5601155], [113.9752273, 22.5601658], [113.9752572, 22.5601659], [113.9752575, 22.5601144], [113.9753161, 22.5601146], [113.9753158, 22.5602045], [113.9753936, 22.5602048], [113.975394, 22.560113], [113.975452, 22.5601132], [113.9754518, 22.5601635], [113.9754817, 22.5601636], [113.9754819, 22.5601121], [113.9755406, 22.5601123], [113.9755402, 22.5602025], [113.9755803, 22.5602026], [113.9755801, 22.5602622], [113.9751312, 22.5602606]]]]}}, {"type": "Feature", "id": "way/1426310258", "properties": {"tags": {"addr:housename": "桃源村", "addr:housename:en": "Taoyuancun", "addr:housename:zh": "桃源村", "building": "apartments", "building:levels": "7", "name": "35栋", "name:zh": "35栋"}, "heightStatus": "levels_only_unverified", "source": "OpenStreetMap", "license": "ODbL-1.0"}, "geometry": {"type": "MultiPolygon", "coordinates": [[[[113.9756357, 22.5602624], [113.9756359, 22.5602006], [113.9756757, 22.5602007], [113.9756761, 22.5601104], [113.9757347, 22.5601106], [113.9757345, 22.5601619], [113.9757644, 22.560162], [113.9757646, 22.5601116], [113.9758227, 22.5601118], [113.9758223, 22.5602033], [113.9759002, 22.5602036], [113.9759005, 22.5601135], [113.9759591, 22.5601137], [113.9759589, 22.560165], [113.9759888, 22.5601651], [113.975989, 22.5601147], [113.9760472, 22.5601149], [113.9760468, 22.5602064], [113.9761246, 22.5602067], [113.976125, 22.5601166], [113.9761836, 22.5601168], [113.9761834, 22.5601681], [113.9762133, 22.5601682], [113.9762135, 22.5601178], [113.9762716, 22.560118], [113.9762712, 22.5602093], [113.9763093, 22.5602094], [113.976309, 22.5602647], [113.9756357, 22.5602624]]]]}}, {"type": "Feature", "id": "way/1426310259", "properties": {"tags": {"addr:housename": "桃源村", "addr:housename:en": "Taoyuancun", "addr:housename:zh": "桃源村", "building": "apartments", "building:levels": "7", "name": "37栋", "name:zh": "37栋"}, "heightStatus": "levels_only_unverified", "source": "OpenStreetMap", "license": "ODbL-1.0"}, "geometry": {"type": "MultiPolygon", "coordinates": [[[[113.9745099, 22.5604699], [113.9745638, 22.5604491], [113.9745851, 22.560496], [113.9746127, 22.5604853], [113.9745913, 22.5604384], [113.9746452, 22.5604175], [113.9746832, 22.5605013], [113.974755, 22.5604735], [113.9747169, 22.5603897], [113.9747708, 22.5603688], [113.9747921, 22.5604158], [113.9748197, 22.5604051], [113.9747983, 22.5603582], [113.9748522, 22.5603373], [113.9748902, 22.5604211], [113.9749261, 22.5604072], [113.9749502, 22.5604603], [113.9745363, 22.5606207], [113.9745121, 22.5605676], [113.974548, 22.5605537], [113.9745099, 22.5604699]]]]}}, {"type": "Feature", "id": "way/1426310260", "properties": {"tags": {"addr:housename": "桃源村", "addr:housename:en": "Taoyuancun", "addr:housename:zh": "桃源村", "building": "apartments", "building:levels": "7", "name": "39栋", "name:zh": "39栋"}, "heightStatus": "levels_only_unverified", "source": "OpenStreetMap", "license": "ODbL-1.0"}, "geometry": {"type": "MultiPolygon", "coordinates": [[[[113.9746425, 22.5607485], [113.9746963, 22.5607277], [113.9747177, 22.5607746], [113.9747452, 22.5607639], [113.9747239, 22.560717], [113.9747777, 22.5606961], [113.9748158, 22.5607799], [113.9748876, 22.5607521], [113.9748495, 22.5606683], [113.9749033, 22.5606475], [113.9749246, 22.5606944], [113.9749522, 22.5606837], [113.9749309, 22.5606368], [113.9749847, 22.5606159], [113.9750228, 22.5606997], [113.9750587, 22.5606858], [113.9750828, 22.5607389], [113.9746688, 22.5608993], [113.9746447, 22.5608462], [113.9746806, 22.5608323], [113.9746425, 22.5607485]]]]}}, {"type": "Feature", "id": "way/1426310261", "properties": {"tags": {"addr:housename": "桃源村", "addr:housename:en": "Taoyuancun", "addr:housename:zh": "桃源村", "building": "apartments", "building:levels": "7", "name": "34栋", "name:zh": "34栋"}, "heightStatus": "levels_only_unverified", "source": "OpenStreetMap", "license": "ODbL-1.0"}, "geometry": {"type": "MultiPolygon", "coordinates": [[[[113.9744206, 22.5601697], [113.9744744, 22.5601488], [113.9744957, 22.5601957], [113.9745233, 22.560185], [113.974502, 22.5601381], [113.9745558, 22.5601173], [113.9745939, 22.560201], [113.9746656, 22.5601732], [113.9746276, 22.5600895], [113.9746814, 22.5600686], [113.9747027, 22.5601155], [113.9747303, 22.5601048], [113.974709, 22.5600579], [113.9747628, 22.5600371], [113.9748009, 22.5601208], [113.9748726, 22.560093], [113.9748346, 22.5600092], [113.9748884, 22.5599884], [113.9749097, 22.5600353], [113.9749373, 22.5600246], [113.974916, 22.5599777], [113.9749698, 22.5599569], [113.9750079, 22.5600406], [113.9750437, 22.5600267], [113.9750679, 22.5600799], [113.9744469, 22.5603205], [113.9744228, 22.5602673], [113.9744586, 22.5602534], [113.9744206, 22.5601697]]]]}}, {"type": "Feature", "id": "way/1426310262", "properties": {"tags": {"addr:housename": "桃源村", "addr:housename:en": "Taoyuancun", "addr:housename:zh": "桃源村", "building": "apartments", "building:levels": "7", "name": "41栋", "name:zh": "41栋"}, "heightStatus": "levels_only_unverified", "source": "OpenStreetMap", "license": "ODbL-1.0"}, "geometry": {"type": "MultiPolygon", "coordinates": [[[[113.9747752, 22.561036], [113.974829, 22.5610152], [113.9748503, 22.5610621], [113.9748779, 22.5610515], [113.9748566, 22.5610045], [113.9749105, 22.5609837], [113.9749484, 22.5610674], [113.9750202, 22.5610397], [113.9749822, 22.5609558], [113.975036, 22.560935], [113.9750573, 22.5609819], [113.9750849, 22.5609713], [113.9750636, 22.5609243], [113.9751175, 22.5609035], [113.9751554, 22.5609872], [113.9751923, 22.5609729], [113.9752165, 22.5610263], [113.9748014, 22.5611866], [113.9747774, 22.5611337], [113.9748132, 22.5611198], [113.9747752, 22.561036]]]]}}, {"type": "Feature", "id": "way/1426310263", "properties": {"tags": {"addr:housename": "桃源村", "addr:housename:en": "Taoyuancun", "addr:housename:zh": "桃源村", "building": "apartments", "name": "单身公寓综合楼", "name:zh": "单身公寓综合楼"}, "heightStatus": "unknown", "source": "OpenStreetMap", "license": "ODbL-1.0"}, "geometry": {"type": "MultiPolygon", "coordinates": [[[[113.9756081, 22.5624502], [113.9756215, 22.5623612], [113.975709, 22.5623724], [113.9757973, 22.5623757], [113.9758855, 22.562371], [113.9759728, 22.5623584], [113.9760583, 22.562338], [113.9761413, 22.56231], [113.9762209, 22.5622746], [113.9762964, 22.5622323], [113.9763469, 22.5623091], [113.9762674, 22.5623537], [113.9761792, 22.5623928], [113.9762106, 22.5625332], [113.9763084, 22.5625369], [113.9764006, 22.5625487], [113.9763873, 22.5626376], [113.9762998, 22.5626264], [113.9762115, 22.5626232], [113.9761233, 22.5626279], [113.976036, 22.5626405], [113.9759504, 22.5626609], [113.9758674, 22.5626889], [113.9757878, 22.5627243], [113.9757123, 22.5627666], [113.9756618, 22.5626898], [113.9757414, 22.5626452], [113.9758296, 22.562606], [113.9757981, 22.5624656], [113.9757003, 22.562462], [113.9756081, 22.5624502]]]]}}, {"type": "Feature", "id": "way/1426310268", "properties": {"tags": {"addr:housename": "桃源村", "addr:housename:en": "Taoyuancun", "addr:housename:zh": "桃源村", "building": "apartments", "building:levels": "20", "name": "99栋", "name:zh": "99栋"}, "heightStatus": "levels_only_unverified", "source": "OpenStreetMap", "license": "ODbL-1.0"}, "geometry": {"type": "MultiPolygon", "coordinates": [[[[113.9742847, 22.5627435], [113.9743644, 22.5626637], [113.9743253, 22.5626304], [113.9743385, 22.5626172], [113.9743229, 22.5626039], [113.9743952, 22.5625315], [113.9744108, 22.5625448], [113.974424, 22.5625316], [113.9744619, 22.5625639], [113.9745385, 22.5624872], [113.9745646, 22.5625095], [113.9745966, 22.5625368], [113.974567, 22.5625663], [113.97452, 22.5626134], [113.9746313, 22.5627082], [113.9746181, 22.5627214], [113.9746337, 22.5627347], [113.9745614, 22.5628071], [113.9745458, 22.5627938], [113.9745326, 22.562807], [113.9744935, 22.5627737], [113.9744138, 22.5628535], [113.9743772, 22.5628222], [113.9743906, 22.5628088], [113.9743711, 22.5627923], [113.974433, 22.5627303], [113.9744161, 22.5627159], [113.9743542, 22.5627779], [113.9743348, 22.5627613], [113.9743214, 22.5627747], [113.9742847, 22.5627435]]]]}}, {"type": "Feature", "id": "way/1426310269", "properties": {"tags": {"addr:housename": "桃源村", "addr:housename:en": "Taoyuancun", "addr:housename:zh": "桃源村", "building": "apartments", "building:levels": "20", "name": "98栋", "name:zh": "98栋"}, "heightStatus": "levels_only_unverified", "source": "OpenStreetMap", "license": "ODbL-1.0"}, "geometry": {"type": "MultiPolygon", "coordinates": [[[[113.974498, 22.5623411], [113.9745703, 22.5622688], [113.9745859, 22.5622821], [113.9745991, 22.5622689], [113.9746382, 22.5623022], [113.9747179, 22.5622224], [113.9747545, 22.5622536], [113.9747411, 22.562267], [113.9747606, 22.5622836], [113.9746987, 22.5623456], [113.9747156, 22.5623599], [113.9747775, 22.562298], [113.9747969, 22.5623146], [113.9748103, 22.5623012], [113.974847, 22.5623324], [113.9747673, 22.5624122], [113.9748063, 22.5624455], [113.9747932, 22.5624587], [113.9748088, 22.562472], [113.9747364, 22.5625443], [113.9747208, 22.562531], [113.9747076, 22.5625443], [113.9746698, 22.562512], [113.9745932, 22.5625886], [113.974567, 22.5625663], [113.9745966, 22.5625368], [113.9745646, 22.5625095], [113.9746117, 22.5624625], [113.9745004, 22.5623676], [113.9745136, 22.5623544], [113.974498, 22.5623411]]]]}}, {"type": "Feature", "id": "way/1426310286", "properties": {"tags": {"addr:housename": "桃源村", "addr:housename:en": "Taoyuancun", "addr:housename:zh": "桃源村", "building": "apartments", "building:levels": "7", "name": "60栋", "name:zh": "60栋"}, "heightStatus": "levels_only_unverified", "source": "OpenStreetMap", "license": "ODbL-1.0"}, "geometry": {"type": "MultiPolygon", "coordinates": [[[[113.9715896, 22.5612924], [113.9716436, 22.5612718], [113.9716356, 22.561254], [113.9716176, 22.5612609], [113.9715928, 22.5612055], [113.9717212, 22.5611563], [113.9717461, 22.5612118], [113.9717281, 22.5612187], [113.9717361, 22.5612364], [113.9718439, 22.5611952], [113.971836, 22.5611774], [113.971818, 22.5611843], [113.9717931, 22.5611288], [113.9719216, 22.5610797], [113.9719464, 22.5611352], [113.9719285, 22.561142], [113.9719364, 22.5611598], [113.9720443, 22.5611186], [113.9720363, 22.5611008], [113.9720183, 22.5611077], [113.9719935, 22.5610522], [113.9721219, 22.5610031], [113.9721468, 22.5610586], [113.9721288, 22.5610654], [113.9721368, 22.5610832], [113.9721907, 22.5610626], [113.9722185, 22.5611246], [113.9716174, 22.5613544], [113.9715896, 22.5612924]]]]}}, {"type": "Feature", "id": "way/1426310287", "properties": {"tags": {"addr:housename": "桃源村", "addr:housename:en": "Taoyuancun", "addr:housename:zh": "桃源村", "building": "apartments", "building:levels": "7", "name": "59栋", "name:zh": "59栋"}, "heightStatus": "levels_only_unverified", "source": "OpenStreetMap", "license": "ODbL-1.0"}, "geometry": {"type": "MultiPolygon", "coordinates": [[[[113.9722621, 22.561034], [113.972316, 22.5610134], [113.972308, 22.5609956], [113.9722901, 22.5610025], [113.9722652, 22.5609471], [113.9723937, 22.5608979], [113.9724185, 22.5609534], [113.9724006, 22.5609603], [113.9724085, 22.560978], [113.9725164, 22.5609368], [113.9725084, 22.560919], [113.9724904, 22.5609259], [113.9724656, 22.5608704], [113.972594, 22.5608213], [113.9726189, 22.5608768], [113.9726009, 22.5608836], [113.9726089, 22.5609014], [113.9727167, 22.5608602], [113.9727088, 22.5608424], [113.9726908, 22.5608493], [113.9726659, 22.5607938], [113.9727944, 22.5607447], [113.9728192, 22.5608002], [113.9728013, 22.560807], [113.9728092, 22.5608248], [113.9728632, 22.5608042], [113.972891, 22.5608662], [113.9722899, 22.561096], [113.9722621, 22.561034]]]]}}, {"type": "Feature", "id": "way/1426310288", "properties": {"tags": {"addr:housename": "桃源村", "addr:housename:en": "Taoyuancun", "addr:housename:zh": "桃源村", "building": "apartments", "building:levels": "7", "name": "61栋", "name:zh": "61栋"}, "heightStatus": "levels_only_unverified", "source": "OpenStreetMap", "license": "ODbL-1.0"}, "geometry": {"type": "MultiPolygon", "coordinates": [[[[113.9723792, 22.5613094], [113.9724331, 22.5612887], [113.9724251, 22.561271], [113.9724071, 22.5612778], [113.9723823, 22.5612224], [113.9725107, 22.5611733], [113.9725356, 22.5612287], [113.9725176, 22.5612356], [113.9725256, 22.5612534], [113.9726334, 22.5612121], [113.9726255, 22.5611944], [113.9726075, 22.5612012], [113.9725826, 22.5611458], [113.9727111, 22.5610967], [113.972736, 22.5611521], [113.972718, 22.561159], [113.972726, 22.5611768], [113.9728338, 22.5611355], [113.9728258, 22.5611177], [113.9728079, 22.5611246], [113.972783, 22.5610692], [113.9729115, 22.5610201], [113.9729363, 22.5610755], [113.9729183, 22.5610824], [113.9729263, 22.5611001], [113.9729802, 22.5610795], [113.973008, 22.5611415], [113.9724069, 22.5613713], [113.9723792, 22.5613094]]]]}}, {"type": "Feature", "id": "way/1426310289", "properties": {"tags": {"addr:housename": "桃源村", "addr:housename:en": "Taoyuancun", "addr:housename:zh": "桃源村", "building": "apartments", "building:levels": "7", "name": "62栋", "name:zh": "62栋"}, "heightStatus": "levels_only_unverified", "source": "OpenStreetMap", "license": "ODbL-1.0"}, "geometry": {"type": "MultiPolygon", "coordinates": [[[[113.9717067, 22.5615677], [113.9717606, 22.5615471], [113.9717527, 22.5615294], [113.9717347, 22.5615362], [113.9717098, 22.5614808], [113.9718383, 22.5614317], [113.9718632, 22.5614871], [113.9718452, 22.561494], [113.9718531, 22.5615118], [113.971961, 22.5614705], [113.971953, 22.5614527], [113.9719351, 22.5614596], [113.9719102, 22.5614042], [113.9720387, 22.5613551], [113.9720635, 22.5614105], [113.9720455, 22.5614174], [113.9720535, 22.5614351], [113.9721614, 22.5613939], [113.9721534, 22.5613761], [113.9721354, 22.561383], [113.9721106, 22.5613276], [113.972239, 22.5612785], [113.9722639, 22.5613339], [113.9722459, 22.5613408], [113.9722539, 22.5613585], [113.9723078, 22.5613379], [113.9723356, 22.5613999], [113.9717345, 22.5616297], [113.9717067, 22.5615677]]]]}}, {"type": "Feature", "id": "way/1426310290", "properties": {"tags": {"addr:housename": "桃源村", "addr:housename:en": "Taoyuancun", "addr:housename:zh": "桃源村", "building": "apartments", "building:levels": "7", "name": "50栋", "name:zh": "50栋"}, "heightStatus": "levels_only_unverified", "source": "OpenStreetMap", "license": "ODbL-1.0"}, "geometry": {"type": "MultiPolygon", "coordinates": [[[[113.9739292, 22.5612277], [113.9739825, 22.5612056], [113.9739739, 22.5611881], [113.9739562, 22.5611954], [113.9739296, 22.5611407], [113.9740564, 22.5610881], [113.974083, 22.5611429], [113.9740653, 22.5611502], [113.9740738, 22.5611678], [113.9741803, 22.5611236], [113.9741718, 22.5611061], [113.974154, 22.5611134], [113.9741274, 22.5610587], [113.9742543, 22.5610061], [113.9742809, 22.5610609], [113.9742631, 22.5610682], [113.9742717, 22.5610858], [113.9743249, 22.5610637], [113.9743547, 22.5611249], [113.973959, 22.5612889], [113.9739292, 22.5612277]]]]}}, {"type": "Feature", "id": "way/1426310291", "properties": {"tags": {"addr:housename": "桃源村", "addr:housename:en": "Taoyuancun", "addr:housename:zh": "桃源村", "building": "apartments", "building:levels": "7", "name": "47栋", "name:zh": "47栋"}, "heightStatus": "levels_only_unverified", "source": "OpenStreetMap", "license": "ODbL-1.0"}, "geometry": {"type": "MultiPolygon", "coordinates": [[[[113.9734178, 22.5608178], [113.9737019, 22.56072], [113.9737233, 22.560773], [113.9737055, 22.5607791], [113.9737148, 22.5608022], [113.9736967, 22.5608084], [113.9736997, 22.5608159], [113.9736295, 22.5608401], [113.9736265, 22.5608326], [113.9736084, 22.5608388], [113.9735991, 22.5608157], [113.9735634, 22.560828], [113.9735727, 22.5608511], [113.9735546, 22.5608573], [113.9735577, 22.5608648], [113.9734874, 22.560889], [113.9734844, 22.5608815], [113.9734663, 22.5608877], [113.973457, 22.5608646], [113.9734392, 22.5608708], [113.9734178, 22.5608178]]]]}}, {"type": "Feature", "id": "way/1426310292", "properties": {"tags": {"addr:housename": "桃源村", "addr:housename:en": "Taoyuancun", "addr:housename:zh": "桃源村", "building": "apartments", "building:levels": "7", "name": "48栋", "name:zh": "48栋"}, "heightStatus": "levels_only_unverified", "source": "OpenStreetMap", "license": "ODbL-1.0"}, "geometry": {"type": "MultiPolygon", "coordinates": [[[[113.9730749, 22.5609407], [113.973359, 22.5608428], [113.9733804, 22.5608958], [113.9733625, 22.5609019], [113.9733718, 22.560925], [113.9733538, 22.5609312], [113.9733568, 22.5609387], [113.9732866, 22.5609629], [113.9732835, 22.5609554], [113.9732654, 22.5609616], [113.9732561, 22.5609385], [113.9732205, 22.5609508], [113.9732298, 22.5609739], [113.9732117, 22.5609801], [113.9732147, 22.5609876], [113.9731445, 22.5610118], [113.9731415, 22.5610043], [113.9731234, 22.5610105], [113.9731141, 22.5609874], [113.9730962, 22.5609936], [113.9730749, 22.5609407]]]]}}, {"type": "Feature", "id": "way/1426310293", "properties": {"tags": {"addr:housename": "桃源村", "addr:housename:en": "Taoyuancun", "addr:housename:zh": "桃源村", "building": "apartments", "building:levels": "7", "name": "45栋", "name:zh": "45栋"}, "heightStatus": "levels_only_unverified", "source": "OpenStreetMap", "license": "ODbL-1.0"}, "geometry": {"type": "MultiPolygon", "coordinates": [[[[113.9729761, 22.5606939], [113.9730919, 22.5606496], [113.9731067, 22.5606825], [113.973132, 22.5606728], [113.9731172, 22.5606399], [113.973233, 22.5605955], [113.9732478, 22.5606285], [113.9732605, 22.5606236], [113.9732812, 22.5606698], [113.972999, 22.560778], [113.9729783, 22.5607317], [113.9729909, 22.5607269], [113.9729761, 22.5606939]]]]}}, {"type": "Feature", "id": "way/1426310294", "properties": {"tags": {"addr:housename": "桃源村", "addr:housename:en": "Taoyuancun", "addr:housename:zh": "桃源村", "building": "apartments", "building:levels": "7", "name": "44栋", "name:zh": "44栋"}, "heightStatus": "levels_only_unverified", "source": "OpenStreetMap", "license": "ODbL-1.0"}, "geometry": {"type": "MultiPolygon", "coordinates": [[[[113.9733353, 22.5605662], [113.9734511, 22.5605218], [113.9734659, 22.5605548], [113.9734912, 22.5605451], [113.9734764, 22.5605121], [113.9735922, 22.5604677], [113.973607, 22.5605007], [113.9736323, 22.560491], [113.9736175, 22.560458], [113.9737333, 22.5604137], [113.9737481, 22.5604467], [113.9737608, 22.5604418], [113.9737815, 22.560488], [113.9733582, 22.5606502], [113.9733374, 22.560604], [113.9733501, 22.5605991], [113.9733353, 22.5605662]]]]}}, {"type": "Feature", "id": "way/1426310295", "properties": {"tags": {"addr:housename": "桃源村", "addr:housename:en": "Taoyuancun", "addr:housename:zh": "桃源村", "building": "apartments", "building:levels": "7", "name": "46栋", "name:zh": "46栋"}, "heightStatus": "levels_only_unverified", "source": "OpenStreetMap", "license": "ODbL-1.0"}, "geometry": {"type": "MultiPolygon", "coordinates": [[[[113.9738675, 22.560518], [113.9739208, 22.5604959], [113.9739433, 22.5605423], [113.9739706, 22.560531], [113.9739481, 22.5604846], [113.9740013, 22.5604625], [113.9740416, 22.5605454], [113.9740771, 22.5605307], [113.9741026, 22.5605832], [113.9738978, 22.5606681], [113.9738723, 22.5606155], [113.9739078, 22.5606008], [113.9738675, 22.560518]]]]}}, {"type": "Feature", "id": "way/1426310296", "properties": {"tags": {"addr:housename": "桃源村", "addr:housename:en": "Taoyuancun", "addr:housename:zh": "桃源村", "building": "apartments", "building:levels": "7", "name": "49栋", "name:zh": "49栋"}, "heightStatus": "levels_only_unverified", "source": "OpenStreetMap", "license": "ODbL-1.0"}, "geometry": {"type": "MultiPolygon", "coordinates": [[[[113.9739941, 22.5607957], [113.9740473, 22.5607736], [113.9740699, 22.56082], [113.9740972, 22.5608087], [113.9740746, 22.5607623], [113.9741279, 22.5607402], [113.9741681, 22.5608231], [113.9742036, 22.5608084], [113.9742292, 22.5608609], [113.9740244, 22.5609458], [113.9739988, 22.5608932], [113.9740343, 22.5608785], [113.9739941, 22.5607957]]]]}}, {"type": "Feature", "id": "way/1426310297", "properties": {"tags": {"addr:housename": "桃源村", "addr:housename:en": "Taoyuancun", "addr:housename:zh": "桃源村", "building": "apartments", "building:levels": "7", "name": "53栋", "name:zh": "53栋"}, "heightStatus": "levels_only_unverified", "source": "OpenStreetMap", "license": "ODbL-1.0"}, "geometry": {"type": "MultiPolygon", "coordinates": [[[[113.9739823, 22.5617504], [113.9739831, 22.5617004], [113.9739968, 22.5617006], [113.9739974, 22.5616649], [113.9741227, 22.5616666], [113.9741222, 22.5617022], [113.9741496, 22.5617026], [113.9741501, 22.5616669], [113.9742755, 22.5616686], [113.9742749, 22.5617043], [113.9743023, 22.5617047], [113.9743029, 22.561669], [113.9744282, 22.5616707], [113.9744277, 22.5617063], [113.9744551, 22.5617067], [113.9744557, 22.561671], [113.974581, 22.5616727], [113.9745804, 22.5617084], [113.9745941, 22.5617086], [113.9745933, 22.5617586], [113.9739823, 22.5617504]]]]}}, {"type": "Feature", "id": "way/1426310298", "properties": {"tags": {"addr:housename": "桃源村", "addr:housename:en": "Taoyuancun", "addr:housename:zh": "桃源村", "building": "apartments", "building:levels": "7", "name": "52栋", "name:zh": "52栋"}, "heightStatus": "levels_only_unverified", "source": "OpenStreetMap", "license": "ODbL-1.0"}, "geometry": {"type": "MultiPolygon", "coordinates": [[[[113.973231, 22.561479], [113.9732318, 22.5614289], [113.9732455, 22.5614291], [113.973246, 22.5613934], [113.9733714, 22.5613951], [113.9733708, 22.5614308], [113.9733982, 22.5614312], [113.9733988, 22.5613955], [113.9735241, 22.5613972], [113.9735236, 22.5614328], [113.973551, 22.5614332], [113.9735515, 22.5613975], [113.9736769, 22.5613992], [113.9736763, 22.5614349], [113.9737037, 22.5614353], [113.9737043, 22.5613996], [113.9738296, 22.5614013], [113.9738291, 22.5614369], [113.9738428, 22.5614371], [113.973842, 22.5614872], [113.973231, 22.561479]]]]}}, {"type": "Feature", "id": "way/1426310299", "properties": {"tags": {"addr:housename": "桃源村", "addr:housename:en": "Taoyuancun", "addr:housename:zh": "桃源村", "building": "apartments", "building:levels": "7", "name": "51栋", "name:zh": "51栋"}, "heightStatus": "levels_only_unverified", "source": "OpenStreetMap", "license": "ODbL-1.0"}, "geometry": {"type": "MultiPolygon", "coordinates": [[[[113.9739917, 22.5614878], [113.9739925, 22.5614378], [113.9740062, 22.561438], [113.9740068, 22.5614023], [113.9741321, 22.5614039], [113.9741316, 22.5614396], [113.974159, 22.56144], [113.9741595, 22.5614043], [113.9742849, 22.561406], [113.9742843, 22.5614417], [113.9743117, 22.5614421], [113.9743123, 22.5614064], [113.9744376, 22.561408], [113.9744371, 22.5614437], [113.9744508, 22.5614439], [113.97445, 22.561494], [113.9739917, 22.5614878]]]]}}, {"type": "Feature", "id": "way/1426310300", "properties": {"tags": {"addr:housename": "桃源村", "addr:housename:en": "Taoyuancun", "addr:housename:zh": "桃源村", "building": "apartments", "building:levels": "7", "name": "67栋", "name:zh": "67栋"}, "heightStatus": "levels_only_unverified", "source": "OpenStreetMap", "license": "ODbL-1.0"}, "geometry": {"type": "MultiPolygon", "coordinates": [[[[113.9718209, 22.5618031], [113.9718217, 22.5617531], [113.9718354, 22.5617532], [113.9718359, 22.5617176], [113.9719613, 22.5617192], [113.9719607, 22.5617549], [113.9719881, 22.5617553], [113.9719887, 22.5617196], [113.972114, 22.5617213], [113.9721135, 22.561757], [113.9721409, 22.5617573], [113.9721414, 22.5617217], [113.9722668, 22.5617233], [113.9722662, 22.561759], [113.9722799, 22.5617592], [113.9722791, 22.5618092], [113.9718209, 22.5618031]]]]}}, {"type": "Feature", "id": "way/1426310301", "properties": {"tags": {"addr:housename": "桃源村", "addr:housename:en": "Taoyuancun", "addr:housename:zh": "桃源村", "building": "apartments", "building:levels": "7", "name": "63栋", "name:zh": "63栋"}, "heightStatus": "levels_only_unverified", "source": "OpenStreetMap", "license": "ODbL-1.0"}, "geometry": {"type": "MultiPolygon", "coordinates": [[[[113.971334, 22.5614783], [113.9713726, 22.5614743], [113.9713616, 22.561384], [113.9714196, 22.561378], [113.9714258, 22.5614286], [113.9714555, 22.5614255], [113.9714494, 22.5613749], [113.9715074, 22.5613689], [113.9715184, 22.5614591], [113.971557, 22.5614551], [113.971564, 22.5615124], [113.971341, 22.5615356], [113.971334, 22.5614783]]]]}}, {"type": "Feature", "id": "way/1426310302", "properties": {"tags": {"addr:housename": "桃源村", "addr:housename:en": "Taoyuancun", "addr:housename:zh": "桃源村", "building": "apartments", "building:levels": "7", "name": "64栋", "name:zh": "64栋"}, "heightStatus": "levels_only_unverified", "source": "OpenStreetMap", "license": "ODbL-1.0"}, "geometry": {"type": "MultiPolygon", "coordinates": [[[[113.9713791, 22.5617845], [113.9714178, 22.5617805], [113.9714068, 22.5616902], [113.9714648, 22.5616842], [113.9714709, 22.5617347], [113.9715006, 22.5617317], [113.9714945, 22.5616811], [113.9715525, 22.5616751], [113.9715635, 22.5617653], [113.9716022, 22.5617613], [113.9716091, 22.5618186], [113.9713861, 22.5618418], [113.9713791, 22.5617845]]]]}}, {"type": "Feature", "id": "way/1426310303", "properties": {"tags": {"addr:housename": "桃源村", "addr:housename:en": "Taoyuancun", "addr:housename:zh": "桃源村", "building": "apartments", "building:levels": "7", "name": "65栋", "name:zh": "65栋"}, "heightStatus": "levels_only_unverified", "source": "OpenStreetMap", "license": "ODbL-1.0"}, "geometry": {"type": "MultiPolygon", "coordinates": [[[[113.9714208, 22.5620844], [113.9714595, 22.5620804], [113.9714485, 22.5619901], [113.9715065, 22.5619841], [113.9715126, 22.5620347], [113.9715424, 22.5620316], [113.9715362, 22.561981], [113.9715942, 22.561975], [113.9716052, 22.5620652], [113.9716439, 22.5620612], [113.9716509, 22.5621185], [113.9714278, 22.5621417], [113.9714208, 22.5620844]]]]}}, {"type": "Feature", "id": "way/1426310304", "properties": {"tags": {"addr:housename": "桃源村", "addr:housename:en": "Taoyuancun", "addr:housename:zh": "桃源村", "building": "apartments", "building:levels": "7", "name": "66栋", "name:zh": "66栋"}, "heightStatus": "levels_only_unverified", "source": "OpenStreetMap", "license": "ODbL-1.0"}, "geometry": {"type": "MultiPolygon", "coordinates": [[[[113.9714569, 22.5623781], [113.9714956, 22.5623741], [113.9714846, 22.5622838], [113.9715426, 22.5622778], [113.9715487, 22.5623283], [113.9715785, 22.5623253], [113.9715723, 22.5622747], [113.9716303, 22.5622687], [113.9716413, 22.5623589], [113.97168, 22.5623549], [113.9716869, 22.5624122], [113.9714639, 22.5624354], [113.9714569, 22.5623781]]]]}}, {"type": "Feature", "id": "way/1426310305", "properties": {"tags": {"addr:housename": "桃源村", "addr:housename:en": "Taoyuancun", "addr:housename:zh": "桃源村", "building": "apartments", "building:levels": "7", "name": "57栋", "name:zh": "57栋"}, "heightStatus": "levels_only_unverified", "source": "OpenStreetMap", "license": "ODbL-1.0"}, "geometry": {"type": "MultiPolygon", "coordinates": [[[[113.9737523, 22.5623031], [113.9737536, 22.5622454], [113.9737925, 22.5622462], [113.9737944, 22.5621553], [113.9738527, 22.5621564], [113.9738517, 22.5622073], [113.9738816, 22.5622078], [113.9738827, 22.5621569], [113.973941, 22.562158], [113.9739391, 22.5622488], [113.9740169, 22.5622502], [113.9740188, 22.5621594], [113.9740772, 22.5621605], [113.9740761, 22.5622114], [113.974106, 22.5622119], [113.9741071, 22.562161], [113.9741655, 22.5621621], [113.9741635, 22.5622529], [113.9742024, 22.5622536], [113.9742012, 22.5623112], [113.9737523, 22.5623031]]]]}}, {"type": "Feature", "id": "way/1426310306", "properties": {"tags": {"addr:housename": "桃源村", "addr:housename:en": "Taoyuancun", "addr:housename:zh": "桃源村", "building": "apartments", "building:levels": "7", "name": "58栋", "name:zh": "58栋"}, "heightStatus": "levels_only_unverified", "source": "OpenStreetMap", "license": "ODbL-1.0"}, "geometry": {"type": "MultiPolygon", "coordinates": [[[[113.9732364, 22.5622969], [113.9732376, 22.5622392], [113.9732765, 22.5622399], [113.9732785, 22.5621491], [113.9733368, 22.5621502], [113.9733357, 22.5622011], [113.9733656, 22.5622016], [113.9733667, 22.5621507], [113.9734251, 22.5621518], [113.9734231, 22.5622426], [113.9735009, 22.562244], [113.9735029, 22.5621532], [113.9735612, 22.5621543], [113.9735602, 22.5622052], [113.9735901, 22.5622057], [113.9735912, 22.5621548], [113.9736495, 22.5621559], [113.9736476, 22.5622467], [113.9736865, 22.5622474], [113.9736852, 22.562305], [113.9732364, 22.5622969]]]]}}, {"type": "Feature", "id": "way/1426310307", "properties": {"tags": {"addr:housename": "桃源村", "addr:housename:en": "Taoyuancun", "addr:housename:zh": "桃源村", "building": "apartments", "building:levels": "7", "name": "69栋", "name:zh": "69栋"}, "heightStatus": "levels_only_unverified", "source": "OpenStreetMap", "license": "ODbL-1.0"}, "geometry": {"type": "MultiPolygon", "coordinates": [[[[113.9723954, 22.5622563], [113.9723966, 22.5621987], [113.9724355, 22.5621994], [113.9724375, 22.5621086], [113.9724958, 22.5621096], [113.9724947, 22.5621605], [113.9725247, 22.562161], [113.9725257, 22.5621102], [113.9725841, 22.5621112], [113.9725822, 22.562202], [113.97266, 22.5622035], [113.9726619, 22.5621126], [113.9727203, 22.5621137], [113.9727192, 22.5621646], [113.9727491, 22.5621651], [113.9727502, 22.5621143], [113.9728085, 22.5621153], [113.9728066, 22.5622061], [113.9728844, 22.5622075], [113.9728863, 22.5621167], [113.9729447, 22.5621178], [113.9729436, 22.5621687], [113.9729735, 22.5621692], [113.9729746, 22.5621183], [113.973033, 22.5621194], [113.973031, 22.5622102], [113.9730699, 22.5622109], [113.9730687, 22.5622685], [113.9723954, 22.5622563]]]]}}, {"type": "Feature", "id": "way/1426310308", "properties": {"tags": {"addr:housename": "桃源村", "addr:housename:en": "Taoyuancun", "addr:housename:zh": "桃源村", "building": "apartments", "building:levels": "7", "name": "54栋", "name:zh": "54栋"}, "heightStatus": "levels_only_unverified", "source": "OpenStreetMap", "license": "ODbL-1.0"}, "geometry": {"type": "MultiPolygon", "coordinates": [[[[113.9732371, 22.561707], [113.9732379, 22.5616505], [113.9738453, 22.5616579], [113.9738445, 22.5617143], [113.9738254, 22.5617141], [113.9738251, 22.5617387], [113.9738058, 22.5617384], [113.9738057, 22.5617465], [113.9737307, 22.5617456], [113.9737308, 22.5617375], [113.9737115, 22.5617373], [113.9737119, 22.5617127], [113.9736729, 22.5617123], [113.9736725, 22.5617369], [113.9736532, 22.5617367], [113.9736531, 22.5617447], [113.9735781, 22.5617438], [113.9735783, 22.5617358], [113.973559, 22.5617355], [113.9735593, 22.5617109], [113.9735213, 22.5617105], [113.9735209, 22.5617351], [113.9735016, 22.5617348], [113.9735015, 22.5617429], [113.9734265, 22.561742], [113.9734267, 22.5617339], [113.9734074, 22.5617337], [113.9734077, 22.5617091], [113.9733697, 22.5617086], [113.9733693, 22.5617332], [113.97335, 22.561733], [113.9733499, 22.561741], [113.9732749, 22.5617401], [113.9732751, 22.5617321], [113.9732558, 22.5617319], [113.9732561, 22.5617073], [113.9732371, 22.561707]]]]}}, {"type": "Feature", "id": "way/1426310309", "properties": {"tags": {"addr:housename": "桃源村", "addr:housename:en": "Taoyuancun", "addr:housename:zh": "桃源村", "building": "apartments", "building:levels": "7", "name": "56栋", "name:zh": "56栋"}, "heightStatus": "levels_only_unverified", "source": "OpenStreetMap", "license": "ODbL-1.0"}, "geometry": {"type": "MultiPolygon", "coordinates": [[[[113.9732322, 22.5619607], [113.973233, 22.5619043], [113.9738404, 22.5619116], [113.9738396, 22.561968], [113.9738206, 22.5619678], [113.9738202, 22.5619924], [113.973801, 22.5619922], [113.9738008, 22.5620002], [113.9737259, 22.5619993], [113.973726, 22.5619912], [113.9737067, 22.561991], [113.9737071, 22.5619664], [113.973668, 22.561966], [113.9736677, 22.5619906], [113.9736484, 22.5619904], [113.9736483, 22.5619984], [113.9735733, 22.5619975], [113.9735734, 22.5619895], [113.9735541, 22.5619893], [113.9735545, 22.5619647], [113.9735164, 22.5619642], [113.9735161, 22.5619888], [113.9734968, 22.5619886], [113.9734967, 22.5619966], [113.9734217, 22.5619957], [113.9734218, 22.5619876], [113.9734025, 22.5619874], [113.9734029, 22.5619628], [113.9733648, 22.5619623], [113.9733645, 22.561987], [113.9733452, 22.5619867], [113.9733451, 22.5619948], [113.9732701, 22.5619938], [113.9732702, 22.5619858], [113.9732509, 22.5619856], [113.9732513, 22.561961], [113.9732322, 22.5619607]]]]}}, {"type": "Feature", "id": "way/1426310310", "properties": {"tags": {"addr:housename": "桃源村", "addr:housename:en": "Taoyuancun", "addr:housename:zh": "桃源村", "building": "apartments", "building:levels": "7", "name": "55栋", "name:zh": "55栋"}, "heightStatus": "levels_only_unverified", "source": "OpenStreetMap", "license": "ODbL-1.0"}, "geometry": {"type": "MultiPolygon", "coordinates": [[[[113.973933, 22.5619655], [113.9739338, 22.561909], [113.9743886, 22.5619145], [113.9743878, 22.561971], [113.9743687, 22.5619708], [113.9743684, 22.5619954], [113.9743491, 22.5619952], [113.974349, 22.5620032], [113.974274, 22.5620023], [113.9742741, 22.5619943], [113.9742548, 22.561994], [113.9742552, 22.5619694], [113.9742171, 22.561969], [113.9742168, 22.5619936], [113.9741975, 22.5619933], [113.9741974, 22.5620014], [113.9741224, 22.5620005], [113.9741225, 22.5619924], [113.9741032, 22.5619922], [113.9741036, 22.5619676], [113.9740655, 22.5619671], [113.9740652, 22.5619917], [113.9740459, 22.5619915], [113.9740458, 22.5619995], [113.9739708, 22.5619986], [113.9739709, 22.5619906], [113.9739516, 22.5619903], [113.973952, 22.5619657], [113.973933, 22.5619655]]]]}}, {"type": "Feature", "id": "way/1426310311", "properties": {"tags": {"addr:housename": "桃源村", "addr:housename:en": "Taoyuancun", "addr:housename:zh": "桃源村", "building": "apartments", "building:levels": "7", "name": "70栋", "name:zh": "70栋"}, "heightStatus": "levels_only_unverified", "source": "OpenStreetMap", "license": "ODbL-1.0"}, "geometry": {"type": "MultiPolygon", "coordinates": [[[[113.9718027, 22.56225], [113.9722546, 22.5622021], [113.9722616, 22.5622583], [113.9722427, 22.5622603], [113.9722457, 22.5622847], [113.9721329, 22.5622966], [113.9721299, 22.5622722], [113.972092, 22.5622762], [113.9720951, 22.5623006], [113.9720759, 22.5623027], [113.9720769, 22.5623107], [113.9720024, 22.5623185], [113.9720014, 22.5623105], [113.9719823, 22.5623126], [113.9719792, 22.5622881], [113.9719414, 22.5622921], [113.9719444, 22.5623166], [113.9719253, 22.5623186], [113.9719263, 22.5623266], [113.9718518, 22.5623345], [113.9718508, 22.5623265], [113.9718316, 22.5623285], [113.9718286, 22.5623041], [113.9718097, 22.5623061], [113.9718027, 22.56225]]]]}}, {"type": "Feature", "id": "way/1426310312", "properties": {"tags": {"addr:housename": "桃源村", "addr:housename:en": "Taoyuancun", "addr:housename:zh": "桃源村", "building": "apartments", "building:levels": "7", "name": "68栋", "name:zh": "68栋"}, "heightStatus": "levels_only_unverified", "source": "OpenStreetMap", "license": "ODbL-1.0"}, "geometry": {"type": "MultiPolygon", "coordinates": [[[[113.9718155, 22.5620301], [113.9718163, 22.5619736], [113.9722711, 22.5619791], [113.9722703, 22.5620356], [113.9722513, 22.5620354], [113.9722509, 22.56206], [113.9722317, 22.5620597], [113.9722315, 22.5620678], [113.9721566, 22.5620669], [113.9721567, 22.5620588], [113.9721374, 22.5620586], [113.9721378, 22.562034], [113.9720997, 22.5620335], [113.9720993, 22.5620581], [113.9720801, 22.5620579], [113.9720799, 22.5620659], [113.972005, 22.562065], [113.9720051, 22.562057], [113.9719858, 22.5620567], [113.9719862, 22.5620321], [113.9719481, 22.5620317], [113.9719477, 22.5620563], [113.9719284, 22.562056], [113.9719283, 22.5620641], [113.9718534, 22.5620632], [113.9718535, 22.5620551], [113.9718342, 22.5620549], [113.9718345, 22.5620303], [113.9718155, 22.5620301]]]]}}, {"type": "Feature", "id": "way/1426310313", "properties": {"tags": {"addr:housename": "桃源村", "addr:housename:en": "Taoyuancun", "addr:housename:zh": "桃源村", "building": "apartments", "building:levels": "7", "name": "71栋", "name:zh": "71栋"}, "heightStatus": "levels_only_unverified", "source": "OpenStreetMap", "license": "ODbL-1.0"}, "geometry": {"type": "MultiPolygon", "coordinates": [[[[113.972939, 22.5625061], [113.9729398, 22.5624561], [113.9729535, 22.5624563], [113.9729541, 22.5624206], [113.9730863, 22.5624224], [113.9730858, 22.5624581], [113.9731132, 22.5624584], [113.9731138, 22.5624227], [113.973246, 22.5624245], [113.9732455, 22.5624602], [113.9732729, 22.5624606], [113.9732734, 22.5624249], [113.9734057, 22.5624266], [113.9734051, 22.5624623], [113.9734188, 22.5624625], [113.973418, 22.5625125], [113.972939, 22.5625061]]]]}}, {"type": "Feature", "id": "way/1426310314", "properties": {"tags": {"addr:housename": "桃源村", "addr:housename:en": "Taoyuancun", "addr:housename:zh": "桃源村", "building": "apartments", "building:levels": "7", "name": "72栋", "name:zh": "72栋"}, "heightStatus": "levels_only_unverified", "source": "OpenStreetMap", "license": "ODbL-1.0"}, "geometry": {"type": "MultiPolygon", "coordinates": [[[[113.9723937, 22.5625006], [113.9723945, 22.5624505], [113.9724082, 22.5624507], [113.9724087, 22.562415], [113.972541, 22.5624168], [113.9725404, 22.5624525], [113.9725678, 22.5624529], [113.9725684, 22.5624172], [113.9727006, 22.562419], [113.9727001, 22.5624546], [113.9727275, 22.562455], [113.9727281, 22.5624193], [113.9728603, 22.5624211], [113.9728598, 22.5624568], [113.9728735, 22.562457], [113.9728727, 22.562507], [113.9723937, 22.5625006]]]]}}, {"type": "Feature", "id": "way/1426310315", "properties": {"tags": {"addr:housename": "桃源村", "addr:housename:en": "Taoyuancun", "addr:housename:zh": "桃源村", "building": "apartments", "building:levels": "7", "name": "73栋", "name:zh": "73栋"}, "heightStatus": "levels_only_unverified", "source": "OpenStreetMap", "license": "ODbL-1.0"}, "geometry": {"type": "MultiPolygon", "coordinates": [[[[113.9714949, 22.5626097], [113.9715084, 22.5626071], [113.9715004, 22.5625722], [113.9716298, 22.5625469], [113.9716378, 22.5625819], [113.9716646, 22.5625766], [113.9716566, 22.5625417], [113.971786, 22.5625165], [113.971794, 22.5625514], [113.9718208, 22.5625462], [113.9718129, 22.5625113], [113.9719423, 22.562486], [113.9719503, 22.562521], [113.9719771, 22.5625157], [113.9719691, 22.5624808], [113.9720985, 22.5624556], [113.9721065, 22.5624905], [113.9721333, 22.5624853], [113.9721254, 22.5624504], [113.9722548, 22.5624251], [113.9722627, 22.56246], [113.9722762, 22.5624574], [113.9722873, 22.5625064], [113.9715061, 22.5626587], [113.9714949, 22.5626097]]]]}}, {"type": "Feature", "id": "way/1426310317", "properties": {"tags": {"addr:housename": "桃源村", "addr:housename:en": "Taoyuancun", "addr:housename:zh": "桃源村", "building": "apartments", "building:levels": "7", "name": "76栋", "name:zh": "76栋"}, "heightStatus": "levels_only_unverified", "source": "OpenStreetMap", "license": "ODbL-1.0"}, "geometry": {"type": "MultiPolygon", "coordinates": [[[[113.9715495, 22.5628293], [113.972204, 22.5627017], [113.9722171, 22.5627593], [113.9721981, 22.562763], [113.9722036, 22.5627869], [113.9721845, 22.5627906], [113.9721862, 22.5627981], [113.9720987, 22.5628151], [113.972097, 22.5628077], [113.972078, 22.5628114], [113.9720725, 22.5627875], [113.9720345, 22.5627949], [113.9720399, 22.5628188], [113.9720209, 22.5628225], [113.9720226, 22.5628299], [113.9719351, 22.562847], [113.9719334, 22.5628396], [113.9719144, 22.5628433], [113.9719089, 22.5628194], [113.9718709, 22.5628268], [113.9718763, 22.5628507], [113.9718573, 22.5628544], [113.971859, 22.5628618], [113.9717715, 22.5628789], [113.9717698, 22.5628715], [113.9717508, 22.5628752], [113.9717453, 22.5628513], [113.9717072, 22.5628587], [113.9717127, 22.5628826], [113.9716937, 22.5628863], [113.9716954, 22.5628937], [113.9716079, 22.5629108], [113.9716062, 22.5629034], [113.9715872, 22.5629071], [113.9715817, 22.5628832], [113.9715627, 22.5628869], [113.9715495, 22.5628293]]]]}}, {"type": "Feature", "id": "way/1426310318", "properties": {"tags": {"addr:housename": "桃源村", "addr:housename:en": "Taoyuancun", "addr:housename:zh": "桃源村", "building": "apartments", "building:levels": "7", "name": "74栋", "name:zh": "74栋"}, "heightStatus": "levels_only_unverified", "source": "OpenStreetMap", "license": "ODbL-1.0"}, "geometry": {"type": "MultiPolygon", "coordinates": [[[[113.9729318, 22.5627489], [113.9729326, 22.5626924], [113.9734342, 22.5626985], [113.9734333, 22.5627591], [113.9734135, 22.5627589], [113.9734131, 22.5627832], [113.9733935, 22.5627829], [113.9733934, 22.56279], [113.973304, 22.5627889], [113.9733041, 22.5627809], [113.9732848, 22.5627807], [113.9732852, 22.562756], [113.9732463, 22.5627555], [113.9732459, 22.5627797], [113.9732263, 22.5627795], [113.9732262, 22.5627866], [113.9731368, 22.5627855], [113.973137, 22.5627774], [113.9731177, 22.5627772], [113.973118, 22.5627525], [113.9730791, 22.562752], [113.9730788, 22.5627762], [113.9730591, 22.562776], [113.973059, 22.5627831], [113.9729697, 22.562782], [113.9729698, 22.562774], [113.9729505, 22.5627737], [113.9729508, 22.5627491], [113.9729318, 22.5627489]]]]}}, {"type": "Feature", "id": "way/1426310319", "properties": {"tags": {"addr:housename": "桃源村", "addr:housename:en": "Taoyuancun", "addr:housename:zh": "桃源村", "building": "apartments", "building:levels": "7", "name": "75栋", "name:zh": "75栋"}, "heightStatus": "levels_only_unverified", "source": "OpenStreetMap", "license": "ODbL-1.0"}, "geometry": {"type": "MultiPolygon", "coordinates": [[[[113.9723784, 22.5627415], [113.9723792, 22.562685], [113.9728808, 22.5626911], [113.9728799, 22.5627518], [113.97286, 22.5627515], [113.9728597, 22.5627758], [113.9728401, 22.5627756], [113.97284, 22.5627827], [113.9727506, 22.5627816], [113.9727507, 22.5627735], [113.9727314, 22.5627733], [113.9727318, 22.5627486], [113.9726929, 22.5627481], [113.9726925, 22.5627723], [113.9726729, 22.5627721], [113.9726728, 22.5627792], [113.9725834, 22.5627781], [113.9725835, 22.5627701], [113.9725642, 22.5627698], [113.9725646, 22.5627451], [113.9725257, 22.5627447], [113.9725253, 22.5627689], [113.9725057, 22.5627686], [113.9725056, 22.5627757], [113.9724162, 22.5627746], [113.9724164, 22.5627666], [113.9723971, 22.5627664], [113.9723974, 22.5627418], [113.9723784, 22.5627415]]]]}}, {"type": "Feature", "id": "way/1426345270", "properties": {"tags": {"building": "school"}, "heightStatus": "unknown", "source": "OpenStreetMap", "license": "ODbL-1.0"}, "geometry": {"type": "MultiPolygon", "coordinates": [[[[113.9685819, 22.5561881], [113.9685822, 22.5559767], [113.969176, 22.5559776], [113.9691757, 22.5561889], [113.9685819, 22.5561881]]]]}}, {"type": "Feature", "id": "way/1426345272", "properties": {"tags": {"addr:housename": "香山里花园", "addr:housename:en": "Xiangshanli Garden", "addr:housename:zh": "香山里花园", "building": "apartments", "building:levels": "17", "name": "10栋", "name:en": "Block 10", "name:zh": "10栋", "residential": "apartments"}, "heightStatus": "levels_only_unverified", "source": "OpenStreetMap", "license": "ODbL-1.0"}, "geometry": {"type": "MultiPolygon", "coordinates": [[[[113.9673168, 22.5560596], [113.9673181, 22.5559603], [113.967963, 22.555967], [113.9679617, 22.5560663], [113.9673168, 22.5560596]]]]}}, {"type": "Feature", "id": "way/1426345273", "properties": {"tags": {"addr:housename": "香山里花园", "addr:housename:en": "Xiangshanli Garden", "addr:housename:zh": "香山里花园", "building": "apartments", "building:levels": "17", "name": "11栋", "name:en": "Block 11", "name:zh": "11栋", "residential": "apartments"}, "heightStatus": "levels_only_unverified", "source": "OpenStreetMap", "license": "ODbL-1.0"}, "geometry": {"type": "MultiPolygon", "coordinates": [[[[113.9680724, 22.5560638], [113.9680737, 22.5559644], [113.968439, 22.5559683], [113.9684377, 22.5560676], [113.9680724, 22.5560638]]]]}}, {"type": "Feature", "id": "way/1426345274", "properties": {"tags": {"addr:housename": "香山里花园", "addr:housename:en": "Xiangshanli Garden", "addr:housename:zh": "香山里花园", "building": "apartments", "building:levels": "17", "name": "4栋", "name:en": "Block 4", "name:zh": "4栋", "residential": "apartments"}, "heightStatus": "levels_only_unverified", "source": "OpenStreetMap", "license": "ODbL-1.0"}, "geometry": {"type": "MultiPolygon", "coordinates": [[[[113.9694189, 22.556095], [113.9694202, 22.5559957], [113.9697855, 22.5559996], [113.9697842, 22.5560988], [113.9694189, 22.556095]]]]}}, {"type": "Feature", "id": "way/1426345275", "properties": {"tags": {"addr:housename": "香山里花园", "addr:housename:en": "Xiangshanli Garden", "addr:housename:zh": "香山里花园", "building": "apartments", "building:levels": "33", "name": "9栋", "name:en": "Block 9", "name:zh": "9栋"}, "heightStatus": "levels_only_unverified", "source": "OpenStreetMap", "license": "ODbL-1.0"}, "geometry": {"type": "MultiPolygon", "coordinates": [[[[113.9667601, 22.5562368], [113.9668798, 22.5560775], [113.9667857, 22.5560172], [113.9668398, 22.5559451], [113.9669778, 22.5560336], [113.9670667, 22.5559153], [113.9671493, 22.5559682], [113.9670487, 22.5561021], [113.9671557, 22.5561707], [113.9670684, 22.5562868], [113.9669423, 22.556206], [113.9668674, 22.5563056], [113.9667601, 22.5562368]]]]}}, {"type": "Feature", "id": "way/1426345276", "properties": {"tags": {"addr:housename": "香山里花园", "addr:housename:en": "Xiangshanli Garden", "addr:housename:zh": "香山里花园", "building": "apartments", "building:levels": "33", "name": "1栋", "name:en": "Block 1", "name:zh": "1栋"}, "heightStatus": "levels_only_unverified", "source": "OpenStreetMap", "license": "ODbL-1.0"}, "geometry": {"type": "MultiPolygon", "coordinates": [[[[113.9706528, 22.5558839], [113.9707251, 22.5557925], [113.9708296, 22.555863], [113.9709134, 22.5557571], [113.9710126, 22.5558241], [113.9709288, 22.55593], [113.9710444, 22.556008], [113.9709524, 22.5561242], [113.9707332, 22.5559762], [113.9707528, 22.5559513], [113.9706528, 22.5558839]]]]}}, {"type": "Feature", "id": "way/1426345277", "properties": {"tags": {"addr:housename": "香山里花园", "addr:housename:en": "Xiangshanli Garden", "addr:housename:zh": "香山里花园", "building": "apartments", "building:levels": "33", "name": "2栋", "name:en": "Block 2", "name:zh": "2栋"}, "heightStatus": "levels_only_unverified", "source": "OpenStreetMap", "license": "ODbL-1.0"}, "geometry": {"type": "MultiPolygon", "coordinates": [[[[113.9701729, 22.5563577], [113.9702524, 22.5562619], [113.9704119, 22.5563747], [113.9705578, 22.5561987], [113.9704653, 22.5561333], [113.9705321, 22.5560529], [113.9706698, 22.5561503], [113.9707294, 22.5560785], [113.9708298, 22.5561495], [113.9707275, 22.5562728], [113.9707015, 22.5562544], [113.9704857, 22.5565145], [113.9704124, 22.5564626], [113.9702886, 22.5566119], [113.9701887, 22.5565413], [113.9702789, 22.5564326], [113.9701729, 22.5563577]]]]}}, {"type": "Feature", "id": "way/1426345278", "properties": {"tags": {"addr:housename": "香山里花园", "addr:housename:en": "Xiangshanli Garden", "addr:housename:zh": "香山里花园", "building": "apartments", "building:levels": "33", "name": "3栋", "name:en": "Block 3", "name:zh": "3栋"}, "heightStatus": "levels_only_unverified", "source": "OpenStreetMap", "license": "ODbL-1.0"}, "geometry": {"type": "MultiPolygon", "coordinates": [[[[113.9693527, 22.5564428], [113.9694086, 22.5563388], [113.969758, 22.556499], [113.9698474, 22.5563326], [113.9699644, 22.5563863], [113.9699051, 22.5564967], [113.9700379, 22.5565576], [113.9699819, 22.5566616], [113.9697995, 22.556578], [113.9697585, 22.5566544], [113.9695577, 22.5565623], [113.9694891, 22.55669], [113.969372, 22.5566364], [113.9694517, 22.5564882], [113.9693527, 22.5564428]]]]}}, {"type": "Feature", "id": "way/1426345279", "properties": {"tags": {"addr:housename": "香山里花园", "addr:housename:en": "Xiangshanli Garden", "addr:housename:zh": "香山里花园", "building": "apartments", "building:levels": "33", "name": "6栋", "name:en": "Block 6", "name:zh": "6栋"}, "heightStatus": "levels_only_unverified", "source": "OpenStreetMap", "license": "ODbL-1.0"}, "geometry": {"type": "MultiPolygon", "coordinates": [[[[113.968455, 22.5565044], [113.9685268, 22.5564078], [113.9686134, 22.5564627], [113.9687048, 22.5563398], [113.9688084, 22.5564055], [113.9687435, 22.5564929], [113.9689102, 22.5565986], [113.969024, 22.5564455], [113.9691318, 22.5565138], [113.9690562, 22.5566155], [113.9691784, 22.5566929], [113.9691072, 22.5567887], [113.9689394, 22.5566822], [113.9688871, 22.5567525], [113.9687023, 22.5566354], [113.968615, 22.556753], [113.9685072, 22.5566847], [113.9685815, 22.5565847], [113.968455, 22.5565044]]]]}}, {"type": "Feature", "id": "way/1426345280", "properties": {"tags": {"addr:housename": "香山里花园", "addr:housename:en": "Xiangshanli Garden", "addr:housename:zh": "香山里花园", "building": "apartments", "building:levels": "33", "name": "7栋", "name:en": "Block 7", "name:zh": "7栋"}, "heightStatus": "levels_only_unverified", "source": "OpenStreetMap", "license": "ODbL-1.0"}, "geometry": {"type": "MultiPolygon", "coordinates": [[[[113.9675708, 22.556575], [113.9676426, 22.5564784], [113.9677292, 22.5565333], [113.9678206, 22.5564104], [113.9679242, 22.5564761], [113.9678592, 22.5565635], [113.968026, 22.5566692], [113.9681398, 22.5565161], [113.9682475, 22.5565844], [113.968172, 22.5566861], [113.9682942, 22.5567635], [113.968223, 22.5568593], [113.9680551, 22.5567528], [113.9680028, 22.5568232], [113.9678181, 22.556706], [113.9677307, 22.5568236], [113.967623, 22.5567553], [113.9676973, 22.5566553], [113.9675708, 22.556575]]]]}}, {"type": "Feature", "id": "way/1426345281", "properties": {"tags": {"addr:housename": "香山里花园", "addr:housename:en": "Xiangshanli Garden", "addr:housename:zh": "香山里花园", "building": "apartments", "building:levels": "33", "name": "8栋", "name:en": "Block 8", "name:zh": "8栋"}, "heightStatus": "levels_only_unverified", "source": "OpenStreetMap", "license": "ODbL-1.0"}, "geometry": {"type": "MultiPolygon", "coordinates": [[[[113.9667659, 22.5567654], [113.9668673, 22.556629], [113.9667761, 22.5565712], [113.9668473, 22.5564755], [113.9671689, 22.5566794], [113.9672827, 22.5565263], [113.9673905, 22.5565946], [113.9673149, 22.5566962], [113.9674371, 22.5567737], [113.9673659, 22.5568695], [113.967198, 22.556763], [113.9671458, 22.5568333], [113.966961, 22.5567162], [113.9668736, 22.5568337], [113.9667659, 22.5567654]]]]}}, {"type": "Feature", "id": "way/1426345782", "properties": {"tags": {"building": "school"}, "heightStatus": "unknown", "source": "OpenStreetMap", "license": "ODbL-1.0"}, "geometry": {"type": "MultiPolygon", "coordinates": [[[[113.9699548, 22.555564], [113.9699619, 22.5553038], [113.9702279, 22.5553101], [113.9702256, 22.5553909], [113.9700272, 22.5553862], [113.9700245, 22.5554848], [113.9702229, 22.5554895], [113.9702207, 22.5555703], [113.9699548, 22.555564]]]]}}, {"type": "Feature", "id": "way/1426346791", "properties": {"tags": {"addr:housename": "首地·容御", "addr:housename:zh": "首地·容御", "building": "apartments", "building:levels": "18", "name": "5栋", "name:zh": "5栋"}, "heightStatus": "levels_only_unverified", "source": "OpenStreetMap", "license": "ODbL-1.0"}, "geometry": {"type": "MultiPolygon", "coordinates": [[[[113.9667806, 22.5540194], [113.9667821, 22.5539262], [113.9668599, 22.5539272], [113.966861, 22.5538572], [113.9669824, 22.5538588], [113.9669813, 22.5539288], [113.9670943, 22.5539303], [113.9670954, 22.5538603], [113.9672169, 22.5538619], [113.9672158, 22.5539319], [113.9672936, 22.553933], [113.9672921, 22.5540262], [113.9667806, 22.5540194]]]]}}, {"type": "Feature", "id": "way/1426346792", "properties": {"tags": {"addr:housename": "首地·容御", "addr:housename:zh": "首地·容御", "building": "apartments", "building:levels": "30", "name": "3栋", "name:zh": "3栋"}, "heightStatus": "levels_only_unverified", "source": "OpenStreetMap", "license": "ODbL-1.0"}, "geometry": {"type": "MultiPolygon", "coordinates": [[[[113.9682541, 22.5540413], [113.968256, 22.5539235], [113.9683338, 22.5539246], [113.9683349, 22.5538546], [113.9684761, 22.5538564], [113.968475, 22.5539265], [113.9686306, 22.5539285], [113.9686317, 22.5538585], [113.968773, 22.5538604], [113.9687719, 22.5539304], [113.9689275, 22.5539325], [113.9689292, 22.553826], [113.9690704, 22.5538279], [113.9690688, 22.5539343], [113.9691466, 22.5539354], [113.9691448, 22.5540531], [113.9682541, 22.5540413]]]]}}, {"type": "Feature", "id": "way/1426346793", "properties": {"tags": {"addr:housename": "首地·容御", "addr:housename:zh": "首地·容御", "building": "apartments", "building:levels": "30", "name": "4栋", "name:zh": "4栋"}, "heightStatus": "levels_only_unverified", "source": "OpenStreetMap", "license": "ODbL-1.0"}, "geometry": {"type": "MultiPolygon", "coordinates": [[[[113.9674569, 22.554028], [113.9674587, 22.5539103], [113.9675365, 22.5539113], [113.9675376, 22.5538413], [113.9676789, 22.5538432], [113.9676778, 22.5539132], [113.9678334, 22.5539153], [113.9678345, 22.5538453], [113.9679758, 22.5538471], [113.9679747, 22.5539172], [113.9680525, 22.5539182], [113.9680507, 22.5540359], [113.9674569, 22.554028]]]]}}, {"type": "Feature", "id": "way/1426350892", "properties": {"tags": {"building": "commercial"}, "heightStatus": "unknown", "source": "OpenStreetMap", "license": "ODbL-1.0"}, "geometry": {"type": "MultiPolygon", "coordinates": [[[[113.974909, 22.5549631], [113.9749832, 22.5549322], [113.9749537, 22.5548718], [113.9751365, 22.5547957], [113.9751946, 22.5548927], [113.9752574, 22.5549793], [113.9753276, 22.555061], [113.9754047, 22.5551373], [113.9754881, 22.5552076], [113.9755774, 22.5552715], [113.9756719, 22.5553286], [113.975771, 22.5553785], [113.9758742, 22.555421], [113.9759807, 22.5554557], [113.9759813, 22.5555514], [113.9760723, 22.5555542], [113.9761634, 22.5555515], [113.9761589, 22.5556786], [113.9760573, 22.5556836], [113.9759556, 22.5556817], [113.9758543, 22.5556728], [113.975754, 22.555657], [113.9756553, 22.5556343], [113.9755587, 22.5556048], [113.9754648, 22.5555689], [113.975374, 22.5555265], [113.9754158, 22.555469], [113.9753267, 22.5554128], [113.9752425, 22.5553507], [113.9751636, 22.5552829], [113.9750904, 22.5552098], [113.9750233, 22.5551318], [113.9749627, 22.5550494], [113.974909, 22.5549631]]]]}}, {"type": "Feature", "id": "way/1426350893", "properties": {"tags": {"building": "commercial"}, "heightStatus": "unknown", "source": "OpenStreetMap", "license": "ODbL-1.0"}, "geometry": {"type": "MultiPolygon", "coordinates": [[[[113.9752402, 22.5548408], [113.9752905, 22.5546579], [113.9753858, 22.5546803], [113.9754784, 22.5547106], [113.9755677, 22.5547485], [113.9756529, 22.5547938], [113.9757333, 22.5548461], [113.9758081, 22.554905], [113.9758768, 22.5549699], [113.9759389, 22.5550403], [113.9759937, 22.5551157], [113.9760408, 22.5551953], [113.9760799, 22.5552786], [113.9758925, 22.5553537], [113.9758375, 22.5552798], [113.9757763, 22.5552101], [113.9757094, 22.5551452], [113.9756371, 22.5550853], [113.97556, 22.5550309], [113.9754784, 22.5549823], [113.9753929, 22.5549398], [113.975304, 22.5549037], [113.9753264, 22.554861], [113.9752402, 22.5548408]]]]}}, {"type": "Feature", "id": "way/1426350897", "properties": {"tags": {"addr:housename": "侨城坊", "addr:housename:zh": "侨城坊", "building": "commercial", "name": "10栋", "name:zh": "10栋"}, "heightStatus": "unknown", "source": "OpenStreetMap", "license": "ODbL-1.0"}, "geometry": {"type": "MultiPolygon", "coordinates": [[[[113.9758815, 22.5549124], [113.9761012, 22.554719], [113.9763083, 22.5549197], [113.9760886, 22.5551131], [113.9758815, 22.5549124]]]]}}, {"type": "Feature", "id": "way/1426350898", "properties": {"tags": {"addr:housename": "侨城坊", "addr:housename:zh": "侨城坊", "building": "commercial", "name": "11栋", "name:zh": "11栋"}, "heightStatus": "unknown", "source": "OpenStreetMap", "license": "ODbL-1.0"}, "geometry": {"type": "MultiPolygon", "coordinates": [[[[113.9755683, 22.5546145], [113.975788, 22.5544211], [113.9759952, 22.5546218], [113.9757755, 22.5548152], [113.9755683, 22.5546145]]]]}}, {"type": "Feature", "id": "way/1426350899", "properties": {"tags": {"addr:housename": "侨城坊", "addr:housename:zh": "侨城坊", "building": "commercial", "building:levels": "35", "height": "159", "name": "1栋", "name:zh": "1栋"}, "heightStatus": "height_tag_unverified", "source": "OpenStreetMap", "license": "ODbL-1.0"}, "geometry": {"type": "MultiPolygon", "coordinates": [[[[113.9750481, 22.5543627], [113.9754047, 22.5540488], [113.9756057, 22.5542436], [113.9752491, 22.5545575], [113.9750481, 22.5543627]]]]}}, {"type": "Feature", "id": "way/1426350900", "properties": {"tags": {"addr:housename": "侨城坊", "addr:housename:zh": "侨城坊", "building": "commercial", "building:levels": "35", "height": "159", "name": "2栋", "name:zh": "2栋"}, "heightStatus": "height_tag_unverified", "source": "OpenStreetMap", "license": "ODbL-1.0"}, "geometry": {"type": "MultiPolygon", "coordinates": [[[[113.9740934, 22.5548281], [113.9744723, 22.5544946], [113.9746321, 22.5546494], [113.9742532, 22.5549829], [113.9740934, 22.5548281]]]]}}, {"type": "Feature", "id": "way/1426350901", "properties": {"tags": {"addr:housename": "侨城坊", "addr:housename:zh": "侨城坊", "building": "commercial", "building:levels": "16", "name": "3栋", "name:zh": "3栋"}, "heightStatus": "levels_only_unverified", "source": "OpenStreetMap", "license": "ODbL-1.0"}, "geometry": {"type": "MultiPolygon", "coordinates": [[[[113.9744457, 22.5551559], [113.9746095, 22.5550117], [113.9748621, 22.5552565], [113.9746983, 22.5554007], [113.9744457, 22.5551559]]]]}}, {"type": "Feature", "id": "way/1426350902", "properties": {"tags": {"addr:housename": "侨城坊", "addr:housename:zh": "侨城坊", "building": "commercial", "building:levels": "16", "name": "4栋", "name:zh": "4栋"}, "heightStatus": "levels_only_unverified", "source": "OpenStreetMap", "license": "ODbL-1.0"}, "geometry": {"type": "MultiPolygon", "coordinates": [[[[113.9747723, 22.5554718], [113.9749361, 22.5553276], [113.9751888, 22.5555723], [113.975025, 22.5557165], [113.9747723, 22.5554718]]]]}}, {"type": "Feature", "id": "way/1426350903", "properties": {"tags": {"addr:housename": "侨城坊", "addr:housename:zh": "侨城坊", "building": "commercial", "building:levels": "16", "name": "6栋", "name:zh": "6栋"}, "heightStatus": "levels_only_unverified", "source": "OpenStreetMap", "license": "ODbL-1.0"}, "geometry": {"type": "MultiPolygon", "coordinates": [[[[113.9756405, 22.5559809], [113.975708, 22.5557815], [113.9760575, 22.5558823], [113.97599, 22.5560818], [113.9756405, 22.5559809]]]]}}, {"type": "Feature", "id": "way/1426350904", "properties": {"tags": {"addr:housename": "侨城坊", "addr:housename:zh": "侨城坊", "building": "commercial", "building:levels": "16", "name": "5栋", "name:zh": "5栋"}, "heightStatus": "levels_only_unverified", "source": "OpenStreetMap", "license": "ODbL-1.0"}, "geometry": {"type": "MultiPolygon", "coordinates": [[[[113.975189, 22.5558511], [113.9752565, 22.5556516], [113.9756059, 22.5557524], [113.9755384, 22.5559519], [113.975189, 22.5558511]]]]}}, {"type": "Feature", "id": "way/1426350905", "properties": {"tags": {"building": "roof"}, "heightStatus": "unknown", "source": "OpenStreetMap", "license": "ODbL-1.0"}, "geometry": {"type": "MultiPolygon", "coordinates": [[[[113.9744447, 22.5560097], [113.9744455, 22.5559178], [113.9746205, 22.5559191], [113.9746211, 22.5558473], [113.974514, 22.5558465], [113.974515, 22.5557252], [113.9747214, 22.5557267], [113.9747198, 22.5559198], [113.9747747, 22.5559202], [113.9747739, 22.5560121], [113.9744447, 22.5560097]]]]}}, {"type": "Feature", "id": "way/1426426627", "properties": {"tags": {"addr:housename": "海龙苑", "addr:housename:zh": "海龙苑", "building": "apartments", "building:levels": "9", "name": "B座", "name:zh": "B座"}, "heightStatus": "levels_only_unverified", "source": "OpenStreetMap", "license": "ODbL-1.0"}, "geometry": {"type": "MultiPolygon", "coordinates": [[[[113.9702505, 22.5609599], [113.9704569, 22.5608804], [113.9704887, 22.5609508], [113.9702823, 22.5610303], [113.9702505, 22.5609599]]]]}}, {"type": "Feature", "id": "way/1426426628", "properties": {"tags": {"addr:housename": "海龙苑", "addr:housename:zh": "海龙苑", "building": "apartments", "building:levels": "9", "name": "C座", "name:zh": "C座"}, "heightStatus": "levels_only_unverified", "source": "OpenStreetMap", "license": "ODbL-1.0"}, "geometry": {"type": "MultiPolygon", "coordinates": [[[[113.9699905, 22.56106], [113.9701841, 22.5609855], [113.9702159, 22.5610558], [113.9700223, 22.5611304], [113.9699905, 22.56106]]]]}}, {"type": "Feature", "id": "way/1426426629", "properties": {"tags": {"addr:housename": "海龙苑", "addr:housename:zh": "海龙苑", "building": "apartments", "building:levels": "9", "name": "D座", "name:zh": "D座"}, "heightStatus": "levels_only_unverified", "source": "OpenStreetMap", "license": "ODbL-1.0"}, "geometry": {"type": "MultiPolygon", "coordinates": [[[[113.9697166, 22.5610021], [113.9698183, 22.5609629], [113.9698811, 22.5611021], [113.9699905, 22.56106], [113.9700223, 22.5611304], [113.9698287, 22.5612049], [113.9697969, 22.5611345], [113.9698342, 22.5611202], [113.9698025, 22.5610498], [113.9697477, 22.5610709], [113.9697166, 22.5610021]]]]}}, {"type": "Feature", "id": "way/1426426630", "properties": {"tags": {"addr:housename": "海龙苑", "addr:housename:zh": "海龙苑", "building": "apartments", "building:levels": "9", "name": "A座", "name:zh": "A座"}, "heightStatus": "levels_only_unverified", "source": "OpenStreetMap", "license": "ODbL-1.0"}, "geometry": {"type": "MultiPolygon", "coordinates": [[[[113.9704569, 22.5608804], [113.9705526, 22.5608436], [113.9705685, 22.5608101], [113.9705376, 22.5607975], [113.9705472, 22.5607774], [113.9705294, 22.5607701], [113.9705525, 22.5607218], [113.9707469, 22.5608011], [113.9707238, 22.5608494], [113.970706, 22.5608421], [113.9706964, 22.5608623], [113.9706521, 22.5608442], [113.9706265, 22.5608977], [113.9704887, 22.5609508], [113.9704569, 22.5608804]]]]}}, {"type": "Feature", "id": "way/1426426634", "properties": {"tags": {"addr:housename": "鼎胜·林栖园", "addr:housename:zh": "鼎胜·林栖园", "building": "apartments", "building:levels": "9", "name": "B座", "name:zh": "B座"}, "heightStatus": "levels_only_unverified", "source": "OpenStreetMap", "license": "ODbL-1.0"}, "geometry": {"type": "MultiPolygon", "coordinates": [[[[113.9683362, 22.5616398], [113.9688926, 22.5614277], [113.9689411, 22.5615362], [113.9683848, 22.5617484], [113.9683362, 22.5616398]]]]}}, {"type": "Feature", "id": "way/1426426635", "properties": {"tags": {"addr:housename": "鼎胜·林栖园", "addr:housename:zh": "鼎胜·林栖园", "building": "apartments", "building:levels": "9", "name": "C座", "name:zh": "C座"}, "heightStatus": "levels_only_unverified", "source": "OpenStreetMap", "license": "ODbL-1.0"}, "geometry": {"type": "MultiPolygon", "coordinates": [[[[113.9682135, 22.5612095], [113.9688612, 22.5610669], [113.9688875, 22.5611687], [113.9682398, 22.5613113], [113.9682135, 22.5612095]]]]}}, {"type": "Feature", "id": "way/1426426636", "properties": {"tags": {"addr:housename": "鼎胜·林栖园", "addr:housename:zh": "鼎胜·林栖园", "building": "apartments", "building:levels": "9", "name": "A座", "name:zh": "A座"}, "heightStatus": "levels_only_unverified", "source": "OpenStreetMap", "license": "ODbL-1.0"}, "geometry": {"type": "MultiPolygon", "coordinates": [[[[113.9690308, 22.5613749], [113.969431, 22.5612223], [113.9693881, 22.5611264], [113.969515, 22.561078], [113.9695579, 22.5611739], [113.9695925, 22.5611607], [113.9696411, 22.5612693], [113.9690793, 22.5614835], [113.9690308, 22.5613749]]]]}}, {"type": "Feature", "id": "way/1434749063", "properties": {"tags": {"building": "apartments"}, "heightStatus": "unknown", "source": "OpenStreetMap", "license": "ODbL-1.0"}, "geometry": {"type": "MultiPolygon", "coordinates": [[[[113.9667154, 22.5556639], [113.9667189, 22.5554232], [113.9668357, 22.5554247], [113.9668337, 22.5555576], [113.9672093, 22.5555624], [113.9672112, 22.5554294], [113.967328, 22.5554309], [113.9673244, 22.5556716], [113.9667154, 22.5556639]]]]}}, {"type": "Feature", "id": "way/1434749064", "properties": {"tags": {"building": "apartments"}, "heightStatus": "unknown", "source": "OpenStreetMap", "license": "ODbL-1.0"}, "geometry": {"type": "MultiPolygon", "coordinates": [[[[113.9668348, 22.5552908], [113.9668369, 22.5551529], [113.9672123, 22.5551577], [113.9672102, 22.5552956], [113.9668348, 22.5552908]]]]}}, {"type": "Feature", "id": "way/1434749065", "properties": {"tags": {"building": "commercial"}, "heightStatus": "unknown", "source": "OpenStreetMap", "license": "ODbL-1.0"}, "geometry": {"type": "MultiPolygon", "coordinates": [[[[113.9667324, 22.5543945], [113.9667358, 22.5541718], [113.9669303, 22.5541742], [113.9669292, 22.554246], [113.9668125, 22.5542445], [113.9668113, 22.5543234], [113.9670944, 22.554327], [113.9670955, 22.5542481], [113.9669788, 22.5542466], [113.9669799, 22.5541749], [113.9671744, 22.5541773], [113.9671711, 22.5544], [113.9667324, 22.5543945]]]]}}, {"type": "Feature", "id": "way/1434749066", "properties": {"tags": {"building": "commercial"}, "heightStatus": "unknown", "source": "OpenStreetMap", "license": "ODbL-1.0"}, "geometry": {"type": "MultiPolygon", "coordinates": [[[[113.9672786, 22.5549677], [113.9672837, 22.5546215], [113.9676254, 22.5546259], [113.9676234, 22.5547628], [113.9678562, 22.5547658], [113.9678613, 22.5544244], [113.9681685, 22.5544283], [113.9681603, 22.5549789], [113.9672786, 22.5549677]]]]}}, {"type": "Feature", "id": "way/1434749067", "properties": {"tags": {"addr:housename": "侨香诺园", "addr:housename:en": "Qiaoxiang Nuoyuan", "addr:housename:zh": "侨香诺园", "building": "apartments", "building:levels": "27", "name": "1栋", "name:en": "Block 1", "name:zh": "1栋"}, "heightStatus": "levels_only_unverified", "source": "OpenStreetMap", "license": "ODbL-1.0"}, "geometry": {"type": "MultiPolygon", "coordinates": [[[[113.9690478, 22.5545718], [113.9690699, 22.5545519], [113.9690562, 22.554539], [113.9690974, 22.5545018], [113.9691487, 22.5545501], [113.9691677, 22.5545329], [113.96919, 22.5545539], [113.9692638, 22.554487], [113.9693, 22.5545212], [113.9693271, 22.5544966], [113.9694005, 22.5545658], [113.9693734, 22.5545903], [113.9694143, 22.5546288], [113.9693405, 22.5546956], [113.969267, 22.5546265], [113.9692147, 22.5546739], [113.9691428, 22.5546062], [113.969135, 22.5546132], [113.9691214, 22.5546004], [113.9690993, 22.5546203], [113.9690478, 22.5545718]]]]}}, {"type": "Feature", "id": "way/1434749068", "properties": {"tags": {"addr:housename": "侨香诺园", "addr:housename:en": "Qiaoxiang Nuoyuan", "addr:housename:zh": "侨香诺园", "building": "apartments", "building:levels": "27", "name": "2栋", "name:en": "Block 2", "name:zh": "2栋"}, "heightStatus": "levels_only_unverified", "source": "OpenStreetMap", "license": "ODbL-1.0"}, "geometry": {"type": "MultiPolygon", "coordinates": [[[[113.9692743, 22.5550702], [113.9692964, 22.5550503], [113.9692827, 22.5550375], [113.9693239, 22.5550002], [113.9693752, 22.5550485], [113.9693942, 22.5550313], [113.9694165, 22.5550523], [113.9694903, 22.5549855], [113.9695265, 22.5550196], [113.9695536, 22.554995], [113.969627, 22.5550642], [113.9695999, 22.5550888], [113.9696408, 22.5551272], [113.969567, 22.5551941], [113.9694935, 22.5551249], [113.9694412, 22.5551723], [113.9693693, 22.5551046], [113.9693615, 22.5551117], [113.9693479, 22.5550988], [113.9693258, 22.5551188], [113.9692743, 22.5550702]]]]}}, {"type": "Feature", "id": "way/1434749069", "properties": {"tags": {"addr:housename": "侨香诺园", "addr:housename:en": "Qiaoxiang Nuoyuan", "addr:housename:zh": "侨香诺园", "building": "apartments", "building:levels": "27", "name": "3栋", "name:en": "Block 3", "name:zh": "3栋"}, "heightStatus": "levels_only_unverified", "source": "OpenStreetMap", "license": "ODbL-1.0"}, "geometry": {"type": "MultiPolygon", "coordinates": [[[[113.9688278, 22.5549602], [113.9688428, 22.5549466], [113.9688291, 22.5549338], [113.9688667, 22.5548998], [113.9689076, 22.5549383], [113.9689363, 22.5549123], [113.9690906, 22.5550577], [113.9690619, 22.5550837], [113.9691028, 22.5551222], [113.9690652, 22.5551562], [113.9690516, 22.5551434], [113.9690366, 22.5551569], [113.9689685, 22.5550927], [113.9689312, 22.5551265], [113.9688585, 22.5550581], [113.9688959, 22.5550243], [113.9688278, 22.5549602]]]]}}]}