{"type": "FeatureCollection", "features": [{"type": "Feature", "id": "way/292349358", "properties": {"tags": {"building": "yes"}, "heightStatus": "unknown", "source": "OpenStreetMap", "license": "ODbL-1.0"}, "geometry": {"type": "MultiPolygon", "coordinates": [[[[113.9672026, 22.5713979], [113.9672104, 22.5710103], [113.9681049, 22.5710255], [113.9680972, 22.5714131], [113.9672026, 22.5713979]]]]}}, {"type": "Feature", "id": "way/292349363", "properties": {"tags": {"building": "yes"}, "heightStatus": "unknown", "source": "OpenStreetMap", "license": "ODbL-1.0"}, "geometry": {"type": "MultiPolygon", "coordinates": [[[[113.9684576, 22.5710962], [113.9684588, 22.5706866], [113.9688182, 22.5706876], [113.9688169, 22.5710972], [113.9684576, 22.5710962]]]]}}, {"type": "Feature", "id": "way/292349377", "properties": {"tags": {"building": "yes"}, "heightStatus": "unknown", "source": "OpenStreetMap", "license": "ODbL-1.0"}, "geometry": {"type": "MultiPolygon", "coordinates": [[[[113.9688445, 22.5708663], [113.9688457, 22.5706911], [113.9693184, 22.5706938], [113.9693172, 22.5708689], [113.9688445, 22.5708663]]]]}}, {"type": "Feature", "id": "way/292349380", "properties": {"tags": {"building": "yes"}, "heightStatus": "unknown", "source": "OpenStreetMap", "license": "ODbL-1.0"}, "geometry": {"type": "MultiPolygon", "coordinates": [[[[113.9688435, 22.5710951], [113.9688446, 22.5709205], [113.9693167, 22.5709232], [113.9693155, 22.5710977], [113.9688435, 22.5710951]]]]}}, {"type": "Feature", "id": "way/292349397", "properties": {"tags": {"building": "yes"}, "heightStatus": "unknown", "source": "OpenStreetMap", "license": "ODbL-1.0"}, "geometry": {"type": "MultiPolygon", "coordinates": [[[[113.9683192, 22.5714197], [113.9683198, 22.5712569], [113.9691684, 22.5712594], [113.9691679, 22.5714222], [113.9683192, 22.5714197]]]]}}, {"type": "Feature", "id": "way/292352253", "properties": {"tags": {"amenity": "fuel", "building": "roof", "layer": "1"}, "heightStatus": "unknown", "source": "OpenStreetMap", "license": "ODbL-1.0"}, "geometry": {"type": "MultiPolygon", "coordinates": [[[[113.9675929, 22.5687164], [113.9677477, 22.5686332], [113.9678816, 22.5688456], [113.9677267, 22.5689288], [113.9675929, 22.5687164]]]]}}, {"type": "Feature", "id": "way/362725361", "properties": {"tags": {"building": "yes", "name:en": "Xili Vehicle Management Center", "office": "government"}, "heightStatus": "unknown", "source": "OpenStreetMap", "license": "ODbL-1.0"}, "geometry": {"type": "MultiPolygon", "coordinates": [[[[113.9665448, 22.5660272], [113.9666619, 22.5657623], [113.9671718, 22.5659544], [113.9670547, 22.5662194], [113.9665448, 22.5660272]]]]}}, {"type": "Feature", "id": "way/553085836", "properties": {"tags": {"amenity": "toilets", "building": "yes"}, "heightStatus": "unknown", "source": "OpenStreetMap", "license": "ODbL-1.0"}, "geometry": {"type": "MultiPolygon", "coordinates": [[[[113.9714058, 22.5708408], [113.971406, 22.5707252], [113.9715056, 22.5707253], [113.9715055, 22.5707733], [113.9714753, 22.5707733], [113.9714753, 22.5707858], [113.9714752, 22.5708409], [113.9714058, 22.5708408]]]]}}, {"type": "Feature", "id": "way/574814071", "properties": {"tags": {"building": "residential"}, "heightStatus": "unknown", "source": "OpenStreetMap", "license": "ODbL-1.0"}, "geometry": {"type": "MultiPolygon", "coordinates": [[[[113.9745206, 22.5654057], [113.9746747, 22.5653108], [113.9747214, 22.5653712], [113.9747727, 22.5653324], [113.9747307, 22.5652591], [113.9748381, 22.5652116], [113.9748661, 22.565272], [113.9749455, 22.5652375], [113.9749128, 22.5651685], [113.9750389, 22.5651254], [113.9750763, 22.5651987], [113.975151, 22.5651728], [113.9751323, 22.5650866], [113.9752631, 22.5650478], [113.9752818, 22.5651168], [113.9753565, 22.5651081], [113.9753985, 22.565203], [113.9751603, 22.5652806], [113.9750576, 22.5653108], [113.9749456, 22.5653669], [113.9748335, 22.5654337], [113.9747027, 22.5655092], [113.9746186, 22.5655825], [113.9745439, 22.5655135], [113.9745719, 22.565479], [113.9745206, 22.5654057]]]]}}, {"type": "Feature", "id": "way/581971497", "properties": {"tags": {"building": "yes"}, "heightStatus": "unknown", "source": "OpenStreetMap", "license": "ODbL-1.0"}, "geometry": {"type": "MultiPolygon", "coordinates": [[[[113.966809, 22.5670012], [113.9671347, 22.5663457], [113.9672216, 22.5663825], [113.9668959, 22.567038], [113.966809, 22.5670012]]]]}}, {"type": "Feature", "id": "way/581971500", "properties": {"tags": {"building": "yes"}, "heightStatus": "unknown", "source": "OpenStreetMap", "license": "ODbL-1.0"}, "geometry": {"type": "MultiPolygon", "coordinates": [[[[113.9665019, 22.5661752], [113.9665294, 22.5661147], [113.9667915, 22.5662163], [113.966764, 22.5662768], [113.9665019, 22.5661752]]]]}}, {"type": "Feature", "id": "way/608297716", "properties": {"tags": {"building": "yes", "layer": "1"}, "heightStatus": "unknown", "source": "OpenStreetMap", "license": "ODbL-1.0"}, "geometry": {"type": "MultiPolygon", "coordinates": [[[[113.9710845, 22.5653104], [113.9712579, 22.565281], [113.9716014, 22.5650813], [113.9716411, 22.5651309], [113.971536, 22.5651999], [113.971515, 22.5652279], [113.9715103, 22.5652603], [113.971529, 22.5652926], [113.9716129, 22.5654388], [113.9714514, 22.5655345], [113.9713641, 22.5653872], [113.9713394, 22.5653734], [113.9713198, 22.5653643], [113.9713004, 22.5653611], [113.9712685, 22.5653594], [113.971104, 22.5653937], [113.9710845, 22.5653104]]]]}}, {"type": "Feature", "id": "way/1340470402", "properties": {"tags": {"building": "train_station", "building:levels": "0", "building:levels:underground": "2", "layer": "-1", "location": "underground", "name": "龙井站", "name:en": "Longjing Station", "name:zh": "龙井站", "start_date": "2016-10-28", "wikidata": "Q27728574", "wikipedia": "zh:龙井站 (深圳)"}, "heightStatus": "levels_only_unverified", "source": "OpenStreetMap", "license": "ODbL-1.0"}, "geometry": {"type": "MultiPolygon", "coordinates": [[[[113.9685654, 22.5679416], [113.9687003, 22.5678663], [113.9685727, 22.5676715], [113.968709, 22.5675954], [113.968721, 22.5676138], [113.9699417, 22.5669293], [113.9699234, 22.5669036], [113.9700068, 22.5664285], [113.9704037, 22.5662025], [113.9704411, 22.5662571], [113.9700619, 22.566475], [113.9699884, 22.5668914], [113.9699959, 22.5668989], [113.9704253, 22.5666618], [113.9705563, 22.5668619], [113.9705948, 22.5668404], [113.9706182, 22.5668762], [113.9702944, 22.5670571], [113.9702784, 22.5670328], [113.9702005, 22.5670763], [113.9702067, 22.5670858], [113.9701358, 22.5671254], [113.9701294, 22.5671157], [113.9699989, 22.5671887], [113.969958, 22.5671262], [113.9694781, 22.5673943], [113.9695235, 22.5674637], [113.9691776, 22.5676569], [113.9691444, 22.5676061], [113.969439, 22.5674416], [113.9694275, 22.567424], [113.9689699, 22.5676796], [113.9690146, 22.5677478], [113.9687352, 22.5679038], [113.9687535, 22.5679317], [113.9686111, 22.5680113], [113.9685654, 22.5679416]]]]}}, {"type": "Feature", "id": "way/1360544288", "properties": {"tags": {"building": "yes"}, "heightStatus": "unknown", "source": "OpenStreetMap", "license": "ODbL-1.0"}, "geometry": {"type": "MultiPolygon", "coordinates": [[[[113.9709006, 22.5678457], [113.9710347, 22.5677708], [113.97102, 22.5677479], [113.9711635, 22.5676661], [113.9711628, 22.5675361], [113.9712674, 22.5675336], [113.9712681, 22.5676117], [113.9713351, 22.5675708], [113.9713338, 22.5675274], [113.9713459, 22.5674915], [113.9713781, 22.5674569], [113.9714163, 22.5674308], [113.9714545, 22.5674191], [113.9714988, 22.5674172], [113.9715511, 22.5674271], [113.9715712, 22.567442], [113.9715953, 22.5674222], [113.9715323, 22.5673776], [113.9716154, 22.5672773], [113.9717227, 22.5673516], [113.9718803, 22.5672618], [113.971893, 22.5672785], [113.9720124, 22.5672067], [113.9720754, 22.5672921], [113.971995, 22.5673429], [113.9720044, 22.567359], [113.9716382, 22.5675634], [113.9716409, 22.5675819], [113.9716345, 22.5676005], [113.9716262, 22.5676185], [113.9716094, 22.5676352], [113.9715819, 22.5676538], [113.971547, 22.5676742], [113.9715102, 22.5676866], [113.9714733, 22.5676915], [113.9714418, 22.5676891], [113.9714237, 22.5676822], [113.9714082, 22.5676754], [113.9711018, 22.5678482], [113.9711152, 22.5678655], [113.9709794, 22.5679488], [113.9709006, 22.5678457]]]]}}, {"type": "Feature", "id": "way/1360544289", "properties": {"tags": {"building": "yes"}, "heightStatus": "unknown", "source": "OpenStreetMap", "license": "ODbL-1.0"}, "geometry": {"type": "MultiPolygon", "coordinates": [[[[113.9678979, 22.5641948], [113.9679167, 22.5640636], [113.9687964, 22.5641626], [113.9687777, 22.5644301], [113.9686006, 22.5645639], [113.9685497, 22.5645317], [113.9683458, 22.5645317], [113.9682171, 22.5645961], [113.9679998, 22.5643113], [113.9681393, 22.5643137], [113.9681447, 22.5642469], [113.9679489, 22.5642295], [113.9678979, 22.5641948]]]]}}, {"type": "Feature", "id": "way/1360544290", "properties": {"tags": {"building": "commercial"}, "heightStatus": "unknown", "source": "OpenStreetMap", "license": "ODbL-1.0"}, "geometry": {"type": "MultiPolygon", "coordinates": [[[[113.96964, 22.563941], [113.9696829, 22.5639422], [113.9696829, 22.5639026], [113.9700182, 22.5639026], [113.9700168, 22.5641725], [113.9699806, 22.5641986], [113.9696427, 22.5641986], [113.96964, 22.563941]]]]}}, {"type": "Feature", "id": "way/1360544291", "properties": {"tags": {"building": "retail"}, "heightStatus": "unknown", "source": "OpenStreetMap", "license": "ODbL-1.0"}, "geometry": {"type": "MultiPolygon", "coordinates": [[[[113.9688936, 22.5646602], [113.9688977, 22.5643086], [113.9691842, 22.5643114], [113.9691811, 22.5645743], [113.969334, 22.5645758], [113.9693371, 22.5643135], [113.9696192, 22.5643164], [113.9696152, 22.564661], [113.9697694, 22.5646625], [113.9697735, 22.5643209], [113.970072, 22.5643239], [113.9700662, 22.5648239], [113.9693337, 22.5648166], [113.9693347, 22.5647349], [113.9690029, 22.5647316], [113.9689596, 22.5646915], [113.9689584, 22.5646608], [113.9688936, 22.5646602]]]]}}, {"type": "Feature", "id": "way/1426310264", "properties": {"tags": {"addr:housename": "桃源村", "addr:housename:en": "Taoyuancun", "addr:housename:zh": "桃源村", "building": "apartments", "building:levels": "20", "name": "103栋", "name:zh": "103栋"}, "heightStatus": "levels_only_unverified", "source": "OpenStreetMap", "license": "ODbL-1.0"}, "geometry": {"type": "MultiPolygon", "coordinates": [[[[113.9743076, 22.5635086], [113.9744167, 22.5634681], [113.9743969, 22.5634225], [113.9744149, 22.5634159], [113.974407, 22.5633977], [113.974506, 22.563361], [113.9745139, 22.5633792], [113.9745319, 22.5633725], [113.9745511, 22.5634166], [113.9746559, 22.5633778], [113.9746692, 22.5634083], [113.9746854, 22.5634456], [113.9746449, 22.5634606], [113.9745806, 22.5634844], [113.974637, 22.5636142], [113.9746189, 22.5636209], [113.9746268, 22.5636391], [113.9745279, 22.5636758], [113.97452, 22.5636576], [113.9745019, 22.5636643], [113.9744821, 22.5636187], [113.974373, 22.5636591], [113.9743544, 22.5636164], [113.9743728, 22.5636096], [113.9743629, 22.5635869], [113.9744476, 22.5635555], [113.9744391, 22.5635358], [113.9743543, 22.5635672], [113.9743445, 22.5635445], [113.9743262, 22.5635513], [113.9743076, 22.5635086]]]]}}, {"type": "Feature", "id": "way/1426310265", "properties": {"tags": {"addr:housename": "桃源村", "addr:housename:en": "Taoyuancun", "addr:housename:zh": "桃源村", "building": "apartments", "building:levels": "20", "name": "102栋", "name:zh": "102栋"}, "heightStatus": "levels_only_unverified", "source": "OpenStreetMap", "license": "ODbL-1.0"}, "geometry": {"type": "MultiPolygon", "coordinates": [[[[113.9746449, 22.5634606], [113.9746854, 22.5634456], [113.9746692, 22.5634083], [113.9747335, 22.5633845], [113.9746771, 22.5632547], [113.9746952, 22.563248], [113.9746873, 22.5632298], [113.9747862, 22.5631931], [113.9747941, 22.5632113], [113.9748122, 22.5632046], [113.974832, 22.5632502], [113.9749411, 22.5632098], [113.9749597, 22.5632525], [113.9749414, 22.5632593], [113.9749512, 22.563282], [113.9748665, 22.5633134], [113.974875, 22.5633331], [113.9749598, 22.5633017], [113.9749696, 22.5633244], [113.9749879, 22.5633176], [113.9750065, 22.5633603], [113.9748974, 22.5634008], [113.9749172, 22.5634463], [113.9748992, 22.563453], [113.9749071, 22.5634712], [113.9748081, 22.5635079], [113.9748002, 22.5634897], [113.9747822, 22.5634964], [113.974763, 22.5634522], [113.9746582, 22.5634911], [113.9746449, 22.5634606]]]]}}, {"type": "Feature", "id": "way/1426310266", "properties": {"tags": {"addr:housename": "桃源村", "addr:housename:en": "Taoyuancun", "addr:housename:zh": "桃源村", "building": "apartments", "building:levels": "20", "name": "105栋", "name:zh": "105栋"}, "heightStatus": "levels_only_unverified", "source": "OpenStreetMap", "license": "ODbL-1.0"}, "geometry": {"type": "MultiPolygon", "coordinates": [[[[113.9735845, 22.5639103], [113.9736945, 22.563872], [113.9736757, 22.5638261], [113.9736939, 22.5638198], [113.9736864, 22.5638014], [113.9737862, 22.5637667], [113.9737937, 22.563785], [113.9738119, 22.5637787], [113.9738301, 22.5638232], [113.9739357, 22.5637864], [113.9739483, 22.5638172], [113.9739636, 22.5638547], [113.9739229, 22.5638689], [113.973858, 22.5638915], [113.9739114, 22.5640224], [113.9738932, 22.5640287], [113.9739007, 22.5640471], [113.9738009, 22.5640818], [113.9737934, 22.5640635], [113.9737752, 22.5640698], [113.9737565, 22.5640238], [113.9736465, 22.5640621], [113.9736289, 22.564019], [113.9736473, 22.5640126], [113.973638, 22.5639897], [113.9737234, 22.56396], [113.9737153, 22.5639401], [113.9736299, 22.5639699], [113.9736206, 22.563947], [113.9736021, 22.5639534], [113.9735845, 22.5639103]]]]}}, {"type": "Feature", "id": "way/1426310267", "properties": {"tags": {"addr:housename": "桃源村", "addr:housename:en": "Taoyuancun", "addr:housename:zh": "桃源村", "building": "apartments", "building:levels": "20", "name": "104栋", "name:zh": "104栋"}, "heightStatus": "levels_only_unverified", "source": "OpenStreetMap", "license": "ODbL-1.0"}, "geometry": {"type": "MultiPolygon", "coordinates": [[[[113.9739229, 22.5638689], [113.9739636, 22.5638547], [113.9739483, 22.5638172], [113.9740132, 22.5637946], [113.9739597, 22.5636637], [113.9739779, 22.5636574], [113.9739705, 22.563639], [113.9740702, 22.5636043], [113.9740777, 22.5636226], [113.9740959, 22.5636163], [113.9741147, 22.5636622], [113.9742247, 22.5636239], [113.9742423, 22.563667], [113.9742238, 22.5636735], [113.9742331, 22.5636963], [113.9741477, 22.5637261], [113.9741558, 22.5637459], [113.9742412, 22.5637162], [113.9742506, 22.5637391], [113.9742691, 22.5637326], [113.9742866, 22.5637757], [113.9741767, 22.563814], [113.9741954, 22.56386], [113.9741772, 22.5638663], [113.9741847, 22.5638847], [113.9740849, 22.5639194], [113.9740775, 22.5639011], [113.9740593, 22.5639074], [113.9740411, 22.5638629], [113.9739354, 22.5638997], [113.9739229, 22.5638689]]]]}}, {"type": "Feature", "id": "way/1426310270", "properties": {"tags": {"addr:housename": "桃源村", "addr:housename:en": "Taoyuancun", "addr:housename:zh": "桃源村", "building": "apartments", "building:levels": "20", "name": "100栋", "name:zh": "100栋"}, "heightStatus": "levels_only_unverified", "source": "OpenStreetMap", "license": "ODbL-1.0"}, "geometry": {"type": "MultiPolygon", "coordinates": [[[[113.9739746, 22.563038], [113.9739913, 22.5630288], [113.9739805, 22.5630119], [113.9740724, 22.5629619], [113.9740832, 22.5629788], [113.9740999, 22.5629697], [113.974127, 22.563012], [113.9742282, 22.5629568], [113.9742535, 22.5629965], [113.9742365, 22.5630057], [113.97425, 22.5630268], [113.9741714, 22.5630696], [113.974183, 22.5630879], [113.9742617, 22.563045], [113.9742751, 22.5630661], [113.9742921, 22.5630568], [113.9743175, 22.5630965], [113.9742162, 22.5631517], [113.9742433, 22.563194], [113.9742265, 22.5632031], [113.9742373, 22.56322], [113.9741455, 22.56327], [113.9741347, 22.5632531], [113.9741179, 22.5632623], [113.9740917, 22.5632213], [113.9739945, 22.5632743], [113.9739764, 22.563246], [113.9740139, 22.5632255], [113.9739918, 22.563191], [113.9740515, 22.5631584], [113.9739746, 22.563038]]]]}}, {"type": "Feature", "id": "way/1426310271", "properties": {"tags": {"addr:housename": "桃源村", "addr:housename:en": "Taoyuancun", "addr:housename:zh": "桃源村", "building": "apartments", "building:levels": "20", "name": "101栋", "name:zh": "101栋"}, "heightStatus": "levels_only_unverified", "source": "OpenStreetMap", "license": "ODbL-1.0"}, "geometry": {"type": "MultiPolygon", "coordinates": [[[[113.9736507, 22.5633404], [113.973752, 22.5632853], [113.9737249, 22.563243], [113.9737417, 22.5632338], [113.9737309, 22.5632169], [113.9738227, 22.5631669], [113.9738335, 22.5631838], [113.9738503, 22.5631747], [113.9738765, 22.5632156], [113.9739737, 22.5631626], [113.9739918, 22.563191], [113.9740139, 22.5632255], [113.9739764, 22.563246], [113.9739167, 22.5632785], [113.9739936, 22.563399], [113.9739769, 22.5634081], [113.9739877, 22.563425], [113.9738958, 22.563475], [113.973885, 22.5634581], [113.9738683, 22.5634673], [113.9738412, 22.563425], [113.97374, 22.5634801], [113.9737147, 22.5634405], [113.9737317, 22.5634312], [113.9737182, 22.5634102], [113.9737968, 22.5633673], [113.9737852, 22.563349], [113.9737065, 22.5633919], [113.9736931, 22.5633708], [113.9736761, 22.5633801], [113.9736507, 22.5633404]]]]}}, {"type": "Feature", "id": "relation/19550844", "properties": {"tags": {"building": "yes"}, "heightStatus": "unknown", "source": "OpenStreetMap", "license": "ODbL-1.0"}, "geometry": {"type": "MultiPolygon", "coordinates": [[[[113.9724648, 22.5638067], [113.9726613, 22.5637527], [113.9726982, 22.5638673], [113.9728596, 22.563823], [113.9728592, 22.56381], [113.9728659, 22.5637985], [113.9728779, 22.5637917], [113.9728921, 22.5637913], [113.9729045, 22.5637975], [113.9729119, 22.5638086], [113.9731409, 22.5637457], [113.9731547, 22.5637886], [113.9731759, 22.5637828], [113.9731903, 22.5638277], [113.9732595, 22.5638087], [113.9733042, 22.5639473], [113.973221, 22.5639701], [113.9732329, 22.5640073], [113.9733599, 22.5639725], [113.973403, 22.5641061], [113.9732165, 22.5641573], [113.9731942, 22.5640882], [113.9729774, 22.5641478], [113.972977, 22.5641614], [113.9729681, 22.5641721], [113.972954, 22.564176], [113.9729402, 22.5641715], [113.9729318, 22.5641603], [113.9728279, 22.5641889], [113.9728481, 22.5642514], [113.9726475, 22.5643066], [113.9725725, 22.5640738], [113.9727729, 22.5640187], [113.9727947, 22.5640862], [113.9728788, 22.564063], [113.9728324, 22.5639188], [113.9725279, 22.5640025], [113.9724648, 22.5638067]], [[113.9729612, 22.5638834], [113.9730155, 22.5640519], [113.9731798, 22.5640068], [113.9731582, 22.5639397], [113.9730829, 22.5639604], [113.9730503, 22.563859], [113.9729612, 22.5638834]]]]}}, {"type": "Feature", "id": "way/1426310285", "properties": {"tags": {"addr:housename": "桃源村", "addr:housename:en": "Taoyuancun", "addr:housename:zh": "桃源村", "building": "apartments", "building:levels": "7", "name": "81栋", "name:zh": "81栋"}, "heightStatus": "levels_only_unverified", "source": "OpenStreetMap", "license": "ODbL-1.0"}, "geometry": {"type": "MultiPolygon", "coordinates": [[[[113.972504, 22.5634316], [113.9726676, 22.5633997], [113.9726631, 22.56338], [113.9728266, 22.5633481], [113.9728216, 22.5633262], [113.9729851, 22.5632943], [113.9729806, 22.5632746], [113.9731442, 22.5632427], [113.9731574, 22.5633003], [113.9731384, 22.563304], [113.9731438, 22.563328], [113.9731248, 22.5633317], [113.9731265, 22.5633391], [113.973039, 22.5633561], [113.9730373, 22.5633487], [113.9730183, 22.5633524], [113.9730128, 22.5633285], [113.9729938, 22.5633322], [113.9729983, 22.5633519], [113.9729793, 22.5633556], [113.9729848, 22.5633795], [113.9729657, 22.5633832], [113.9729674, 22.5633907], [113.97288, 22.5634077], [113.9728783, 22.5634003], [113.9728592, 22.563404], [113.9728538, 22.5633801], [113.9728349, 22.5633838], [113.9728399, 22.5634057], [113.9728208, 22.5634094], [113.9728263, 22.5634333], [113.9728073, 22.563437], [113.972809, 22.5634444], [113.9727215, 22.5634615], [113.9727198, 22.5634541], [113.9727008, 22.5634578], [113.9726953, 22.5634339], [113.9726763, 22.5634376], [113.9726808, 22.5634573], [113.9726618, 22.563461], [113.9726672, 22.5634849], [113.9726482, 22.5634886], [113.9726499, 22.563496], [113.9725624, 22.5635131], [113.9725607, 22.5635057], [113.9725417, 22.5635094], [113.9725362, 22.5634855], [113.9725172, 22.5634892], [113.972504, 22.5634316]]]]}}, {"type": "Feature", "id": "way/1426310316", "properties": {"tags": {"addr:housename": "桃源村", "addr:housename:en": "Taoyuancun", "addr:housename:zh": "桃源村", "building": "apartments", "building:levels": "7", "name": "79栋", "name:zh": "79栋"}, "heightStatus": "levels_only_unverified", "source": "OpenStreetMap", "license": "ODbL-1.0"}, "geometry": {"type": "MultiPolygon", "coordinates": [[[[113.971636, 22.5631164], [113.9716494, 22.5631138], [113.9716414, 22.5630789], [113.9717708, 22.5630537], [113.9717788, 22.5630886], [113.9718056, 22.5630834], [113.9717976, 22.5630484], [113.9719271, 22.5630232], [113.971935, 22.5630581], [113.9719619, 22.5630529], [113.9719539, 22.563018], [113.9720833, 22.5629928], [113.9720913, 22.5630277], [113.9721181, 22.5630224], [113.9721101, 22.5629875], [113.9722395, 22.5629623], [113.9722475, 22.5629972], [113.9722609, 22.5629946], [113.9722721, 22.5630436], [113.9716472, 22.5631654], [113.971636, 22.5631164]]]]}}, {"type": "Feature", "id": "way/1426310320", "properties": {"tags": {"addr:housename": "桃源村", "addr:housename:en": "Taoyuancun", "addr:housename:zh": "桃源村", "building": "apartments", "building:levels": "7", "name": "77栋", "name:zh": "77栋"}, "heightStatus": "levels_only_unverified", "source": "OpenStreetMap", "license": "ODbL-1.0"}, "geometry": {"type": "MultiPolygon", "coordinates": [[[[113.9729468, 22.5630207], [113.9729477, 22.5629592], [113.9736165, 22.5629673], [113.9736156, 22.5630242], [113.9735965, 22.563024], [113.9735962, 22.5630485], [113.9735769, 22.5630483], [113.9735768, 22.5630563], [113.9734874, 22.5630552], [113.9734875, 22.563048], [113.9734679, 22.5630477], [113.9734682, 22.5630235], [113.9734293, 22.563023], [113.973429, 22.5630477], [113.9734096, 22.5630475], [113.9734095, 22.5630554], [113.9733201, 22.5630543], [113.9733203, 22.5630471], [113.9733007, 22.5630469], [113.973301, 22.5630227], [113.9732621, 22.5630222], [113.9732618, 22.5630469], [113.9732424, 22.5630466], [113.9732423, 22.5630546], [113.9731529, 22.5630535], [113.973153, 22.5630463], [113.9731334, 22.5630461], [113.9731338, 22.5630218], [113.9730949, 22.5630214], [113.9730945, 22.563046], [113.9730752, 22.5630458], [113.9730751, 22.5630537], [113.9729857, 22.5630526], [113.9729858, 22.5630455], [113.9729662, 22.5630452], [113.9729666, 22.5630209], [113.9729468, 22.5630207]]]]}}, {"type": "Feature", "id": "way/1426310321", "properties": {"tags": {"addr:housename": "桃源村", "addr:housename:en": "Taoyuancun", "addr:housename:zh": "桃源村", "building": "apartments", "building:levels": "7", "name": "78栋", "name:zh": "78栋"}, "heightStatus": "levels_only_unverified", "source": "OpenStreetMap", "license": "ODbL-1.0"}, "geometry": {"type": "MultiPolygon", "coordinates": [[[[113.9723908, 22.5630089], [113.9723916, 22.5629524], [113.9728932, 22.5629585], [113.9728923, 22.5630192], [113.9728725, 22.5630189], [113.9728721, 22.5630432], [113.9728525, 22.563043], [113.9728524, 22.5630501], [113.972763, 22.563049], [113.9727631, 22.5630409], [113.9727438, 22.5630407], [113.9727442, 22.563016], [113.9727053, 22.5630155], [113.9727049, 22.5630397], [113.9726853, 22.5630395], [113.9726852, 22.5630466], [113.9725958, 22.5630455], [113.972596, 22.5630375], [113.9725767, 22.5630372], [113.972577, 22.5630125], [113.9725381, 22.5630121], [113.9725378, 22.5630363], [113.9725181, 22.563036], [113.972518, 22.5630431], [113.9724287, 22.563042], [113.9724288, 22.563034], [113.9724095, 22.5630338], [113.9724098, 22.5630092], [113.9723908, 22.5630089]]]]}}, {"type": "Feature", "id": "way/1426310322", "properties": {"tags": {"addr:housename": "桃源村", "addr:housename:en": "Taoyuancun", "addr:housename:zh": "桃源村", "building": "apartments", "building:levels": "7", "name": "80栋", "name:zh": "80栋"}, "heightStatus": "levels_only_unverified", "source": "OpenStreetMap", "license": "ODbL-1.0"}, "geometry": {"type": "MultiPolygon", "coordinates": [[[[113.9716812, 22.5633414], [113.9723356, 22.5632139], [113.9723488, 22.5632715], [113.9723298, 22.5632752], [113.9723352, 22.5632991], [113.9723162, 22.5633028], [113.9723179, 22.5633102], [113.9722304, 22.5633273], [113.9722287, 22.5633199], [113.9722097, 22.5633236], [113.9722042, 22.5632997], [113.9721662, 22.5633071], [113.9721716, 22.563331], [113.9721526, 22.5633347], [113.9721543, 22.5633421], [113.9720668, 22.5633592], [113.9720651, 22.5633518], [113.9720461, 22.5633555], [113.9720406, 22.5633316], [113.9720025, 22.563339], [113.972008, 22.5633629], [113.971989, 22.5633666], [113.9719907, 22.563374], [113.9719032, 22.5633911], [113.9719015, 22.5633837], [113.9718825, 22.5633874], [113.971877, 22.5633635], [113.9718389, 22.5633709], [113.9718444, 22.5633948], [113.9718254, 22.5633985], [113.971827, 22.5634059], [113.9717396, 22.563423], [113.9717379, 22.5634155], [113.9717188, 22.5634193], [113.9717134, 22.5633953], [113.9716943, 22.5633991], [113.9716812, 22.5633414]]]]}}, {"type": "Feature", "id": "way/1426310323", "properties": {"tags": {"addr:housename": "桃源村", "addr:housename:en": "Taoyuancun", "addr:housename:zh": "桃源村", "building": "apartments", "building:levels": "7", "name": "82栋", "name:zh": "82栋"}, "heightStatus": "levels_only_unverified", "source": "OpenStreetMap", "license": "ODbL-1.0"}, "geometry": {"type": "MultiPolygon", "coordinates": [[[[113.971736, 22.5635971], [113.9723905, 22.5634695], [113.9724037, 22.5635271], [113.9723846, 22.5635308], [113.9723901, 22.5635547], [113.9723711, 22.5635584], [113.9723728, 22.5635659], [113.9722853, 22.5635829], [113.9722836, 22.5635755], [113.9722646, 22.5635792], [113.9722591, 22.5635553], [113.972221, 22.5635627], [113.9722265, 22.5635866], [113.9722074, 22.5635903], [113.9722091, 22.5635977], [113.9721217, 22.5636148], [113.97212, 22.5636074], [113.9721009, 22.5636111], [113.9720955, 22.5635872], [113.9720574, 22.5635946], [113.9720629, 22.5636185], [113.9720438, 22.5636222], [113.9720455, 22.5636296], [113.9719581, 22.5636467], [113.9719564, 22.5636393], [113.9719373, 22.563643], [113.9719319, 22.5636191], [113.9718938, 22.5636265], [113.9718993, 22.5636504], [113.9718802, 22.5636541], [113.9718819, 22.5636615], [113.9717944, 22.5636786], [113.9717927, 22.5636712], [113.9717737, 22.5636749], [113.9717682, 22.563651], [113.9717492, 22.5636547], [113.971736, 22.5635971]]]]}}, {"type": "Feature", "id": "way/1426311382", "properties": {"tags": {"addr:housename": "郁金香家园", "addr:housename:zh": "郁金香家园", "building": "apartments", "building:levels": "11", "name": "浪琴堡", "name:zh": "浪琴堡"}, "heightStatus": "levels_only_unverified", "source": "OpenStreetMap", "license": "ODbL-1.0"}, "geometry": {"type": "MultiPolygon", "coordinates": [[[[113.9761655, 22.5638144], [113.9762154, 22.5637865], [113.9762076, 22.5637745], [113.9762813, 22.5637333], [113.9762891, 22.5637452], [113.976339, 22.5637173], [113.9763619, 22.5637521], [113.9763286, 22.5637707], [113.9763461, 22.5637974], [113.976396, 22.5637694], [113.9764255, 22.5638143], [113.9762187, 22.5639301], [113.9761893, 22.5638852], [113.9762392, 22.5638573], [113.9762217, 22.5638306], [113.9761884, 22.5638492], [113.9761655, 22.5638144]]]]}}, {"type": "Feature", "id": "way/1451048918", "properties": {"tags": {"building": "yes", "name": "公园管理处"}, "heightStatus": "unknown", "source": "OpenStreetMap", "license": "ODbL-1.0"}, "geometry": {"type": "MultiPolygon", "coordinates": [[[[113.9737247, 22.569656], [113.9738951, 22.5696553], [113.9738956, 22.5697494], [113.9737252, 22.5697501], [113.9737247, 22.569656]]]]}}, {"type": "Feature", "id": "way/1451048919", "properties": {"tags": {"building": "yes"}, "heightStatus": "unknown", "source": "OpenStreetMap", "license": "ODbL-1.0"}, "geometry": {"type": "MultiPolygon", "coordinates": [[[[113.9736056, 22.5699943], [113.973615, 22.5697318], [113.9737102, 22.5697293], [113.9737076, 22.5698829], [113.9739168, 22.5698878], [113.9740187, 22.569821], [113.9740911, 22.569899], [113.9739718, 22.5700018], [113.9736056, 22.5699943]]]]}}]}