{"type": "FeatureCollection", "features": [{"type": "Feature", "id": "way/187671936", "properties": {"tags": {"addr:city": "桃源街道", "addr:district": "南山区", "addr:housenumber": "8188", "addr:postcode": "518054", "addr:province": "广东省", "addr:street": "北环大道", "brand": "宜家家居", "brand:en": "IKEA", "brand:wikidata": "Q54078", "brand:wikipedia": "zh:宜家家居", "brand:zh": "宜家家居", "building": "retail", "name": "宜家家居", "name:en": "IKEA", "name:zh": "宜家家居", "opening_hours": "Mo-Th 10:00-21:00; Fr-Su 10:00-22:00; PH 10:00-22:00", "payment:alipay": "yes", "payment:apple_pay": "yes", "payment:cash": "yes", "payment:credit_cards": "yes", "payment:debit_cards": "yes", "payment:mastercard": "yes", "payment:unionpay": "yes", "payment:visa": "yes", "payment:wechat": "yes", "phone": "+86 400 800 2345", "shop": "furniture"}, "heightStatus": "unknown", "source": "OpenStreetMap", "license": "ODbL-1.0"}, "geometry": {"type": "MultiPolygon", "coordinates": [[[[113.9596434, 22.5586395], [113.9596673, 22.5576681], [113.9601832, 22.5576789], [113.9601873, 22.5575133], [113.9606619, 22.5575725], [113.9606591, 22.5576836], [113.9612683, 22.5576968], [113.9612477, 22.5585102], [113.9608709, 22.5585021], [113.9608661, 22.5586921], [113.9607223, 22.558689], [113.9606843, 22.5586882], [113.9601633, 22.558677], [113.9598407, 22.55867], [113.9598414, 22.5586437], [113.9596434, 22.5586395]]]]}}, {"type": "Feature", "id": "way/246479596", "properties": {"tags": {"brand": "Decathlon", "brand:en": "Decathlon", "brand:wikidata": "Q509349", "brand:wikipedia": "en:Decathlon (retailer)", "building": "yes", "name": "Decathlon", "name:en": "Decathlon", "name:zh": "迪卡侬", "shop": "sports"}, "heightStatus": "unknown", "source": "OpenStreetMap", "license": "ODbL-1.0"}, "geometry": {"type": "MultiPolygon", "coordinates": [[[[113.9608108, 22.5599054], [113.9608164, 22.5594278], [113.9608199, 22.5592878], [113.9608215, 22.559176], [113.9609229, 22.5591766], [113.9614504, 22.55918], [113.9614483, 22.5594304], [113.9614941, 22.5594306], [113.9614932, 22.559495], [113.9614479, 22.5594959], [113.9614467, 22.5597863], [113.961489, 22.5597873], [113.9614872, 22.5599206], [113.9609242, 22.5599139], [113.9608111, 22.5599125], [113.9608108, 22.5599054]]]]}}, {"type": "Feature", "id": "way/246479597", "properties": {"tags": {"brand": "B&Q", "brand:wikidata": "Q707602", "brand:wikipedia": "en:B&Q", "building": "yes", "name": "B&Q", "name:en": "B&Q", "name:zh": "百安居", "shop": "doityourself"}, "heightStatus": "unknown", "source": "OpenStreetMap", "license": "ODbL-1.0"}, "geometry": {"type": "MultiPolygon", "coordinates": [[[[113.959582, 22.5607736], [113.9595823, 22.5607584], [113.9595962, 22.5600484], [113.9607874, 22.5600683], [113.9607848, 22.5602032], [113.9607732, 22.5607934], [113.959582, 22.5607736]]]]}}, {"type": "Feature", "id": "way/246479603", "properties": {"tags": {"brand": "麦德龙", "brand:en": "METRO", "brand:wikidata": "Q13610282", "brand:wikipedia": "en:Metro Cash & Carry", "brand:zh": "麦德龙", "building": "yes", "name": "麦德龙", "name:en": "METRO", "name:zh": "麦德龙", "shop": "wholesale"}, "heightStatus": "unknown", "source": "OpenStreetMap", "license": "ODbL-1.0"}, "geometry": {"type": "MultiPolygon", "coordinates": [[[[113.959656, 22.5614411], [113.9596701, 22.5608249], [113.9608759, 22.5608485], [113.9608718, 22.5610459], [113.9608632, 22.561505], [113.9606681, 22.5615043], [113.9606687, 22.561461], [113.959656, 22.5614411]]]]}}, {"type": "Feature", "id": "way/246479611", "properties": {"tags": {"building": "yes", "name": "香江家居MALL", "shop": "furniture"}, "heightStatus": "unknown", "source": "OpenStreetMap", "license": "ODbL-1.0"}, "geometry": {"type": "MultiPolygon", "coordinates": [[[[113.9596096, 22.5598926], [113.9596293, 22.558833], [113.9604243, 22.5588456], [113.9604139, 22.5594083], [113.9604047, 22.5599051], [113.9596096, 22.5598926]]]]}}, {"type": "Feature", "id": "way/246481992", "properties": {"tags": {"building": "roof", "layer": "1"}, "heightStatus": "unknown", "source": "OpenStreetMap", "license": "ODbL-1.0"}, "geometry": {"type": "MultiPolygon", "coordinates": [[[[113.9608632, 22.561505], [113.9608718, 22.5610459], [113.9609303, 22.5610468], [113.9611321, 22.5610501], [113.9611235, 22.5615092], [113.9608632, 22.561505]]]]}}, {"type": "Feature", "id": "way/251476472", "properties": {"tags": {"building": "roof", "layer": "1"}, "heightStatus": "unknown", "source": "OpenStreetMap", "license": "ODbL-1.0"}, "geometry": {"type": "MultiPolygon", "coordinates": [[[[113.9586848, 22.5575016], [113.9586945, 22.5573092], [113.9588669, 22.5573166], [113.9588572, 22.557509], [113.9586848, 22.5575016]]]]}}, {"type": "Feature", "id": "way/479397890", "properties": {"tags": {"building": "yes"}, "heightStatus": "unknown", "source": "OpenStreetMap", "license": "ODbL-1.0"}, "geometry": {"type": "MultiPolygon", "coordinates": [[[[113.9586819, 22.5575531], [113.9586848, 22.5575016], [113.9588572, 22.557509], [113.9589144, 22.5575099], [113.9589125, 22.5575605], [113.9586819, 22.5575531]]]]}}, {"type": "Feature", "id": "way/913431723", "properties": {"tags": {"amenity": "shelter", "building": "yes", "name": "三生亭", "shelter_type": "pavilion"}, "heightStatus": "unknown", "source": "OpenStreetMap", "license": "ODbL-1.0"}, "geometry": {"type": "MultiPolygon", "coordinates": [[[[113.9571957, 22.5609504], [113.9571978, 22.5608659], [113.9572858, 22.5608678], [113.9572837, 22.5609523], [113.9571957, 22.5609504]]]]}}, {"type": "Feature", "id": "way/913431730", "properties": {"tags": {"building": "yes"}, "heightStatus": "unknown", "source": "OpenStreetMap", "license": "ODbL-1.0"}, "geometry": {"type": "MultiPolygon", "coordinates": [[[[113.9583515, 22.559317], [113.9583657, 22.5592356], [113.9584099, 22.5592422], [113.9584162, 22.5592066], [113.9584642, 22.5592138], [113.9584547, 22.5592676], [113.9584132, 22.5592615], [113.9584022, 22.5593246], [113.9583515, 22.559317]]]]}}, {"type": "Feature", "id": "way/913431731", "properties": {"tags": {"building": "yes"}, "heightStatus": "unknown", "source": "OpenStreetMap", "license": "ODbL-1.0"}, "geometry": {"type": "MultiPolygon", "coordinates": [[[[113.9588958, 22.5590261], [113.9589655, 22.5590271], [113.9589677, 22.5591302], [113.9591629, 22.5591341], [113.9591608, 22.5591946], [113.9588968, 22.5591946], [113.9588958, 22.5590261]]]]}}, {"type": "Feature", "id": "way/913431732", "properties": {"tags": {"building": "yes"}, "heightStatus": "unknown", "source": "OpenStreetMap", "license": "ODbL-1.0"}, "geometry": {"type": "MultiPolygon", "coordinates": [[[[113.9590513, 22.5589855], [113.9590524, 22.5589132], [113.9592498, 22.5589152], [113.9592563, 22.5590945], [113.9591855, 22.5590955], [113.9591833, 22.5589875], [113.9590513, 22.5589855]]]]}}, {"type": "Feature", "id": "way/1273088471", "properties": {"tags": {"building": "yes", "leisure": "sports_hall"}, "heightStatus": "unknown", "source": "OpenStreetMap", "license": "ODbL-1.0"}, "geometry": {"type": "MultiPolygon", "coordinates": [[[[113.9628234, 22.5612331], [113.9630266, 22.560736], [113.9633647, 22.5608539], [113.9631959, 22.561267], [113.9630368, 22.5613075], [113.9628234, 22.5612331]]]]}}, {"type": "Feature", "id": "way/1273088472", "properties": {"tags": {"building": "commercial"}, "heightStatus": "unknown", "source": "OpenStreetMap", "license": "ODbL-1.0"}, "geometry": {"type": "MultiPolygon", "coordinates": [[[[113.963098, 22.5582423], [113.9631194, 22.5580863], [113.9632211, 22.5580982], [113.9632328, 22.5580131], [113.9635701, 22.5580526], [113.9635473, 22.5582184], [113.9635161, 22.5582147], [113.9635057, 22.5582901], [113.963098, 22.5582423]]]]}}, {"type": "Feature", "id": "relation/17478358", "properties": {"tags": {"building": "college"}, "heightStatus": "unknown", "source": "OpenStreetMap", "license": "ODbL-1.0"}, "geometry": {"type": "MultiPolygon", "coordinates": [[[[113.9629503, 22.5591829], [113.963634, 22.5590902], [113.9636926, 22.5594592], [113.9630089, 22.5595518], [113.9629503, 22.5591829]], [[113.96312, 22.5592698], [113.9631429, 22.559414], [113.9635833, 22.5593542], [113.9635604, 22.5592101], [113.96312, 22.5592698]]]]}}, {"type": "Feature", "id": "relation/17478359", "properties": {"tags": {"building": "college"}, "heightStatus": "unknown", "source": "OpenStreetMap", "license": "ODbL-1.0"}, "geometry": {"type": "MultiPolygon", "coordinates": [[[[113.9647054, 22.5593305], [113.9647479, 22.5590961], [113.9647742, 22.558951], [113.9652532, 22.5588898], [113.9653109, 22.5588791], [113.9653651, 22.5588577], [113.9654134, 22.5588265], [113.9654537, 22.5587869], [113.9654844, 22.5587404], [113.9655042, 22.5586892], [113.9655122, 22.5586353], [113.9655868, 22.5586453], [113.9655891, 22.5586127], [113.9655858, 22.5585685], [113.9655762, 22.5585251], [113.9655604, 22.5584832], [113.9655389, 22.5584436], [113.9655118, 22.558407], [113.9654798, 22.558374], [113.9654581, 22.5583946], [113.9654091, 22.5583465], [113.9655239, 22.5582412], [113.9655374, 22.5582593], [113.9655822, 22.5582236], [113.9656456, 22.5582822], [113.9656976, 22.5583497], [113.9657369, 22.5584241], [113.9657624, 22.5585035], [113.9657717, 22.5585779], [113.9659293, 22.5585736], [113.9659295, 22.5586472], [113.9659214, 22.5587253], [113.9659063, 22.5587894], [113.9656609, 22.5587339], [113.9656411, 22.5587865], [113.9656115, 22.558835], [113.9655733, 22.558878], [113.9655912, 22.5588968], [113.9656479, 22.5588507], [113.9656973, 22.5588521], [113.9657306, 22.5588913], [113.9657236, 22.5589328], [113.965667, 22.5589773], [113.9657156, 22.55903], [113.9657398, 22.5590268], [113.9657652, 22.5591882], [113.9647054, 22.5593305]], [[113.9647742, 22.5591158], [113.9647791, 22.5591482], [113.9648552, 22.5591384], [113.9648615, 22.5591799], [113.9647854, 22.5591897], [113.9647893, 22.5592155], [113.9652307, 22.5591587], [113.9652268, 22.5591329], [113.9651465, 22.5591433], [113.9651402, 22.5591017], [113.9652205, 22.5590914], [113.9652156, 22.5590589], [113.9647742, 22.5591158]], [[113.9652576, 22.5590526], [113.9652727, 22.5591533], [113.9655823, 22.5591135], [113.9654696, 22.5589735], [113.9654289, 22.5589981], [113.9653697, 22.5590241], [113.9653114, 22.5590418], [113.9652576, 22.5590526]]]]}}, {"type": "Feature", "id": "relation/17478360", "properties": {"tags": {"building": "college"}, "heightStatus": "unknown", "source": "OpenStreetMap", "license": "ODbL-1.0"}, "geometry": {"type": "MultiPolygon", "coordinates": [[[[113.9645757, 22.5606846], [113.9647175, 22.5606578], [113.9646864, 22.5605181], [113.9646345, 22.560528], [113.9646179, 22.5604536], [113.9652868, 22.5603266], [113.9653033, 22.5604006], [113.9652371, 22.5604132], [113.9652577, 22.560506], [113.9653189, 22.5604944], [113.9653295, 22.560542], [113.9653469, 22.5606204], [113.9645932, 22.5607633], [113.9645757, 22.5606846]], [[113.964781, 22.5605387], [113.9648038, 22.5606415], [113.9652316, 22.5605605], [113.9652004, 22.5604202], [113.9648117, 22.5604942], [113.96482, 22.5605313], [113.964781, 22.5605387]]]]}}, {"type": "Feature", "id": "way/1273088483", "properties": {"tags": {"building": "college"}, "heightStatus": "unknown", "source": "OpenStreetMap", "license": "ODbL-1.0"}, "geometry": {"type": "MultiPolygon", "coordinates": [[[[113.9646522, 22.5601254], [113.9652057, 22.5600229], [113.9652217, 22.5600964], [113.9646682, 22.560199], [113.9646522, 22.5601254]]]]}}, {"type": "Feature", "id": "way/1273088484", "properties": {"tags": {"building": "college"}, "heightStatus": "unknown", "source": "OpenStreetMap", "license": "ODbL-1.0"}, "geometry": {"type": "MultiPolygon", "coordinates": [[[[113.9653952, 22.5604841], [113.9659457, 22.5603803], [113.9660043, 22.5606451], [113.9655156, 22.5607374], [113.9654989, 22.5606622], [113.9654372, 22.5606739], [113.9653952, 22.5604841]]]]}}, {"type": "Feature", "id": "way/1273088485", "properties": {"tags": {"building": "college"}, "heightStatus": "unknown", "source": "OpenStreetMap", "license": "ODbL-1.0"}, "geometry": {"type": "MultiPolygon", "coordinates": [[[[113.9653153, 22.559962], [113.9656282, 22.5599026], [113.9656446, 22.5599766], [113.9655089, 22.5600024], [113.9655171, 22.5600395], [113.9654781, 22.5600469], [113.9655011, 22.5601506], [113.965857, 22.5600832], [113.9658745, 22.5601618], [113.9653808, 22.5602554], [113.9653631, 22.5601758], [113.9654147, 22.560166], [113.9653838, 22.5600271], [113.965332, 22.5600369], [113.9653153, 22.559962]]]]}}, {"type": "Feature", "id": "way/1426339377", "properties": {"tags": {"addr:housename": "香山美墅云颂", "addr:housename:en": "Portofino Chanson Villa Yunsong", "addr:housename:zh": "香山美墅云颂", "building": "apartments", "building:levels": "46", "name": "3栋B座", "name:en": "Block 3B", "name:zh": "3栋B座"}, "heightStatus": "levels_only_unverified", "source": "OpenStreetMap", "license": "ODbL-1.0"}, "geometry": {"type": "MultiPolygon", "coordinates": [[[[113.9660216, 22.5562452], [113.9660233, 22.5561518], [113.9661524, 22.5561538], [113.9661721, 22.5561139], [113.9661215, 22.5560926], [113.9661383, 22.5560586], [113.9661291, 22.5560547], [113.9661456, 22.5560212], [113.9661616, 22.556028], [113.9661741, 22.5560026], [113.9662111, 22.5560182], [113.9662208, 22.5559987], [113.9662615, 22.5560159], [113.9662251, 22.5560894], [113.9662492, 22.5560996], [113.9662855, 22.556026], [113.9663263, 22.5560432], [113.9663166, 22.5560627], [113.9663537, 22.5560783], [113.9663411, 22.5561037], [113.966357, 22.5561104], [113.9663405, 22.5561439], [113.9663312, 22.55614], [113.9663145, 22.556174], [113.9662639, 22.5561526], [113.9662442, 22.5561925], [113.9663227, 22.5562733], [113.9662474, 22.5563358], [113.9661721, 22.5562582], [113.9662047, 22.5562312], [113.9661466, 22.5562066], [113.9661458, 22.5562471], [113.9660216, 22.5562452]]]]}}, {"type": "Feature", "id": "way/1426339378", "properties": {"tags": {"addr:housename": "香山美墅云颂", "addr:housename:en": "Portofino Chanson Villa Yunsong", "addr:housename:zh": "香山美墅云颂", "building": "apartments", "building:levels": "46", "name": "2栋A座", "name:en": "Block 2A", "name:zh": "2栋A座"}, "heightStatus": "levels_only_unverified", "source": "OpenStreetMap", "license": "ODbL-1.0"}, "geometry": {"type": "MultiPolygon", "coordinates": [[[[113.9640496, 22.5554594], [113.9641653, 22.5554167], [113.9641772, 22.5553122], [113.9641672, 22.5553112], [113.9641713, 22.5552746], [113.9641888, 22.5552763], [113.9641919, 22.5552486], [113.9642324, 22.5552525], [113.9642348, 22.5552312], [113.9642794, 22.5552356], [113.9642689, 22.5553268], [113.9643947, 22.555339], [113.964383, 22.5554413], [113.9642749, 22.5554308], [113.9642713, 22.5554622], [113.9642078, 22.555456], [113.9642248, 22.5554954], [113.9640872, 22.5555462], [113.9640496, 22.5554594]]]]}}, {"type": "Feature", "id": "way/1426339379", "properties": {"tags": {"addr:housename": "香山美墅云颂", "addr:housename:en": "Portofino Chanson Villa Yunsong", "addr:housename:zh": "香山美墅云颂", "building": "apartments", "building:levels": "46", "name": "2栋B座", "name:en": "Block 2B", "name:zh": "2栋B座"}, "heightStatus": "levels_only_unverified", "source": "OpenStreetMap", "license": "ODbL-1.0"}, "geometry": {"type": "MultiPolygon", "coordinates": [[[[113.964383, 22.5554413], [113.9643947, 22.555339], [113.9645205, 22.5553513], [113.9645309, 22.5552601], [113.9645754, 22.5552644], [113.964573, 22.5552857], [113.9646135, 22.5552897], [113.9646103, 22.5553174], [113.9646277, 22.5553191], [113.9646236, 22.5553558], [113.9646135, 22.5553548], [113.9646015, 22.5554592], [113.964705, 22.5555233], [113.9646486, 22.5556009], [113.9645255, 22.5555247], [113.9645511, 22.5554895], [113.9644876, 22.5554833], [113.9644912, 22.5554519], [113.964383, 22.5554413]]]]}}, {"type": "Feature", "id": "way/1426339380", "properties": {"tags": {"addr:housename": "香山美墅云颂", "addr:housename:en": "Portofino Chanson Villa Yunsong", "addr:housename:zh": "香山美墅云颂", "building": "apartments", "building:levels": "46", "name": "1栋B座", "name:en": "Block 1B", "name:zh": "1栋B座"}, "heightStatus": "levels_only_unverified", "source": "OpenStreetMap", "license": "ODbL-1.0"}, "geometry": {"type": "MultiPolygon", "coordinates": [[[[113.963516, 22.5555585], [113.9636369, 22.5555242], [113.9636077, 22.5554365], [113.9636505, 22.5554244], [113.9636573, 22.5554449], [113.9636962, 22.5554338], [113.9637051, 22.5554605], [113.9637218, 22.5554557], [113.9637335, 22.5554909], [113.9637238, 22.5554937], [113.9637572, 22.5555941], [113.9638796, 22.5556155], [113.9638608, 22.5557073], [113.9637152, 22.5556819], [113.9637237, 22.5556402], [113.9636627, 22.5556575], [113.9636526, 22.5556273], [113.9635487, 22.5556568], [113.963516, 22.5555585]]]]}}, {"type": "Feature", "id": "way/1426339381", "properties": {"tags": {"addr:housename": "香山美墅云颂", "addr:housename:en": "Portofino Chanson Villa Yunsong", "addr:housename:zh": "香山美墅云颂", "building": "apartments", "building:levels": "46", "name": "1栋A座", "name:en": "Block 1A", "name:zh": "1栋A座"}, "heightStatus": "levels_only_unverified", "source": "OpenStreetMap", "license": "ODbL-1.0"}, "geometry": {"type": "MultiPolygon", "coordinates": [[[[113.9632497, 22.5557942], [113.9633379, 22.5557131], [113.9633045, 22.5556127], [113.9632948, 22.5556154], [113.9632831, 22.5555802], [113.9632999, 22.5555755], [113.963291, 22.5555488], [113.9633299, 22.5555377], [113.9633231, 22.5555173], [113.9633659, 22.5555051], [113.963395, 22.5555928], [113.963516, 22.5555585], [113.9635487, 22.5556568], [113.9634447, 22.5556863], [113.9634548, 22.5557165], [113.9633937, 22.5557339], [113.9634261, 22.5557639], [113.9633211, 22.5558605], [113.9632497, 22.5557942]]]]}}, {"type": "Feature", "id": "way/1426339382", "properties": {"tags": {"addr:housename": "香山美墅云颂", "addr:housename:en": "Portofino Chanson Villa Yunsong", "addr:housename:zh": "香山美墅云颂", "building": "apartments", "building:levels": "46", "name": "3栋A座", "name:en": "Block 3A", "name:zh": "3栋A座"}, "heightStatus": "levels_only_unverified", "source": "OpenStreetMap", "license": "ODbL-1.0"}, "geometry": {"type": "MultiPolygon", "coordinates": [[[[113.9656913, 22.5560999], [113.9657075, 22.5560937], [113.9656959, 22.5560679], [113.9657335, 22.5560535], [113.9657246, 22.5560337], [113.9657659, 22.5560178], [113.9657995, 22.5560925], [113.9658239, 22.5560831], [113.9657903, 22.5560085], [113.9658316, 22.5559926], [113.9658405, 22.5560123], [113.9658781, 22.5559979], [113.9658897, 22.5560237], [113.9659059, 22.5560175], [113.9659212, 22.5560515], [113.9659118, 22.5560551], [113.9659274, 22.5560895], [113.965876, 22.5561093], [113.9658943, 22.5561497], [113.9660233, 22.5561518], [113.9660216, 22.5562452], [113.9658974, 22.5562432], [113.9658981, 22.5562027], [113.9658391, 22.5562254], [113.9658707, 22.5562535], [113.9657925, 22.5563286], [113.9657196, 22.5562638], [113.9658011, 22.5561855], [113.9657829, 22.556145], [113.9657315, 22.5561648], [113.965716, 22.5561303], [113.9657066, 22.5561339], [113.9656913, 22.5560999]]]]}}, {"type": "Feature", "id": "way/1426340711", "properties": {"tags": {"addr:housename": "香山美墅", "addr:housename:en": "Portofino Chanson Villa", "addr:housename:zh": "香山美墅", "building": "terrace", "name": "12栋", "name:en": "Block 12", "name:zh": "12栋"}, "heightStatus": "unknown", "source": "OpenStreetMap", "license": "ODbL-1.0"}, "geometry": {"type": "MultiPolygon", "coordinates": [[[[113.9642494, 22.5542329], [113.964292, 22.5541765], [113.9643774, 22.5542316], [113.9644223, 22.5541723], [113.9643517, 22.5541268], [113.9643941, 22.5540707], [113.9644367, 22.5540981], [113.9644903, 22.5540272], [113.9644117, 22.5539766], [113.9644542, 22.5539204], [113.9644965, 22.5539477], [113.9645414, 22.5538884], [113.9644999, 22.5538616], [113.9645419, 22.5538061], [113.9645843, 22.5538335], [113.9646387, 22.5537641], [113.9646971, 22.5538031], [113.9646435, 22.5538717], [113.9647204, 22.5539213], [113.9646778, 22.5539777], [113.9645998, 22.5539274], [113.9645549, 22.5539868], [113.9646328, 22.5540371], [113.9645904, 22.5540932], [113.9645467, 22.554065], [113.9644931, 22.5541359], [113.9646889, 22.5542622], [113.9647425, 22.5541913], [113.9646988, 22.5541631], [113.9647412, 22.554107], [113.9648192, 22.5541573], [113.9648641, 22.5540979], [113.9647862, 22.5540476], [113.9648288, 22.5539912], [113.9649058, 22.5540409], [113.964957, 22.5539708], [113.9650168, 22.554008], [113.9649649, 22.554079], [113.9650073, 22.5541064], [113.9649654, 22.5541619], [113.9649239, 22.5541351], [113.964879, 22.5541945], [113.9649213, 22.5542218], [113.9648789, 22.5542779], [113.9648003, 22.5542272], [113.9647467, 22.5542981], [113.9647892, 22.5543256], [113.9647468, 22.5543816], [113.9646763, 22.5543361], [113.9646314, 22.5543954], [113.9647168, 22.5544505], [113.9646741, 22.5545069], [113.96449, 22.5543881], [113.9645319, 22.5543327], [113.9645716, 22.5543582], [113.9646165, 22.5542989], [113.9644807, 22.5542113], [113.9644358, 22.5542706], [113.9644755, 22.5542962], [113.9644335, 22.5543516], [113.9642494, 22.5542329]]]]}}, {"type": "Feature", "id": "way/1426340713", "properties": {"tags": {"addr:housename": "香山美墅", "addr:housename:en": "Portofino Chanson Villa", "addr:housename:zh": "香山美墅", "building": "apartments", "name": "13栋", "name:en": "Block 13", "name:zh": "13栋"}, "heightStatus": "unknown", "source": "OpenStreetMap", "license": "ODbL-1.0"}, "geometry": {"type": "MultiPolygon", "coordinates": [[[[113.96413, 22.5545401], [113.9642374, 22.554398], [113.9647128, 22.5547044], [113.9646053, 22.5548465], [113.96413, 22.5545401]]]]}}, {"type": "Feature", "id": "way/1426340714", "properties": {"tags": {"addr:housename": "香山美墅", "addr:housename:en": "Portofino Chanson Villa", "addr:housename:zh": "香山美墅", "building": "apartments", "name": "14栋", "name:en": "Block 14", "name:zh": "14栋"}, "heightStatus": "unknown", "source": "OpenStreetMap", "license": "ODbL-1.0"}, "geometry": {"type": "MultiPolygon", "coordinates": [[[[113.9636706, 22.5542456], [113.9637781, 22.5541034], [113.9641187, 22.5543229], [113.9640113, 22.5544651], [113.9636706, 22.5542456]]]]}}, {"type": "Feature", "id": "way/1426340715", "properties": {"tags": {"addr:housename": "香山美墅", "addr:housename:en": "Portofino Chanson Villa", "addr:housename:zh": "香山美墅", "building": "apartments", "name": "15栋", "name:en": "Block 15", "name:zh": "15栋"}, "heightStatus": "unknown", "source": "OpenStreetMap", "license": "ODbL-1.0"}, "geometry": {"type": "MultiPolygon", "coordinates": [[[[113.9631866, 22.5539455], [113.963294, 22.5538033], [113.9636346, 22.5540229], [113.9635272, 22.554165], [113.9631866, 22.5539455]]]]}}, {"type": "Feature", "id": "way/1426340719", "properties": {"tags": {"addr:housename": "香山美墅", "addr:housename:en": "Portofino Chanson Villa", "addr:housename:zh": "香山美墅", "building": "apartments", "building:levels": "13", "name": "22栋", "name:en": "Block 22", "name:zh": "22栋"}, "heightStatus": "levels_only_unverified", "source": "OpenStreetMap", "license": "ODbL-1.0"}, "geometry": {"type": "MultiPolygon", "coordinates": [[[[113.9649292, 22.5545405], [113.9651813, 22.5542137], [113.965294, 22.5542879], [113.9650419, 22.5546147], [113.9649292, 22.5545405]]]]}}, {"type": "Feature", "id": "way/1426340728", "properties": {"tags": {"addr:housename": "香山美墅云邸", "addr:housename:en": "Portofino Chanson Villa Yundi", "addr:housename:zh": "香山美墅云邸", "building": "apartments", "building:levels": "49", "name": "2栋", "name:en": "Block 2", "name:zh": "2栋"}, "heightStatus": "levels_only_unverified", "source": "OpenStreetMap", "license": "ODbL-1.0"}, "geometry": {"type": "MultiPolygon", "coordinates": [[[[113.9658984, 22.5540831], [113.9659589, 22.5540047], [113.966151, 22.554131], [113.9662344, 22.5540228], [113.9663167, 22.554077], [113.9661789, 22.5542556], [113.966121, 22.5542175], [113.9660375, 22.5543256], [113.9659552, 22.5542715], [113.9660325, 22.5541713], [113.9658984, 22.5540831]]]]}}, {"type": "Feature", "id": "way/1426340729", "properties": {"tags": {"addr:housename": "香山美墅云邸", "addr:housename:en": "Portofino Chanson Villa Yundi", "addr:housename:zh": "香山美墅云邸", "building": "apartments", "building:levels": "46", "name": "1栋", "name:en": "Block 1", "name:zh": "1栋"}, "heightStatus": "levels_only_unverified", "source": "OpenStreetMap", "license": "ODbL-1.0"}, "geometry": {"type": "MultiPolygon", "coordinates": [[[[113.9659128, 22.5549251], [113.9659733, 22.5548467], [113.9661074, 22.5549349], [113.9662681, 22.5547254], [113.9660761, 22.5545991], [113.9661366, 22.5545207], [113.9662706, 22.5546088], [113.9663479, 22.5545086], [113.9664302, 22.5545628], [113.9663468, 22.554671], [113.9664048, 22.5547091], [113.9661835, 22.554997], [113.9662415, 22.5550352], [113.9661037, 22.5552138], [113.9660214, 22.5551596], [113.9661048, 22.5550515], [113.9659128, 22.5549251]]]]}}, {"type": "Feature", "id": "way/1426340730", "properties": {"tags": {"addr:housename": "香山美墅云邸", "addr:housename:en": "Portofino Chanson Villa Yundi", "addr:housename:zh": "香山美墅云邸", "building": "apartments", "building:levels": "42", "name": "23栋", "name:en": "Block 23", "name:zh": "23栋"}, "heightStatus": "levels_only_unverified", "source": "OpenStreetMap", "license": "ODbL-1.0"}, "geometry": {"type": "MultiPolygon", "coordinates": [[[[113.9651353, 22.555011], [113.9651958, 22.5549326], [113.9653878, 22.5550589], [113.9654713, 22.5549507], [113.9655536, 22.5550049], [113.9654158, 22.5551835], [113.9653578, 22.5551454], [113.9652744, 22.5552535], [113.9651921, 22.5551994], [113.9652693, 22.5550992], [113.9651353, 22.555011]]]]}}, {"type": "Feature", "id": "relation/19551800", "properties": {"tags": {"building": "college"}, "heightStatus": "unknown", "source": "OpenStreetMap", "license": "ODbL-1.0"}, "geometry": {"type": "MultiPolygon", "coordinates": [[[[113.9626103, 22.5586331], [113.9627236, 22.558619], [113.9626971, 22.5584381], [113.9633091, 22.5585138], [113.9633133, 22.5585424], [113.9634418, 22.5585264], [113.9634444, 22.558544], [113.9637324, 22.558508], [113.9637485, 22.558618], [113.9637018, 22.5586239], [113.9637204, 22.5587507], [113.9627605, 22.5588706], [113.9627443, 22.5587603], [113.962631, 22.5587744], [113.9626103, 22.5586331]], [[113.9627441, 22.5586456], [113.962756, 22.5587264], [113.9629101, 22.5587071], [113.9628983, 22.5586263], [113.9627441, 22.5586456]], [[113.9629201, 22.5585996], [113.9629354, 22.5587039], [113.9631673, 22.558675], [113.9631545, 22.5585877], [113.9629665, 22.5585629], [113.9629201, 22.5585996]]]]}}, {"type": "Feature", "id": "way/1434738572", "properties": {"tags": {"building": "school"}, "heightStatus": "unknown", "source": "OpenStreetMap", "license": "ODbL-1.0"}, "geometry": {"type": "MultiPolygon", "coordinates": [[[[113.9624934, 22.5541258], [113.9629202, 22.5541129], [113.9633414, 22.5543921], [113.9632733, 22.5544797], [113.9630959, 22.5543621], [113.9630737, 22.5543907], [113.9629963, 22.5543395], [113.9630186, 22.5543108], [113.9628844, 22.5542219], [113.9625951, 22.5542306], [113.9625963, 22.554266], [113.9625103, 22.5542686], [113.9625091, 22.5542332], [113.9624972, 22.5542335], [113.9624934, 22.5541258]]]]}}, {"type": "Feature", "id": "way/1434738573", "properties": {"tags": {"building": "school"}, "heightStatus": "unknown", "source": "OpenStreetMap", "license": "ODbL-1.0"}, "geometry": {"type": "MultiPolygon", "coordinates": [[[[113.9625046, 22.5544843], [113.962856, 22.5544737], [113.9631363, 22.5546594], [113.9630682, 22.554747], [113.9628202, 22.5545826], [113.9626077, 22.554589], [113.962609, 22.5546242], [113.962523, 22.5546268], [113.9625218, 22.5545916], [113.9625084, 22.554592], [113.9625046, 22.5544843]]]]}}, {"type": "Feature", "id": "way/1434738574", "properties": {"tags": {"building": "school"}, "heightStatus": "unknown", "source": "OpenStreetMap", "license": "ODbL-1.0"}, "geometry": {"type": "MultiPolygon", "coordinates": [[[[113.9623035, 22.5548056], [113.9626736, 22.5547944], [113.9626807, 22.554995], [113.9623483, 22.555005], [113.9623464, 22.55495], [113.9623086, 22.5549511], [113.9623035, 22.5548056]]]]}}, {"type": "Feature", "id": "way/1545742004", "properties": {"tags": {"building": "yes"}, "heightStatus": "unknown", "source": "OpenStreetMap", "license": "ODbL-1.0"}, "geometry": {"type": "MultiPolygon", "coordinates": [[[[113.9586382, 22.5617452], [113.9592156, 22.5615563], [113.9592816, 22.5617284], [113.9587042, 22.5619172], [113.9586382, 22.5617452]]]]}}]}