{"type": "FeatureCollection", "features": [{"type": "Feature", "id": "relation/15697783", "properties": {"tags": {"addr:city": "深圳市", "addr:district": "南山区", "addr:housenumber": "128号", "addr:province": "广东省", "addr:street": "龙井路", "alt_name": "西丽总所", "amenity": "police", "building": "yes", "government": "transportation", "loc_name": "西丽车管所", "name": "深圳市交警局西丽车辆管理所", "name:en": "Shenzhen Traffic Police Bureau Xili Vehicle Management Office", "name:zh": "深圳市交警局西丽车辆管理所", "official_name": "深圳市公安局交通警察支队车辆管理所西丽车管所", "opening_hours": "Mo-Fr 09:00-12:00,14:00-17:00"}, "heightStatus": "unknown", "source": "OpenStreetMap", "license": "ODbL-1.0"}, "geometry": {"type": "MultiPolygon", "coordinates": [[[[113.9648009, 22.563923], [113.9650614, 22.5638549], [113.9650429, 22.5637945], [113.965259, 22.563738], [113.9653752, 22.5637078], [113.9656026, 22.5636484], [113.9656214, 22.5637099], [113.9658567, 22.5636485], [113.9659578, 22.5639785], [113.9657995, 22.5640199], [113.9658441, 22.5641652], [113.9656845, 22.564207], [113.9658653, 22.5647539], [113.9654852, 22.5648595], [113.9653028, 22.5643067], [113.9650763, 22.5643659], [113.9650339, 22.5642275], [113.9649046, 22.5642613], [113.9648009, 22.563923]]]]}}, {"type": "Feature", "id": "way/581971431", "properties": {"tags": {"building": "yes"}, "heightStatus": "unknown", "source": "OpenStreetMap", "license": "ODbL-1.0"}, "geometry": {"type": "MultiPolygon", "coordinates": [[[[113.9630976, 22.5652845], [113.9636293, 22.5651386], [113.9637217, 22.5654259], [113.9631899, 22.5655717], [113.9630976, 22.5652845]]]]}}, {"type": "Feature", "id": "way/1081869258", "properties": {"tags": {"addr:housename": "龙祥苑", "addr:housename:zh": "龙祥苑", "building": "apartments", "name": "A座", "name:zh": "A座"}, "heightStatus": "unknown", "source": "OpenStreetMap", "license": "ODbL-1.0"}, "geometry": {"type": "MultiPolygon", "coordinates": [[[[113.9612262, 22.5713186], [113.9614362, 22.5711699], [113.9615611, 22.5710484], [113.9617213, 22.5708416], [113.9618108, 22.5706582], [113.9618668, 22.5704643], [113.9619796, 22.5704922], [113.9619211, 22.5706945], [113.961823, 22.5708957], [113.9616513, 22.5711172], [113.9615146, 22.5712502], [113.9612973, 22.5714041], [113.9612262, 22.5713186]]]]}}, {"type": "Feature", "id": "way/1081869259", "properties": {"tags": {"addr:housename": "龙祥苑", "addr:housename:zh": "龙祥苑", "building": "apartments", "name": "B座", "name:zh": "B座"}, "heightStatus": "unknown", "source": "OpenStreetMap", "license": "ODbL-1.0"}, "geometry": {"type": "MultiPolygon", "coordinates": [[[[113.9612573, 22.5707307], [113.9613134, 22.5707159], [113.9612904, 22.5706415], [113.9614344, 22.5706034], [113.9614575, 22.5706777], [113.9615136, 22.5706629], [113.9615391, 22.570745], [113.9614829, 22.5707598], [113.9614893, 22.5707802], [113.9615267, 22.5707703], [113.9615434, 22.5708243], [113.9613246, 22.5708822], [113.9613078, 22.5708282], [113.9613452, 22.5708183], [113.9613389, 22.5707979], [113.9612828, 22.5708128], [113.9612573, 22.5707307]]]]}}, {"type": "Feature", "id": "way/1257159773", "properties": {"tags": {"building": "yes"}, "heightStatus": "unknown", "source": "OpenStreetMap", "license": "ODbL-1.0"}, "geometry": {"type": "MultiPolygon", "coordinates": [[[[113.9651727, 22.5714416], [113.9651744, 22.5713043], [113.9661353, 22.5713141], [113.9661336, 22.5714513], [113.9651727, 22.5714416]]]]}}, {"type": "Feature", "id": "way/1426306230", "properties": {"tags": {"addr:housename": "龙祥苑", "addr:housename:zh": "龙祥苑", "building": "apartments", "name": "C座", "name:zh": "C座"}, "heightStatus": "unknown", "source": "OpenStreetMap", "license": "ODbL-1.0"}, "geometry": {"type": "MultiPolygon", "coordinates": [[[[113.9610011, 22.5707985], [113.9610572, 22.5707837], [113.9610341, 22.5707093], [113.9611781, 22.5706712], [113.9612012, 22.5707456], [113.9612573, 22.5707307], [113.9612828, 22.5708128], [113.9612267, 22.5708276], [113.961233, 22.570848], [113.9612704, 22.5708381], [113.9612872, 22.5708921], [113.9610683, 22.57095], [113.9610516, 22.570896], [113.961089, 22.5708861], [113.9610826, 22.5708658], [113.9610265, 22.5708806], [113.9610011, 22.5707985]]]]}}, {"type": "Feature", "id": "way/1426306232", "properties": {"tags": {"building": "industrial"}, "heightStatus": "unknown", "source": "OpenStreetMap", "license": "ODbL-1.0"}, "geometry": {"type": "MultiPolygon", "coordinates": [[[[113.9631916, 22.5703056], [113.9634606, 22.5701979], [113.9634957, 22.5702727], [113.9639675, 22.570084], [113.964048, 22.5702555], [113.9633072, 22.570552], [113.9631916, 22.5703056]]]]}}, {"type": "Feature", "id": "way/1557790932", "properties": {"tags": {"building": "apartments"}, "heightStatus": "unknown", "source": "OpenStreetMap", "license": "ODbL-1.0"}, "geometry": {"type": "MultiPolygon", "coordinates": [[[[113.9638764, 22.5717384], [113.9643246, 22.5716684], [113.9643514, 22.5718148], [113.9639032, 22.5718848], [113.9638764, 22.5717384]]]]}}, {"type": "Feature", "id": "way/1557790933", "properties": {"tags": {"building": "apartments"}, "heightStatus": "unknown", "source": "OpenStreetMap", "license": "ODbL-1.0"}, "geometry": {"type": "MultiPolygon", "coordinates": [[[[113.9637424, 22.5715351], [113.9643226, 22.5714131], [113.9643582, 22.5715573], [113.963778, 22.5716792], [113.9637424, 22.5715351]]]]}}, {"type": "Feature", "id": "way/1557790934", "properties": {"tags": {"building": "apartments"}, "heightStatus": "unknown", "source": "OpenStreetMap", "license": "ODbL-1.0"}, "geometry": {"type": "MultiPolygon", "coordinates": [[[[113.9636141, 22.5711174], [113.9642646, 22.570878], [113.9643392, 22.5710509], [113.9636886, 22.5712902], [113.9636141, 22.5711174]]]]}}, {"type": "Feature", "id": "way/1557790935", "properties": {"tags": {"building": "apartments"}, "heightStatus": "unknown", "source": "OpenStreetMap", "license": "ODbL-1.0"}, "geometry": {"type": "MultiPolygon", "coordinates": [[[[113.9634856, 22.5709602], [113.9640991, 22.5707232], [113.9641566, 22.5708503], [113.9635431, 22.5710871], [113.9634856, 22.5709602]]]]}}, {"type": "Feature", "id": "way/1557790936", "properties": {"tags": {"building": "apartments"}, "heightStatus": "unknown", "source": "OpenStreetMap", "license": "ODbL-1.0"}, "geometry": {"type": "MultiPolygon", "coordinates": [[[[113.9633901, 22.5707184], [113.9638815, 22.5705393], [113.9639446, 22.570687], [113.9634532, 22.570866], [113.9633901, 22.5707184]]]]}}, {"type": "Feature", "id": "way/1557790937", "properties": {"tags": {"building": "industrial"}, "heightStatus": "unknown", "source": "OpenStreetMap", "license": "ODbL-1.0"}, "geometry": {"type": "MultiPolygon", "coordinates": [[[[113.9653881, 22.5699873], [113.9655686, 22.5699758], [113.9656193, 22.5706539], [113.9654386, 22.5706654], [113.9653881, 22.5699873]]]]}}, {"type": "Feature", "id": "way/1557790938", "properties": {"tags": {"building": "industrial"}, "heightStatus": "unknown", "source": "OpenStreetMap", "license": "ODbL-1.0"}, "geometry": {"type": "MultiPolygon", "coordinates": [[[[113.9660206, 22.5700681], [113.9660259, 22.569942], [113.9662998, 22.5699518], [113.9662945, 22.5700779], [113.9660206, 22.5700681]]]]}}, {"type": "Feature", "id": "way/1557790939", "properties": {"tags": {"building": "industrial"}, "heightStatus": "unknown", "source": "OpenStreetMap", "license": "ODbL-1.0"}, "geometry": {"type": "MultiPolygon", "coordinates": [[[[113.9660964, 22.5698112], [113.9660992, 22.5696409], [113.966191, 22.5696422], [113.9661896, 22.5697267], [113.9662769, 22.5697279], [113.9662758, 22.5697942], [113.9661771, 22.5697928], [113.9661767, 22.5698123], [113.9660964, 22.5698112]]]]}}, {"type": "Feature", "id": "way/1557790940", "properties": {"tags": {"building": "industrial"}, "heightStatus": "unknown", "source": "OpenStreetMap", "license": "ODbL-1.0"}, "geometry": {"type": "MultiPolygon", "coordinates": [[[[113.9660248, 22.5708319], [113.9660251, 22.570658], [113.9661138, 22.5706582], [113.9661137, 22.5707189], [113.9662677, 22.5707191], [113.9662675, 22.5708323], [113.9660248, 22.5708319]]]]}}]}