{"type": "FeatureCollection", "features": [{"type": "Feature", "id": "way/1081869241", "properties": {"tags": {"addr:housename": "珠光花半里", "addr:housename:zh": "珠光花半里", "building": "apartments", "building:levels": "11", "name": "2栋", "name:zh": "2栋"}, "heightStatus": "levels_only_unverified", "source": "OpenStreetMap", "license": "ODbL-1.0"}, "geometry": {"type": "MultiPolygon", "coordinates": [[[[113.9570421, 22.5732131], [113.9570807, 22.5732092], [113.9570691, 22.5731105], [113.9572295, 22.5730945], [113.9572411, 22.5731932], [113.9573185, 22.5731854], [113.9573069, 22.5730867], [113.9574672, 22.5730706], [113.9574788, 22.5731693], [113.9575562, 22.5731616], [113.9575446, 22.5730629], [113.9577049, 22.5730468], [113.9577165, 22.5731455], [113.9577939, 22.5731377], [113.9577823, 22.573039], [113.9579426, 22.5730229], [113.9579542, 22.5731216], [113.9579929, 22.5731178], [113.9580007, 22.5731839], [113.957962, 22.5731878], [113.9579642, 22.5732066], [113.9578039, 22.5732227], [113.9578017, 22.5732038], [113.957763, 22.5732077], [113.9577243, 22.5732116], [113.9577265, 22.5732304], [113.9575662, 22.5732465], [113.9575639, 22.5732277], [113.9574866, 22.5732354], [113.9574888, 22.5732543], [113.9573285, 22.5732703], [113.9573262, 22.5732515], [113.9572489, 22.5732593], [113.9572511, 22.5732781], [113.9570907, 22.5732942], [113.9570885, 22.5732753], [113.9570498, 22.5732792], [113.9570421, 22.5732131]]]]}}, {"type": "Feature", "id": "way/1426304358", "properties": {"tags": {"addr:housename": "珠光和山悦花园", "addr:housename:zh": "珠光和山悦花园", "building": "construction", "building:levels": "7", "construction": "apartments", "name": "1C栋", "name:zh": "1C栋"}, "heightStatus": "levels_only_unverified", "source": "OpenStreetMap", "license": "ODbL-1.0"}, "geometry": {"type": "MultiPolygon", "coordinates": [[[[113.9577506, 22.5740297], [113.9580554, 22.5740207], [113.9580589, 22.5741231], [113.9579811, 22.5741254], [113.9579826, 22.5741685], [113.9578334, 22.5741729], [113.957832, 22.57413], [113.9577541, 22.5741325], [113.9577506, 22.5740297]]]]}}, {"type": "Feature", "id": "way/1426304359", "properties": {"tags": {"addr:housename": "珠光和山悦花园", "addr:housename:zh": "珠光和山悦花园", "building": "construction", "building:levels": "7", "construction": "apartments", "name": "1B栋", "name:zh": "1B栋"}, "heightStatus": "levels_only_unverified", "source": "OpenStreetMap", "license": "ODbL-1.0"}, "geometry": {"type": "MultiPolygon", "coordinates": [[[[113.9574306, 22.5741095], [113.9577243, 22.5740338], [113.9577541, 22.5741325], [113.957679, 22.5741518], [113.9576916, 22.5741934], [113.9575479, 22.5742305], [113.9575353, 22.5741889], [113.9574604, 22.5742082], [113.9574306, 22.5741095]]]]}}, {"type": "Feature", "id": "way/1426304360", "properties": {"tags": {"addr:housename": "珠光和山悦花园", "addr:housename:zh": "珠光和山悦花园", "building": "construction", "building:levels": "2", "construction": "retail", "name": "4栋", "name:zh": "4栋"}, "heightStatus": "levels_only_unverified", "source": "OpenStreetMap", "license": "ODbL-1.0"}, "geometry": {"type": "MultiPolygon", "coordinates": [[[[113.9579079, 22.5745739], [113.9584386, 22.5744361], [113.9584745, 22.5745538], [113.9579438, 22.5746916], [113.9579079, 22.5745739]]]]}}, {"type": "Feature", "id": "way/1426304361", "properties": {"tags": {"addr:housename": "珠光和山悦花园", "addr:housename:zh": "珠光和山悦花园", "building": "construction", "building:levels": "2", "construction": "retail", "name": "3栋", "name:zh": "3栋"}, "heightStatus": "levels_only_unverified", "source": "OpenStreetMap", "license": "ODbL-1.0"}, "geometry": {"type": "MultiPolygon", "coordinates": [[[[113.957958, 22.574765], [113.9584212, 22.5746447], [113.958457, 22.5747624], [113.9579938, 22.5748827], [113.957958, 22.574765]]]]}}, {"type": "Feature", "id": "way/1426304362", "properties": {"tags": {"addr:housename": "珠光和山悦花园", "addr:housename:zh": "珠光和山悦花园", "building": "construction", "building:levels": "43", "construction": "apartments", "name": "5栋", "name:zh": "5栋"}, "heightStatus": "levels_only_unverified", "source": "OpenStreetMap", "license": "ODbL-1.0"}, "geometry": {"type": "MultiPolygon", "coordinates": [[[[113.9581051, 22.5741544], [113.9581823, 22.5741523], [113.9581817, 22.5741318], [113.9582607, 22.5741297], [113.9582681, 22.5741103], [113.9582314, 22.5740984], [113.9582383, 22.5740803], [113.9582016, 22.5740683], [113.9582273, 22.5740009], [113.9584689, 22.5740794], [113.9584432, 22.5741468], [113.9584065, 22.5741349], [113.9583995, 22.574153], [113.9583628, 22.5741411], [113.9583555, 22.5741605], [113.9584156, 22.5742079], [113.9584012, 22.5742235], [113.9584599, 22.5742697], [113.9583997, 22.5743349], [113.9582736, 22.5742356], [113.9581079, 22.5742401], [113.9581051, 22.5741544]]]]}}, {"type": "Feature", "id": "way/1426304363", "properties": {"tags": {"addr:housename": "珠光和山悦花园", "addr:housename:zh": "珠光和山悦花园", "building": "construction", "building:levels": "43", "construction": "apartments", "name": "2栋", "name:zh": "2栋"}, "heightStatus": "levels_only_unverified", "source": "OpenStreetMap", "license": "ODbL-1.0"}, "geometry": {"type": "MultiPolygon", "coordinates": [[[[113.9574647, 22.5748428], [113.9575419, 22.5748407], [113.9575412, 22.5748202], [113.9576203, 22.5748181], [113.9576276, 22.5747987], [113.9575909, 22.5747868], [113.9575978, 22.5747686], [113.9575611, 22.5747567], [113.9575868, 22.5746892], [113.9578284, 22.5747678], [113.9578027, 22.5748352], [113.957766, 22.5748233], [113.9577591, 22.5748414], [113.9577224, 22.5748295], [113.957715, 22.5748488], [113.9577751, 22.5748962], [113.9577607, 22.5749118], [113.9578195, 22.5749581], [113.9577592, 22.5750233], [113.9576331, 22.574924], [113.9574674, 22.5749285], [113.9574647, 22.5748428]]]]}}, {"type": "Feature", "id": "way/1426304364", "properties": {"tags": {"addr:housename": "珠光和山悦花园", "addr:housename:zh": "珠光和山悦花园", "building": "construction", "building:levels": "43", "construction": "apartments", "name": "1A栋", "name:zh": "1A栋"}, "heightStatus": "levels_only_unverified", "source": "OpenStreetMap", "license": "ODbL-1.0"}, "geometry": {"type": "MultiPolygon", "coordinates": [[[[113.9571033, 22.5743984], [113.9571804, 22.5743953], [113.9571794, 22.5743748], [113.9572584, 22.5743716], [113.9572655, 22.5743521], [113.9572286, 22.5743407], [113.9572352, 22.5743225], [113.9571984, 22.574311], [113.957223, 22.5742432], [113.9574658, 22.5743185], [113.9574411, 22.5743863], [113.9574042, 22.5743749], [113.9573976, 22.5743931], [113.9573607, 22.5743816], [113.9573536, 22.5744011], [113.9574145, 22.5744477], [113.9574003, 22.5744635], [113.9574598, 22.574509], [113.9574006, 22.574575], [113.9572729, 22.5744773], [113.9571073, 22.574484], [113.9571033, 22.5743984]]]]}}, {"type": "Feature", "id": "way/1426306236", "properties": {"tags": {"building": "industrial", "name": "4栋", "name:zh": "4栋"}, "heightStatus": "unknown", "source": "OpenStreetMap", "license": "ODbL-1.0"}, "geometry": {"type": "MultiPolygon", "coordinates": [[[[113.9609456, 22.5746948], [113.9613067, 22.5746174], [113.9613643, 22.5748465], [113.9610032, 22.5749238], [113.9609456, 22.5746948]]]]}}, {"type": "Feature", "id": "way/1426306237", "properties": {"tags": {"building": "industrial", "name": "3栋", "name:zh": "3栋"}, "heightStatus": "unknown", "source": "OpenStreetMap", "license": "ODbL-1.0"}, "geometry": {"type": "MultiPolygon", "coordinates": [[[[113.9604844, 22.5737714], [113.960723, 22.5737203], [113.9607382, 22.573781], [113.9607777, 22.5737725], [113.960793, 22.5738332], [113.9608307, 22.5738251], [113.9608612, 22.5739465], [113.9605455, 22.5740142], [113.9604844, 22.5737714]]]]}}, {"type": "Feature", "id": "way/1426306238", "properties": {"tags": {"building": "industrial", "name": "2栋", "name:zh": "2栋"}, "heightStatus": "unknown", "source": "OpenStreetMap", "license": "ODbL-1.0"}, "geometry": {"type": "MultiPolygon", "coordinates": [[[[113.9605696, 22.5741102], [113.9609505, 22.5740285], [113.9609658, 22.5740892], [113.9610053, 22.5740808], [113.9610206, 22.5741414], [113.9610583, 22.5741334], [113.9610888, 22.5742547], [113.9606306, 22.5743529], [113.9605696, 22.5741102]]]]}}, {"type": "Feature", "id": "way/1426306239", "properties": {"tags": {"building": "industrial", "name": "1栋", "name:zh": "1栋"}, "heightStatus": "unknown", "source": "OpenStreetMap", "license": "ODbL-1.0"}, "geometry": {"type": "MultiPolygon", "coordinates": [[[[113.9606516, 22.5744362], [113.9611595, 22.5743273], [113.9611748, 22.574388], [113.9612143, 22.5743795], [113.9612295, 22.5744402], [113.9612672, 22.5744321], [113.9612978, 22.5745535], [113.9607126, 22.5746789], [113.9606516, 22.5744362]]]]}}, {"type": "Feature", "id": "way/1460284975", "properties": {"tags": {"building": "yes"}, "heightStatus": "unknown", "source": "OpenStreetMap", "license": "ODbL-1.0"}, "geometry": {"type": "MultiPolygon", "coordinates": [[[[113.963601, 22.5806169], [113.963943, 22.580628], [113.9639457, 22.5805871], [113.9639205, 22.5805861], [113.9639227, 22.5805347], [113.9639467, 22.580535], [113.9639524, 22.5804311], [113.9637163, 22.5804299], [113.9637244, 22.5803296], [113.9640516, 22.5803395], [113.9640342, 22.5807147], [113.963601, 22.5807023], [113.963601, 22.5806169]]]]}}, {"type": "Feature", "id": "way/1460284976", "properties": {"tags": {"building": "yes"}, "heightStatus": "unknown", "source": "OpenStreetMap", "license": "ODbL-1.0"}, "geometry": {"type": "MultiPolygon", "coordinates": [[[[113.963415, 22.5804787], [113.9635566, 22.580258], [113.9636663, 22.5803179], [113.9635247, 22.5805386], [113.963415, 22.5804787]]]]}}, {"type": "Feature", "id": "way/1460284977", "properties": {"tags": {"building": "yes"}, "heightStatus": "unknown", "source": "OpenStreetMap", "license": "ODbL-1.0"}, "geometry": {"type": "MultiPolygon", "coordinates": [[[[113.9633559, 22.5802244], [113.9634043, 22.5801488], [113.9635256, 22.580215], [113.9634772, 22.5802906], [113.9633559, 22.5802244]]]]}}, {"type": "Feature", "id": "way/1460284978", "properties": {"tags": {"building": "yes"}, "heightStatus": "unknown", "source": "OpenStreetMap", "license": "ODbL-1.0"}, "geometry": {"type": "MultiPolygon", "coordinates": [[[[113.9631738, 22.5803521], [113.9632328, 22.5802594], [113.9634643, 22.5803851], [113.9634053, 22.5804778], [113.9631738, 22.5803521]]]]}}, {"type": "Feature", "id": "way/1460284979", "properties": {"tags": {"building": "yes"}, "heightStatus": "unknown", "source": "OpenStreetMap", "license": "ODbL-1.0"}, "geometry": {"type": "MultiPolygon", "coordinates": [[[[113.9634099, 22.5800924], [113.963719, 22.5796405], [113.963835, 22.5797005], [113.9636305, 22.5800014], [113.9636479, 22.5800485], [113.9640583, 22.580124], [113.9640308, 22.5802695], [113.9635789, 22.5801797], [113.9634099, 22.5800924]]]]}}, {"type": "Feature", "id": "way/1460284980", "properties": {"tags": {"building": "yes"}, "heightStatus": "unknown", "source": "OpenStreetMap", "license": "ODbL-1.0"}, "geometry": {"type": "MultiPolygon", "coordinates": [[[[113.9631614, 22.5802018], [113.9632802, 22.5799969], [113.9633788, 22.5800456], [113.9632599, 22.5802505], [113.9631614, 22.5802018]]]]}}, {"type": "Feature", "id": "way/1460284981", "properties": {"tags": {"building": "yes"}, "heightStatus": "unknown", "source": "OpenStreetMap", "license": "ODbL-1.0"}, "geometry": {"type": "MultiPolygon", "coordinates": [[[[113.9632308, 22.5798095], [113.9633663, 22.57962], [113.9634521, 22.57962], [113.9636546, 22.5794764], [113.9637405, 22.5795222], [113.9633918, 22.5800336], [113.9632912, 22.5799816], [113.9633609, 22.5798714], [113.9632308, 22.5798095]]]]}}, {"type": "Feature", "id": "way/1460284982", "properties": {"tags": {"building": "yes"}, "heightStatus": "unknown", "source": "OpenStreetMap", "license": "ODbL-1.0"}, "geometry": {"type": "MultiPolygon", "coordinates": [[[[113.9637371, 22.5796072], [113.9638977, 22.5793502], [113.9640322, 22.5794219], [113.9638716, 22.5796789], [113.9637371, 22.5796072]]]]}}, {"type": "Feature", "id": "way/1460284983", "properties": {"tags": {"building": "yes"}, "heightStatus": "unknown", "source": "OpenStreetMap", "license": "ODbL-1.0"}, "geometry": {"type": "MultiPolygon", "coordinates": [[[[113.9639698, 22.5793464], [113.9639765, 22.5793018], [113.9641576, 22.579277], [113.9641522, 22.5793117], [113.9644392, 22.5793686], [113.9644191, 22.5794628], [113.9639698, 22.5793464]]]]}}, {"type": "Feature", "id": "way/1460284984", "properties": {"tags": {"building": "yes"}, "heightStatus": "unknown", "source": "OpenStreetMap", "license": "ODbL-1.0"}, "geometry": {"type": "MultiPolygon", "coordinates": [[[[113.9642863, 22.5791804], [113.9644432, 22.5790826], [113.964757, 22.5795036], [113.9647396, 22.5795445], [113.9646417, 22.5795408], [113.9644633, 22.5792894], [113.9643989, 22.5793241], [113.9642863, 22.5791804]]]]}}, {"type": "Feature", "id": "way/1460284985", "properties": {"tags": {"building": "yes"}, "heightStatus": "unknown", "source": "OpenStreetMap", "license": "ODbL-1.0"}, "geometry": {"type": "MultiPolygon", "coordinates": [[[[113.9642654, 22.5795123], [113.964598, 22.5795216], [113.9645961, 22.5795482], [113.9642662, 22.5795395], [113.9642654, 22.5795123]]]]}}, {"type": "Feature", "id": "way/1460284986", "properties": {"tags": {"building": "yes"}, "heightStatus": "unknown", "source": "OpenStreetMap", "license": "ODbL-1.0"}, "geometry": {"type": "MultiPolygon", "coordinates": [[[[113.9647315, 22.5801513], [113.9648683, 22.58015], [113.964867, 22.5800952], [113.9649522, 22.5800952], [113.9649528, 22.5802742], [113.9647322, 22.580272], [113.9647315, 22.5801513]]]]}}, {"type": "Feature", "id": "way/1460284987", "properties": {"tags": {"building": "yes"}, "heightStatus": "unknown", "source": "OpenStreetMap", "license": "ODbL-1.0"}, "geometry": {"type": "MultiPolygon", "coordinates": [[[[113.9643306, 22.5795804], [113.9648402, 22.5795866], [113.9648549, 22.580103], [113.9647289, 22.580103], [113.9647168, 22.5797154], [113.9644673, 22.5797166], [113.9644741, 22.5800844], [113.964344, 22.5800844], [113.9643306, 22.5795804]]]]}}, {"type": "Feature", "id": "way/1460284988", "properties": {"tags": {"building": "yes"}, "heightStatus": "unknown", "source": "OpenStreetMap", "license": "ODbL-1.0"}, "geometry": {"type": "MultiPolygon", "coordinates": [[[[113.964346, 22.5801054], [113.9644729, 22.5801042], [113.9644746, 22.5802576], [113.9643477, 22.5802588], [113.964346, 22.5801054]]]]}}, {"type": "Feature", "id": "way/1460284989", "properties": {"tags": {"building": "yes"}, "heightStatus": "unknown", "source": "OpenStreetMap", "license": "ODbL-1.0"}, "geometry": {"type": "MultiPolygon", "coordinates": [[[[113.9640972, 22.5797104], [113.9641008, 22.5796687], [113.964114, 22.5796312], [113.9641255, 22.5795972], [113.9641542, 22.5795575], [113.9642139, 22.5795042], [113.9642441, 22.5795395], [113.9641964, 22.5795953], [113.964177, 22.5796473], [113.9641736, 22.5797104], [113.964175, 22.579799], [113.9640979, 22.5798002], [113.9640972, 22.5797104]]]]}}, {"type": "Feature", "id": "way/1460284990", "properties": {"tags": {"building": "yes"}, "heightStatus": "unknown", "source": "OpenStreetMap", "license": "ODbL-1.0"}, "geometry": {"type": "MultiPolygon", "coordinates": [[[[113.9641333, 22.5798167], [113.9642838, 22.5798068], [113.9643233, 22.5803173], [113.9641728, 22.5803273], [113.9641333, 22.5798167]]]]}}, {"type": "Feature", "id": "way/1460284991", "properties": {"tags": {"building": "yes"}, "heightStatus": "unknown", "source": "OpenStreetMap", "license": "ODbL-1.0"}, "geometry": {"type": "MultiPolygon", "coordinates": [[[[113.9643374, 22.5803715], [113.9643377, 22.5802746], [113.9649047, 22.5802762], [113.9649044, 22.5803731], [113.9643374, 22.5803715]]]]}}, {"type": "Feature", "id": "way/1460284992", "properties": {"tags": {"building": "yes"}, "heightStatus": "unknown", "source": "OpenStreetMap", "license": "ODbL-1.0"}, "geometry": {"type": "MultiPolygon", "coordinates": [[[[113.9641825, 22.5804658], [113.9641829, 22.5803791], [113.9643596, 22.5803797], [113.9643592, 22.5804664], [113.9641825, 22.5804658]]]]}}, {"type": "Feature", "id": "way/1460787642", "properties": {"tags": {"building": "yes"}, "heightStatus": "unknown", "source": "OpenStreetMap", "license": "ODbL-1.0"}, "geometry": {"type": "MultiPolygon", "coordinates": [[[[113.9643156, 22.5807463], [113.964316, 22.5805961], [113.9648437, 22.5805973], [113.9648433, 22.5807475], [113.9643156, 22.5807463]]]]}}, {"type": "Feature", "id": "way/1461307399", "properties": {"tags": {"building": "yes", "name": "70栋"}, "heightStatus": "unknown", "source": "OpenStreetMap", "license": "ODbL-1.0"}, "geometry": {"type": "MultiPolygon", "coordinates": [[[[113.9597073, 22.5742517], [113.959938, 22.5742435], [113.9599411, 22.574308], [113.9597104, 22.5743163], [113.9597073, 22.5742517]]]]}}, {"type": "Feature", "id": "way/1461307400", "properties": {"tags": {"building": "yes", "name": "79栋"}, "heightStatus": "unknown", "source": "OpenStreetMap", "license": "ODbL-1.0"}, "geometry": {"type": "MultiPolygon", "coordinates": [[[[113.959008, 22.5743691], [113.9591434, 22.5743592], [113.9591552, 22.5744971], [113.9590198, 22.574507], [113.959008, 22.5743691]]]]}}, {"type": "Feature", "id": "way/1461307401", "properties": {"tags": {"building": "yes", "name": "78栋"}, "heightStatus": "unknown", "source": "OpenStreetMap", "license": "ODbL-1.0"}, "geometry": {"type": "MultiPolygon", "coordinates": [[[[113.9588772, 22.574362], [113.9589912, 22.5743582], [113.958997, 22.5745094], [113.958883, 22.5745132], [113.9588772, 22.574362]]]]}}, {"type": "Feature", "id": "way/1461307402", "properties": {"tags": {"building": "yes", "name": "77栋"}, "heightStatus": "unknown", "source": "OpenStreetMap", "license": "ODbL-1.0"}, "geometry": {"type": "MultiPolygon", "coordinates": [[[[113.9586888, 22.5743616], [113.9588454, 22.5743546], [113.9588572, 22.5745111], [113.9586952, 22.5745194], [113.9586888, 22.5743616]]]]}}, {"type": "Feature", "id": "way/1461307403", "properties": {"tags": {"building": "yes", "name": "71栋"}, "heightStatus": "unknown", "source": "OpenStreetMap", "license": "ODbL-1.0"}, "geometry": {"type": "MultiPolygon", "coordinates": [[[[113.9594836, 22.5741497], [113.9596271, 22.5741448], [113.959634, 22.574315], [113.9594905, 22.57432], [113.9594836, 22.5741497]]]]}}, {"type": "Feature", "id": "way/1461307404", "properties": {"tags": {"building": "yes", "name": "72栋"}, "heightStatus": "unknown", "source": "OpenStreetMap", "license": "ODbL-1.0"}, "geometry": {"type": "MultiPolygon", "coordinates": [[[[113.9593343, 22.5741492], [113.9594604, 22.574148], [113.9594623, 22.5743187], [113.9593363, 22.57432], [113.9593343, 22.5741492]]]]}}, {"type": "Feature", "id": "way/1461307405", "properties": {"tags": {"building": "yes", "name": "73栋"}, "heightStatus": "unknown", "source": "OpenStreetMap", "license": "ODbL-1.0"}, "geometry": {"type": "MultiPolygon", "coordinates": [[[[113.9591711, 22.574149], [113.9593092, 22.5741453], [113.9593148, 22.5743237], [113.9591767, 22.5743274], [113.9591711, 22.574149]]]]}}, {"type": "Feature", "id": "way/1461307406", "properties": {"tags": {"building": "yes", "name": "74栋"}, "heightStatus": "unknown", "source": "OpenStreetMap", "license": "ODbL-1.0"}, "geometry": {"type": "MultiPolygon", "coordinates": [[[[113.9589843, 22.5741592], [113.9591506, 22.5741555], [113.9591552, 22.5743336], [113.9589889, 22.5743373], [113.9589843, 22.5741592]]]]}}, {"type": "Feature", "id": "way/1461307407", "properties": {"tags": {"building": "yes", "name": "75栋"}, "heightStatus": "unknown", "source": "OpenStreetMap", "license": "ODbL-1.0"}, "geometry": {"type": "MultiPolygon", "coordinates": [[[[113.9588481, 22.5741974], [113.9589675, 22.5741974], [113.9589675, 22.5743286], [113.9588481, 22.5743286], [113.9588481, 22.5741974]]]]}}, {"type": "Feature", "id": "way/1461307408", "properties": {"tags": {"building": "yes", "name": "76栋"}, "heightStatus": "unknown", "source": "OpenStreetMap", "license": "ODbL-1.0"}, "geometry": {"type": "MultiPolygon", "coordinates": [[[[113.9586644, 22.5743324], [113.9586668, 22.574195], [113.9588304, 22.5741975], [113.958828, 22.5743348], [113.9586644, 22.5743324]]]]}}, {"type": "Feature", "id": "way/1461307409", "properties": {"tags": {"building": "yes", "name": "66栋"}, "heightStatus": "unknown", "source": "OpenStreetMap", "license": "ODbL-1.0"}, "geometry": {"type": "MultiPolygon", "coordinates": [[[[113.9596594, 22.5740515], [113.9598123, 22.5740428], [113.9598244, 22.5742259], [113.9596716, 22.5742345], [113.9596594, 22.5740515]]]]}}, {"type": "Feature", "id": "way/1461307410", "properties": {"tags": {"building": "yes", "name": "57栋"}, "heightStatus": "unknown", "source": "OpenStreetMap", "license": "ODbL-1.0"}, "geometry": {"type": "MultiPolygon", "coordinates": [[[[113.9596473, 22.5738616], [113.9597774, 22.5738578], [113.9597822, 22.5740011], [113.9596521, 22.5740048], [113.9596473, 22.5738616]]]]}}, {"type": "Feature", "id": "way/1461307411", "properties": {"tags": {"building": "yes", "name": "56栋"}, "heightStatus": "unknown", "source": "OpenStreetMap", "license": "ODbL-1.0"}, "geometry": {"type": "MultiPolygon", "coordinates": [[[[113.9594769, 22.5739168], [113.9596258, 22.5739149], [113.9596286, 22.5741119], [113.9594798, 22.5741138], [113.9594769, 22.5739168]]]]}}, {"type": "Feature", "id": "way/1461307412", "properties": {"tags": {"building": "yes", "name": "55栋"}, "heightStatus": "unknown", "source": "OpenStreetMap", "license": "ODbL-1.0"}, "geometry": {"type": "MultiPolygon", "coordinates": [[[[113.9592825, 22.57393], [113.9594374, 22.5739275], [113.9594409, 22.5741138], [113.959286, 22.5741163], [113.9592825, 22.57393]]]]}}, {"type": "Feature", "id": "way/1461307413", "properties": {"tags": {"building": "yes", "name": "54栋"}, "heightStatus": "unknown", "source": "OpenStreetMap", "license": "ODbL-1.0"}, "geometry": {"type": "MultiPolygon", "coordinates": [[[[113.9591245, 22.5739287], [113.9592539, 22.5739268], [113.9592572, 22.5741181], [113.9591277, 22.57412], [113.9591245, 22.5739287]]]]}}, {"type": "Feature", "id": "way/1461307414", "properties": {"tags": {"building": "yes", "name": "53栋"}, "heightStatus": "unknown", "source": "OpenStreetMap", "license": "ODbL-1.0"}, "geometry": {"type": "MultiPolygon", "coordinates": [[[[113.9589846, 22.5739226], [113.9591046, 22.5739207], [113.9591083, 22.5741225], [113.9589883, 22.5741243], [113.9589846, 22.5739226]]]]}}, {"type": "Feature", "id": "way/1461307415", "properties": {"tags": {"building": "yes", "name": "52栋"}, "heightStatus": "unknown", "source": "OpenStreetMap", "license": "ODbL-1.0"}, "geometry": {"type": "MultiPolygon", "coordinates": [[[[113.9588435, 22.5739284], [113.9589555, 22.5739259], [113.9589608, 22.5741293], [113.9588488, 22.5741317], [113.9588435, 22.5739284]]]]}}, {"type": "Feature", "id": "way/1461307416", "properties": {"tags": {"building": "yes", "name": "51栋"}, "heightStatus": "unknown", "source": "OpenStreetMap", "license": "ODbL-1.0"}, "geometry": {"type": "MultiPolygon", "coordinates": [[[[113.9586636, 22.5740436], [113.9588285, 22.5740405], [113.9588307, 22.5741379], [113.9586657, 22.574141], [113.9586636, 22.5740436]]]]}}, {"type": "Feature", "id": "way/1461307417", "properties": {"tags": {"building": "yes", "name": "50栋"}, "heightStatus": "unknown", "source": "OpenStreetMap", "license": "ODbL-1.0"}, "geometry": {"type": "MultiPolygon", "coordinates": [[[[113.9586606, 22.5739305], [113.9588189, 22.5739261], [113.958822, 22.5740228], [113.9586637, 22.5740271], [113.9586606, 22.5739305]]]]}}, {"type": "Feature", "id": "way/1461307418", "properties": {"tags": {"building": "yes", "name": "49栋"}, "heightStatus": "unknown", "source": "OpenStreetMap", "license": "ODbL-1.0"}, "geometry": {"type": "MultiPolygon", "coordinates": [[[[113.9586501, 22.5737666], [113.9587997, 22.5737635], [113.9588032, 22.5739088], [113.9586537, 22.5739119], [113.9586501, 22.5737666]]]]}}, {"type": "Feature", "id": "way/1461307419", "properties": {"tags": {"building": "yes", "name": "47栋"}, "heightStatus": "unknown", "source": "OpenStreetMap", "license": "ODbL-1.0"}, "geometry": {"type": "MultiPolygon", "coordinates": [[[[113.9589385, 22.5737491], [113.9590974, 22.5737479], [113.9590989, 22.5739113], [113.95894, 22.5739126], [113.9589385, 22.5737491]]]]}}, {"type": "Feature", "id": "way/1461307420", "properties": {"tags": {"building": "yes", "name": "46栋"}, "heightStatus": "unknown", "source": "OpenStreetMap", "license": "ODbL-1.0"}, "geometry": {"type": "MultiPolygon", "coordinates": [[[[113.959139, 22.5737436], [113.9592771, 22.5737411], [113.9592806, 22.5739082], [113.9591425, 22.5739107], [113.959139, 22.5737436]]]]}}, {"type": "Feature", "id": "way/1461307421", "properties": {"tags": {"building": "yes", "name": "45栋"}, "heightStatus": "unknown", "source": "OpenStreetMap", "license": "ODbL-1.0"}, "geometry": {"type": "MultiPolygon", "coordinates": [[[[113.9593014, 22.5737893], [113.9594047, 22.5737893], [113.9594047, 22.5739033], [113.9593014, 22.5739033], [113.9593014, 22.5737893]]]]}}, {"type": "Feature", "id": "way/1461307422", "properties": {"tags": {"building": "yes", "name": "44栋"}, "heightStatus": "unknown", "source": "OpenStreetMap", "license": "ODbL-1.0"}, "geometry": {"type": "MultiPolygon", "coordinates": [[[[113.9594218, 22.5737593], [113.9595841, 22.5737544], [113.9595884, 22.5738748], [113.9594261, 22.5738797], [113.9594218, 22.5737593]]]]}}, {"type": "Feature", "id": "way/1461307423", "properties": {"tags": {"building": "yes", "name": "40栋"}, "heightStatus": "unknown", "source": "OpenStreetMap", "license": "ODbL-1.0"}, "geometry": {"type": "MultiPolygon", "coordinates": [[[[113.96012, 22.5736137], [113.9602281, 22.5736098], [113.9602349, 22.573768], [113.9601269, 22.573772], [113.96012, 22.5736137]]]]}}, {"type": "Feature", "id": "way/1461307424", "properties": {"tags": {"building": "yes", "name": "42栋"}, "heightStatus": "unknown", "source": "OpenStreetMap", "license": "ODbL-1.0"}, "geometry": {"type": "MultiPolygon", "coordinates": [[[[113.9598161, 22.5736522], [113.9599103, 22.5736488], [113.9599159, 22.5737791], [113.9598218, 22.5737825], [113.9598161, 22.5736522]]]]}}, {"type": "Feature", "id": "way/1461307425", "properties": {"tags": {"building": "yes", "name": "39栋"}, "heightStatus": "unknown", "source": "OpenStreetMap", "license": "ODbL-1.0"}, "geometry": {"type": "MultiPolygon", "coordinates": [[[[113.960245, 22.5736008], [113.9603469, 22.5735971], [113.9603542, 22.5737664], [113.9602523, 22.5737701], [113.960245, 22.5736008]]]]}}, {"type": "Feature", "id": "way/1461307426", "properties": {"tags": {"building": "yes", "name": "38栋"}, "heightStatus": "unknown", "source": "OpenStreetMap", "license": "ODbL-1.0"}, "geometry": {"type": "MultiPolygon", "coordinates": [[[[113.9599739, 22.57343], [113.9601086, 22.573425], [113.9601155, 22.5735832], [113.9599807, 22.5735881], [113.9599739, 22.57343]]]]}}, {"type": "Feature", "id": "way/1461307427", "properties": {"tags": {"building": "yes", "name": "41栋"}, "heightStatus": "unknown", "source": "OpenStreetMap", "license": "ODbL-1.0"}, "geometry": {"type": "MultiPolygon", "coordinates": [[[[113.9599248, 22.573617], [113.9601051, 22.5736083], [113.9601148, 22.5737794], [113.9599344, 22.5737881], [113.9599248, 22.573617]]]]}}, {"type": "Feature", "id": "way/1461307428", "properties": {"tags": {"building": "yes", "name": "37栋"}, "heightStatus": "unknown", "source": "OpenStreetMap", "license": "ODbL-1.0"}, "geometry": {"type": "MultiPolygon", "coordinates": [[[[113.9598041, 22.5734413], [113.9599623, 22.5734363], [113.9599679, 22.5735893], [113.9598097, 22.5735943], [113.9598041, 22.5734413]]]]}}, {"type": "Feature", "id": "way/1461307429", "properties": {"tags": {"building": "yes", "name": "43栋"}, "heightStatus": "unknown", "source": "OpenStreetMap", "license": "ODbL-1.0"}, "geometry": {"type": "MultiPolygon", "coordinates": [[[[113.9596312, 22.5736283], [113.9597995, 22.5736215], [113.9598077, 22.5737931], [113.9596394, 22.5737999], [113.9596312, 22.5736283]]]]}}, {"type": "Feature", "id": "way/1461307430", "properties": {"tags": {"building": "yes", "name": "36栋"}, "heightStatus": "unknown", "source": "OpenStreetMap", "license": "ODbL-1.0"}, "geometry": {"type": "MultiPolygon", "coordinates": [[[[113.959634, 22.5734565], [113.9597869, 22.573454], [113.9597896, 22.5735949], [113.9596367, 22.5735974], [113.959634, 22.5734565]]]]}}, {"type": "Feature", "id": "way/1461307431", "properties": {"tags": {"building": "yes", "name": "35栋"}, "heightStatus": "unknown", "source": "OpenStreetMap", "license": "ODbL-1.0"}, "geometry": {"type": "MultiPolygon", "coordinates": [[[[113.959483, 22.5735234], [113.9596185, 22.5735191], [113.9596253, 22.5737002], [113.9594898, 22.5737045], [113.959483, 22.5735234]]]]}}, {"type": "Feature", "id": "way/1461307432", "properties": {"tags": {"building": "yes", "name": "34栋"}, "heightStatus": "unknown", "source": "OpenStreetMap", "license": "ODbL-1.0"}, "geometry": {"type": "MultiPolygon", "coordinates": [[[[113.9593014, 22.5737163], [113.9593024, 22.5734878], [113.9594707, 22.5734884], [113.9594697, 22.5737169], [113.9593014, 22.5737163]]]]}}, {"type": "Feature", "id": "way/1461307433", "properties": {"tags": {"building": "yes", "name": "33栋"}, "heightStatus": "unknown", "source": "OpenStreetMap", "license": "ODbL-1.0"}, "geometry": {"type": "MultiPolygon", "coordinates": [[[[113.9591541, 22.5735343], [113.9592835, 22.5735325], [113.9592867, 22.5737181], [113.9591572, 22.57372], [113.9591541, 22.5735343]]]]}}, {"type": "Feature", "id": "way/1461307434", "properties": {"tags": {"building": "yes", "name": "32栋"}, "heightStatus": "unknown", "source": "OpenStreetMap", "license": "ODbL-1.0"}, "geometry": {"type": "MultiPolygon", "coordinates": [[[[113.9589985, 22.5735228], [113.9591339, 22.5735166], [113.9591452, 22.5737262], [113.9590097, 22.5737324], [113.9589985, 22.5735228]]]]}}, {"type": "Feature", "id": "way/1461307435", "properties": {"tags": {"building": "yes", "name": "31栋"}, "heightStatus": "unknown", "source": "OpenStreetMap", "license": "ODbL-1.0"}, "geometry": {"type": "MultiPolygon", "coordinates": [[[[113.9588469, 22.5735341], [113.958985, 22.5735291], [113.9589936, 22.5737336], [113.9588555, 22.5737386], [113.9588469, 22.5735341]]]]}}, {"type": "Feature", "id": "way/1461307436", "properties": {"tags": {"building": "yes", "name": "30栋"}, "heightStatus": "unknown", "source": "OpenStreetMap", "license": "ODbL-1.0"}, "geometry": {"type": "MultiPolygon", "coordinates": [[[[113.9586257, 22.5735475], [113.9588215, 22.5735326], [113.9588401, 22.5737417], [113.9586443, 22.5737565], [113.9586257, 22.5735475]]]]}}, {"type": "Feature", "id": "way/1461307438", "properties": {"tags": {"building": "yes", "name": "28栋"}, "heightStatus": "unknown", "source": "OpenStreetMap", "license": "ODbL-1.0"}, "geometry": {"type": "MultiPolygon", "coordinates": [[[[113.9587315, 22.5732725], [113.9589093, 22.5732524], [113.9589386, 22.5734734], [113.9587607, 22.5734934], [113.9587315, 22.5732725]]]]}}, {"type": "Feature", "id": "way/1461307439", "properties": {"tags": {"building": "yes", "name": "29栋"}, "heightStatus": "unknown", "source": "OpenStreetMap", "license": "ODbL-1.0"}, "geometry": {"type": "MultiPolygon", "coordinates": [[[[113.9585745, 22.5732878], [113.9587207, 22.573276], [113.9587516, 22.5734958], [113.958606, 22.5735119], [113.9585745, 22.5732878]]]]}}, {"type": "Feature", "id": "way/1461307440", "properties": {"tags": {"building": "yes", "name": "27栋"}, "heightStatus": "unknown", "source": "OpenStreetMap", "license": "ODbL-1.0"}, "geometry": {"type": "MultiPolygon", "coordinates": [[[[113.9589256, 22.5732682], [113.9590752, 22.5732489], [113.9591049, 22.5734455], [113.9589553, 22.5734648], [113.9589256, 22.5732682]]]]}}, {"type": "Feature", "id": "way/1461307441", "properties": {"tags": {"building": "yes", "name": "25栋"}, "heightStatus": "unknown", "source": "OpenStreetMap", "license": "ODbL-1.0"}, "geometry": {"type": "MultiPolygon", "coordinates": [[[[113.9590882, 22.573242], [113.9592357, 22.5732141], [113.9592518, 22.5733157], [113.9591049, 22.5733398], [113.9590882, 22.573242]]]]}}, {"type": "Feature", "id": "way/1461307442", "properties": {"tags": {"building": "yes", "name": "26栋"}, "heightStatus": "unknown", "source": "OpenStreetMap", "license": "ODbL-1.0"}, "geometry": {"type": "MultiPolygon", "coordinates": [[[[113.9591096, 22.5733578], [113.9592551, 22.5733361], [113.9592699, 22.5734364], [113.9591237, 22.573455], [113.9591096, 22.5733578]]]]}}, {"type": "Feature", "id": "way/1461307443", "properties": {"tags": {"building": "yes", "name": "24栋"}, "heightStatus": "unknown", "source": "OpenStreetMap", "license": "ODbL-1.0"}, "geometry": {"type": "MultiPolygon", "coordinates": [[[[113.9592511, 22.5732103], [113.9593974, 22.5731855], [113.9594452, 22.5734309], [113.9592936, 22.5734508], [113.9592511, 22.5732103]]]]}}, {"type": "Feature", "id": "way/1461307444", "properties": {"tags": {"building": "yes", "name": "23栋"}, "heightStatus": "unknown", "source": "OpenStreetMap", "license": "ODbL-1.0"}, "geometry": {"type": "MultiPolygon", "coordinates": [[[[113.9594114, 22.5731887], [113.9595716, 22.5731671], [113.9595864, 22.5732804], [113.9594315, 22.5732983], [113.9594114, 22.5731887]]]]}}, {"type": "Feature", "id": "way/1461307445", "properties": {"tags": {"building": "yes", "name": "23栋-2"}, "heightStatus": "unknown", "source": "OpenStreetMap", "license": "ODbL-1.0"}, "geometry": {"type": "MultiPolygon", "coordinates": [[[[113.9594369, 22.5733107], [113.9595891, 22.5732928], [113.9596072, 22.5734172], [113.9594577, 22.5734315], [113.9594369, 22.5733107]]]]}}, {"type": "Feature", "id": "way/1461307446", "properties": {"tags": {"building": "yes", "name": "22栋"}, "heightStatus": "unknown", "source": "OpenStreetMap", "license": "ODbL-1.0"}, "geometry": {"type": "MultiPolygon", "coordinates": [[[[113.9595978, 22.5732265], [113.9596937, 22.5732147], [113.9597104, 22.5733763], [113.9596152, 22.5733838], [113.9595978, 22.5732265]]]]}}, {"type": "Feature", "id": "way/1461307447", "properties": {"tags": {"building": "yes", "name": "21栋"}, "heightStatus": "unknown", "source": "OpenStreetMap", "license": "ODbL-1.0"}, "geometry": {"type": "MultiPolygon", "coordinates": [[[[113.9597037, 22.5731586], [113.9598958, 22.5731424], [113.9599211, 22.5733972], [113.959729, 22.5734134], [113.9597037, 22.5731586]]]]}}, {"type": "Feature", "id": "way/1461307448", "properties": {"tags": {"building": "yes", "name": "9栋"}, "heightStatus": "unknown", "source": "OpenStreetMap", "license": "ODbL-1.0"}, "geometry": {"type": "MultiPolygon", "coordinates": [[[[113.9589134, 22.5729602], [113.9590365, 22.5729421], [113.9590842, 22.5731894], [113.9589602, 22.5732063], [113.9589134, 22.5729602]]]]}}, {"type": "Feature", "id": "way/1461307449", "properties": {"tags": {"building": "yes", "name": "7栋"}, "heightStatus": "unknown", "source": "OpenStreetMap", "license": "ODbL-1.0"}, "geometry": {"type": "MultiPolygon", "coordinates": [[[[113.9587019, 22.5729912], [113.9588992, 22.5729623], [113.9589167, 22.5730646], [113.9587194, 22.5730901], [113.9587019, 22.5729912]]]]}}, {"type": "Feature", "id": "way/1461307450", "properties": {"tags": {"building": "yes", "name": "8栋"}, "heightStatus": "unknown", "source": "OpenStreetMap", "license": "ODbL-1.0"}, "geometry": {"type": "MultiPolygon", "coordinates": [[[[113.9587229, 22.5731096], [113.95892, 22.5730842], [113.9589415, 22.5732102], [113.9587455, 22.5732377], [113.9587229, 22.5731096]]]]}}, {"type": "Feature", "id": "way/1461307451", "properties": {"tags": {"building": "yes", "name": "5栋"}, "heightStatus": "unknown", "source": "OpenStreetMap", "license": "ODbL-1.0"}, "geometry": {"type": "MultiPolygon", "coordinates": [[[[113.9585605, 22.5731144], [113.9586939, 22.5731008], [113.9587153, 22.5732451], [113.9585819, 22.5732581], [113.9585605, 22.5731144]]]]}}, {"type": "Feature", "id": "way/1461307452", "properties": {"tags": {"building": "yes", "name": "10栋"}, "heightStatus": "unknown", "source": "OpenStreetMap", "license": "ODbL-1.0"}, "geometry": {"type": "MultiPolygon", "coordinates": [[[[113.9590564, 22.5729384], [113.9591998, 22.5729171], [113.9592209, 22.5730259], [113.9590748, 22.5730482], [113.9590564, 22.5729384]]]]}}, {"type": "Feature", "id": "way/1461307453", "properties": {"tags": {"building": "yes", "name": "11栋"}, "heightStatus": "unknown", "source": "OpenStreetMap", "license": "ODbL-1.0"}, "geometry": {"type": "MultiPolygon", "coordinates": [[[[113.9590795, 22.5730686], [113.9592344, 22.573042], [113.9592578, 22.5731659], [113.9591043, 22.5731874], [113.9590795, 22.5730686]]]]}}, {"type": "Feature", "id": "way/1461307454", "properties": {"tags": {"building": "yes", "name": "13栋"}, "heightStatus": "unknown", "source": "OpenStreetMap", "license": "ODbL-1.0"}, "geometry": {"type": "MultiPolygon", "coordinates": [[[[113.9592498, 22.5730463], [113.9594013, 22.5730222], [113.9594249, 22.5731425], [113.959275, 22.5731635], [113.9592498, 22.5730463]]]]}}, {"type": "Feature", "id": "way/1461307455", "properties": {"tags": {"building": "yes", "name": "12栋"}, "heightStatus": "unknown", "source": "OpenStreetMap", "license": "ODbL-1.0"}, "geometry": {"type": "MultiPolygon", "coordinates": [[[[113.9592226, 22.5729108], [113.9593755, 22.5728923], [113.9593986, 22.5730024], [113.9592464, 22.5730265], [113.9592226, 22.5729108]]]]}}, {"type": "Feature", "id": "way/1461307456", "properties": {"tags": {"building": "yes", "name": "14栋"}, "heightStatus": "unknown", "source": "OpenStreetMap", "license": "ODbL-1.0"}, "geometry": {"type": "MultiPolygon", "coordinates": [[[[113.9593844, 22.572891], [113.9595133, 22.5728721], [113.9595645, 22.5731229], [113.9594355, 22.573141], [113.9593844, 22.572891]]]]}}, {"type": "Feature", "id": "way/1461307457", "properties": {"tags": {"building": "yes", "name": "16栋"}, "heightStatus": "unknown", "source": "OpenStreetMap", "license": "ODbL-1.0"}, "geometry": {"type": "MultiPolygon", "coordinates": [[[[113.9595576, 22.5729974], [113.9596722, 22.5729782], [113.9597004, 22.5731039], [113.9595837, 22.5731185], [113.9595576, 22.5729974]]]]}}, {"type": "Feature", "id": "way/1461307458", "properties": {"tags": {"building": "yes", "name": "15栋"}, "heightStatus": "unknown", "source": "OpenStreetMap", "license": "ODbL-1.0"}, "geometry": {"type": "MultiPolygon", "coordinates": [[[[113.9595309, 22.5728695], [113.9596467, 22.5728525], [113.9596695, 22.5729652], [113.9595549, 22.5729844], [113.9595309, 22.5728695]]]]}}, {"type": "Feature", "id": "way/1461307459", "properties": {"tags": {"building": "yes", "name": "19栋"}, "heightStatus": "unknown", "source": "OpenStreetMap", "license": "ODbL-1.0"}, "geometry": {"type": "MultiPolygon", "coordinates": [[[[113.9598479, 22.5729386], [113.9600585, 22.5729089], [113.9600752, 22.5730327], [113.9598687, 22.5730612], [113.9598479, 22.5729386]]]]}}, {"type": "Feature", "id": "way/1461307460", "properties": {"tags": {"building": "yes", "name": "18栋"}, "heightStatus": "unknown", "source": "OpenStreetMap", "license": "ODbL-1.0"}, "geometry": {"type": "MultiPolygon", "coordinates": [[[[113.9596913, 22.5729668], [113.9598308, 22.5729439], [113.9598509, 22.5730485], [113.9597115, 22.5730714], [113.9596913, 22.5729668]]]]}}, {"type": "Feature", "id": "way/1461307461", "properties": {"tags": {"building": "yes", "building:levels": "4", "name": "17栋"}, "heightStatus": "levels_only_unverified", "source": "OpenStreetMap", "license": "ODbL-1.0"}, "geometry": {"type": "MultiPolygon", "coordinates": [[[[113.9596702, 22.572863], [113.9599954, 22.572816], [113.9600028, 22.5728891], [113.9596863, 22.5729398], [113.9596702, 22.572863]]]]}}, {"type": "Feature", "id": "way/1461307462", "properties": {"tags": {"building": "yes", "name": "58栋"}, "heightStatus": "unknown", "source": "OpenStreetMap", "license": "ODbL-1.0"}, "geometry": {"type": "MultiPolygon", "coordinates": [[[[113.959807, 22.5738204], [113.959985, 22.5738109], [113.9599978, 22.5740146], [113.9598198, 22.5740242], [113.959807, 22.5738204]]]]}}, {"type": "Feature", "id": "way/1461307463", "properties": {"tags": {"building": "yes", "name": "59栋"}, "heightStatus": "unknown", "source": "OpenStreetMap", "license": "ODbL-1.0"}, "geometry": {"type": "MultiPolygon", "coordinates": [[[[113.9600063, 22.573808], [113.9601517, 22.5738022], [113.960161, 22.5740029], [113.9600155, 22.5740086], [113.9600063, 22.573808]]]]}}, {"type": "Feature", "id": "way/1461307464", "properties": {"tags": {"building": "yes", "name": "60栋"}, "heightStatus": "unknown", "source": "OpenStreetMap", "license": "ODbL-1.0"}, "geometry": {"type": "MultiPolygon", "coordinates": [[[[113.9601639, 22.5738583], [113.9602535, 22.5738553], [113.9602583, 22.5739797], [113.9601687, 22.5739826], [113.9601639, 22.5738583]]]]}}, {"type": "Feature", "id": "way/1461307465", "properties": {"tags": {"building": "yes", "name": "61栋"}, "heightStatus": "unknown", "source": "OpenStreetMap", "license": "ODbL-1.0"}, "geometry": {"type": "MultiPolygon", "coordinates": [[[[113.9602625, 22.5738533], [113.9603812, 22.5738505], [113.9603848, 22.5739849], [113.9602662, 22.5739876], [113.9602625, 22.5738533]]]]}}, {"type": "Feature", "id": "way/1461307466", "properties": {"tags": {"building": "yes", "name": "65栋"}, "heightStatus": "unknown", "source": "OpenStreetMap", "license": "ODbL-1.0"}, "geometry": {"type": "MultiPolygon", "coordinates": [[[[113.9598502, 22.5740423], [113.9600246, 22.5740367], [113.960028, 22.5741284], [113.9598536, 22.5741339], [113.9598502, 22.5740423]]]]}}, {"type": "Feature", "id": "way/1461307467", "properties": {"tags": {"building": "yes", "name": "69栋"}, "heightStatus": "unknown", "source": "OpenStreetMap", "license": "ODbL-1.0"}, "geometry": {"type": "MultiPolygon", "coordinates": [[[[113.9598505, 22.5741503], [113.9600289, 22.5741442], [113.9600317, 22.5742135], [113.9598533, 22.5742196], [113.9598505, 22.5741503]]]]}}, {"type": "Feature", "id": "way/1461307468", "properties": {"tags": {"building": "yes", "name": "64栋"}, "heightStatus": "unknown", "source": "OpenStreetMap", "license": "ODbL-1.0"}, "geometry": {"type": "MultiPolygon", "coordinates": [[[[113.9600493, 22.5740335], [113.9601861, 22.5740293], [113.9601923, 22.5742027], [113.9600555, 22.5742069], [113.9600493, 22.5740335]]]]}}, {"type": "Feature", "id": "way/1461307469", "properties": {"tags": {"building": "yes", "name": "62栋"}, "heightStatus": "unknown", "source": "OpenStreetMap", "license": "ODbL-1.0"}, "geometry": {"type": "MultiPolygon", "coordinates": [[[[113.9602999, 22.5740306], [113.9604548, 22.5740249], [113.9604574, 22.5741809], [113.9603052, 22.5741866], [113.9602999, 22.5740306]]]]}}, {"type": "Feature", "id": "way/1461307470", "properties": {"tags": {"building": "yes", "name": "80栋"}, "heightStatus": "unknown", "source": "OpenStreetMap", "license": "ODbL-1.0"}, "geometry": {"type": "MultiPolygon", "coordinates": [[[[113.9592026, 22.5743459], [113.9593856, 22.5743431], [113.9593878, 22.5745111], [113.9592048, 22.5745128], [113.9592026, 22.5743459]]]]}}, {"type": "Feature", "id": "way/1461307471", "properties": {"tags": {"building": "yes", "name": "81栋"}, "heightStatus": "unknown", "source": "OpenStreetMap", "license": "ODbL-1.0"}, "geometry": {"type": "MultiPolygon", "coordinates": [[[[113.9594037, 22.5743428], [113.9595358, 22.5743408], [113.9595374, 22.5745097], [113.9594053, 22.5745109], [113.9594037, 22.5743428]]]]}}, {"type": "Feature", "id": "way/1461307472", "properties": {"tags": {"building": "yes", "name": "82栋"}, "heightStatus": "unknown", "source": "OpenStreetMap", "license": "ODbL-1.0"}, "geometry": {"type": "MultiPolygon", "coordinates": [[[[113.9595525, 22.5743405], [113.9596756, 22.5743386], [113.9596776, 22.5745085], [113.9595546, 22.5745096], [113.9595525, 22.5743405]]]]}}, {"type": "Feature", "id": "way/1461307473", "properties": {"tags": {"building": "yes", "name": "83栋"}, "heightStatus": "unknown", "source": "OpenStreetMap", "license": "ODbL-1.0"}, "geometry": {"type": "MultiPolygon", "coordinates": [[[[113.959686, 22.5743385], [113.9598506, 22.5743359], [113.9598539, 22.5745056], [113.9596893, 22.5745084], [113.959686, 22.5743385]]]]}}, {"type": "Feature", "id": "way/1461307474", "properties": {"tags": {"building": "yes", "name": "84栋"}, "heightStatus": "unknown", "source": "OpenStreetMap", "license": "ODbL-1.0"}, "geometry": {"type": "MultiPolygon", "coordinates": [[[[113.9598736, 22.5743804], [113.9599927, 22.5743796], [113.9599935, 22.5744892], [113.9598745, 22.57449], [113.9598736, 22.5743804]]]]}}, {"type": "Feature", "id": "way/1461307475", "properties": {"tags": {"building": "yes", "name": "67栋"}, "heightStatus": "unknown", "source": "OpenStreetMap", "license": "ODbL-1.0"}, "geometry": {"type": "MultiPolygon", "coordinates": [[[[113.9601953, 22.5742122], [113.9604994, 22.5742064], [113.9605006, 22.5743678], [113.9602033, 22.5743737], [113.9601953, 22.5742122]]]]}}, {"type": "Feature", "id": "way/1461307476", "properties": {"tags": {"building": "yes", "name": "68栋"}, "heightStatus": "unknown", "source": "OpenStreetMap", "license": "ODbL-1.0"}, "geometry": {"type": "MultiPolygon", "coordinates": [[[[113.9600164, 22.5742259], [113.9601496, 22.5742249], [113.960151, 22.5743853], [113.9600178, 22.5743863], [113.9600164, 22.5742259]]]]}}, {"type": "Feature", "id": "way/1461307477", "properties": {"tags": {"building": "yes", "name": "85栋"}, "heightStatus": "unknown", "source": "OpenStreetMap", "license": "ODbL-1.0"}, "geometry": {"type": "MultiPolygon", "coordinates": [[[[113.9600487, 22.5744147], [113.9602358, 22.5744135], [113.9602366, 22.5745287], [113.9600495, 22.5745298], [113.9600487, 22.5744147]]]]}}, {"type": "Feature", "id": "way/1461307478", "properties": {"tags": {"building": "yes", "name": "86栋"}, "heightStatus": "unknown", "source": "OpenStreetMap", "license": "ODbL-1.0"}, "geometry": {"type": "MultiPolygon", "coordinates": [[[[113.9603147, 22.5743962], [113.9604837, 22.5743948], [113.9604848, 22.5745087], [113.9603159, 22.5745102], [113.9603147, 22.5743962]]]]}}, {"type": "Feature", "id": "way/1461307479", "properties": {"tags": {"building": "yes", "name": "101栋"}, "heightStatus": "unknown", "source": "OpenStreetMap", "license": "ODbL-1.0"}, "geometry": {"type": "MultiPolygon", "coordinates": [[[[113.9598626, 22.5747762], [113.9603243, 22.5747615], [113.9603296, 22.5749052], [113.959868, 22.5749199], [113.9598626, 22.5747762]]]]}}, {"type": "Feature", "id": "way/1461307480", "properties": {"tags": {"building": "yes", "name": "102栋"}, "heightStatus": "unknown", "source": "OpenStreetMap", "license": "ODbL-1.0"}, "geometry": {"type": "MultiPolygon", "coordinates": [[[[113.9603489, 22.5747659], [113.9604187, 22.5747634], [113.9604226, 22.5748574], [113.9603528, 22.5748599], [113.9603489, 22.5747659]]]]}}, {"type": "Feature", "id": "way/1461307481", "properties": {"tags": {"building": "yes", "name": "96栋"}, "heightStatus": "unknown", "source": "OpenStreetMap", "license": "ODbL-1.0"}, "geometry": {"type": "MultiPolygon", "coordinates": [[[[113.9587291, 22.5745342], [113.9589725, 22.574533], [113.9589732, 22.5746556], [113.9587298, 22.5746568], [113.9587291, 22.5745342]]]]}}, {"type": "Feature", "id": "way/1461307482", "properties": {"tags": {"building": "yes", "name": "107栋"}, "heightStatus": "unknown", "source": "OpenStreetMap", "license": "ODbL-1.0"}, "geometry": {"type": "MultiPolygon", "coordinates": [[[[113.9589886, 22.5745847], [113.9591636, 22.5745816], [113.959167, 22.5747432], [113.958992, 22.5747463], [113.9589886, 22.5745847]]]]}}, {"type": "Feature", "id": "way/1461307483", "properties": {"tags": {"building": "yes", "name": "93栋"}, "heightStatus": "unknown", "source": "OpenStreetMap", "license": "ODbL-1.0"}, "geometry": {"type": "MultiPolygon", "coordinates": [[[[113.9594695, 22.5745631], [113.9595948, 22.5745611], [113.9595974, 22.5746961], [113.959472, 22.5746981], [113.9594695, 22.5745631]]]]}}, {"type": "Feature", "id": "way/1461307484", "properties": {"tags": {"building": "yes", "name": "94栋"}, "heightStatus": "unknown", "source": "OpenStreetMap", "license": "ODbL-1.0"}, "geometry": {"type": "MultiPolygon", "coordinates": [[[[113.959336, 22.5745662], [113.9594614, 22.5745642], [113.9594639, 22.5746992], [113.9593386, 22.5747012], [113.959336, 22.5745662]]]]}}, {"type": "Feature", "id": "way/1461307485", "properties": {"tags": {"building": "yes", "name": "95栋"}, "heightStatus": "unknown", "source": "OpenStreetMap", "license": "ODbL-1.0"}, "geometry": {"type": "MultiPolygon", "coordinates": [[[[113.9591996, 22.5745686], [113.959325, 22.5745666], [113.9593275, 22.5747016], [113.9592021, 22.5747036], [113.9591996, 22.5745686]]]]}}, {"type": "Feature", "id": "way/1461307486", "properties": {"tags": {"building": "yes", "name": "98栋"}, "heightStatus": "unknown", "source": "OpenStreetMap", "license": "ODbL-1.0"}, "geometry": {"type": "MultiPolygon", "coordinates": [[[[113.9591935, 22.5747483], [113.959335, 22.5747454], [113.9593389, 22.5749099], [113.9591974, 22.5749127], [113.9591935, 22.5747483]]]]}}, {"type": "Feature", "id": "way/1461307487", "properties": {"tags": {"building": "yes", "name": "99栋"}, "heightStatus": "unknown", "source": "OpenStreetMap", "license": "ODbL-1.0"}, "geometry": {"type": "MultiPolygon", "coordinates": [[[[113.9593439, 22.5747456], [113.9596738, 22.5747439], [113.9596747, 22.574895], [113.9593448, 22.5748966], [113.9593439, 22.5747456]]]]}}, {"type": "Feature", "id": "way/1461307488", "properties": {"tags": {"building": "yes", "name": "89栋"}, "heightStatus": "unknown", "source": "OpenStreetMap", "license": "ODbL-1.0"}, "geometry": {"type": "MultiPolygon", "coordinates": [[[[113.9601035, 22.5745782], [113.9602644, 22.5745744], [113.9602683, 22.5747156], [113.9601074, 22.5747194], [113.9601035, 22.5745782]]]]}}, {"type": "Feature", "id": "way/1461307489", "properties": {"tags": {"building": "yes", "name": "90栋"}, "heightStatus": "unknown", "source": "OpenStreetMap", "license": "ODbL-1.0"}, "geometry": {"type": "MultiPolygon", "coordinates": [[[[113.9599311, 22.5745832], [113.960092, 22.5745793], [113.9600959, 22.5747206], [113.959935, 22.5747244], [113.9599311, 22.5745832]]]]}}, {"type": "Feature", "id": "way/1461307490", "properties": {"tags": {"building": "yes", "name": "91栋"}, "heightStatus": "unknown", "source": "OpenStreetMap", "license": "ODbL-1.0"}, "geometry": {"type": "MultiPolygon", "coordinates": [[[[113.9597192, 22.5745268], [113.9598928, 22.5745243], [113.9598969, 22.574728], [113.9597225, 22.5747317], [113.9597192, 22.5745268]]]]}}, {"type": "Feature", "id": "way/1461307491", "properties": {"tags": {"building": "yes", "name": "88栋"}, "heightStatus": "unknown", "source": "OpenStreetMap", "license": "ODbL-1.0"}, "geometry": {"type": "MultiPolygon", "coordinates": [[[[113.9602886, 22.574568], [113.9604592, 22.5745654], [113.9604617, 22.5747013], [113.9602911, 22.574704], [113.9602886, 22.574568]]]]}}, {"type": "Feature", "id": "way/1461307492", "properties": {"tags": {"building": "yes", "name": "87栋"}, "heightStatus": "unknown", "source": "OpenStreetMap", "license": "ODbL-1.0"}, "geometry": {"type": "MultiPolygon", "coordinates": [[[[113.9604746, 22.5745561], [113.9605645, 22.5745544], [113.9605677, 22.5747027], [113.9604778, 22.5747044], [113.9604746, 22.5745561]]]]}}, {"type": "Feature", "id": "way/1461307493", "properties": {"tags": {"building": "yes", "building:part": "yes"}, "heightStatus": "unknown", "source": "OpenStreetMap", "license": "ODbL-1.0"}, "geometry": {"type": "MultiPolygon", "coordinates": [[[[113.9601796, 22.5747691], [113.9603204, 22.5747641], [113.9603235, 22.574901], [113.9601835, 22.5749054], [113.9601796, 22.5747691]]]]}}, {"type": "Feature", "id": "way/1461307494", "properties": {"tags": {"building": "yes", "building:part": "yes"}, "heightStatus": "unknown", "source": "OpenStreetMap", "license": "ODbL-1.0"}, "geometry": {"type": "MultiPolygon", "coordinates": [[[[113.9600247, 22.5747745], [113.9601655, 22.5747696], [113.9601687, 22.5749059], [113.9600286, 22.5749102], [113.9600247, 22.5747745]]]]}}, {"type": "Feature", "id": "way/1461307495", "properties": {"tags": {"building": "yes", "building:part": "yes"}, "heightStatus": "unknown", "source": "OpenStreetMap", "license": "ODbL-1.0"}, "geometry": {"type": "MultiPolygon", "coordinates": [[[[113.9598682, 22.5747801], [113.9600089, 22.5747751], [113.9600121, 22.5749107], [113.959872, 22.5749151], [113.9598682, 22.5747801]]]]}}, {"type": "Feature", "id": "way/1461307496", "properties": {"tags": {"building": "yes", "name": "104栋"}, "heightStatus": "unknown", "source": "OpenStreetMap", "license": "ODbL-1.0"}, "geometry": {"type": "MultiPolygon", "coordinates": [[[[113.9605449, 22.5747818], [113.9607091, 22.5747429], [113.9607656, 22.5749461], [113.9606014, 22.574985], [113.9605449, 22.5747818]]]]}}, {"type": "Feature", "id": "way/1461307497", "properties": {"tags": {"building": "yes", "name": "105栋"}, "heightStatus": "unknown", "source": "OpenStreetMap", "license": "ODbL-1.0"}, "geometry": {"type": "MultiPolygon", "coordinates": [[[[113.9607535, 22.5747398], [113.9609123, 22.574704], [113.9609724, 22.5749317], [113.9608137, 22.5749675], [113.9607535, 22.5747398]]]]}}, {"type": "Feature", "id": "way/1461309154", "properties": {"tags": {"building": "yes", "name": "108栋"}, "heightStatus": "unknown", "source": "OpenStreetMap", "license": "ODbL-1.0"}, "geometry": {"type": "MultiPolygon", "coordinates": [[[[113.9601862, 22.573145], [113.96028, 22.5731427], [113.9602857, 22.5733409], [113.9601919, 22.5733432], [113.9601862, 22.573145]]]]}}, {"type": "Feature", "id": "way/1461309155", "properties": {"tags": {"building": "yes", "name": "106栋"}, "heightStatus": "unknown", "source": "OpenStreetMap", "license": "ODbL-1.0"}, "geometry": {"type": "MultiPolygon", "coordinates": [[[[113.9601955, 22.5733837], [113.9604087, 22.5733775], [113.9604145, 22.5735485], [113.9602013, 22.5735547], [113.9601955, 22.5733837]]]]}}, {"type": "Feature", "id": "way/1524810495", "properties": {"tags": {"animal": "dog", "building": "yes", "check_date": "2026-05-30", "description:zh": "门口有狗，务必注意", "hazard": "animal", "hazard_type": "dog"}, "heightStatus": "unknown", "source": "OpenStreetMap", "license": "ODbL-1.0"}, "geometry": {"type": "MultiPolygon", "coordinates": [[[[113.9643223, 22.5787792], [113.9643411, 22.5787786], [113.964342, 22.5788003], [113.9643232, 22.5788009], [113.9643223, 22.5787792]]]]}}, {"type": "Feature", "id": "way/1557790941", "properties": {"tags": {"building": "industrial"}, "heightStatus": "unknown", "source": "OpenStreetMap", "license": "ODbL-1.0"}, "geometry": {"type": "MultiPolygon", "coordinates": [[[[113.9656863, 22.57205], [113.9656919, 22.571896], [113.9661144, 22.5719091], [113.9661088, 22.5720631], [113.9656863, 22.57205]]]]}}, {"type": "Feature", "id": "way/1557790942", "properties": {"tags": {"building": "industrial"}, "heightStatus": "unknown", "source": "OpenStreetMap", "license": "ODbL-1.0"}, "geometry": {"type": "MultiPolygon", "coordinates": [[[[113.9572771, 22.5722737], [113.957553, 22.5722474], [113.9575702, 22.5724006], [113.9574906, 22.5724082], [113.9574816, 22.572328], [113.9573619, 22.5723394], [113.9573707, 22.5724183], [113.9572941, 22.5724256], [113.9572771, 22.5722737]]]]}}, {"type": "Feature", "id": "way/1557790943", "properties": {"tags": {"building": "industrial"}, "heightStatus": "unknown", "source": "OpenStreetMap", "license": "ODbL-1.0"}, "geometry": {"type": "MultiPolygon", "coordinates": [[[[113.9572594, 22.5721614], [113.9576198, 22.5721379], [113.9576251, 22.5722074], [113.9572648, 22.5722309], [113.9572594, 22.5721614]]]]}}, {"type": "Feature", "id": "way/1557790944", "properties": {"tags": {"building": "industrial"}, "heightStatus": "unknown", "source": "OpenStreetMap", "license": "ODbL-1.0"}, "geometry": {"type": "MultiPolygon", "coordinates": [[[[113.9576259, 22.5721428], [113.9577556, 22.5721336], [113.9577594, 22.5721797], [113.9576977, 22.5721841], [113.9577091, 22.5723214], [113.9576411, 22.5723262], [113.9576259, 22.5721428]]]]}}, {"type": "Feature", "id": "way/1557790945", "properties": {"tags": {"building": "industrial"}, "heightStatus": "unknown", "source": "OpenStreetMap", "license": "ODbL-1.0"}, "geometry": {"type": "MultiPolygon", "coordinates": [[[[113.9577215, 22.5721933], [113.9578037, 22.5721885], [113.9578154, 22.5723589], [113.9577332, 22.5723637], [113.9577215, 22.5721933]]]]}}]}