{"type": "FeatureCollection", "features": [{"type": "Feature", "id": "way/539609846", "properties": {"tags": {"amenity": "restaurant", "building": "yes", "fast_food": "cafeteria", "name": "荔园一食堂", "name:zh": "荔园一食堂", "name:zh-Hans": "荔园一食堂", "name:zh-Hant": "荔園一食堂", "smoking": "no", "wheelchair": "yes"}, "heightStatus": "unknown", "source": "OpenStreetMap", "license": "ODbL-1.0"}, "geometry": {"type": "MultiPolygon", "coordinates": [[[[113.9638119, 22.5893263], [113.9642059, 22.5891474], [113.9642283, 22.5891893], [113.9644529, 22.5890874], [113.9645414, 22.5892535], [113.9643139, 22.5893568], [113.964388, 22.5894959], [113.9641316, 22.5896106], [113.9641368, 22.5896487], [113.9641289, 22.5896865], [113.9641135, 22.5897138], [113.9640911, 22.5897367], [113.9640673, 22.5897517], [113.9640405, 22.5897615], [113.9640017, 22.5897657], [113.9639632, 22.5897592], [113.9639286, 22.5897425], [113.9639029, 22.5897195], [113.9638848, 22.589691], [113.9638758, 22.5896591], [113.9638763, 22.5896267], [113.9638861, 22.5895957], [113.9639045, 22.5895681], [113.9639302, 22.5895461], [113.9638119, 22.5893263]]]]}}, {"type": "Feature", "id": "way/539609847", "properties": {"tags": {"building": "dormitory", "name": "荔园2", "name:zh": "荔园2", "name:zh-Hans": "荔园2", "name:zh-Hant": "荔園2", "operator": "哈尔滨工业大学", "smoking": "no", "wheelchair": "yes"}, "heightStatus": "unknown", "source": "OpenStreetMap", "license": "ODbL-1.0"}, "geometry": {"type": "MultiPolygon", "coordinates": [[[[113.9642152, 22.5889423], [113.9642604, 22.5889228], [113.9642757, 22.5889162], [113.9642484, 22.5888623], [113.9643441, 22.5888209], [113.9643715, 22.5888748], [113.9644425, 22.5888441], [113.964493, 22.5889437], [113.964414, 22.5889779], [113.9644394, 22.589028], [113.9643562, 22.589064], [113.9643329, 22.5890179], [113.9642678, 22.5890461], [113.9642152, 22.5889423]]]]}}, {"type": "Feature", "id": "way/539609848", "properties": {"tags": {"building": "dormitory", "name": "荔园3", "operator": "哈尔滨工业大学", "smoking": "no", "wheelchair": "yes"}, "heightStatus": "unknown", "source": "OpenStreetMap", "license": "ODbL-1.0"}, "geometry": {"type": "MultiPolygon", "coordinates": [[[[113.9635971, 22.5892174], [113.9636576, 22.5891912], [113.9636302, 22.5891373], [113.963726, 22.5890959], [113.9637533, 22.5891499], [113.9638244, 22.5891191], [113.9638749, 22.5892187], [113.9637959, 22.5892529], [113.9638213, 22.589303], [113.9637381, 22.589339], [113.9637148, 22.5892929], [113.9636497, 22.5893211], [113.9635971, 22.5892174]]]]}}, {"type": "Feature", "id": "way/539609849", "properties": {"tags": {"building": "dormitory", "name": "荔园1", "name:zh": "荔园1", "name:zh-Hans": "荔园1", "name:zh-Hant": "荔園1", "operator": "哈尔滨工业大学", "smoking": "no", "wheelchair": "yes"}, "heightStatus": "unknown", "source": "OpenStreetMap", "license": "ODbL-1.0"}, "geometry": {"type": "MultiPolygon", "coordinates": [[[[113.9644887, 22.5893424], [113.9646154, 22.5892852], [113.9646675, 22.5893835], [113.9647255, 22.5893573], [113.964765, 22.5894317], [113.9647056, 22.5894586], [113.9647472, 22.5895373], [113.9646269, 22.5895916], [113.9645864, 22.5895152], [113.9645425, 22.589535], [113.9645061, 22.5894663], [113.964545, 22.5894487], [113.9644887, 22.5893424]]]]}}, {"type": "Feature", "id": "way/539609850", "properties": {"tags": {"building": "dormitory", "name": "荔园4", "name:zh": "荔园4", "name:zh-Hans": "荔园4", "name:zh-Hant": "荔園4", "operator": "哈尔滨工业大学", "smoking": "no", "wheelchair": "yes"}, "heightStatus": "unknown", "source": "OpenStreetMap", "license": "ODbL-1.0"}, "geometry": {"type": "MultiPolygon", "coordinates": [[[[113.9631707, 22.589453], [113.9632311, 22.5894269], [113.9632038, 22.589373], [113.9632995, 22.5893316], [113.9633269, 22.5893855], [113.963398, 22.5893548], [113.9634485, 22.5894544], [113.9633694, 22.5894885], [113.9633948, 22.5895387], [113.9633117, 22.5895746], [113.9632883, 22.5895286], [113.9632233, 22.5895567], [113.9631707, 22.589453]]]]}}, {"type": "Feature", "id": "way/539609851", "properties": {"tags": {"building": "dormitory", "name": "荔园5", "name:zh": "荔园5", "name:zh-Hans": "荔园5", "name:zh-Hant": "荔園5", "operator": "哈尔滨工业大学", "smoking": "no", "wheelchair": "yes"}, "heightStatus": "unknown", "source": "OpenStreetMap", "license": "ODbL-1.0"}, "geometry": {"type": "MultiPolygon", "coordinates": [[[[113.9626767, 22.5896688], [113.9627372, 22.5896427], [113.9627098, 22.5895888], [113.9628056, 22.5895474], [113.9628329, 22.5896013], [113.962904, 22.5895706], [113.9629545, 22.5896702], [113.9628755, 22.5897044], [113.9629009, 22.5897545], [113.9628177, 22.5897905], [113.9627944, 22.5897444], [113.9627293, 22.5897726], [113.9626767, 22.5896688]]]]}}, {"type": "Feature", "id": "way/539609852", "properties": {"tags": {"amenity": "restaurant", "building": "yes", "fast_food": "cafeteria", "name": "荔园二食堂", "name:zh": "荔园二食堂", "name:zh-Hans": "荔园二食堂", "name:zh-Hant": "荔園二食堂", "wheelchair": "yes"}, "heightStatus": "unknown", "source": "OpenStreetMap", "license": "ODbL-1.0"}, "geometry": {"type": "MultiPolygon", "coordinates": [[[[113.962897, 22.5895201], [113.9630806, 22.5894378], [113.9632398, 22.5897406], [113.9630561, 22.5898229], [113.962897, 22.5895201]]]]}}, {"type": "Feature", "id": "way/722675399", "properties": {"tags": {"building": "dormitory", "name": "荔园6", "name:zh": "荔园6", "name:zh-Hans": "荔园6", "name:zh-Hant": "荔園6", "operator": "哈尔滨工业大学", "smoking": "no", "wheelchair": "yes"}, "heightStatus": "unknown", "source": "OpenStreetMap", "license": "ODbL-1.0"}, "geometry": {"type": "MultiPolygon", "coordinates": [[[[113.9645917, 22.5887129], [113.9646729, 22.5886756], [113.9646448, 22.5886233], [113.9647631, 22.5885689], [113.9647946, 22.5886274], [113.964883, 22.5885868], [113.9649505, 22.5887121], [113.9648555, 22.5887557], [113.9648864, 22.5888131], [113.9647735, 22.588865], [113.9647406, 22.5888039], [113.9646605, 22.5888407], [113.9645917, 22.5887129]]]]}}, {"type": "Feature", "id": "way/722675400", "properties": {"tags": {"building": "dormitory", "name": "荔园7", "name:zh": "荔园7", "name:zh-Hans": "荔园7", "name:zh-Hant": "荔園7", "operator": "哈尔滨工业大学", "smoking": "no", "wheelchair": "yes"}, "heightStatus": "unknown", "source": "OpenStreetMap", "license": "ODbL-1.0"}, "geometry": {"type": "MultiPolygon", "coordinates": [[[[113.9649757, 22.5881587], [113.9649758, 22.5880156], [113.9650716, 22.5880157], [113.9650717, 22.5879564], [113.965204, 22.5879565], [113.965204, 22.5880213], [113.9652316, 22.5880213], [113.9653089, 22.5880214], [113.9653089, 22.5880431], [113.9653087, 22.5881624], [113.9652024, 22.5881623], [113.9652023, 22.5882269], [113.9650632, 22.5882267], [113.9650632, 22.5881588], [113.9649757, 22.5881587]]]]}}, {"type": "Feature", "id": "way/722675401", "properties": {"tags": {"building": "dormitory", "name": "荔园10", "name:zh": "荔园10", "name:zh-Hans": "荔园10", "name:zh-Hant": "荔園10", "operator": "哈尔滨工业大学", "smoking": "no", "wheelchair": "yes"}, "heightStatus": "unknown", "source": "OpenStreetMap", "license": "ODbL-1.0"}, "geometry": {"type": "MultiPolygon", "coordinates": [[[[113.9663834, 22.5880625], [113.9663835, 22.5879194], [113.9664793, 22.5879195], [113.9664794, 22.5878603], [113.9666117, 22.5878604], [113.9666117, 22.5879251], [113.9667166, 22.5879252], [113.9667164, 22.5880662], [113.9666101, 22.5880661], [113.96661, 22.5881307], [113.9664709, 22.5881306], [113.9664709, 22.5880626], [113.9663834, 22.5880625]]]]}}, {"type": "Feature", "id": "way/722675402", "properties": {"tags": {"building": "dormitory", "name": "荔园8", "name:zh": "荔园8", "name:zh-Hans": "荔园8", "name:zh-Hant": "荔園8", "operator": "哈尔滨工业大学", "smoking": "no", "wheelchair": "yes"}, "heightStatus": "unknown", "source": "OpenStreetMap", "license": "ODbL-1.0"}, "geometry": {"type": "MultiPolygon", "coordinates": [[[[113.9654506, 22.5880431], [113.9654507, 22.587913], [113.9655465, 22.587913], [113.9655466, 22.5878538], [113.9656789, 22.5878539], [113.9656788, 22.5879186], [113.9657838, 22.5879187], [113.9657836, 22.5880597], [113.9656773, 22.5880596], [113.9656772, 22.5881242], [113.965538, 22.5881241], [113.9655381, 22.5880561], [113.9654506, 22.5880561], [113.9654506, 22.5880431]]]]}}, {"type": "Feature", "id": "way/722675403", "properties": {"tags": {"building": "dormitory", "name": "荔园9", "name:zh": "荔园9", "name:zh-Hans": "荔园9", "name:zh-Hant": "荔園9", "operator": "哈尔滨工业大学", "smoking": "no", "wheelchair": "yes"}, "heightStatus": "unknown", "source": "OpenStreetMap", "license": "ODbL-1.0"}, "geometry": {"type": "MultiPolygon", "coordinates": [[[[113.9659024, 22.5880647], [113.9659025, 22.5879216], [113.9659983, 22.5879217], [113.9659984, 22.5878624], [113.9661307, 22.5878625], [113.9661307, 22.5879273], [113.9662356, 22.5879274], [113.9662354, 22.5880684], [113.9661291, 22.5880682], [113.966129, 22.5881329], [113.9659899, 22.5881327], [113.9659899, 22.5880647], [113.9659024, 22.5880647]]]]}}, {"type": "Feature", "id": "way/722675405", "properties": {"tags": {"amenity": "restaurant", "building": "yes", "fast_food": "cafeteria", "name": "荔园三食堂", "name:zh": "荔园三食堂", "name:zh-Hans": "荔园三食堂", "name:zh-Hant": "荔园三食堂", "wheelchair": "yes"}, "heightStatus": "unknown", "source": "OpenStreetMap", "license": "ODbL-1.0"}, "geometry": {"type": "MultiPolygon", "coordinates": [[[[113.9652311, 22.5879132], [113.9654507, 22.587913], [113.9654506, 22.5880431], [113.9653089, 22.5880431], [113.9653089, 22.5880214], [113.9652316, 22.5880213], [113.9652311, 22.5879132]]]]}}, {"type": "Feature", "id": "way/921738392", "properties": {"tags": {"building": "retail", "building:levels": "8"}, "heightStatus": "levels_only_unverified", "source": "OpenStreetMap", "license": "ODbL-1.0"}, "geometry": {"type": "MultiPolygon", "coordinates": [[[[113.9581655, 22.5857374], [113.9582727, 22.585416], [113.9583092, 22.5853982], [113.9583794, 22.5854182], [113.9584142, 22.585314], [113.9595305, 22.5856314], [113.9598491, 22.5856384], [113.9598478, 22.5856911], [113.9599386, 22.5857792], [113.9599331, 22.5859948], [113.9598388, 22.5861313], [113.9591433, 22.586116], [113.9581781, 22.5860947], [113.958184, 22.5858668], [113.9582294, 22.5858678], [113.958255, 22.5857911], [113.9581848, 22.5857711], [113.9581655, 22.5857374]]]]}}, {"type": "Feature", "id": "way/921772943", "properties": {"tags": {"building": "train_station", "building:levels": "0", "building:levels:underground": "2", "layer": "-1", "location": "underground", "name": "大学城站", "name:en": "University Town Station", "name:zh": "大学城站", "public_transport": "station", "subway": "yes", "wikidata": "Q5938992", "wikimedia_commons": "Category:University Town Station (Shenzhen)", "wikipedia": "zh:大学城站 (深圳市)"}, "heightStatus": "levels_only_unverified", "source": "OpenStreetMap", "license": "ODbL-1.0"}, "geometry": {"type": "MultiPolygon", "coordinates": [[[[113.9582875, 22.5846676], [113.9583173, 22.5845743], [113.9585414, 22.5846352], [113.9585882, 22.5844882], [113.9587195, 22.5845239], [113.9587144, 22.5845401], [113.9597347, 22.5848176], [113.9597477, 22.5847758], [113.9599699, 22.5848342], [113.9600131, 22.5847006], [113.9600019, 22.5846975], [113.9600121, 22.5846624], [113.9597146, 22.5845843], [113.9597117, 22.5845928], [113.9596735, 22.5845819], [113.959693, 22.584518], [113.9597318, 22.5845282], [113.9597293, 22.5845348], [113.9600389, 22.584615], [113.960042, 22.5846049], [113.9600935, 22.5846198], [113.9600778, 22.5846725], [113.9600896, 22.5846759], [113.9600774, 22.5847171], [113.9600659, 22.5847139], [113.9600301, 22.5848476], [113.9608761, 22.5850752], [113.960931, 22.584903], [113.9609048, 22.5848958], [113.9609192, 22.5848507], [113.9609875, 22.5848692], [113.9609902, 22.5848606], [113.9610687, 22.5848819], [113.9610664, 22.5848891], [113.9613558, 22.5849678], [113.9613586, 22.584959], [113.9613933, 22.5849685], [113.9613728, 22.585033], [113.9613415, 22.5850245], [113.9613431, 22.5850194], [113.9610491, 22.5849395], [113.9610453, 22.5849513], [113.9609792, 22.5849333], [113.9609329, 22.5850784], [113.961191, 22.5851486], [113.9611814, 22.5851786], [113.9620281, 22.5854089], [113.9620345, 22.5853889], [113.96209, 22.585404], [113.9620879, 22.5854107], [113.9621088, 22.5854164], [113.9620877, 22.5854826], [113.962066, 22.5854767], [113.9620511, 22.5855234], [113.9620719, 22.5855291], [113.9620452, 22.5856126], [113.9620294, 22.5856083], [113.9620257, 22.5856198], [113.9619737, 22.5856057], [113.9619772, 22.5855944], [113.9616797, 22.5855135], [113.9616153, 22.5857154], [113.9613199, 22.5856351], [113.9613786, 22.5854511], [113.9608662, 22.5853118], [113.960839, 22.5853973], [113.9608497, 22.5854003], [113.9608329, 22.5854531], [113.9608225, 22.5854502], [113.9607054, 22.5856054], [113.9606908, 22.5856635], [113.9607158, 22.5856695], [113.9606547, 22.585861], [113.9606802, 22.5858679], [113.9606703, 22.5858989], [113.9606303, 22.585888], [113.9606011, 22.5859893], [113.9606075, 22.5859906], [113.9605974, 22.5860239], [113.9605274, 22.5860078], [113.9605362, 22.5859758], [113.9605429, 22.5859774], [113.960639, 22.5856011], [113.9607658, 22.5854396], [113.9607676, 22.5854322], [113.9607582, 22.5854302], [113.9607679, 22.5853952], [113.9607233, 22.5853829], [113.9607507, 22.5852972], [113.9608045, 22.5853118], [113.9608081, 22.5853002], [113.9599693, 22.5850721], [113.9597715, 22.5856923], [113.9594136, 22.585595], [113.9594093, 22.5856086], [113.9593678, 22.5855973], [113.9593882, 22.5855333], [113.9594304, 22.5855448], [113.9594283, 22.5855515], [113.9597245, 22.5856321], [113.9597509, 22.5855492], [113.9597536, 22.58555], [113.9599087, 22.5850636], [113.9596794, 22.5850013], [113.959652, 22.5850872], [113.9596673, 22.5850914], [113.9596482, 22.5851513], [113.9593515, 22.5850706], [113.9593916, 22.5849374], [113.958653, 22.5847484], [113.9586457, 22.5847704], [113.9582875, 22.5846676]]]]}}, {"type": "Feature", "id": "way/926473002", "properties": {"tags": {"addr:housenumber": "13", "building": "commercial", "name": "鸿莱科创楼", "name:zh": "鸿莱科创楼", "name:zh-Hans": "鸿莱科创楼", "name:zh-Hant": "鴻萊科創樓"}, "heightStatus": "unknown", "source": "OpenStreetMap", "license": "ODbL-1.0"}, "geometry": {"type": "MultiPolygon", "coordinates": [[[[113.9641957, 22.5860073], [113.9646654, 22.5859881], [113.9646785, 22.5862611], [113.9642088, 22.5862803], [113.9641957, 22.5860073]]]]}}, {"type": "Feature", "id": "way/926473003", "properties": {"tags": {"building": "commercial", "name": "鸿荣科创楼", "name:zh": "鸿荣科创楼", "name:zh-Hans": "鸿荣科创楼", "name:zh-Hant": "鴻榮科創樓"}, "heightStatus": "unknown", "source": "OpenStreetMap", "license": "ODbL-1.0"}, "geometry": {"type": "MultiPolygon", "coordinates": [[[[113.9641882, 22.5863814], [113.9646579, 22.5863622], [113.964671, 22.5866352], [113.9642013, 22.5866544], [113.9641882, 22.5863814]]]]}}, {"type": "Feature", "id": "way/1076347523", "properties": {"tags": {"amenity": "restaurant", "building": "yes", "name": "荔园四食堂", "smoking": "no", "wheelchair": "yes"}, "heightStatus": "unknown", "source": "OpenStreetMap", "license": "ODbL-1.0"}, "geometry": {"type": "MultiPolygon", "coordinates": [[[[113.9662933, 22.5885678], [113.9662976, 22.5882066], [113.9667642, 22.5882113], [113.9667599, 22.5885726], [113.9662933, 22.5885678]]]]}}, {"type": "Feature", "id": "way/1417698148", "properties": {"tags": {"building": "dormitory"}, "heightStatus": "unknown", "source": "OpenStreetMap", "license": "ODbL-1.0"}, "geometry": {"type": "MultiPolygon", "coordinates": [[[[113.9648489, 22.5892745], [113.9650814, 22.5891668], [113.9651879, 22.5893629], [113.9649554, 22.5894705], [113.9648489, 22.5892745]]]]}}, {"type": "Feature", "id": "way/1417698149", "properties": {"tags": {"building": "dormitory"}, "heightStatus": "unknown", "source": "OpenStreetMap", "license": "ODbL-1.0"}, "geometry": {"type": "MultiPolygon", "coordinates": [[[[113.9651582, 22.5890788], [113.9653795, 22.588976], [113.9654852, 22.5891699], [113.9652638, 22.5892727], [113.9651582, 22.5890788]]]]}}, {"type": "Feature", "id": "way/1425556938", "properties": {"tags": {"amenity": "clinic", "building": "yes", "healthcare": "clinic", "name": "平山社区健康服务中心", "name:zh": "平山社区健康服务中心", "name:zh-Hans": "平山社区健康服务中心", "name:zh-Hant": "平山社區健康服務中心"}, "heightStatus": "unknown", "source": "OpenStreetMap", "license": "ODbL-1.0"}, "geometry": {"type": "MultiPolygon", "coordinates": [[[[113.9598724, 22.5888339], [113.9598967, 22.5887656], [113.9598872, 22.5887627], [113.9599187, 22.5886742], [113.9599282, 22.5886771], [113.9599768, 22.5885406], [113.9599673, 22.5885377], [113.9599988, 22.5884492], [113.9600083, 22.5884521], [113.9600327, 22.5883838], [113.9601111, 22.5884076], [113.9600868, 22.5884759], [113.960102, 22.5884805], [113.9600705, 22.588569], [113.9600553, 22.5885644], [113.9600067, 22.5887009], [113.9600219, 22.5887056], [113.9599904, 22.5887941], [113.9599752, 22.5887894], [113.9599508, 22.5888577], [113.9598724, 22.5888339]]]]}}, {"type": "Feature", "id": "way/1425556941", "properties": {"tags": {"addr:housename": "民企科技园", "addr:housename:zh": "民企科技园", "building": "industrial", "name": "7栋", "name:zh": "7栋"}, "heightStatus": "unknown", "source": "OpenStreetMap", "license": "ODbL-1.0"}, "geometry": {"type": "MultiPolygon", "coordinates": [[[[113.9567922, 22.5888187], [113.9567954, 22.5886398], [113.957444, 22.5886496], [113.9574394, 22.5889105], [113.9571387, 22.588906], [113.9568797, 22.5889021], [113.9567922, 22.5888187]]]]}}, {"type": "Feature", "id": "way/1425556942", "properties": {"tags": {"addr:housename": "民企科技园", "addr:housename:zh": "民企科技园", "building": "industrial", "name": "5栋", "name:zh": "5栋"}, "heightStatus": "unknown", "source": "OpenStreetMap", "license": "ODbL-1.0"}, "geometry": {"type": "MultiPolygon", "coordinates": [[[[113.9575697, 22.5894086], [113.957583, 22.5886516], [113.9578567, 22.5886557], [113.9578434, 22.5894127], [113.9575697, 22.5894086]]]]}}, {"type": "Feature", "id": "way/1425556943", "properties": {"tags": {"addr:housename": "民企科技园", "addr:housename:zh": "民企科技园", "building": "industrial", "name": "2栋", "name:zh": "2栋"}, "heightStatus": "unknown", "source": "OpenStreetMap", "license": "ODbL-1.0"}, "geometry": {"type": "MultiPolygon", "coordinates": [[[[113.9568008, 22.588515], [113.9568071, 22.5881573], [113.9578631, 22.5881731], [113.9578569, 22.5885308], [113.9568008, 22.588515]]]]}}, {"type": "Feature", "id": "way/1425556944", "properties": {"tags": {"addr:housename": "民企科技园", "addr:housename:zh": "民企科技园", "building": "industrial", "name": "1栋", "name:zh": "1栋"}, "heightStatus": "unknown", "source": "OpenStreetMap", "license": "ODbL-1.0"}, "geometry": {"type": "MultiPolygon", "coordinates": [[[[113.9581483, 22.5885347], [113.9581515, 22.5883573], [113.9581939, 22.5883579], [113.958197, 22.5881776], [113.9592985, 22.5881941], [113.9592923, 22.5885518], [113.9581483, 22.5885347]]]]}}, {"type": "Feature", "id": "way/1425556945", "properties": {"tags": {"addr:housename": "民企科技园", "addr:housename:zh": "民企科技园", "building": "industrial", "name": "3栋", "name:zh": "3栋"}, "heightStatus": "unknown", "source": "OpenStreetMap", "license": "ODbL-1.0"}, "geometry": {"type": "MultiPolygon", "coordinates": [[[[113.9581374, 22.5889699], [113.9581431, 22.5886488], [113.9592126, 22.5886648], [113.959207, 22.5889859], [113.9581374, 22.5889699]]]]}}, {"type": "Feature", "id": "way/1425556946", "properties": {"tags": {"addr:housename": "民企科技园", "addr:housename:zh": "民企科技园", "building": "industrial", "name": "4栋", "name:zh": "4栋"}, "heightStatus": "unknown", "source": "OpenStreetMap", "license": "ODbL-1.0"}, "geometry": {"type": "MultiPolygon", "coordinates": [[[[113.9581289, 22.5894123], [113.9581346, 22.5890912], [113.9591177, 22.5891059], [113.9591121, 22.589427], [113.9581289, 22.5894123]]]]}}, {"type": "Feature", "id": "way/1425558049", "properties": {"tags": {"addr:housename": "远洋天著", "addr:housename:en": "Ocean Palace", "addr:housename:zh": "远洋天著", "building": "industrial", "building:levels": "46", "name": "3A栋", "name:en": "Block 3A", "name:zh": "3A栋"}, "heightStatus": "levels_only_unverified", "source": "OpenStreetMap", "license": "ODbL-1.0"}, "geometry": {"type": "MultiPolygon", "coordinates": [[[[113.9574875, 22.586832], [113.9575745, 22.586756], [113.9575087, 22.5866919], [113.9575904, 22.5866205], [113.9576136, 22.5866431], [113.9576884, 22.5865767], [113.9578183, 22.5867014], [113.9577227, 22.5867861], [113.9577948, 22.5868565], [113.9577329, 22.5869106], [113.9576387, 22.5868187], [113.9575518, 22.5868947], [113.9574875, 22.586832]]]]}}, {"type": "Feature", "id": "way/1425558050", "properties": {"tags": {"addr:housename": "远洋天著", "addr:housename:en": "Ocean Palace", "addr:housename:zh": "远洋天著", "building": "industrial", "building:levels": "46", "name": "1B栋", "name:en": "Block 1B", "name:zh": "1B栋"}, "heightStatus": "levels_only_unverified", "source": "OpenStreetMap", "license": "ODbL-1.0"}, "geometry": {"type": "MultiPolygon", "coordinates": [[[[113.9592414, 22.5873308], [113.9593727, 22.5872074], [113.9594467, 22.5872745], [113.9594702, 22.5872521], [113.9595511, 22.5873243], [113.9594845, 22.5873878], [113.9595706, 22.5874646], [113.9595057, 22.5875267], [113.9594196, 22.5874498], [113.9593244, 22.5875408], [113.9592631, 22.5874861], [113.959336, 22.5874164], [113.9592414, 22.5873308]]]]}}, {"type": "Feature", "id": "way/1425558051", "properties": {"tags": {"addr:housename": "远洋天著", "addr:housename:en": "Ocean Palace", "addr:housename:zh": "远洋天著", "building": "industrial", "building:levels": "46", "name": "1C栋", "name:en": "Block 1C", "name:zh": "1C栋"}, "heightStatus": "levels_only_unverified", "source": "OpenStreetMap", "license": "ODbL-1.0"}, "geometry": {"type": "MultiPolygon", "coordinates": [[[[113.9587694, 22.5873283], [113.9589007, 22.5872049], [113.9589747, 22.587272], [113.9589981, 22.5872496], [113.959079, 22.5873218], [113.9590125, 22.5873853], [113.9590985, 22.5874622], [113.9590336, 22.5875242], [113.9589475, 22.5874474], [113.9588523, 22.5875383], [113.958791, 22.5874836], [113.9588639, 22.5874139], [113.9587694, 22.5873283]]]]}}, {"type": "Feature", "id": "way/1425558052", "properties": {"tags": {"addr:housename": "远洋天著", "addr:housename:en": "Ocean Palace", "addr:housename:zh": "远洋天著", "building": "industrial", "building:levels": "46", "name": "3B栋", "name:en": "Block 3B", "name:zh": "3B栋"}, "heightStatus": "levels_only_unverified", "source": "OpenStreetMap", "license": "ODbL-1.0"}, "geometry": {"type": "MultiPolygon", "coordinates": [[[[113.9575046, 22.5873146], [113.9576359, 22.5871912], [113.9577099, 22.5872583], [113.9577334, 22.5872359], [113.9578142, 22.5873081], [113.9577477, 22.5873716], [113.9578338, 22.5874484], [113.9577688, 22.5875104], [113.9576828, 22.5874336], [113.9575875, 22.5875246], [113.9575262, 22.5874698], [113.9575992, 22.5874002], [113.9575046, 22.5873146]]]]}}, {"type": "Feature", "id": "way/1425558053", "properties": {"tags": {"addr:housename": "远洋天著", "addr:housename:en": "Ocean Palace", "addr:housename:zh": "远洋天著", "building": "industrial", "building:levels": "46", "name": "1A栋", "name:en": "Block 1A", "name:zh": "1A栋"}, "heightStatus": "levels_only_unverified", "source": "OpenStreetMap", "license": "ODbL-1.0"}, "geometry": {"type": "MultiPolygon", "coordinates": [[[[113.9594111, 22.5867013], [113.9595424, 22.5865779], [113.9596173, 22.5866458], [113.9596908, 22.5865767], [113.9598244, 22.5866979], [113.9597525, 22.5867655], [113.9598011, 22.5868096], [113.959726, 22.5868801], [113.9596186, 22.5867827], [113.9595131, 22.5868819], [113.9594366, 22.5868125], [113.9594843, 22.5867677], [113.9594111, 22.5867013]]]]}}, {"type": "Feature", "id": "way/1425558054", "properties": {"tags": {"addr:housename": "远洋天著", "addr:housename:en": "Ocean Palace", "addr:housename:zh": "远洋天著", "building": "industrial", "building:levels": "46", "name": "1D栋", "name:en": "Block 1D", "name:zh": "1D栋"}, "heightStatus": "levels_only_unverified", "source": "OpenStreetMap", "license": "ODbL-1.0"}, "geometry": {"type": "MultiPolygon", "coordinates": [[[[113.958203, 22.5873557], [113.9583343, 22.5872323], [113.9584092, 22.5873002], [113.9584827, 22.5872311], [113.9586164, 22.5873523], [113.9585444, 22.5874199], [113.958593, 22.587464], [113.9585179, 22.5875345], [113.9584105, 22.5874371], [113.958305, 22.5875363], [113.9582285, 22.5874669], [113.9582762, 22.5874221], [113.958203, 22.5873557]]]]}}, {"type": "Feature", "id": "way/1425687086", "properties": {"tags": {"building": "commercial"}, "heightStatus": "unknown", "source": "OpenStreetMap", "license": "ODbL-1.0"}, "geometry": {"type": "MultiPolygon", "coordinates": [[[[113.9662848, 22.5864016], [113.9663127, 22.5859569], [113.9664071, 22.5859619], [113.9663792, 22.5864066], [113.9662848, 22.5864016]]]]}}, {"type": "Feature", "id": "way/1425687087", "properties": {"tags": {"building": "commercial", "name": "8栋", "name:zh": "8栋"}, "heightStatus": "unknown", "source": "OpenStreetMap", "license": "ODbL-1.0"}, "geometry": {"type": "MultiPolygon", "coordinates": [[[[113.9662595, 22.5875567], [113.9663047, 22.5868357], [113.9665304, 22.5868478], [113.9664852, 22.5875688], [113.9662595, 22.5875567]]]]}}, {"type": "Feature", "id": "way/1425687088", "properties": {"tags": {"building": "commercial", "name": "9栋", "name:zh": "9栋"}, "heightStatus": "unknown", "source": "OpenStreetMap", "license": "ODbL-1.0"}, "geometry": {"type": "MultiPolygon", "coordinates": [[[[113.9650304, 22.5865067], [113.9650704, 22.58587], [113.9653514, 22.585885], [113.9653114, 22.5865217], [113.9650304, 22.5865067]]]]}}, {"type": "Feature", "id": "way/1425687089", "properties": {"tags": {"building": "commercial", "name": "10栋", "name:zh": "10栋"}, "heightStatus": "unknown", "source": "OpenStreetMap", "license": "ODbL-1.0"}, "geometry": {"type": "MultiPolygon", "coordinates": [[[[113.9650101, 22.5868732], [113.9650217, 22.5866891], [113.9655041, 22.5867149], [113.9654925, 22.586899], [113.9650101, 22.5868732]]]]}}, {"type": "Feature", "id": "way/1425687090", "properties": {"tags": {"building": "commercial", "name": "11栋", "name:zh": "11栋"}, "heightStatus": "unknown", "source": "OpenStreetMap", "license": "ODbL-1.0"}, "geometry": {"type": "MultiPolygon", "coordinates": [[[[113.9650208, 22.5871857], [113.9650349, 22.5869609], [113.9654956, 22.5869856], [113.9654815, 22.5872103], [113.9650208, 22.5871857]]]]}}, {"type": "Feature", "id": "way/1425687091", "properties": {"tags": {"building": "commercial", "name": "12栋", "name:zh": "12栋"}, "heightStatus": "unknown", "source": "OpenStreetMap", "license": "ODbL-1.0"}, "geometry": {"type": "MultiPolygon", "coordinates": [[[[113.9649966, 22.5874938], [113.9650107, 22.5872691], [113.9654713, 22.5872937], [113.9654572, 22.5875184], [113.9649966, 22.5874938]]]]}}, {"type": "Feature", "id": "way/1425687092", "properties": {"tags": {"building": "commercial", "name": "7栋", "name:zh": "7栋"}, "heightStatus": "unknown", "source": "OpenStreetMap", "license": "ODbL-1.0"}, "geometry": {"type": "MultiPolygon", "coordinates": [[[[113.9656043, 22.5875315], [113.9656142, 22.5873734], [113.9661091, 22.5873999], [113.9660992, 22.587558], [113.9656043, 22.5875315]]]]}}, {"type": "Feature", "id": "way/1425687093", "properties": {"tags": {"building": "commercial", "name": "2栋", "name:zh": "2栋"}, "heightStatus": "unknown", "source": "OpenStreetMap", "license": "ODbL-1.0"}, "geometry": {"type": "MultiPolygon", "coordinates": [[[[113.9656863, 22.586295], [113.9656962, 22.586137], [113.9661911, 22.5861634], [113.9661812, 22.5863215], [113.9656863, 22.586295]]]]}}, {"type": "Feature", "id": "way/1425687094", "properties": {"tags": {"building": "commercial", "name": "1栋", "name:zh": "1栋"}, "heightStatus": "unknown", "source": "OpenStreetMap", "license": "ODbL-1.0"}, "geometry": {"type": "MultiPolygon", "coordinates": [[[[113.9657048, 22.5860488], [113.9657147, 22.5858907], [113.9662096, 22.5859172], [113.9661997, 22.5860753], [113.9657048, 22.5860488]]]]}}, {"type": "Feature", "id": "way/1425687095", "properties": {"tags": {"building": "commercial", "name": "4栋", "name:zh": "4栋"}, "heightStatus": "unknown", "source": "OpenStreetMap", "license": "ODbL-1.0"}, "geometry": {"type": "MultiPolygon", "coordinates": [[[[113.9656514, 22.5867878], [113.9656613, 22.5866298], [113.9661562, 22.5866563], [113.9661463, 22.5868143], [113.9656514, 22.5867878]]]]}}, {"type": "Feature", "id": "way/1425687096", "properties": {"tags": {"building": "commercial", "name": "3栋", "name:zh": "3栋"}, "heightStatus": "unknown", "source": "OpenStreetMap", "license": "ODbL-1.0"}, "geometry": {"type": "MultiPolygon", "coordinates": [[[[113.9656699, 22.5865416], [113.9656798, 22.5863835], [113.9661747, 22.58641], [113.9661648, 22.5865681], [113.9656699, 22.5865416]]]]}}, {"type": "Feature", "id": "way/1425687097", "properties": {"tags": {"building": "commercial", "name": "5栋", "name:zh": "5栋"}, "heightStatus": "unknown", "source": "OpenStreetMap", "license": "ODbL-1.0"}, "geometry": {"type": "MultiPolygon", "coordinates": [[[[113.9656365, 22.5870411], [113.9656464, 22.5868831], [113.9661413, 22.5869096], [113.9661314, 22.5870676], [113.9656365, 22.5870411]]]]}}, {"type": "Feature", "id": "way/1425687098", "properties": {"tags": {"building": "commercial", "name": "6栋", "name:zh": "6栋"}, "heightStatus": "unknown", "source": "OpenStreetMap", "license": "ODbL-1.0"}, "geometry": {"type": "MultiPolygon", "coordinates": [[[[113.965618, 22.5872874], [113.9656279, 22.5871293], [113.9661228, 22.5871558], [113.9661129, 22.5873139], [113.965618, 22.5872874]]]]}}, {"type": "Feature", "id": "way/1425689651", "properties": {"tags": {"addr:housename": "民企科技园", "addr:housename:zh": "民企科技园", "building": "industrial", "name": "6栋", "name:zh": "6栋"}, "heightStatus": "unknown", "source": "OpenStreetMap", "license": "ODbL-1.0"}, "geometry": {"type": "MultiPolygon", "coordinates": [[[[113.95713, 22.589402], [113.9571387, 22.588906], [113.9574394, 22.5889105], [113.9574307, 22.5894065], [113.95713, 22.589402]]]]}}, {"type": "Feature", "id": "way/1447075552", "properties": {"tags": {"addr:housename": "众冠红花岭工业南区2区", "addr:housename:en": "Zhongguan Honghualing Industrial South Area 2", "addr:housename:zh": "众冠红花岭工业南区2区", "building": "industrial", "name": "6栋", "name:en": "Block 6", "name:zh": "6栋"}, "heightStatus": "unknown", "source": "OpenStreetMap", "license": "ODbL-1.0"}, "geometry": {"type": "MultiPolygon", "coordinates": [[[[113.9613874, 22.5843922], [113.9613886, 22.5842395], [113.9614502, 22.5842399], [113.9614508, 22.5841647], [113.9615258, 22.5841652], [113.9615252, 22.5842404], [113.9619504, 22.5842431], [113.9619493, 22.5843959], [113.9613874, 22.5843922]]]]}}, {"type": "Feature", "id": "way/1447075553", "properties": {"tags": {"addr:housename": "众冠红花岭工业南区2区", "addr:housename:en": "Zhongguan Honghualing Industrial South Area 2", "addr:housename:zh": "众冠红花岭工业南区2区", "building": "industrial", "name": "2栋", "name:en": "Block 2", "name:zh": "2栋"}, "heightStatus": "unknown", "source": "OpenStreetMap", "license": "ODbL-1.0"}, "geometry": {"type": "MultiPolygon", "coordinates": [[[[113.9620919, 22.5844009], [113.962093, 22.5842482], [113.9625183, 22.584251], [113.9625188, 22.5841759], [113.9625939, 22.5841764], [113.9625933, 22.5842515], [113.9626549, 22.5842519], [113.9626537, 22.5844046], [113.9620919, 22.5844009]]]]}}, {"type": "Feature", "id": "way/1447075554", "properties": {"tags": {"addr:housename": "众冠红花岭工业南区2区", "addr:housename:en": "Zhongguan Honghualing Industrial South Area 2", "addr:housename:zh": "众冠红花岭工业南区2区", "building": "industrial", "name": "4栋", "name:en": "Block 4", "name:zh": "4栋"}, "heightStatus": "unknown", "source": "OpenStreetMap", "license": "ODbL-1.0"}, "geometry": {"type": "MultiPolygon", "coordinates": [[[[113.9621059, 22.5837576], [113.9621071, 22.5835988], [113.9626953, 22.5836027], [113.962694, 22.5837615], [113.9621059, 22.5837576]]]]}}, {"type": "Feature", "id": "way/1447075555", "properties": {"tags": {"addr:housename": "众冠红花岭工业南区2区", "addr:housename:en": "Zhongguan Honghualing Industrial South Area 2", "addr:housename:zh": "众冠红花岭工业南区2区", "building": "industrial", "name": "8栋", "name:en": "Block 8", "name:zh": "8栋"}, "heightStatus": "unknown", "source": "OpenStreetMap", "license": "ODbL-1.0"}, "geometry": {"type": "MultiPolygon", "coordinates": [[[[113.9615178, 22.5837538], [113.961519, 22.583595], [113.9621071, 22.5835988], [113.9621059, 22.5837576], [113.9615178, 22.5837538]]]]}}, {"type": "Feature", "id": "way/1447075556", "properties": {"tags": {"building": "construction", "construction": "industrial"}, "heightStatus": "unknown", "source": "OpenStreetMap", "license": "ODbL-1.0"}, "geometry": {"type": "MultiPolygon", "coordinates": [[[[113.963429, 22.5832467], [113.9634407, 22.5826381], [113.9642711, 22.5826518], [113.9642593, 22.5832604], [113.963429, 22.5832467]]]]}}, {"type": "Feature", "id": "way/1447075558", "properties": {"tags": {"building": "construction", "construction": "industrial"}, "heightStatus": "unknown", "source": "OpenStreetMap", "license": "ODbL-1.0"}, "geometry": {"type": "MultiPolygon", "coordinates": [[[[113.9628995, 22.5832408], [113.9629117, 22.5826094], [113.9633155, 22.5826161], [113.9633033, 22.5832475], [113.9628995, 22.5832408]]]]}}, {"type": "Feature", "id": "way/1447075559", "properties": {"tags": {"addr:housename": "众冠红花岭工业南区2区", "addr:housename:en": "Zhongguan Honghualing Industrial South Area 2", "addr:housename:zh": "众冠红花岭工业南区2区", "building": "industrial", "name": "9栋", "name:en": "Block 9", "name:zh": "9栋"}, "heightStatus": "unknown", "source": "OpenStreetMap", "license": "ODbL-1.0"}, "geometry": {"type": "MultiPolygon", "coordinates": [[[[113.9619764, 22.5834739], [113.9619781, 22.5832638], [113.9624511, 22.5832669], [113.9624534, 22.5829753], [113.9626787, 22.5829767], [113.9626749, 22.5834785], [113.9619764, 22.5834739]]]]}}, {"type": "Feature", "id": "way/1447075560", "properties": {"tags": {"addr:housename": "众冠红花岭工业南区2区", "addr:housename:en": "Zhongguan Honghualing Industrial South Area 2", "addr:housename:zh": "众冠红花岭工业南区2区", "building": "industrial", "name": "1栋", "name:en": "Block 1", "name:zh": "1栋"}, "heightStatus": "unknown", "source": "OpenStreetMap", "license": "ODbL-1.0"}, "geometry": {"type": "MultiPolygon", "coordinates": [[[[113.9620797, 22.5847481], [113.9620809, 22.5845982], [113.962651, 22.584602], [113.9626499, 22.5847518], [113.9620797, 22.5847481]]]]}}, {"type": "Feature", "id": "way/1447075561", "properties": {"tags": {"addr:housename": "众冠红花岭工业南区2区", "addr:housename:en": "Zhongguan Honghualing Industrial South Area 2", "addr:housename:zh": "众冠红花岭工业南区2区", "building": "industrial", "name": "5栋", "name:en": "Block 5", "name:zh": "5栋"}, "heightStatus": "unknown", "source": "OpenStreetMap", "license": "ODbL-1.0"}, "geometry": {"type": "MultiPolygon", "coordinates": [[[[113.9613595, 22.5847444], [113.9613607, 22.5845945], [113.9619308, 22.5845983], [113.9619297, 22.5847481], [113.9613595, 22.5847444]]]]}}, {"type": "Feature", "id": "way/1447075562", "properties": {"tags": {"addr:housename": "众冠红花岭工业南区2区", "addr:housename:en": "Zhongguan Honghualing Industrial South Area 2", "addr:housename:zh": "众冠红花岭工业南区2区", "building": "industrial", "name": "3栋", "name:en": "Block 3", "name:zh": "3栋"}, "heightStatus": "unknown", "source": "OpenStreetMap", "license": "ODbL-1.0"}, "geometry": {"type": "MultiPolygon", "coordinates": [[[[113.9620942, 22.5840979], [113.9620954, 22.5839452], [113.9626573, 22.5839489], [113.9626561, 22.5841016], [113.9625945, 22.5841012], [113.9625939, 22.5841764], [113.9625188, 22.5841759], [113.9625194, 22.5841007], [113.9620942, 22.5840979]]]]}}, {"type": "Feature", "id": "way/1447075563", "properties": {"tags": {"addr:housename": "众冠红花岭工业南区2区", "addr:housename:en": "Zhongguan Honghualing Industrial South Area 2", "addr:housename:zh": "众冠红花岭工业南区2区", "building": "industrial", "name": "7栋", "name:en": "Block 7", "name:zh": "7栋"}, "heightStatus": "unknown", "source": "OpenStreetMap", "license": "ODbL-1.0"}, "geometry": {"type": "MultiPolygon", "coordinates": [[[[113.9613897, 22.5840892], [113.9613909, 22.5839365], [113.9619528, 22.5839402], [113.9619516, 22.5840929], [113.9615264, 22.5840901], [113.9615258, 22.5841652], [113.9614508, 22.5841647], [113.9614513, 22.5840896], [113.9613897, 22.5840892]]]]}}, {"type": "Feature", "id": "way/1447075564", "properties": {"tags": {"building": "construction", "construction": "industrial"}, "heightStatus": "unknown", "source": "OpenStreetMap", "license": "ODbL-1.0"}, "geometry": {"type": "MultiPolygon", "coordinates": [[[[113.9646232, 22.5840558], [113.9646279, 22.5837367], [113.9654365, 22.5837469], [113.9654317, 22.584066], [113.9646232, 22.5840558]]]]}}, {"type": "Feature", "id": "way/1447075565", "properties": {"tags": {"building": "construction", "construction": "industrial"}, "heightStatus": "unknown", "source": "OpenStreetMap", "license": "ODbL-1.0"}, "geometry": {"type": "MultiPolygon", "coordinates": [[[[113.964633, 22.5848437], [113.9646378, 22.5845231], [113.9655229, 22.5845366], [113.9655182, 22.5848549], [113.964633, 22.5848437]]]]}}, {"type": "Feature", "id": "way/1447075566", "properties": {"tags": {"building": "construction", "construction": "industrial"}, "heightStatus": "unknown", "source": "OpenStreetMap", "license": "ODbL-1.0"}, "geometry": {"type": "MultiPolygon", "coordinates": [[[[113.9633549, 22.5840888], [113.9633597, 22.5837697], [113.9642663, 22.5837812], [113.9642616, 22.5841026], [113.9641738, 22.5841015], [113.9641669, 22.5845685], [113.9642546, 22.5845696], [113.9642499, 22.5848879], [113.9633648, 22.5848767], [113.9633695, 22.5845561], [113.9638641, 22.5845623], [113.963871, 22.5840953], [113.9633549, 22.5840888]]]]}}, {"type": "Feature", "id": "way/1447075569", "properties": {"tags": {"building": "industrial"}, "heightStatus": "unknown", "source": "OpenStreetMap", "license": "ODbL-1.0"}, "geometry": {"type": "MultiPolygon", "coordinates": [[[[113.9658909, 22.5829694], [113.9660416, 22.5829307], [113.966072, 22.5830316], [113.9661806, 22.5830037], [113.9662843, 22.5833475], [113.966025, 22.5834141], [113.9658909, 22.5829694]]]]}}, {"type": "Feature", "id": "way/1447075570", "properties": {"tags": {"building": "industrial"}, "heightStatus": "unknown", "source": "OpenStreetMap", "license": "ODbL-1.0"}, "geometry": {"type": "MultiPolygon", "coordinates": [[[[113.9661046, 22.5835297], [113.9663997, 22.5834538], [113.966677, 22.5843735], [113.9663819, 22.5844493], [113.9661046, 22.5835297]]]]}}, {"type": "Feature", "id": "way/1447075575", "properties": {"tags": {"building": "industrial"}, "heightStatus": "unknown", "source": "OpenStreetMap", "license": "ODbL-1.0"}, "geometry": {"type": "MultiPolygon", "coordinates": [[[[113.9595726, 22.5839948], [113.959582, 22.583547], [113.9600862, 22.5835559], [113.9600768, 22.5840037], [113.9595726, 22.5839948]]]]}}, {"type": "Feature", "id": "way/1447075576", "properties": {"tags": {"building": "industrial"}, "heightStatus": "unknown", "source": "OpenStreetMap", "license": "ODbL-1.0"}, "geometry": {"type": "MultiPolygon", "coordinates": [[[[113.9594993, 22.5842333], [113.9595031, 22.5840493], [113.9600798, 22.5840595], [113.960076, 22.5842435], [113.9594993, 22.5842333]]]]}}, {"type": "Feature", "id": "way/1447075577", "properties": {"tags": {"building": "industrial"}, "heightStatus": "unknown", "source": "OpenStreetMap", "license": "ODbL-1.0"}, "geometry": {"type": "MultiPolygon", "coordinates": [[[[113.960238, 22.5836426], [113.9602398, 22.5835558], [113.9608262, 22.5835662], [113.9608244, 22.583653], [113.960238, 22.5836426]]]]}}, {"type": "Feature", "id": "way/1447075578", "properties": {"tags": {"building": "industrial"}, "heightStatus": "unknown", "source": "OpenStreetMap", "license": "ODbL-1.0"}, "geometry": {"type": "MultiPolygon", "coordinates": [[[[113.9601373, 22.5838166], [113.9607923, 22.5838094], [113.9608003, 22.5844335], [113.9601454, 22.5844407], [113.9601373, 22.5838166]]]]}}, {"type": "Feature", "id": "relation/19798684", "properties": {"tags": {"building": "retail"}, "heightStatus": "unknown", "source": "OpenStreetMap", "license": "ODbL-1.0"}, "geometry": {"type": "MultiPolygon", "coordinates": [[[[113.9600896, 22.5881733], [113.9601965, 22.5879026], [113.9602239, 22.5879119], [113.9602472, 22.5878528], [113.9603112, 22.5878743], [113.9603212, 22.587849], [113.9605328, 22.5879202], [113.9605228, 22.5879456], [113.9605868, 22.5879671], [113.9605635, 22.5880262], [113.9605909, 22.5880354], [113.9604841, 22.5883061], [113.9604566, 22.5882968], [113.9604333, 22.5883559], [113.9603693, 22.5883344], [113.9603593, 22.5883597], [113.9601477, 22.5882885], [113.9601577, 22.5882631], [113.9600937, 22.5882416], [113.960117, 22.5881825], [113.9600896, 22.5881733]], [[113.960181, 22.5882041], [113.9603926, 22.5882753], [113.9604995, 22.5880046], [113.9602879, 22.5879334], [113.960181, 22.5882041]]]]}}, {"type": "Feature", "id": "way/1447914097", "properties": {"tags": {"building": "kindergarten"}, "heightStatus": "unknown", "source": "OpenStreetMap", "license": "ODbL-1.0"}, "geometry": {"type": "MultiPolygon", "coordinates": [[[[113.9581113, 22.5869011], [113.9581173, 22.5865116], [113.9586148, 22.586518], [113.9586089, 22.5869076], [113.9581113, 22.5869011]]]]}}, {"type": "Feature", "id": "way/1447914098", "properties": {"tags": {"building": "industrial"}, "heightStatus": "unknown", "source": "OpenStreetMap", "license": "ODbL-1.0"}, "geometry": {"type": "MultiPolygon", "coordinates": [[[[113.9574441, 22.5859917], [113.9577091, 22.5856979], [113.9578495, 22.5858059], [113.9575845, 22.5860997], [113.9574441, 22.5859917]]]]}}, {"type": "Feature", "id": "way/1447914099", "properties": {"tags": {"building": "industrial"}, "heightStatus": "unknown", "source": "OpenStreetMap", "license": "ODbL-1.0"}, "geometry": {"type": "MultiPolygon", "coordinates": [[[[113.9568321, 22.5858068], [113.9573357, 22.5852488], [113.9576389, 22.5854821], [113.9571354, 22.5860401], [113.9568321, 22.5858068]]]]}}, {"type": "Feature", "id": "way/1447914100", "properties": {"tags": {"addr:city": "深圳市", "addr:country": "CN", "addr:district": "南山区", "addr:housenumber": "1355", "addr:province": "广东省", "addr:street": "留仙大道", "addr:subdistrict": "桃源街道", "building": "commercial", "building:levels": "45", "building:material": "glass", "layer": "1", "name": "尚美国际大厦", "name:en": "Shangmei International Tower", "name:zh": "尚美国际大厦", "name:zh-Hans": "尚美国际大厦", "name:zh-Hant": "尚美國際大廈"}, "heightStatus": "levels_only_unverified", "source": "OpenStreetMap", "license": "ODbL-1.0"}, "geometry": {"type": "MultiPolygon", "coordinates": [[[[113.9581655, 22.5857374], [113.9582727, 22.585416], [113.9583092, 22.5853982], [113.9583794, 22.5854182], [113.9586573, 22.5854972], [113.9586766, 22.5855309], [113.9585694, 22.5858523], [113.9585329, 22.5858701], [113.958255, 22.5857911], [113.9581848, 22.5857711], [113.9581655, 22.5857374]]]]}}, {"type": "Feature", "id": "way/1447914101", "properties": {"tags": {"addr:city": "深圳市", "addr:country": "CN", "addr:district": "南山区", "addr:housenumber": "1355", "addr:province": "广东省", "addr:street": "留仙大道", "addr:subdistrict": "西丽街道", "building": "apartments", "building:levels": "36", "building:material": "glass", "layer": "1", "name": "众冠时代广场", "name:en": "Zhongguan Times Square", "name:zh": "众冠时代广场", "name:zh-Hans": "众冠时代广场", "name:zh-Hant": "眾冠時代廣場"}, "heightStatus": "levels_only_unverified", "source": "OpenStreetMap", "license": "ODbL-1.0"}, "geometry": {"type": "MultiPolygon", "coordinates": [[[[113.9591433, 22.586116], [113.9591492, 22.5858881], [113.9595633, 22.5858972], [113.9595574, 22.5861251], [113.9591433, 22.586116]]]]}}, {"type": "Feature", "id": "way/1460284962", "properties": {"tags": {"building": "yes"}, "heightStatus": "unknown", "source": "OpenStreetMap", "license": "ODbL-1.0"}, "geometry": {"type": "MultiPolygon", "coordinates": [[[[113.9627265, 22.5817708], [113.9629705, 22.5816496], [113.963011, 22.5817191], [113.962767, 22.5818402], [113.9627265, 22.5817708]]]]}}, {"type": "Feature", "id": "way/1460284974", "properties": {"tags": {"building": "yes"}, "heightStatus": "unknown", "source": "OpenStreetMap", "license": "ODbL-1.0"}, "geometry": {"type": "MultiPolygon", "coordinates": [[[[113.963137, 22.5812174], [113.9632818, 22.5811233], [113.9632711, 22.5810911], [113.9632711, 22.5810515], [113.9632925, 22.5810243], [113.9633301, 22.580997], [113.9633703, 22.580997], [113.9633703, 22.5807642], [113.9639631, 22.5808014], [113.963955, 22.5808558], [113.9640248, 22.5808608], [113.9640221, 22.5809822], [113.9640006, 22.5811357], [113.9639711, 22.5812744], [113.9639014, 22.5813982], [113.9637995, 22.5815072], [113.9636841, 22.5815963], [113.9635869, 22.5816521], [113.963137, 22.5812174]]]]}}, {"type": "Feature", "id": "way/1460787639", "properties": {"tags": {"building": "construction", "construction": "industrial"}, "heightStatus": "unknown", "source": "OpenStreetMap", "license": "ODbL-1.0"}, "geometry": {"type": "MultiPolygon", "coordinates": [[[[113.9645224, 22.5816001], [113.9645357, 22.580827], [113.9647514, 22.5808302], [113.9647411, 22.5814258], [113.9650348, 22.5814301], [113.9650318, 22.5816075], [113.9645224, 22.5816001]]]]}}, {"type": "Feature", "id": "way/1460787640", "properties": {"tags": {"building": "construction", "construction": "industrial"}, "heightStatus": "unknown", "source": "OpenStreetMap", "license": "ODbL-1.0"}, "geometry": {"type": "MultiPolygon", "coordinates": [[[[113.9644348, 22.5820033], [113.9649203, 22.5820017], [113.9649196, 22.5818301], [113.9651506, 22.5818294], [113.965152, 22.5821994], [113.9644355, 22.5822018], [113.9644348, 22.5820033]]]]}}, {"type": "Feature", "id": "way/1460787641", "properties": {"tags": {"building": "construction", "construction": "industrial"}, "heightStatus": "unknown", "source": "OpenStreetMap", "license": "ODbL-1.0"}, "geometry": {"type": "MultiPolygon", "coordinates": [[[[113.96443, 22.5832616], [113.964436, 22.582674], [113.965265, 22.5826813], [113.965259, 22.5832689], [113.96443, 22.5832616]]]]}}]}