{"type": "FeatureCollection", "features": [{"type": "Feature", "id": "way/978042006", "properties": {"tags": {"building": "yes"}, "heightStatus": "unknown", "source": "OpenStreetMap", "license": "ODbL-1.0"}, "geometry": {"type": "MultiPolygon", "coordinates": [[[[113.9657293, 22.5998401], [113.9657588, 22.5997899], [113.9658192, 22.5998549], [113.9657722, 22.5998784], [113.9657293, 22.5998401]]]]}}, {"type": "Feature", "id": "way/978042007", "properties": {"tags": {"building": "yes"}, "heightStatus": "unknown", "source": "OpenStreetMap", "license": "ODbL-1.0"}, "geometry": {"type": "MultiPolygon", "coordinates": [[[[113.9656341, 22.5998345], [113.9656609, 22.5997181], [113.9657447, 22.5997429], [113.9657152, 22.5998518], [113.9656341, 22.5998345]]]]}}, {"type": "Feature", "id": "way/978042008", "properties": {"tags": {"building": "yes"}, "heightStatus": "unknown", "source": "OpenStreetMap", "license": "ODbL-1.0"}, "geometry": {"type": "MultiPolygon", "coordinates": [[[[113.9653324, 22.5998809], [113.9653511, 22.5997775], [113.965561, 22.5998246], [113.9655449, 22.5999081], [113.9653324, 22.5998809]]]]}}, {"type": "Feature", "id": "way/978042009", "properties": {"tags": {"building": "yes"}, "heightStatus": "unknown", "source": "OpenStreetMap", "license": "ODbL-1.0"}, "geometry": {"type": "MultiPolygon", "coordinates": [[[[113.9651433, 22.5997348], [113.9651473, 22.5996642], [113.9652157, 22.5996729], [113.9652318, 22.599585], [113.9656556, 22.599694], [113.9656234, 22.5998301], [113.965327, 22.5997633], [113.9653122, 22.5998797], [113.9651701, 22.5999391], [113.9651701, 22.599736], [113.9651433, 22.5997348]]]]}}, {"type": "Feature", "id": "way/978042010", "properties": {"tags": {"building": "yes"}, "heightStatus": "unknown", "source": "OpenStreetMap", "license": "ODbL-1.0"}, "geometry": {"type": "MultiPolygon", "coordinates": [[[[113.9644576, 22.5999212], [113.9644722, 22.5994597], [113.9651205, 22.5995342], [113.9651272, 22.5999874], [113.9650266, 22.6000716], [113.9649287, 22.6001979], [113.9647825, 22.6001422], [113.9647852, 22.5998995], [113.9644576, 22.5999212]]]]}}, {"type": "Feature", "id": "way/978042011", "properties": {"tags": {"building": "yes"}, "heightStatus": "unknown", "source": "OpenStreetMap", "license": "ODbL-1.0"}, "geometry": {"type": "MultiPolygon", "coordinates": [[[[113.9659897, 22.6007882], [113.9661176, 22.6007799], [113.9661321, 22.6009695], [113.9660042, 22.6009778], [113.9659897, 22.6007882]]]]}}, {"type": "Feature", "id": "way/978042012", "properties": {"tags": {"building": "yes"}, "heightStatus": "unknown", "source": "OpenStreetMap", "license": "ODbL-1.0"}, "geometry": {"type": "MultiPolygon", "coordinates": [[[[113.9659779, 22.6010797], [113.9661079, 22.6010654], [113.9661326, 22.6012561], [113.9660026, 22.6012705], [113.9659779, 22.6010797]]]]}}, {"type": "Feature", "id": "way/978042013", "properties": {"tags": {"building": "yes"}, "heightStatus": "unknown", "source": "OpenStreetMap", "license": "ODbL-1.0"}, "geometry": {"type": "MultiPolygon", "coordinates": [[[[113.9655924, 22.6017736], [113.966265, 22.6015992], [113.9663034, 22.6017255], [113.9656309, 22.6018999], [113.9655924, 22.6017736]]]]}}, {"type": "Feature", "id": "way/978042015", "properties": {"tags": {"building": "yes"}, "heightStatus": "unknown", "source": "OpenStreetMap", "license": "ODbL-1.0"}, "geometry": {"type": "MultiPolygon", "coordinates": [[[[113.9656683, 22.6006974], [113.965726, 22.6006974], [113.9657649, 22.6010565], [113.9657119, 22.6010639], [113.9656683, 22.6006974]]]]}}, {"type": "Feature", "id": "way/978042016", "properties": {"tags": {"building": "yes"}, "heightStatus": "unknown", "source": "OpenStreetMap", "license": "ODbL-1.0"}, "geometry": {"type": "MultiPolygon", "coordinates": [[[[113.9653793, 22.6007092], [113.9654182, 22.6006844], [113.9654008, 22.6006615], [113.9655174, 22.6005774], [113.965612, 22.6006795], [113.9654618, 22.600755], [113.9654464, 22.6007327], [113.9654068, 22.6007538], [113.9653793, 22.6007092]]]]}}, {"type": "Feature", "id": "way/978042019", "properties": {"tags": {"building": "grandstand"}, "heightStatus": "unknown", "source": "OpenStreetMap", "license": "ODbL-1.0"}, "geometry": {"type": "MultiPolygon", "coordinates": [[[[113.9645156, 22.6003737], [113.9645818, 22.6001618], [113.9649265, 22.6002968], [113.964871, 22.6004368], [113.9650024, 22.6015152], [113.9650896, 22.6016737], [113.9648268, 22.6018396], [113.9646846, 22.6016192], [113.9646403, 22.6014533], [113.964529, 22.6005569], [113.9645156, 22.6003737]]]]}}, {"type": "Feature", "id": "way/993200662", "properties": {"tags": {"building": "yes"}, "heightStatus": "unknown", "source": "OpenStreetMap", "license": "ODbL-1.0"}, "geometry": {"type": "MultiPolygon", "coordinates": [[[[113.9658424, 22.6026272], [113.9659262, 22.6025845], [113.965899, 22.6025326], [113.966078, 22.6024246], [113.9660992, 22.602452], [113.9661903, 22.6024025], [113.9662961, 22.6025638], [113.9662392, 22.6025938], [113.9661839, 22.6025476], [113.9659811, 22.6026614], [113.9659879, 22.6027291], [113.9659194, 22.6027733], [113.9658424, 22.6026272]]]]}}, {"type": "Feature", "id": "way/993200663", "properties": {"tags": {"building": "grandstand"}, "heightStatus": "unknown", "source": "OpenStreetMap", "license": "ODbL-1.0"}, "geometry": {"type": "MultiPolygon", "coordinates": [[[[113.9659068, 22.6028979], [113.9659878, 22.602813], [113.9660157, 22.6028499], [113.9661095, 22.6028818], [113.9661988, 22.6028739], [113.966289, 22.602825], [113.9663228, 22.602753], [113.9663211, 22.6026556], [113.9664112, 22.6026271], [113.9664354, 22.6027231], [113.9663928, 22.6028325], [113.9664033, 22.6029257], [113.9663425, 22.6029891], [113.9662355, 22.6030297], [113.9661227, 22.6030388], [113.9661084, 22.6029833], [113.9659929, 22.602967], [113.9659068, 22.6028979]]]]}}, {"type": "Feature", "id": "way/993200666", "properties": {"tags": {"animal": "jellyfish", "attraction": "animal", "building": "yes", "name": "水母王国"}, "heightStatus": "unknown", "source": "OpenStreetMap", "license": "ODbL-1.0"}, "geometry": {"type": "MultiPolygon", "coordinates": [[[[113.9662365, 22.6019974], [113.9665771, 22.6019298], [113.9666068, 22.6020574], [113.9662662, 22.602125], [113.9662365, 22.6019974]]]]}}, {"type": "Feature", "id": "way/993200667", "properties": {"tags": {"animal": "shark", "attraction": "animal", "building": "yes", "name": "鲨鱼馆"}, "heightStatus": "unknown", "source": "OpenStreetMap", "license": "ODbL-1.0"}, "geometry": {"type": "MultiPolygon", "coordinates": [[[[113.9657382, 22.6021629], [113.9658925, 22.6020018], [113.9661064, 22.6020494], [113.9661539, 22.6022719], [113.9658174, 22.6023183], [113.9657382, 22.6021629]]]]}}, {"type": "Feature", "id": "way/993203033", "properties": {"tags": {"building": "yes", "name": "海兽馆"}, "heightStatus": "unknown", "source": "OpenStreetMap", "license": "ODbL-1.0"}, "geometry": {"type": "MultiPolygon", "coordinates": [[[[113.9652781, 22.6023261], [113.9653806, 22.6023046], [113.9653807, 22.6022638], [113.9654706, 22.6022223], [113.9655528, 22.602257], [113.9656005, 22.6023096], [113.9655919, 22.6023741], [113.9656366, 22.6024367], [113.965616, 22.6025212], [113.9654755, 22.6025388], [113.9653394, 22.6024911], [113.9652952, 22.6024152], [113.9652781, 22.6023261]]]]}}, {"type": "Feature", "id": "way/1110477891", "properties": {"tags": {"addr:housename": "金众·麒麟公馆", "addr:housename:zh": "金众·麒麟公馆", "building": "apartments", "building:levels": "25", "name": "9栋", "name:zh": "9栋"}, "heightStatus": "levels_only_unverified", "source": "OpenStreetMap", "license": "ODbL-1.0"}, "geometry": {"type": "MultiPolygon", "coordinates": [[[[113.9607879, 22.599173], [113.9612894, 22.5988806], [113.9613618, 22.5989863], [113.9608603, 22.5992788], [113.9607879, 22.599173]]]]}}, {"type": "Feature", "id": "way/1110477892", "properties": {"tags": {"addr:housename": "金众·麒麟公馆", "addr:housename:zh": "金众·麒麟公馆", "building": "apartments", "building:levels": "26", "name": "10栋", "name:zh": "10栋"}, "heightStatus": "levels_only_unverified", "source": "OpenStreetMap", "license": "ODbL-1.0"}, "geometry": {"type": "MultiPolygon", "coordinates": [[[[113.9611292, 22.5995455], [113.9616045, 22.5995102], [113.961617, 22.5996539], [113.9611417, 22.5996893], [113.9611292, 22.5995455]]]]}}, {"type": "Feature", "id": "way/1110477895", "properties": {"tags": {"addr:housename": "金众·麒麟公馆", "addr:housename:zh": "金众·麒麟公馆", "building": "apartments", "building:levels": "30", "name": "4栋", "name:zh": "4栋"}, "heightStatus": "levels_only_unverified", "source": "OpenStreetMap", "license": "ODbL-1.0"}, "geometry": {"type": "MultiPolygon", "coordinates": [[[[113.9638046, 22.5992405], [113.9639601, 22.59911], [113.964017, 22.5991678], [113.9640795, 22.5991153], [113.9642208, 22.5992589], [113.9641636, 22.5993068], [113.9641216, 22.5992641], [113.9641002, 22.5992821], [113.9641766, 22.5993598], [113.9641366, 22.5993933], [113.9641265, 22.5993829], [113.9641016, 22.5994038], [113.9640243, 22.5993252], [113.9640486, 22.5993049], [113.9639713, 22.5993014], [113.9639933, 22.5993238], [113.9639082, 22.5993952], [113.9638857, 22.5993723], [113.9638745, 22.5993817], [113.9638382, 22.5993448], [113.9639223, 22.5992742], [113.9639028, 22.5992544], [113.9638566, 22.5992933], [113.9638046, 22.5992405]]]]}}, {"type": "Feature", "id": "way/1110477896", "properties": {"tags": {"addr:housename": "金众·麒麟公馆", "addr:housename:zh": "金众·麒麟公馆", "building": "apartments", "building:levels": "30", "name": "3栋", "name:zh": "3栋"}, "heightStatus": "levels_only_unverified", "source": "OpenStreetMap", "license": "ODbL-1.0"}, "geometry": {"type": "MultiPolygon", "coordinates": [[[[113.9632146, 22.5992893], [113.9633701, 22.5991589], [113.9634269, 22.5992166], [113.9634895, 22.5991641], [113.9636308, 22.5993077], [113.9635736, 22.5993557], [113.9635315, 22.5993129], [113.9635101, 22.5993309], [113.9635865, 22.5994086], [113.9635466, 22.5994421], [113.9635364, 22.5994318], [113.9635116, 22.5994526], [113.9634343, 22.599374], [113.9634585, 22.5993537], [113.9633813, 22.5993503], [113.9634033, 22.5993727], [113.9633182, 22.599444], [113.9632956, 22.5994211], [113.9632844, 22.5994305], [113.9632481, 22.5993936], [113.9633323, 22.599323], [113.9633128, 22.5993033], [113.9632665, 22.5993421], [113.9632146, 22.5992893]]]]}}, {"type": "Feature", "id": "way/1110477897", "properties": {"tags": {"addr:housename": "金众·麒麟公馆", "addr:housename:zh": "金众·麒麟公馆", "building": "apartments", "building:levels": "29", "name": "1栋", "name:zh": "1栋"}, "heightStatus": "levels_only_unverified", "source": "OpenStreetMap", "license": "ODbL-1.0"}, "geometry": {"type": "MultiPolygon", "coordinates": [[[[113.9620924, 22.5992609], [113.9621445, 22.5991848], [113.9622597, 22.5992519], [113.9623348, 22.599142], [113.9624287, 22.5991968], [113.9623535, 22.5993066], [113.9624687, 22.5993738], [113.9624167, 22.5994499], [113.9622851, 22.5993731], [113.9623142, 22.5993305], [113.9622533, 22.5992949], [113.9622241, 22.5993376], [113.9622076, 22.599328], [113.9620924, 22.5992609]]]]}}, {"type": "Feature", "id": "way/1110477898", "properties": {"tags": {"addr:housename": "金众·麒麟公馆", "addr:housename:zh": "金众·麒麟公馆", "building": "apartments", "building:levels": "29", "name": "2栋", "name:zh": "2栋"}, "heightStatus": "levels_only_unverified", "source": "OpenStreetMap", "license": "ODbL-1.0"}, "geometry": {"type": "MultiPolygon", "coordinates": [[[[113.9626498, 22.5992664], [113.9627018, 22.5991903], [113.962817, 22.5992574], [113.9628921, 22.5991475], [113.962986, 22.5992023], [113.9629109, 22.5993122], [113.9630261, 22.5993793], [113.962974, 22.5994554], [113.9628424, 22.5993787], [113.9628716, 22.599336], [113.9628106, 22.5993004], [113.9627814, 22.5993431], [113.9627649, 22.5993335], [113.9626498, 22.5992664]]]]}}, {"type": "Feature", "id": "way/1312039822", "properties": {"tags": {"building": "yes", "historic": "city_gate", "layer": "1", "name": "西丽湖牌坊"}, "heightStatus": "unknown", "source": "OpenStreetMap", "license": "ODbL-1.0"}, "geometry": {"type": "MultiPolygon", "coordinates": [[[[113.9605222, 22.6004909], [113.9607305, 22.6003728], [113.9607559, 22.6004118], [113.9605436, 22.6005274], [113.9605222, 22.6004909]]]]}}, {"type": "Feature", "id": "way/1361063404", "properties": {"tags": {"building": "school", "name": "A2栋", "name:zh": "A2栋"}, "heightStatus": "unknown", "source": "OpenStreetMap", "license": "ODbL-1.0"}, "geometry": {"type": "MultiPolygon", "coordinates": [[[[113.9634518, 22.6003663], [113.9634537, 22.6002577], [113.9639261, 22.6002645], [113.9639191, 22.6006783], [113.9636572, 22.6006745], [113.9636596, 22.600532], [113.9638044, 22.6005341], [113.9638072, 22.6003714], [113.9634518, 22.6003663]]]]}}, {"type": "Feature", "id": "way/1361063405", "properties": {"tags": {"building": "school", "name": "A3栋", "name:zh": "A3栋"}, "heightStatus": "unknown", "source": "OpenStreetMap", "license": "ODbL-1.0"}, "geometry": {"type": "MultiPolygon", "coordinates": [[[[113.9622946, 22.6006549], [113.9623016, 22.6002411], [113.962774, 22.6002479], [113.9627722, 22.6003565], [113.9624168, 22.6003514], [113.9624141, 22.6005141], [113.9625589, 22.6005162], [113.9625565, 22.6006587], [113.9622946, 22.6006549]]]]}}, {"type": "Feature", "id": "way/1361063406", "properties": {"tags": {"building": "school", "name": "F栋", "name:zh": "F栋"}, "heightStatus": "unknown", "source": "OpenStreetMap", "license": "ODbL-1.0"}, "geometry": {"type": "MultiPolygon", "coordinates": [[[[113.9636977, 22.6016096], [113.9637162, 22.6009406], [113.9642071, 22.6009521], [113.9642025, 22.6011182], [113.964273, 22.6011199], [113.964298, 22.6016659], [113.9638548, 22.6016554], [113.963856, 22.6016134], [113.9636977, 22.6016096]]]]}}, {"type": "Feature", "id": "way/1361063407", "properties": {"tags": {"building": "school"}, "heightStatus": "unknown", "source": "OpenStreetMap", "license": "ODbL-1.0"}, "geometry": {"type": "MultiPolygon", "coordinates": [[[[113.9631807, 22.6026738], [113.963189, 22.6024767], [113.9635994, 22.6024916], [113.963591, 22.6026886], [113.9631807, 22.6026738]]]]}}, {"type": "Feature", "id": "way/1361063408", "properties": {"tags": {"building": "school", "name": "E栋", "name:zh": "E栋"}, "heightStatus": "unknown", "source": "OpenStreetMap", "license": "ODbL-1.0"}, "geometry": {"type": "MultiPolygon", "coordinates": [[[[113.9628803, 22.6024658], [113.9628865, 22.6021261], [113.9634903, 22.6021355], [113.9634859, 22.6023774], [113.9632669, 22.602374], [113.9632682, 22.6023025], [113.9630701, 22.6022994], [113.963067, 22.6024687], [113.9628803, 22.6024658]]]]}}, {"type": "Feature", "id": "way/1361063409", "properties": {"tags": {"building": "school"}, "heightStatus": "unknown", "source": "OpenStreetMap", "license": "ODbL-1.0"}, "geometry": {"type": "MultiPolygon", "coordinates": [[[[113.9623099, 22.6021286], [113.9623182, 22.6019315], [113.9627286, 22.6019464], [113.9627202, 22.6021434], [113.9623099, 22.6021286]]]]}}, {"type": "Feature", "id": "way/1361063410", "properties": {"tags": {"building": "school", "name": "D栋", "name:zh": "D栋"}, "heightStatus": "unknown", "source": "OpenStreetMap", "license": "ODbL-1.0"}, "geometry": {"type": "MultiPolygon", "coordinates": [[[[113.9621062, 22.6018646], [113.962111, 22.6015994], [113.9625884, 22.6016068], [113.9625845, 22.601821], [113.9624067, 22.6018182], [113.9624078, 22.6017581], [113.962295, 22.6017563], [113.9622929, 22.6018675], [113.9621062, 22.6018646]]]]}}, {"type": "Feature", "id": "way/1361063411", "properties": {"tags": {"building": "school"}, "heightStatus": "unknown", "source": "OpenStreetMap", "license": "ODbL-1.0"}, "geometry": {"type": "MultiPolygon", "coordinates": [[[[113.9617227, 22.6014006], [113.961724, 22.6012075], [113.9621532, 22.6012099], [113.9621519, 22.6014031], [113.9617227, 22.6014006]]]]}}, {"type": "Feature", "id": "way/1361063412", "properties": {"tags": {"building": "school", "name": "C栋", "name:zh": "C栋"}, "heightStatus": "unknown", "source": "OpenStreetMap", "license": "ODbL-1.0"}, "geometry": {"type": "MultiPolygon", "coordinates": [[[[113.9615254, 22.6011319], [113.9615306, 22.6008498], [113.962008, 22.6008572], [113.9620038, 22.6010883], [113.9618259, 22.6010855], [113.961827, 22.6010254], [113.9617142, 22.6010236], [113.9617122, 22.6011348], [113.9615254, 22.6011319]]]]}}, {"type": "Feature", "id": "way/1361063413", "properties": {"tags": {"building": "yes", "name": "B栋", "name:zh": "B栋"}, "heightStatus": "unknown", "source": "OpenStreetMap", "license": "ODbL-1.0"}, "geometry": {"type": "MultiPolygon", "coordinates": [[[[113.9614636, 22.6006787], [113.9614696, 22.6003278], [113.9621199, 22.6003372], [113.9621139, 22.600688], [113.9614636, 22.6006787]]]]}}, {"type": "Feature", "id": "way/1361063414", "properties": {"tags": {"building": "school", "name": "A1栋", "name:zh": "A1栋"}, "heightStatus": "unknown", "source": "OpenStreetMap", "license": "ODbL-1.0"}, "geometry": {"type": "MultiPolygon", "coordinates": [[[[113.962628, 22.6008262], [113.9626344, 22.6004477], [113.9635864, 22.6004615], [113.96358, 22.60084], [113.9631908, 22.6008343], [113.9631896, 22.6009084], [113.963248, 22.6009093], [113.9632435, 22.6011729], [113.9629531, 22.6011687], [113.9629576, 22.6009051], [113.9630159, 22.6009059], [113.9630172, 22.6008318], [113.962628, 22.6008262]]]]}}, {"type": "Feature", "id": "way/1473933191", "properties": {"tags": {"building": "roof"}, "heightStatus": "unknown", "source": "OpenStreetMap", "license": "ODbL-1.0"}, "geometry": {"type": "MultiPolygon", "coordinates": [[[[113.9650611, 22.5993705], [113.9650842, 22.599319], [113.96514, 22.5992976], [113.9651958, 22.599319], [113.9652189, 22.5993705], [113.9651958, 22.599422], [113.96514, 22.5994433], [113.9650842, 22.599422], [113.9650611, 22.5993705]]]]}}, {"type": "Feature", "id": "way/1473933194", "properties": {"tags": {"building": "roof"}, "heightStatus": "unknown", "source": "OpenStreetMap", "license": "ODbL-1.0"}, "geometry": {"type": "MultiPolygon", "coordinates": [[[[113.964736, 22.5993994], [113.9647374, 22.5993357], [113.9648473, 22.5993568], [113.9648301, 22.59942], [113.964736, 22.5993994]]]]}}, {"type": "Feature", "id": "way/1473933195", "properties": {"tags": {"building": "roof"}, "heightStatus": "unknown", "source": "OpenStreetMap", "license": "ODbL-1.0"}, "geometry": {"type": "MultiPolygon", "coordinates": [[[[113.9646266, 22.5992933], [113.9647383, 22.5992937], [113.9647374, 22.5993357], [113.964736, 22.5993994], [113.9646269, 22.599384], [113.9646266, 22.5992933]]]]}}, {"type": "Feature", "id": "way/1473933196", "properties": {"tags": {"building": "roof"}, "heightStatus": "unknown", "source": "OpenStreetMap", "license": "ODbL-1.0"}, "geometry": {"type": "MultiPolygon", "coordinates": [[[[113.9648208, 22.5994541], [113.9648301, 22.59942], [113.9648473, 22.5993568], [113.9649865, 22.5993891], [113.9649992, 22.5993426], [113.9650852, 22.5993625], [113.9650689, 22.5994224], [113.9651137, 22.5994328], [113.9650909, 22.5995168], [113.9648208, 22.5994541]]]]}}, {"type": "Feature", "id": "way/1473933197", "properties": {"tags": {"building": "roof"}, "heightStatus": "unknown", "source": "OpenStreetMap", "license": "ODbL-1.0"}, "geometry": {"type": "MultiPolygon", "coordinates": [[[[113.9652159, 22.5994855], [113.9653032, 22.5991139], [113.9653942, 22.5991381], [113.9652923, 22.5994977], [113.9652159, 22.5994855]]]]}}, {"type": "Feature", "id": "way/1473933198", "properties": {"tags": {"building": "roof"}, "heightStatus": "unknown", "source": "OpenStreetMap", "license": "ODbL-1.0"}, "geometry": {"type": "MultiPolygon", "coordinates": [[[[113.9646266, 22.5992933], [113.9646269, 22.5992427], [113.9649496, 22.5992439], [113.9649494, 22.5992945], [113.9647383, 22.5992937], [113.9646266, 22.5992933]]]]}}, {"type": "Feature", "id": "way/1473933199", "properties": {"tags": {"building": "roof"}, "heightStatus": "unknown", "source": "OpenStreetMap", "license": "ODbL-1.0"}, "geometry": {"type": "MultiPolygon", "coordinates": [[[[113.9649579, 22.5992439], [113.9649582, 22.5991526], [113.9652004, 22.5991535], [113.9652, 22.5992448], [113.9649579, 22.5992439]]]]}}, {"type": "Feature", "id": "way/1473933200", "properties": {"tags": {"building": "roof"}, "heightStatus": "unknown", "source": "OpenStreetMap", "license": "ODbL-1.0"}, "geometry": {"type": "MultiPolygon", "coordinates": [[[[113.9646269, 22.5992427], [113.9646272, 22.5991514], [113.964638, 22.5991515], [113.9649208, 22.5991525], [113.9649582, 22.5991526], [113.9649579, 22.5992439], [113.9649496, 22.5992439], [113.9646269, 22.5992427]]]]}}, {"type": "Feature", "id": "way/1473933202", "properties": {"tags": {"building": "roof"}, "heightStatus": "unknown", "source": "OpenStreetMap", "license": "ODbL-1.0"}, "geometry": {"type": "MultiPolygon", "coordinates": [[[[113.964638, 22.5991515], [113.9646391, 22.5989043], [113.9647091, 22.5989045], [113.9647481, 22.5989047], [113.9647474, 22.599055], [113.9648763, 22.5990555], [113.9648761, 22.5991148], [113.9649209, 22.599115], [113.9649208, 22.5991525], [113.964638, 22.5991515]]]]}}, {"type": "Feature", "id": "way/1473933203", "properties": {"tags": {"building": "yes"}, "heightStatus": "unknown", "source": "OpenStreetMap", "license": "ODbL-1.0"}, "geometry": {"type": "MultiPolygon", "coordinates": [[[[113.9647474, 22.599055], [113.9647481, 22.5989047], [113.9649201, 22.5989053], [113.9649198, 22.5989934], [113.9652768, 22.5989947], [113.9652763, 22.5991163], [113.9649209, 22.599115], [113.9648761, 22.5991148], [113.9648763, 22.5990555], [113.9647474, 22.599055]]]]}}, {"type": "Feature", "id": "way/1473933255", "properties": {"tags": {"building": "yes"}, "heightStatus": "unknown", "source": "OpenStreetMap", "license": "ODbL-1.0"}, "geometry": {"type": "MultiPolygon", "coordinates": [[[[113.9600555, 22.5989657], [113.9601641, 22.598912], [113.9602597, 22.5990769], [113.960151, 22.5991306], [113.9600555, 22.5989657]]]]}}, {"type": "Feature", "id": "way/1474766941", "properties": {"tags": {"building": "yes"}, "heightStatus": "unknown", "source": "OpenStreetMap", "license": "ODbL-1.0"}, "geometry": {"type": "MultiPolygon", "coordinates": [[[[113.9574279, 22.601778], [113.9574421, 22.6017337], [113.9574801, 22.6017035], [113.9575296, 22.601697], [113.9575751, 22.6017163], [113.9576021, 22.6017553], [113.957602, 22.6018015], [113.9575748, 22.6018403], [113.9575292, 22.6018594], [113.9574797, 22.6018527], [113.9574419, 22.6018224], [113.9574279, 22.601778]]]]}}, {"type": "Feature", "id": "way/1474766963", "properties": {"tags": {"building": "yes"}, "heightStatus": "unknown", "source": "OpenStreetMap", "license": "ODbL-1.0"}, "geometry": {"type": "MultiPolygon", "coordinates": [[[[113.9606364, 22.6015794], [113.9606806, 22.6015425], [113.9607205, 22.6015832], [113.9606763, 22.6016201], [113.9606364, 22.6015794]]]]}}, {"type": "Feature", "id": "way/1474766975", "properties": {"tags": {"building": "roof"}, "heightStatus": "unknown", "source": "OpenStreetMap", "license": "ODbL-1.0"}, "geometry": {"type": "MultiPolygon", "coordinates": [[[[113.9576108, 22.5997903], [113.9578258, 22.5997079], [113.957855, 22.5997729], [113.9576401, 22.5998553], [113.9576108, 22.5997903]]]]}}, {"type": "Feature", "id": "way/1474766976", "properties": {"tags": {"building": "roof"}, "heightStatus": "unknown", "source": "OpenStreetMap", "license": "ODbL-1.0"}, "geometry": {"type": "MultiPolygon", "coordinates": [[[[113.9577985, 22.5998082], [113.9578506, 22.5997883], [113.9578695, 22.5998303], [113.9578174, 22.5998502], [113.9577985, 22.5998082]]]]}}, {"type": "Feature", "id": "way/1474766977", "properties": {"tags": {"building": "roof"}, "heightStatus": "unknown", "source": "OpenStreetMap", "license": "ODbL-1.0"}, "geometry": {"type": "MultiPolygon", "coordinates": [[[[113.9576432, 22.5998606], [113.9577958, 22.5998021], [113.9577985, 22.5998082], [113.9578174, 22.5998502], [113.9578486, 22.5999196], [113.957696, 22.5999781], [113.9576432, 22.5998606]]]]}}, {"type": "Feature", "id": "way/1474766978", "properties": {"tags": {"building": "yes"}, "heightStatus": "unknown", "source": "OpenStreetMap", "license": "ODbL-1.0"}, "geometry": {"type": "MultiPolygon", "coordinates": [[[[113.9578312, 22.5996542], [113.9579507, 22.5996147], [113.9580016, 22.5997458], [113.9578822, 22.5997853], [113.9578312, 22.5996542]]]]}}, {"type": "Feature", "id": "way/1474766979", "properties": {"tags": {"building": "yes"}, "heightStatus": "unknown", "source": "OpenStreetMap", "license": "ODbL-1.0"}, "geometry": {"type": "MultiPolygon", "coordinates": [[[[113.9585543, 22.5993019], [113.9586355, 22.5992921], [113.9586466, 22.599371], [113.9585654, 22.5993807], [113.958557, 22.5993211], [113.9585543, 22.5993019]]]]}}, {"type": "Feature", "id": "way/1474766980", "properties": {"tags": {"building": "yes"}, "heightStatus": "unknown", "source": "OpenStreetMap", "license": "ODbL-1.0"}, "geometry": {"type": "MultiPolygon", "coordinates": [[[[113.9581524, 22.5993626], [113.9582231, 22.5993541], [113.9582241, 22.599361], [113.958557, 22.5993211], [113.9585654, 22.5993807], [113.9582311, 22.5994208], [113.9582321, 22.5994279], [113.9581628, 22.5994362], [113.9581524, 22.5993626]]]]}}, {"type": "Feature", "id": "way/1474766987", "properties": {"tags": {"building": "yes", "name": "F座"}, "heightStatus": "unknown", "source": "OpenStreetMap", "license": "ODbL-1.0"}, "geometry": {"type": "MultiPolygon", "coordinates": [[[[113.9570948, 22.6005956], [113.9570996, 22.6005021], [113.957194, 22.6004597], [113.9572569, 22.6005799], [113.9571188, 22.6006415], [113.9570948, 22.6005956]]]]}}, {"type": "Feature", "id": "way/1474766988", "properties": {"tags": {"building": "yes"}, "heightStatus": "unknown", "source": "OpenStreetMap", "license": "ODbL-1.0"}, "geometry": {"type": "MultiPolygon", "coordinates": [[[[113.9571943, 22.6004603], [113.957512, 22.6003185], [113.9575747, 22.6004381], [113.9572569, 22.6005799], [113.9571943, 22.6004603]]]]}}, {"type": "Feature", "id": "way/1474766997", "properties": {"tags": {"building": "yes"}, "heightStatus": "unknown", "source": "OpenStreetMap", "license": "ODbL-1.0"}, "geometry": {"type": "MultiPolygon", "coordinates": [[[[113.9569455, 22.5991179], [113.9570163, 22.599092], [113.957018, 22.5990958], [113.957375, 22.5989654], [113.9573425, 22.5988917], [113.9574151, 22.5988645], [113.9575017, 22.5988352], [113.9575287, 22.5988447], [113.957546, 22.5988576], [113.9575605, 22.5988771], [113.9575686, 22.598913], [113.9575614, 22.5989414], [113.9575469, 22.5989617], [113.9574718, 22.5989932], [113.9575196, 22.5991017], [113.9574471, 22.599129], [113.9574071, 22.5990393], [113.9570497, 22.5991699], [113.957075, 22.5992288], [113.9570041, 22.5992547], [113.9569455, 22.5991179]]]]}}, {"type": "Feature", "id": "way/1482820713", "properties": {"tags": {"building": "yes"}, "heightStatus": "unknown", "source": "OpenStreetMap", "license": "ODbL-1.0"}, "geometry": {"type": "MultiPolygon", "coordinates": [[[[113.9635943, 22.6073206], [113.9636527, 22.6072784], [113.9637251, 22.6073638], [113.9636667, 22.607406], [113.9635943, 22.6073206]]]]}}, {"type": "Feature", "id": "way/1484045049", "properties": {"tags": {"building": "yes", "building:levels": "3"}, "heightStatus": "levels_only_unverified", "source": "OpenStreetMap", "license": "ODbL-1.0"}, "geometry": {"type": "MultiPolygon", "coordinates": [[[[113.9596696, 22.6000522], [113.9599485, 22.5999086], [113.9600283, 22.6000406], [113.9597493, 22.6001843], [113.9596696, 22.6000522]]]]}}, {"type": "Feature", "id": "way/1484045050", "properties": {"tags": {"building": "yes"}, "heightStatus": "unknown", "source": "OpenStreetMap", "license": "ODbL-1.0"}, "geometry": {"type": "MultiPolygon", "coordinates": [[[[113.9599907, 22.6001706], [113.9600772, 22.6001137], [113.9601556, 22.6002152], [113.9600692, 22.6002722], [113.9599907, 22.6001706]]]]}}, {"type": "Feature", "id": "way/1484045052", "properties": {"tags": {"building": "yes", "building:levels": "4"}, "heightStatus": "levels_only_unverified", "source": "OpenStreetMap", "license": "ODbL-1.0"}, "geometry": {"type": "MultiPolygon", "coordinates": [[[[113.9593631, 22.5997348], [113.9594668, 22.5996828], [113.9595251, 22.5997818], [113.9594214, 22.5998339], [113.9593631, 22.5997348]]]]}}, {"type": "Feature", "id": "way/1484045053", "properties": {"tags": {"building": "yes", "building:levels": "4"}, "heightStatus": "levels_only_unverified", "source": "OpenStreetMap", "license": "ODbL-1.0"}, "geometry": {"type": "MultiPolygon", "coordinates": [[[[113.958208, 22.5998148], [113.9582603, 22.5996811], [113.9583693, 22.5997175], [113.958317, 22.5998512], [113.958208, 22.5998148]]]]}}, {"type": "Feature", "id": "way/1484045054", "properties": {"tags": {"building": "yes", "building:levels": "4"}, "heightStatus": "levels_only_unverified", "source": "OpenStreetMap", "license": "ODbL-1.0"}, "geometry": {"type": "MultiPolygon", "coordinates": [[[[113.9582272, 22.599554], [113.9583225, 22.5994697], [113.9584794, 22.5996207], [113.9583841, 22.5997051], [113.9582272, 22.599554]]]]}}, {"type": "Feature", "id": "way/1484045055", "properties": {"tags": {"building": "yes", "building:levels": "4"}, "heightStatus": "levels_only_unverified", "source": "OpenStreetMap", "license": "ODbL-1.0"}, "geometry": {"type": "MultiPolygon", "coordinates": [[[[113.9584875, 22.5994731], [113.958612, 22.5994447], [113.9586443, 22.5995652], [113.9585198, 22.5995936], [113.9584875, 22.5994731]]]]}}, {"type": "Feature", "id": "way/1484045056", "properties": {"tags": {"building": "yes", "building:levels": "4"}, "heightStatus": "levels_only_unverified", "source": "OpenStreetMap", "license": "ODbL-1.0"}, "geometry": {"type": "MultiPolygon", "coordinates": [[[[113.9586698, 22.5995701], [113.9587145, 22.5994373], [113.9588352, 22.599472], [113.9587904, 22.5996048], [113.9586698, 22.5995701]]]]}}, {"type": "Feature", "id": "way/1484045057", "properties": {"tags": {"building": "yes", "building:levels": "4"}, "heightStatus": "levels_only_unverified", "source": "OpenStreetMap", "license": "ODbL-1.0"}, "geometry": {"type": "MultiPolygon", "coordinates": [[[[113.9588052, 22.5996259], [113.9589094, 22.5995023], [113.9590489, 22.5996026], [113.9589447, 22.5997261], [113.9588052, 22.5996259]]]]}}, {"type": "Feature", "id": "way/1484045058", "properties": {"tags": {"building": "yes", "building:levels": "4"}, "heightStatus": "levels_only_unverified", "source": "OpenStreetMap", "license": "ODbL-1.0"}, "geometry": {"type": "MultiPolygon", "coordinates": [[[[113.9589608, 22.599736], [113.9590586, 22.5996238], [113.9591753, 22.5997104], [113.9590774, 22.5998227], [113.9589608, 22.599736]]]]}}, {"type": "Feature", "id": "way/1484045059", "properties": {"tags": {"building": "yes", "building:levels": "4"}, "heightStatus": "levels_only_unverified", "source": "OpenStreetMap", "license": "ODbL-1.0"}, "geometry": {"type": "MultiPolygon", "coordinates": [[[[113.9591432, 22.5998289], [113.9592598, 22.5997655], [113.9593309, 22.5998769], [113.9592142, 22.5999403], [113.9591432, 22.5998289]]]]}}, {"type": "Feature", "id": "way/1484045060", "properties": {"tags": {"building": "yes", "building:levels": "4"}, "heightStatus": "levels_only_unverified", "source": "OpenStreetMap", "license": "ODbL-1.0"}, "geometry": {"type": "MultiPolygon", "coordinates": [[[[113.9585242, 22.6006574], [113.9586298, 22.6006309], [113.9586601, 22.6007343], [113.9585545, 22.6007607], [113.9585242, 22.6006574]]]]}}, {"type": "Feature", "id": "way/1484045061", "properties": {"tags": {"building": "yes", "building:levels": "4"}, "heightStatus": "levels_only_unverified", "source": "OpenStreetMap", "license": "ODbL-1.0"}, "geometry": {"type": "MultiPolygon", "coordinates": [[[[113.9582802, 22.6007111], [113.958486, 22.6006609], [113.9585155, 22.6007641], [113.9583097, 22.6008143], [113.9582802, 22.6007111]]]]}}, {"type": "Feature", "id": "way/1484045062", "properties": {"tags": {"building": "yes", "building:levels": "4"}, "heightStatus": "levels_only_unverified", "source": "OpenStreetMap", "license": "ODbL-1.0"}, "geometry": {"type": "MultiPolygon", "coordinates": [[[[113.9580797, 22.6007792], [113.9582393, 22.6007321], [113.958271, 22.6008238], [113.9581114, 22.6008708], [113.9580797, 22.6007792]]]]}}, {"type": "Feature", "id": "way/1484045063", "properties": {"tags": {"building": "yes", "building:levels": "4"}, "heightStatus": "levels_only_unverified", "source": "OpenStreetMap", "license": "ODbL-1.0"}, "geometry": {"type": "MultiPolygon", "coordinates": [[[[113.9585853, 22.6001991], [113.9586843, 22.6001668], [113.9587319, 22.6002912], [113.9586329, 22.6003235], [113.9585853, 22.6001991]]]]}}, {"type": "Feature", "id": "way/1484045064", "properties": {"tags": {"building": "yes", "building:levels": "4"}, "heightStatus": "levels_only_unverified", "source": "OpenStreetMap", "license": "ODbL-1.0"}, "geometry": {"type": "MultiPolygon", "coordinates": [[[[113.9588971, 22.5999838], [113.9589681, 22.5999075], [113.9590828, 22.5999985], [113.9590118, 22.6000748], [113.9588971, 22.5999838]]]]}}, {"type": "Feature", "id": "way/1484045065", "properties": {"tags": {"building": "yes", "building:levels": "4"}, "heightStatus": "levels_only_unverified", "source": "OpenStreetMap", "license": "ODbL-1.0"}, "geometry": {"type": "MultiPolygon", "coordinates": [[[[113.9586782, 22.5998319], [113.9587583, 22.5997435], [113.9589179, 22.5998667], [113.9588377, 22.5999551], [113.9586782, 22.5998319]]]]}}, {"type": "Feature", "id": "way/1484045066", "properties": {"tags": {"building": "yes", "building:levels": "4"}, "heightStatus": "levels_only_unverified", "source": "OpenStreetMap", "license": "ODbL-1.0"}, "geometry": {"type": "MultiPolygon", "coordinates": [[[[113.9584921, 22.599936], [113.9584934, 22.5998085], [113.9586125, 22.5998095], [113.9586112, 22.5999371], [113.9584921, 22.599936]]]]}}, {"type": "Feature", "id": "way/1484045067", "properties": {"tags": {"building": "yes", "building:levels": "4"}, "heightStatus": "levels_only_unverified", "source": "OpenStreetMap", "license": "ODbL-1.0"}, "geometry": {"type": "MultiPolygon", "coordinates": [[[[113.9585075, 22.5999936], [113.9586127, 22.5999777], [113.9586382, 22.600122], [113.958533, 22.6001378], [113.9585075, 22.5999936]]]]}}, {"type": "Feature", "id": "way/1484045068", "properties": {"tags": {"building": "yes", "building:levels": "4"}, "heightStatus": "levels_only_unverified", "source": "OpenStreetMap", "license": "ODbL-1.0"}, "geometry": {"type": "MultiPolygon", "coordinates": [[[[113.9593209, 22.6003929], [113.959329, 22.6002831], [113.9594464, 22.6002906], [113.9594382, 22.6004003], [113.9593209, 22.6003929]]]]}}, {"type": "Feature", "id": "way/1484045069", "properties": {"tags": {"building": "yes", "building:levels": "4"}, "heightStatus": "levels_only_unverified", "source": "OpenStreetMap", "license": "ODbL-1.0"}, "geometry": {"type": "MultiPolygon", "coordinates": [[[[113.959288, 22.6005117], [113.9593363, 22.6004157], [113.9594316, 22.6004566], [113.9593832, 22.6005526], [113.959288, 22.6005117]]]]}}, {"type": "Feature", "id": "way/1484045070", "properties": {"tags": {"building": "yes", "building:levels": "4"}, "heightStatus": "levels_only_unverified", "source": "OpenStreetMap", "license": "ODbL-1.0"}, "geometry": {"type": "MultiPolygon", "coordinates": [[[[113.9591552, 22.6006714], [113.9592415, 22.6005763], [113.95934, 22.6006524], [113.9592538, 22.6007476], [113.9591552, 22.6006714]]]]}}, {"type": "Feature", "id": "way/1484045071", "properties": {"tags": {"building": "yes", "building:levels": "4"}, "heightStatus": "levels_only_unverified", "source": "OpenStreetMap", "license": "ODbL-1.0"}, "geometry": {"type": "MultiPolygon", "coordinates": [[[[113.9590298, 22.6007903], [113.9591357, 22.6007368], [113.959186, 22.6008216], [113.9590801, 22.6008751], [113.9590298, 22.6007903]]]]}}, {"type": "Feature", "id": "way/1484045072", "properties": {"tags": {"building": "yes", "building:levels": "7"}, "heightStatus": "levels_only_unverified", "source": "OpenStreetMap", "license": "ODbL-1.0"}, "geometry": {"type": "MultiPolygon", "coordinates": [[[[113.9592907, 22.6009717], [113.959351, 22.6009123], [113.9593846, 22.6008553], [113.9594181, 22.6007897], [113.9594449, 22.600708], [113.9594637, 22.6006461], [113.9594878, 22.6005668], [113.9595066, 22.6004839], [113.9595173, 22.6003923], [113.9596541, 22.6004108], [113.9596421, 22.6005012], [113.95963, 22.6005829], [113.9596125, 22.6006659], [113.9595844, 22.6007748], [113.9595509, 22.6008714], [113.9595093, 22.6009506], [113.959461, 22.6010212], [113.9594074, 22.6010596], [113.9592907, 22.6009717]]]]}}, {"type": "Feature", "id": "way/1484045073", "properties": {"tags": {"building": "yes", "building:levels": "4"}, "heightStatus": "levels_only_unverified", "source": "OpenStreetMap", "license": "ODbL-1.0"}, "geometry": {"type": "MultiPolygon", "coordinates": [[[[113.9590906, 22.6009999], [113.9592207, 22.6009448], [113.9592833, 22.6010707], [113.9591532, 22.6011258], [113.9590906, 22.6009999]]]]}}, {"type": "Feature", "id": "way/1484045074", "properties": {"tags": {"building": "yes", "building:levels": "4"}, "heightStatus": "levels_only_unverified", "source": "OpenStreetMap", "license": "ODbL-1.0"}, "geometry": {"type": "MultiPolygon", "coordinates": [[[[113.9589263, 22.6010584], [113.9590523, 22.6010293], [113.9590828, 22.6011419], [113.9589567, 22.601171], [113.9589263, 22.6010584]]]]}}, {"type": "Feature", "id": "way/1484045075", "properties": {"tags": {"building": "yes", "building:levels": "4"}, "heightStatus": "levels_only_unverified", "source": "OpenStreetMap", "license": "ODbL-1.0"}, "geometry": {"type": "MultiPolygon", "coordinates": [[[[113.9587573, 22.6011024], [113.9588914, 22.6010758], [113.9589172, 22.6011865], [113.9587831, 22.6012131], [113.9587573, 22.6011024]]]]}}, {"type": "Feature", "id": "way/1484045076", "properties": {"tags": {"building": "yes", "building:levels": "4"}, "heightStatus": "levels_only_unverified", "source": "OpenStreetMap", "license": "ODbL-1.0"}, "geometry": {"type": "MultiPolygon", "coordinates": [[[[113.9585692, 22.6011409], [113.9587154, 22.601113], [113.9587415, 22.6012298], [113.9585953, 22.6012577], [113.9585692, 22.6011409]]]]}}, {"type": "Feature", "id": "way/1484045077", "properties": {"tags": {"building": "yes", "building:levels": "4"}, "heightStatus": "levels_only_unverified", "source": "OpenStreetMap", "license": "ODbL-1.0"}, "geometry": {"type": "MultiPolygon", "coordinates": [[[[113.9583915, 22.6011789], [113.9585303, 22.6011529], [113.9585558, 22.6012688], [113.958417, 22.6012948], [113.9583915, 22.6011789]]]]}}, {"type": "Feature", "id": "way/1484045078", "properties": {"tags": {"building": "yes", "building:levels": "4"}, "heightStatus": "levels_only_unverified", "source": "OpenStreetMap", "license": "ODbL-1.0"}, "geometry": {"type": "MultiPolygon", "coordinates": [[[[113.9586279, 22.600908], [113.958811, 22.6008697], [113.9588367, 22.6009742], [113.9586537, 22.6010125], [113.9586279, 22.600908]]]]}}, {"type": "Feature", "id": "way/1484045079", "properties": {"tags": {"building": "yes", "building:levels": "4"}, "heightStatus": "levels_only_unverified", "source": "OpenStreetMap", "license": "ODbL-1.0"}, "geometry": {"type": "MultiPolygon", "coordinates": [[[[113.9582901, 22.60098], [113.958484, 22.6009398], [113.958509, 22.6010423], [113.958315, 22.6010825], [113.9582901, 22.60098]]]]}}, {"type": "Feature", "id": "way/1484045080", "properties": {"tags": {"building": "yes", "building:levels": "4"}, "heightStatus": "levels_only_unverified", "source": "OpenStreetMap", "license": "ODbL-1.0"}, "geometry": {"type": "MultiPolygon", "coordinates": [[[[113.9580502, 22.6011438], [113.9580508, 22.6010156], [113.9581976, 22.6010163], [113.9581969, 22.6011444], [113.9580502, 22.6011438]]]]}}, {"type": "Feature", "id": "way/1484045081", "properties": {"tags": {"building": "yes", "building:levels": "4"}, "heightStatus": "levels_only_unverified", "source": "OpenStreetMap", "license": "ODbL-1.0"}, "geometry": {"type": "MultiPolygon", "coordinates": [[[[113.9580126, 22.6012232], [113.9581668, 22.6011966], [113.9581943, 22.6013326], [113.9580401, 22.6013592], [113.9580126, 22.6012232]]]]}}, {"type": "Feature", "id": "way/1484045082", "properties": {"tags": {"building": "yes", "building:levels": "4"}, "heightStatus": "levels_only_unverified", "source": "OpenStreetMap", "license": "ODbL-1.0"}, "geometry": {"type": "MultiPolygon", "coordinates": [[[[113.9578705, 22.6011209], [113.9579026, 22.601002], [113.9580167, 22.6010284], [113.9579845, 22.6011472], [113.9578705, 22.6011209]]]]}}, {"type": "Feature", "id": "way/1484045083", "properties": {"tags": {"building": "yes", "building:levels": "4"}, "heightStatus": "levels_only_unverified", "source": "OpenStreetMap", "license": "ODbL-1.0"}, "geometry": {"type": "MultiPolygon", "coordinates": [[[[113.9582795, 22.6004034], [113.9584458, 22.6003031], [113.9585228, 22.6004119], [113.9583565, 22.6005122], [113.9582795, 22.6004034]]]]}}, {"type": "Feature", "id": "way/1484045084", "properties": {"tags": {"building": "yes", "building:levels": "4"}, "heightStatus": "levels_only_unverified", "source": "OpenStreetMap", "license": "ODbL-1.0"}, "geometry": {"type": "MultiPolygon", "coordinates": [[[[113.9581199, 22.6005037], [113.9582419, 22.6004306], [113.9583192, 22.6005407], [113.9581972, 22.6006137], [113.9581199, 22.6005037]]]]}}, {"type": "Feature", "id": "way/1484045085", "properties": {"tags": {"building": "yes", "building:levels": "4"}, "heightStatus": "levels_only_unverified", "source": "OpenStreetMap", "license": "ODbL-1.0"}, "geometry": {"type": "MultiPolygon", "coordinates": [[[[113.9579335, 22.6006263], [113.9580787, 22.6005364], [113.9581605, 22.600649], [113.9580153, 22.6007389], [113.9579335, 22.6006263]]]]}}, {"type": "Feature", "id": "way/1484045086", "properties": {"tags": {"building": "yes", "building:levels": "4"}, "heightStatus": "levels_only_unverified", "source": "OpenStreetMap", "license": "ODbL-1.0"}, "geometry": {"type": "MultiPolygon", "coordinates": [[[[113.9576344, 22.600864], [113.9577437, 22.6008063], [113.9578457, 22.600971], [113.9577363, 22.6010286], [113.9576344, 22.600864]]]]}}, {"type": "Feature", "id": "way/1484045087", "properties": {"tags": {"building": "yes", "building:levels": "3"}, "heightStatus": "levels_only_unverified", "source": "OpenStreetMap", "license": "ODbL-1.0"}, "geometry": {"type": "MultiPolygon", "coordinates": [[[[113.9576722, 22.6005248], [113.9577417, 22.6004331], [113.9578544, 22.6005408], [113.957794, 22.6006064], [113.9576722, 22.6005248]]]]}}, {"type": "Feature", "id": "way/1484045088", "properties": {"tags": {"building": "yes", "building:levels": "3"}, "heightStatus": "levels_only_unverified", "source": "OpenStreetMap", "license": "ODbL-1.0"}, "geometry": {"type": "MultiPolygon", "coordinates": [[[[113.9576197, 22.6006795], [113.9576398, 22.6005866], [113.9577806, 22.6006312], [113.9577524, 22.6007142], [113.9576197, 22.6006795]]]]}}, {"type": "Feature", "id": "way/1484045089", "properties": {"tags": {"building": "yes", "building:levels": "1"}, "heightStatus": "levels_only_unverified", "source": "OpenStreetMap", "license": "ODbL-1.0"}, "geometry": {"type": "MultiPolygon", "coordinates": [[[[113.957613, 22.6007092], [113.9576197, 22.6006795], [113.9576398, 22.6005866], [113.9576626, 22.6005433], [113.9576722, 22.6005248], [113.9577417, 22.6004331], [113.9577685, 22.6004183], [113.9578664, 22.6005247], [113.9578544, 22.6005408], [113.957794, 22.6006064], [113.9577806, 22.6006312], [113.9577632, 22.6006795], [113.9577524, 22.6007142], [113.9577471, 22.6007439], [113.957613, 22.6007092]]]]}}, {"type": "Feature", "id": "way/1484045090", "properties": {"tags": {"building": "yes", "building:levels": "4"}, "heightStatus": "levels_only_unverified", "source": "OpenStreetMap", "license": "ODbL-1.0"}, "geometry": {"type": "MultiPolygon", "coordinates": [[[[113.9578329, 22.6003687], [113.9580488, 22.6002462], [113.9581222, 22.6003563], [113.9579063, 22.6004789], [113.9578329, 22.6003687]]]]}}, {"type": "Feature", "id": "way/1484045091", "properties": {"tags": {"building": "yes", "building:levels": "4"}, "heightStatus": "levels_only_unverified", "source": "OpenStreetMap", "license": "ODbL-1.0"}, "geometry": {"type": "MultiPolygon", "coordinates": [[[[113.9581159, 22.6002164], [113.9583224, 22.600079], [113.9584002, 22.6001787], [113.9581937, 22.6003161], [113.9581159, 22.6002164]]]]}}, {"type": "Feature", "id": "way/1484045092", "properties": {"tags": {"building": "yes", "building:levels": "4"}, "heightStatus": "levels_only_unverified", "source": "OpenStreetMap", "license": "ODbL-1.0"}, "geometry": {"type": "MultiPolygon", "coordinates": [[[[113.9581, 22.5999121], [113.958239, 22.5998571], [113.9583034, 22.5999958], [113.9581644, 22.6000508], [113.9581, 22.5999121]]]]}}, {"type": "Feature", "id": "way/1484045093", "properties": {"tags": {"building": "yes", "building:levels": "4"}, "heightStatus": "levels_only_unverified", "source": "OpenStreetMap", "license": "ODbL-1.0"}, "geometry": {"type": "MultiPolygon", "coordinates": [[[[113.9579069, 22.5999901], [113.9580459, 22.5999351], [113.9581103, 22.6000738], [113.9579713, 22.6001288], [113.9579069, 22.5999901]]]]}}, {"type": "Feature", "id": "way/1484045094", "properties": {"tags": {"building": "yes", "building:levels": "4"}, "heightStatus": "levels_only_unverified", "source": "OpenStreetMap", "license": "ODbL-1.0"}, "geometry": {"type": "MultiPolygon", "coordinates": [[[[113.95753, 22.6001486], [113.9576691, 22.6000936], [113.9577334, 22.6002323], [113.9575944, 22.6002873], [113.95753, 22.6001486]]]]}}, {"type": "Feature", "id": "way/1484045095", "properties": {"tags": {"building": "yes", "building:levels": "4"}, "heightStatus": "levels_only_unverified", "source": "OpenStreetMap", "license": "ODbL-1.0"}, "geometry": {"type": "MultiPolygon", "coordinates": [[[[113.9577135, 22.6000741], [113.9578526, 22.600019], [113.957917, 22.6001577], [113.9577779, 22.6002127], [113.9577135, 22.6000741]]]]}}, {"type": "Feature", "id": "way/1530865987", "properties": {"tags": {"building": "yes", "building:levels": "7", "height": "32", "man_made": "tower", "material": "reinforced_concrete", "name": "西丽塔", "name:en": "Xili Tower", "name:zh-Hans": "西丽塔", "name:zh-Hant": "西麗塔", "tourism": "viewpoint", "tower:construction": "freestanding", "tower:type": "watchtower"}, "heightStatus": "height_tag_unverified", "source": "OpenStreetMap", "license": "ODbL-1.0"}, "geometry": {"type": "MultiPolygon", "coordinates": [[[[113.9615935, 22.6054077], [113.9615953, 22.6053984], [113.9616036, 22.6053929], [113.9616138, 22.6053944], [113.9616197, 22.6054022], [113.961618, 22.6054115], [113.9616096, 22.605417], [113.9615995, 22.6054154], [113.9615935, 22.6054077]]]]}}]}