{"type": "FeatureCollection", "features": [{"type": "Feature", "id": "way/555611447", "properties": {"tags": {"building": "yes", "landuse": "military", "military": "office"}, "heightStatus": "unknown", "source": "OpenStreetMap", "license": "ODbL-1.0"}, "geometry": {"type": "MultiPolygon", "coordinates": [[[[113.9471491, 22.4923737], [113.9471561, 22.4922388], [113.9472431, 22.4922383], [113.94733, 22.4922378], [113.9473242, 22.492433], [113.9471491, 22.4923737]]]]}}, {"type": "Feature", "id": "way/555611452", "properties": {"tags": {"building": "hut"}, "heightStatus": "unknown", "source": "OpenStreetMap", "license": "ODbL-1.0"}, "geometry": {"type": "MultiPolygon", "coordinates": [[[[113.9474837, 22.4933512], [113.9476406, 22.4931319], [113.9476862, 22.4932062], [113.9475239, 22.4934354], [113.9474837, 22.4933512]]]]}}, {"type": "Feature", "id": "way/555611453", "properties": {"tags": {"building": "hut"}, "heightStatus": "unknown", "source": "OpenStreetMap", "license": "ODbL-1.0"}, "geometry": {"type": "MultiPolygon", "coordinates": [[[[113.9476604, 22.493738], [113.9478174, 22.4935187], [113.9478541, 22.4935963], [113.9477007, 22.4938222], [113.9476604, 22.493738]]]]}}, {"type": "Feature", "id": "way/555611454", "properties": {"tags": {"building": "hut"}, "heightStatus": "unknown", "source": "OpenStreetMap", "license": "ODbL-1.0"}, "geometry": {"type": "MultiPolygon", "coordinates": [[[[113.9474519, 22.4951137], [113.947712, 22.4952685], [113.9476691, 22.4953342], [113.947472, 22.4952153], [113.9474519, 22.4951137]]]]}}, {"type": "Feature", "id": "way/555611455", "properties": {"tags": {"building": "hut"}, "heightStatus": "unknown", "source": "OpenStreetMap", "license": "ODbL-1.0"}, "geometry": {"type": "MultiPolygon", "coordinates": [[[[113.9473486, 22.4954926], [113.9473614, 22.4954484], [113.9475937, 22.4955692], [113.9475587, 22.4956264], [113.9473754, 22.4955314], [113.9473486, 22.4954926]]]]}}, {"type": "Feature", "id": "way/555611479", "properties": {"tags": {"building": "yes", "office": "water_utility"}, "heightStatus": "unknown", "source": "OpenStreetMap", "license": "ODbL-1.0"}, "geometry": {"type": "MultiPolygon", "coordinates": [[[[113.9477617, 22.4999065], [113.9478343, 22.4998542], [113.9479128, 22.4999578], [113.9479334, 22.499985], [113.9478644, 22.500034], [113.9477617, 22.4999065]]]]}}, {"type": "Feature", "id": "way/555613743", "properties": {"tags": {"building": "hut", "layer": "1"}, "heightStatus": "unknown", "source": "OpenStreetMap", "license": "ODbL-1.0"}, "geometry": {"type": "MultiPolygon", "coordinates": [[[[113.9475299, 22.4944459], [113.9475766, 22.4943726], [113.9479388, 22.4945777], [113.9479243, 22.4946701], [113.9475299, 22.4944459]]]]}}, {"type": "Feature", "id": "way/555613744", "properties": {"tags": {"building": "hut", "layer": "1"}, "heightStatus": "unknown", "source": "OpenStreetMap", "license": "ODbL-1.0"}, "geometry": {"type": "MultiPolygon", "coordinates": [[[[113.9477648, 22.4941619], [113.947801, 22.4941], [113.9479874, 22.494209], [113.9479888, 22.4942883], [113.9477648, 22.4941619]]]]}}]}