{"type": "FeatureCollection", "features": [{"type": "Feature", "id": "way/533466850", "properties": {"tags": {"building": "yes"}, "heightStatus": "unknown", "source": "OpenStreetMap", "license": "ODbL-1.0"}, "geometry": {"type": "MultiPolygon", "coordinates": [[[[113.946553, 22.5191294], [113.9465597, 22.51911], [113.9465758, 22.5190997], [113.9467802, 22.5190812], [113.9470618, 22.5190715], [113.9472669, 22.5190738], [113.9474543, 22.5190839], [113.9475, 22.5190962], [113.9475265, 22.5191207], [113.9475341, 22.5191462], [113.9475267, 22.5191836], [113.9475021, 22.5192679], [113.947446, 22.51945], [113.9474111, 22.5195552], [113.947393, 22.5195746], [113.9473701, 22.5195843], [113.947351, 22.5195826], [113.9473281, 22.5195702], [113.9472985, 22.5195385], [113.9472173, 22.5194768], [113.94712, 22.5194027], [113.9469883, 22.5193251], [113.9468741, 22.5192723], [113.9467296, 22.5192113], [113.9466256, 22.519184], [113.9465874, 22.5191778], [113.9465702, 22.5191682], [113.9465549, 22.5191488], [113.946553, 22.5191294]]]]}}, {"type": "Feature", "id": "relation/8289486", "properties": {"tags": {"building": "school"}, "heightStatus": "unknown", "source": "OpenStreetMap", "license": "ODbL-1.0"}, "geometry": {"type": "MultiPolygon", "coordinates": [[[[113.9467256, 22.5270486], [113.9467389, 22.5263147], [113.9468164, 22.5263159], [113.9471403, 22.5263219], [113.9470889, 22.5262568], [113.9470175, 22.5261868], [113.9469497, 22.5261353], [113.9470467, 22.5260376], [113.9470988, 22.5260785], [113.94716, 22.5261378], [113.9472132, 22.5262034], [113.9472578, 22.5262742], [113.9472931, 22.5263495], [113.9473186, 22.526428], [113.947334, 22.5265087], [113.947339, 22.5265906], [113.9473336, 22.5266724], [113.9473179, 22.5267531], [113.947292, 22.5268315], [113.9472564, 22.5269065], [113.9472115, 22.5269772], [113.9471798, 22.5270149], [113.947204, 22.5270161], [113.9472268, 22.5270236], [113.9472415, 22.5270328], [113.9472538, 22.5270446], [113.947265, 22.5270625], [113.9472707, 22.5270825], [113.9472703, 22.5271032], [113.947264, 22.5271233], [113.9472521, 22.5271411], [113.9472354, 22.5271552], [113.9472152, 22.5271647], [113.9471907, 22.527169], [113.947166, 22.5271664], [113.9471431, 22.5271572], [113.9471243, 22.5271422], [113.9471111, 22.5271229], [113.9471046, 22.5271007], [113.947028, 22.5271536], [113.947013, 22.5271371], [113.9470767, 22.5270878], [113.9471382, 22.5270287], [113.9468037, 22.5270237], [113.9468032, 22.5270498], [113.9467256, 22.5270486]], [[113.9467963, 22.5269334], [113.9471324, 22.5269381], [113.9471364, 22.5267007], [113.9468002, 22.526697], [113.9467963, 22.5269334]], [[113.9468014, 22.5266058], [113.9471375, 22.5266095], [113.9471408, 22.5264315], [113.9468047, 22.5264262], [113.9468014, 22.5266058]]]]}}, {"type": "Feature", "id": "way/610415641", "properties": {"tags": {"building": "warehouse", "building:levels": "1", "height": "5"}, "heightStatus": "height_tag_unverified", "source": "OpenStreetMap", "license": "ODbL-1.0"}, "geometry": {"type": "MultiPolygon", "coordinates": [[[[113.9479342, 22.5215908], [113.9479476, 22.5215648], [113.947959, 22.5215542], [113.9480334, 22.5215862], [113.9480951, 22.5216533], [113.9480375, 22.5216985], [113.9479342, 22.5215908]]]]}}, {"type": "Feature", "id": "way/1270022652", "properties": {"tags": {"building": "apartments", "building:levels": "31", "name": "1栋"}, "heightStatus": "levels_only_unverified", "source": "OpenStreetMap", "license": "ODbL-1.0"}, "geometry": {"type": "MultiPolygon", "coordinates": [[[[113.9471237, 22.5252541], [113.9471819, 22.5252087], [113.9473086, 22.5253472], [113.9472418, 22.5253994], [113.9473094, 22.5254733], [113.9472472, 22.5255218], [113.9471264, 22.5253897], [113.9471972, 22.5253345], [113.9471237, 22.5252541]]]]}}, {"type": "Feature", "id": "way/1270022653", "properties": {"tags": {"building": "apartments", "building:levels": "31", "name": "4栋"}, "heightStatus": "levels_only_unverified", "source": "OpenStreetMap", "license": "ODbL-1.0"}, "geometry": {"type": "MultiPolygon", "coordinates": [[[[113.9478194, 22.5260469], [113.9478686, 22.5259874], [113.947952, 22.5260482], [113.9480063, 22.5259847], [113.9481598, 22.5260967], [113.9481128, 22.5261517], [113.9480235, 22.5260866], [113.947966, 22.5261538], [113.9478194, 22.5260469]]]]}}, {"type": "Feature", "id": "way/1270022654", "properties": {"tags": {"building": "apartments", "building:levels": "31", "name": "2栋"}, "heightStatus": "levels_only_unverified", "source": "OpenStreetMap", "license": "ODbL-1.0"}, "geometry": {"type": "MultiPolygon", "coordinates": [[[[113.9472284, 22.5255369], [113.9472472, 22.5255218], [113.9473094, 22.5254733], [113.947491, 22.5256725], [113.9474086, 22.5257363], [113.9473518, 22.5256736], [113.9472993, 22.5257142], [113.9472355, 22.5256438], [113.9472883, 22.525603], [113.9472284, 22.5255369]]]]}}, {"type": "Feature", "id": "way/1270022655", "properties": {"tags": {"building": "apartments", "building:levels": "31", "name": "3栋"}, "heightStatus": "levels_only_unverified", "source": "OpenStreetMap", "license": "ODbL-1.0"}, "geometry": {"type": "MultiPolygon", "coordinates": [[[[113.9475825, 22.5259042], [113.9476485, 22.5258269], [113.9478686, 22.5259874], [113.9478194, 22.5260469], [113.9478037, 22.5260654], [113.9477301, 22.5260118], [113.9476876, 22.5260615], [113.9476092, 22.5260044], [113.9476517, 22.5259546], [113.9475825, 22.5259042]]]]}}, {"type": "Feature", "id": "way/1270022659", "properties": {"tags": {"building": "apartments", "building:levels": "31", "name": "2栋"}, "heightStatus": "levels_only_unverified", "source": "OpenStreetMap", "license": "ODbL-1.0"}, "geometry": {"type": "MultiPolygon", "coordinates": [[[[113.9477477, 22.5267439], [113.9478235, 22.5265894], [113.9479814, 22.5264809], [113.9480781, 22.5266011], [113.9479551, 22.5266857], [113.9478961, 22.526806], [113.9477477, 22.5267439]]]]}}, {"type": "Feature", "id": "way/1270022660", "properties": {"tags": {"building": "apartments", "building:levels": "31", "name": "3栋"}, "heightStatus": "levels_only_unverified", "source": "OpenStreetMap", "license": "ODbL-1.0"}, "geometry": {"type": "MultiPolygon", "coordinates": [[[[113.9481663, 22.5263894], [113.9483089, 22.5263846], [113.9483958, 22.5262647], [113.9485746, 22.5263753], [113.9485254, 22.5264432], [113.9484535, 22.5263987], [113.948407, 22.526463], [113.9481695, 22.526471], [113.9481663, 22.5263894]]]]}}, {"type": "Feature", "id": "way/1270022661", "properties": {"tags": {"building": "apartments", "building:levels": "31", "name": "4栋"}, "heightStatus": "levels_only_unverified", "source": "OpenStreetMap", "license": "ODbL-1.0"}, "geometry": {"type": "MultiPolygon", "coordinates": [[[[113.9485254, 22.5264432], [113.9485746, 22.5263753], [113.9486453, 22.5264194], [113.9486788, 22.5263731], [113.9488022, 22.5264491], [113.9487722, 22.5264905], [113.9488495, 22.5265381], [113.9487995, 22.5266074], [113.9487218, 22.5265596], [113.948696, 22.5265953], [113.9485741, 22.5265203], [113.9485978, 22.5264874], [113.9485254, 22.5264432]]]]}}, {"type": "Feature", "id": "way/1347587936", "properties": {"tags": {"building": "yes", "name": "智能型服务驿站", "name:en": "Intelligent Service Courier Station", "name:zh-Hans": "智能型服务驿站"}, "heightStatus": "unknown", "source": "OpenStreetMap", "license": "ODbL-1.0"}, "geometry": {"type": "MultiPolygon", "coordinates": [[[[113.953202, 22.5228095], [113.9532776, 22.5228085], [113.9532789, 22.5228968], [113.9532033, 22.5228977], [113.953202, 22.5228095]]]]}}]}