{"type": "FeatureCollection", "features": [{"type": "Feature", "id": "way/356920119", "properties": {"tags": {"building": "yes"}, "heightStatus": "unknown", "source": "OpenStreetMap", "license": "ODbL-1.0"}, "geometry": {"type": "MultiPolygon", "coordinates": [[[[113.9563045, 22.5334631], [113.956455, 22.5332755], [113.9563828, 22.5332839], [113.9563751, 22.5332188], [113.9564393, 22.5332106], [113.9564515, 22.5331947], [113.956315, 22.5330999], [113.9563802, 22.5330199], [113.9564252, 22.5329647], [113.9565042, 22.5330196], [113.9565617, 22.5330595], [113.9565615, 22.5329854], [113.9566388, 22.5329817], [113.9566418, 22.5330307], [113.9567872, 22.5328594], [113.9569582, 22.5329796], [113.956816, 22.5331595], [113.9568868, 22.5331587], [113.9568882, 22.5332234], [113.9568213, 22.5332235], [113.9567974, 22.5332601], [113.9569008, 22.5333334], [113.9568666, 22.5333725], [113.956817, 22.5334294], [113.9567128, 22.5333544], [113.9566889, 22.5333888], [113.9566904, 22.5334515], [113.9566252, 22.5334536], [113.9566232, 22.5333973], [113.956485, 22.5335794], [113.9563045, 22.5334631]]]]}}, {"type": "Feature", "id": "relation/7670649", "properties": {"tags": {"building:levels": "11", "building:material": "glass", "building:part": "yes", "height": "48.3"}, "heightStatus": "height_tag_unverified", "source": "OpenStreetMap", "license": "ODbL-1.0"}, "geometry": {"type": "MultiPolygon", "coordinates": [[[[113.947571, 22.5332718], [113.9475729, 22.533095], [113.9476685, 22.5330958], [113.9476708, 22.5328761], [113.9476722, 22.5327494], [113.948268, 22.5327547], [113.9482624, 22.5332781], [113.947571, 22.5332718]], [[113.9477354, 22.5330957], [113.94806, 22.5330988], [113.9480618, 22.5329303], [113.9477372, 22.5329272], [113.9477354, 22.5330957]]]]}}, {"type": "Feature", "id": "way/534150924", "properties": {"tags": {"building:levels": "5", "building:part": "yes"}, "heightStatus": "levels_only_unverified", "source": "OpenStreetMap", "license": "ODbL-1.0"}, "geometry": {"type": "MultiPolygon", "coordinates": [[[[113.9477354, 22.5330957], [113.9477372, 22.5329272], [113.9480618, 22.5329303], [113.94806, 22.5330988], [113.9477354, 22.5330957]]]]}}, {"type": "Feature", "id": "way/534150925", "properties": {"tags": {"building": "commercial", "name": "科技生态园6栋", "name:en": "Building 6"}, "heightStatus": "unknown", "source": "OpenStreetMap", "license": "ODbL-1.0"}, "geometry": {"type": "MultiPolygon", "coordinates": [[[[113.9475489, 22.5334517], [113.9475549, 22.5328751], [113.9476708, 22.5328761], [113.9476722, 22.5327494], [113.948268, 22.5327547], [113.9482875, 22.5327549], [113.9482802, 22.5334582], [113.9475856, 22.533452], [113.9475489, 22.5334517]]]]}}, {"type": "Feature", "id": "way/534150926", "properties": {"tags": {"building:levels": "11", "building:material": "glass", "building:part": "yes", "height": "48.3"}, "heightStatus": "height_tag_unverified", "source": "OpenStreetMap", "license": "ODbL-1.0"}, "geometry": {"type": "MultiPolygon", "coordinates": [[[[113.9489334, 22.5343755], [113.9489388, 22.5339034], [113.9489423, 22.5335999], [113.9491516, 22.533602], [113.9491493, 22.5337979], [113.9491479, 22.5339153], [113.9491459, 22.5340926], [113.9491447, 22.5341965], [113.9493354, 22.5341983], [113.9493366, 22.5340945], [113.9493386, 22.5339171], [113.94934, 22.5337998], [113.9493422, 22.5336038], [113.9493991, 22.5336044], [113.9495523, 22.5336059], [113.9495488, 22.5339088], [113.9495434, 22.5343815], [113.9489334, 22.5343755]]]]}}, {"type": "Feature", "id": "way/534150927", "properties": {"tags": {"building:levels": "15", "building:material": "glass", "building:part": "yes", "height": "61"}, "heightStatus": "height_tag_unverified", "source": "OpenStreetMap", "license": "ODbL-1.0"}, "geometry": {"type": "MultiPolygon", "coordinates": [[[[113.9486141, 22.5339003], [113.9486176, 22.5335968], [113.9489423, 22.5335999], [113.9489388, 22.5339034], [113.9486141, 22.5339003]]]]}}, {"type": "Feature", "id": "way/534150928", "properties": {"tags": {"building:levels": "5", "building:material": "glass", "building:part": "yes"}, "heightStatus": "levels_only_unverified", "source": "OpenStreetMap", "license": "ODbL-1.0"}, "geometry": {"type": "MultiPolygon", "coordinates": [[[[113.9491493, 22.5337979], [113.9491516, 22.533602], [113.9493422, 22.5336038], [113.94934, 22.5337998], [113.9491493, 22.5337979]]]]}}, {"type": "Feature", "id": "way/534150930", "properties": {"tags": {"building:levels": "11", "building:material": "glass", "building:part": "yes", "height": "48.3"}, "heightStatus": "height_tag_unverified", "source": "OpenStreetMap", "license": "ODbL-1.0"}, "geometry": {"type": "MultiPolygon", "coordinates": [[[[113.9486254, 22.5333172], [113.9486323, 22.5327848], [113.9486348, 22.5327857], [113.9493344, 22.5327941], [113.9493321, 22.5329588], [113.9492781, 22.5329584], [113.9491695, 22.5329574], [113.9489662, 22.5329542], [113.9488299, 22.5329532], [113.9488277, 22.5331252], [113.9489631, 22.5331262], [113.9491664, 22.5331294], [113.9492733, 22.5331305], [113.9493297, 22.5331302], [113.9494939, 22.5331322], [113.9494912, 22.5333269], [113.9486254, 22.5333172]]]]}}, {"type": "Feature", "id": "way/534150932", "properties": {"tags": {"building:levels": "5", "building:material": "glass", "building:part": "yes"}, "heightStatus": "levels_only_unverified", "source": "OpenStreetMap", "license": "ODbL-1.0"}, "geometry": {"type": "MultiPolygon", "coordinates": [[[[113.9489631, 22.5331262], [113.9489662, 22.5329542], [113.9491695, 22.5329574], [113.9491664, 22.5331294], [113.9489631, 22.5331262]]]]}}, {"type": "Feature", "id": "relation/7669933", "properties": {"tags": {"amenity": "conference_centre", "building": "yes", "building:levels": "4", "building:material": "glass", "name": "深圳湾创新广场发布中心", "name:en": "Shenzhen Bay Innovation Plaza Publishing Center", "name:zh": "深圳湾创新广场发布中心", "operator": "深圳湾科技"}, "heightStatus": "levels_only_unverified", "source": "OpenStreetMap", "license": "ODbL-1.0"}, "geometry": {"type": "MultiPolygon", "coordinates": [[[[113.9476524, 22.5338632], [113.9476531, 22.5338057], [113.9476684, 22.5337499], [113.9476935, 22.5337046], [113.9477282, 22.5336652], [113.9477711, 22.5336333], [113.9478203, 22.5336105], [113.9478736, 22.5335976], [113.9479286, 22.5335953], [113.9479829, 22.5336037], [113.9480341, 22.5336223], [113.94808, 22.5336505], [113.9481185, 22.5336868], [113.9481479, 22.5337298], [113.9481669, 22.5337776], [113.9481747, 22.5338279], [113.948171, 22.5338786], [113.948153, 22.5339337], [113.9481215, 22.5339833], [113.9480781, 22.5340247], [113.9480255, 22.5340554], [113.9479665, 22.5340738], [113.9479044, 22.5340788], [113.9478429, 22.5340701], [113.9477852, 22.5340482], [113.9477348, 22.5340144], [113.9476945, 22.5339706], [113.9476665, 22.5339192], [113.9476524, 22.5338632]], [[113.947815, 22.5338264], [113.9478162, 22.5338571], [113.9478282, 22.5338858], [113.9478497, 22.5339094], [113.9478783, 22.5339252], [113.9479109, 22.5339316], [113.947944, 22.5339279], [113.947974, 22.5339144], [113.9479976, 22.5338926], [113.9480122, 22.5338649], [113.9480163, 22.5338343], [113.9480095, 22.5338043], [113.9479924, 22.5337779], [113.9479671, 22.5337581], [113.9479361, 22.5337469], [113.9479029, 22.5337456], [113.947871, 22.5337543], [113.9478439, 22.5337721], [113.9478246, 22.533797], [113.947815, 22.5338264]]]]}}, {"type": "Feature", "id": "way/534150935", "properties": {"tags": {"building": "commercial", "building:levels": "37", "name": "科技生态园9栋A座", "name:en": "Building 9 Block A"}, "heightStatus": "levels_only_unverified", "source": "OpenStreetMap", "license": "ODbL-1.0"}, "geometry": {"type": "MultiPolygon", "coordinates": [[[[113.9475496, 22.534852], [113.9475523, 22.5345938], [113.9482309, 22.5346], [113.9482281, 22.5348581], [113.9476687, 22.5348531], [113.9475496, 22.534852]]]]}}, {"type": "Feature", "id": "way/534150936", "properties": {"tags": {"building:levels": "25", "building:material": "glass", "building:part": "yes"}, "heightStatus": "levels_only_unverified", "source": "OpenStreetMap", "license": "ODbL-1.0"}, "geometry": {"type": "MultiPolygon", "coordinates": [[[[113.9486059, 22.5353678], [113.9486087, 22.5351016], [113.9486112, 22.5348595], [113.9486139, 22.5346034], [113.9488798, 22.5346059], [113.948877, 22.5348645], [113.9488745, 22.5351069], [113.9491916, 22.5351097], [113.9491889, 22.5353729], [113.9486059, 22.5353678]]]]}}, {"type": "Feature", "id": "way/534150937", "properties": {"tags": {"building:levels": "25", "building:material": "glass", "building:part": "yes"}, "heightStatus": "levels_only_unverified", "source": "OpenStreetMap", "license": "ODbL-1.0"}, "geometry": {"type": "MultiPolygon", "coordinates": [[[[113.9490173, 22.5348649], [113.9490208, 22.5346087], [113.9496278, 22.5346159], [113.9498117, 22.5352778], [113.9495332, 22.5353438], [113.9494685, 22.5351109], [113.9494014, 22.5348694], [113.9490173, 22.5348649]]]]}}, {"type": "Feature", "id": "way/534150940", "properties": {"tags": {"building:levels": "22", "building:material": "glass", "building:part": "yes"}, "heightStatus": "levels_only_unverified", "source": "OpenStreetMap", "license": "ODbL-1.0"}, "geometry": {"type": "MultiPolygon", "coordinates": [[[[113.948877, 22.5348645], [113.9488798, 22.5346059], [113.9490208, 22.5346087], [113.9490173, 22.5348649], [113.948877, 22.5348645]]]]}}, {"type": "Feature", "id": "way/534150946", "properties": {"tags": {"building:levels": "11", "building:part": "yes", "height": "48.3"}, "heightStatus": "height_tag_unverified", "source": "OpenStreetMap", "license": "ODbL-1.0"}, "geometry": {"type": "MultiPolygon", "coordinates": [[[[113.9476177, 22.5315435], [113.9476226, 22.5310098], [113.9482123, 22.5310143], [113.9482107, 22.5311892], [113.948078, 22.5311881], [113.9478194, 22.5311861], [113.9478179, 22.5313515], [113.9480764, 22.5313535], [113.9482091, 22.5313546], [113.9482073, 22.5315481], [113.9476177, 22.5315435]]]]}}, {"type": "Feature", "id": "way/534150947", "properties": {"tags": {"building": "commercial", "name": "科技生态园4栋", "name:en": "Building 4"}, "heightStatus": "unknown", "source": "OpenStreetMap", "license": "ODbL-1.0"}, "geometry": {"type": "MultiPolygon", "coordinates": [[[[113.9476177, 22.5315435], [113.9476226, 22.5310098], [113.9482123, 22.5310143], [113.9482723, 22.5310148], [113.9482675, 22.5315485], [113.9482073, 22.5315481], [113.9476177, 22.5315435]]]]}}, {"type": "Feature", "id": "way/534150948", "properties": {"tags": {"building:levels": "11", "building:part": "yes", "height": "48.3"}, "heightStatus": "height_tag_unverified", "source": "OpenStreetMap", "license": "ODbL-1.0"}, "geometry": {"type": "MultiPolygon", "coordinates": [[[[113.9487113, 22.5315523], [113.9487136, 22.5313606], [113.9488503, 22.531362], [113.9491522, 22.5313651], [113.9491542, 22.5311993], [113.9488518, 22.5311962], [113.9487161, 22.5311948], [113.9487183, 22.5310144], [113.9493833, 22.5310207], [113.9493773, 22.5315586], [113.9487113, 22.5315523]]]]}}, {"type": "Feature", "id": "way/534150949", "properties": {"tags": {"building": "commercial", "name": "科技生态园2栋A座", "name:en": "Building 2 Block A"}, "heightStatus": "unknown", "source": "OpenStreetMap", "license": "ODbL-1.0"}, "geometry": {"type": "MultiPolygon", "coordinates": [[[[113.9486597, 22.5315518], [113.9486656, 22.5310139], [113.9487183, 22.5310144], [113.9493833, 22.5310207], [113.9493773, 22.5315586], [113.9487113, 22.5315523], [113.9486597, 22.5315518]]]]}}, {"type": "Feature", "id": "way/534150950", "properties": {"tags": {"building": "commercial", "building:levels": "11", "height": "48.3", "name": "科技生态园2栋B座", "name:en": "Building 2 Block B"}, "heightStatus": "height_tag_unverified", "source": "OpenStreetMap", "license": "ODbL-1.0"}, "geometry": {"type": "MultiPolygon", "coordinates": [[[[113.9487217, 22.5319776], [113.9487233, 22.5317857], [113.9493874, 22.5317903], [113.9493847, 22.532124], [113.9491563, 22.5321224], [113.9491575, 22.5319808], [113.9487217, 22.5319776]]]]}}, {"type": "Feature", "id": "way/534150951", "properties": {"tags": {"building": "commercial", "building:levels": "14", "height": "58", "name": "科技生态园2栋C座", "name:en": "Building 2 Block C"}, "heightStatus": "height_tag_unverified", "source": "OpenStreetMap", "license": "ODbL-1.0"}, "geometry": {"type": "MultiPolygon", "coordinates": [[[[113.9487128, 22.5324788], [113.9487157, 22.5320866], [113.9489674, 22.5320883], [113.9489644, 22.5324804], [113.9487128, 22.5324788]]]]}}, {"type": "Feature", "id": "way/534150952", "properties": {"tags": {"building": "yes", "building:levels": "5"}, "heightStatus": "levels_only_unverified", "source": "OpenStreetMap", "license": "ODbL-1.0"}, "geometry": {"type": "MultiPolygon", "coordinates": [[[[113.9486653, 22.5324786], [113.9486704, 22.5317856], [113.9487233, 22.5317857], [113.9493874, 22.5317903], [113.9494443, 22.5317904], [113.9494415, 22.5321782], [113.9490113, 22.5321755], [113.9490091, 22.5324807], [113.9489644, 22.5324804], [113.9487128, 22.5324788], [113.9486653, 22.5324786]]]]}}, {"type": "Feature", "id": "way/534150956", "properties": {"tags": {"building": "apartments", "building:levels": "31", "height": "98", "name": "科技生态园1栋A座"}, "heightStatus": "height_tag_unverified", "source": "OpenStreetMap", "license": "ODbL-1.0"}, "geometry": {"type": "MultiPolygon", "coordinates": [[[[113.9476367, 22.5305962], [113.9476398, 22.530374], [113.9479896, 22.5303782], [113.9479865, 22.5306003], [113.9476367, 22.5305962]]]]}}, {"type": "Feature", "id": "way/534150957", "properties": {"tags": {"building": "apartments", "building:levels": "28", "height": "88", "name": "科技生态园1栋B座"}, "heightStatus": "height_tag_unverified", "source": "OpenStreetMap", "license": "ODbL-1.0"}, "geometry": {"type": "MultiPolygon", "coordinates": [[[[113.9481152, 22.5307746], [113.9481194, 22.5304484], [113.9483614, 22.530451], [113.9483571, 22.5307774], [113.9481152, 22.5307746]]]]}}, {"type": "Feature", "id": "way/534150958", "properties": {"tags": {"building": "apartments", "building:levels": "31", "height": "98", "name": "科技生态园1栋C座"}, "heightStatus": "height_tag_unverified", "source": "OpenStreetMap", "license": "ODbL-1.0"}, "geometry": {"type": "MultiPolygon", "coordinates": [[[[113.9486191, 22.53061], [113.9486211, 22.5304539], [113.9486239, 22.5303857], [113.9489761, 22.53039], [113.948973, 22.5306141], [113.9486191, 22.53061]]]]}}, {"type": "Feature", "id": "way/534150959", "properties": {"tags": {"building": "apartments", "building:levels": "28", "height": "88", "name": "科技生态园1栋D座"}, "heightStatus": "height_tag_unverified", "source": "OpenStreetMap", "license": "ODbL-1.0"}, "geometry": {"type": "MultiPolygon", "coordinates": [[[[113.9491235, 22.5307978], [113.9491278, 22.530472], [113.9493722, 22.5304748], [113.9493677, 22.5308006], [113.9491235, 22.5307978]]]]}}, {"type": "Feature", "id": "way/588568587", "properties": {"tags": {"building:levels": "1", "building:part": "shed"}, "heightStatus": "levels_only_unverified", "source": "OpenStreetMap", "license": "ODbL-1.0"}, "geometry": {"type": "MultiPolygon", "coordinates": [[[[113.9564252, 22.5329647], [113.9564457, 22.5329394], [113.9565248, 22.5329943], [113.9565042, 22.5330196], [113.9564252, 22.5329647]]]]}}, {"type": "Feature", "id": "way/916419657", "properties": {"tags": {"building:levels": "5", "building:material": "glass", "building:part": "yes"}, "heightStatus": "levels_only_unverified", "source": "OpenStreetMap", "license": "ODbL-1.0"}, "geometry": {"type": "MultiPolygon", "coordinates": [[[[113.9475489, 22.5334517], [113.9475549, 22.5328751], [113.9476708, 22.5328761], [113.9476685, 22.5330958], [113.9475729, 22.533095], [113.947571, 22.5332718], [113.9482624, 22.5332781], [113.948268, 22.5327547], [113.9482875, 22.5327549], [113.9482802, 22.5334582], [113.9475856, 22.533452], [113.9475489, 22.5334517]]]]}}, {"type": "Feature", "id": "way/916419658", "properties": {"tags": {"building": "commercial", "building:levels": "2", "name": "科技生态园8栋", "name:en": "Building 8"}, "heightStatus": "levels_only_unverified", "source": "OpenStreetMap", "license": "ODbL-1.0"}, "geometry": {"type": "MultiPolygon", "coordinates": [[[[113.9475383, 22.5343538], [113.9475477, 22.533562], [113.948279, 22.5335685], [113.9482696, 22.5343603], [113.9475383, 22.5343538]]]]}}, {"type": "Feature", "id": "way/916419659", "properties": {"tags": {"building": "roof", "building:levels": "2", "building:min_level": "1", "layer": "1"}, "heightStatus": "levels_only_unverified", "source": "OpenStreetMap", "license": "ODbL-1.0"}, "geometry": {"type": "MultiPolygon", "coordinates": [[[[113.9475477, 22.533562], [113.9475489, 22.5334517], [113.9475856, 22.533452], [113.9482802, 22.5334582], [113.948279, 22.5335685], [113.9475477, 22.533562]]]]}}, {"type": "Feature", "id": "way/916419660", "properties": {"tags": {"building": "commercial", "name": "科技生态园7A栋", "name:en": "Building 7A"}, "heightStatus": "unknown", "source": "OpenStreetMap", "license": "ODbL-1.0"}, "geometry": {"type": "MultiPolygon", "coordinates": [[[[113.9486048, 22.5334675], [113.9486143, 22.5327855], [113.9486348, 22.5327857], [113.9493344, 22.5327941], [113.9493321, 22.5329588], [113.9493297, 22.5331302], [113.9494939, 22.5331322], [113.9494912, 22.5333269], [113.9494891, 22.5334779], [113.9494003, 22.5334769], [113.9492509, 22.5334751], [113.9488113, 22.5334699], [113.9486192, 22.5334676], [113.9486048, 22.5334675]]]]}}, {"type": "Feature", "id": "way/916419661", "properties": {"tags": {"building:levels": "5", "building:material": "glass", "building:part": "yes"}, "heightStatus": "levels_only_unverified", "source": "OpenStreetMap", "license": "ODbL-1.0"}, "geometry": {"type": "MultiPolygon", "coordinates": [[[[113.9492733, 22.5331305], [113.9492781, 22.5329584], [113.9493321, 22.5329588], [113.9493297, 22.5331302], [113.9492733, 22.5331305]]]]}}, {"type": "Feature", "id": "way/916419662", "properties": {"tags": {"building": "commercial", "name": "科技生态园7B栋", "name:en": "Building 7B"}, "heightStatus": "unknown", "source": "OpenStreetMap", "license": "ODbL-1.0"}, "geometry": {"type": "MultiPolygon", "coordinates": [[[[113.9486087, 22.5343723], [113.9486141, 22.5339003], [113.9486176, 22.5335968], [113.9486181, 22.5335568], [113.9488102, 22.5335587], [113.94925, 22.533563], [113.9493994, 22.5335643], [113.9493991, 22.5336044], [113.9495523, 22.5336059], [113.9495488, 22.5339088], [113.9495434, 22.5343815], [113.9489334, 22.5343755], [113.9486087, 22.5343723]]]]}}, {"type": "Feature", "id": "way/916419663", "properties": {"tags": {"building:levels": "5", "building:material": "glass", "building:part": "yes"}, "heightStatus": "levels_only_unverified", "source": "OpenStreetMap", "license": "ODbL-1.0"}, "geometry": {"type": "MultiPolygon", "coordinates": [[[[113.9486087, 22.5343723], [113.9486141, 22.5339003], [113.9489388, 22.5339034], [113.9489334, 22.5343755], [113.9486087, 22.5343723]]]]}}, {"type": "Feature", "id": "way/916419664", "properties": {"tags": {"building:levels": "2", "building:part": "yes"}, "heightStatus": "levels_only_unverified", "source": "OpenStreetMap", "license": "ODbL-1.0"}, "geometry": {"type": "MultiPolygon", "coordinates": [[[[113.9488277, 22.5331252], [113.9488299, 22.5329532], [113.9489662, 22.5329542], [113.9489631, 22.5331262], [113.9488277, 22.5331252]]]]}}, {"type": "Feature", "id": "way/916419665", "properties": {"tags": {"building:levels": "2", "building:part": "yes"}, "heightStatus": "levels_only_unverified", "source": "OpenStreetMap", "license": "ODbL-1.0"}, "geometry": {"type": "MultiPolygon", "coordinates": [[[[113.9491664, 22.5331294], [113.9491695, 22.5329574], [113.9492781, 22.5329584], [113.9492733, 22.5331305], [113.9491664, 22.5331294]]]]}}, {"type": "Feature", "id": "way/916419666", "properties": {"tags": {"building:levels": "5", "building:material": "glass", "building:part": "yes"}, "heightStatus": "levels_only_unverified", "source": "OpenStreetMap", "license": "ODbL-1.0"}, "geometry": {"type": "MultiPolygon", "coordinates": [[[[113.9486048, 22.5334675], [113.9486143, 22.5327855], [113.9486323, 22.5327848], [113.9486254, 22.5333172], [113.9494912, 22.5333269], [113.9494891, 22.5334779], [113.9494003, 22.5334769], [113.9492509, 22.5334751], [113.9488113, 22.5334699], [113.9486192, 22.5334676], [113.9486048, 22.5334675]]]]}}, {"type": "Feature", "id": "way/916419669", "properties": {"tags": {"building:levels": "5", "building:material": "glass", "building:part": "yes"}, "heightStatus": "levels_only_unverified", "source": "OpenStreetMap", "license": "ODbL-1.0"}, "geometry": {"type": "MultiPolygon", "coordinates": [[[[113.9491459, 22.5340926], [113.9491479, 22.5339153], [113.9493386, 22.5339171], [113.9493366, 22.5340945], [113.9491459, 22.5340926]]]]}}, {"type": "Feature", "id": "way/916419670", "properties": {"tags": {"building:levels": "2", "building:part": "yes"}, "heightStatus": "levels_only_unverified", "source": "OpenStreetMap", "license": "ODbL-1.0"}, "geometry": {"type": "MultiPolygon", "coordinates": [[[[113.9491447, 22.5341965], [113.9491459, 22.5340926], [113.9493366, 22.5340945], [113.9493354, 22.5341983], [113.9491447, 22.5341965]]]]}}, {"type": "Feature", "id": "way/916419671", "properties": {"tags": {"building:levels": "2", "building:part": "yes"}, "heightStatus": "levels_only_unverified", "source": "OpenStreetMap", "license": "ODbL-1.0"}, "geometry": {"type": "MultiPolygon", "coordinates": [[[[113.9491479, 22.5339153], [113.9491493, 22.5337979], [113.94934, 22.5337998], [113.9493386, 22.5339171], [113.9491479, 22.5339153]]]]}}, {"type": "Feature", "id": "way/916419672", "properties": {"tags": {"building": "yes", "building:levels": "5", "building:min_level": "2"}, "heightStatus": "levels_only_unverified", "source": "OpenStreetMap", "license": "ODbL-1.0"}, "geometry": {"type": "MultiPolygon", "coordinates": [[[[113.9486181, 22.5335568], [113.9486192, 22.5334676], [113.9488113, 22.5334699], [113.9488102, 22.5335587], [113.9486181, 22.5335568]]]]}}, {"type": "Feature", "id": "way/916419673", "properties": {"tags": {"building": "yes", "building:levels": "5", "building:min_level": "3"}, "heightStatus": "levels_only_unverified", "source": "OpenStreetMap", "license": "ODbL-1.0"}, "geometry": {"type": "MultiPolygon", "coordinates": [[[[113.94925, 22.533563], [113.9492509, 22.5334751], [113.9494003, 22.5334769], [113.9493994, 22.5335643], [113.94925, 22.533563]]]]}}, {"type": "Feature", "id": "way/916419682", "properties": {"tags": {"building": "apartments", "building:levels": "2", "name": "科技生态园5栋", "name:en": "Building 5"}, "heightStatus": "levels_only_unverified", "source": "OpenStreetMap", "license": "ODbL-1.0"}, "geometry": {"type": "MultiPolygon", "coordinates": [[[[113.9476219, 22.5324731], [113.9476224, 22.5324359], [113.9476263, 22.5321349], [113.9476312, 22.5317545], [113.9479074, 22.5317576], [113.9482652, 22.5317615], [113.9482622, 22.5319886], [113.94826, 22.5321629], [113.9482558, 22.5324801], [113.9482002, 22.5324795], [113.9479843, 22.5324771], [113.9478658, 22.5324758], [113.9476618, 22.5324736], [113.9476219, 22.5324731]]]]}}, {"type": "Feature", "id": "way/916419683", "properties": {"tags": {"building": "apartments", "building:levels": "38", "height": "119", "name": "科技生态园5栋B座"}, "heightStatus": "height_tag_unverified", "source": "OpenStreetMap", "license": "ODbL-1.0"}, "geometry": {"type": "MultiPolygon", "coordinates": [[[[113.9479044, 22.5319847], [113.9479074, 22.5317576], [113.9482652, 22.5317615], [113.9482622, 22.5319886], [113.9479044, 22.5319847]]]]}}, {"type": "Feature", "id": "way/916419684", "properties": {"tags": {"building": "apartments", "building:levels": "38", "height": "119", "name": "科技生态园5栋D座"}, "heightStatus": "height_tag_unverified", "source": "OpenStreetMap", "license": "ODbL-1.0"}, "geometry": {"type": "MultiPolygon", "coordinates": [[[[113.9476224, 22.5324359], [113.9476263, 22.5321349], [113.9478702, 22.5321376], [113.947867, 22.5323858], [113.9478658, 22.5324758], [113.9476618, 22.5324736], [113.9476224, 22.5324359]]]]}}, {"type": "Feature", "id": "way/916419685", "properties": {"tags": {"building": "apartments", "building:levels": "14", "height": "48.3", "name": "科技生态园5栋A座"}, "heightStatus": "height_tag_unverified", "source": "OpenStreetMap", "license": "ODbL-1.0"}, "geometry": {"type": "MultiPolygon", "coordinates": [[[[113.9476263, 22.5321349], [113.9476312, 22.5317545], [113.9479074, 22.5317576], [113.9479044, 22.5319847], [113.9478721, 22.5319843], [113.9478702, 22.5321376], [113.9476263, 22.5321349]]]]}}, {"type": "Feature", "id": "way/916419686", "properties": {"tags": {"building:levels": "14", "building:part": "yes", "height": "48.3"}, "heightStatus": "height_tag_unverified", "source": "OpenStreetMap", "license": "ODbL-1.0"}, "geometry": {"type": "MultiPolygon", "coordinates": [[[[113.9479843, 22.5324771], [113.9479855, 22.5323871], [113.9479885, 22.5321599], [113.9482044, 22.5321623], [113.9482002, 22.5324795], [113.9479843, 22.5324771]]]]}}, {"type": "Feature", "id": "way/916419687", "properties": {"tags": {"building:levels": "6", "building:part": "yes"}, "heightStatus": "levels_only_unverified", "source": "OpenStreetMap", "license": "ODbL-1.0"}, "geometry": {"type": "MultiPolygon", "coordinates": [[[[113.9482002, 22.5324795], [113.9482044, 22.5321623], [113.94826, 22.5321629], [113.9482558, 22.5324801], [113.9482002, 22.5324795]]]]}}, {"type": "Feature", "id": "way/916419688", "properties": {"tags": {"building": "apartments", "name": "科技生态园5栋C座"}, "heightStatus": "unknown", "source": "OpenStreetMap", "license": "ODbL-1.0"}, "geometry": {"type": "MultiPolygon", "coordinates": [[[[113.9479843, 22.5324771], [113.9479855, 22.5323871], [113.9479885, 22.5321599], [113.9482044, 22.5321623], [113.94826, 22.5321629], [113.9482558, 22.5324801], [113.9482002, 22.5324795], [113.9479843, 22.5324771]]]]}}, {"type": "Feature", "id": "way/916419689", "properties": {"tags": {"building": "roof", "height": "48.3"}, "heightStatus": "height_tag_unverified", "source": "OpenStreetMap", "license": "ODbL-1.0"}, "geometry": {"type": "MultiPolygon", "coordinates": [[[[113.9478658, 22.5324758], [113.947867, 22.5323858], [113.9479855, 22.5323871], [113.9479843, 22.5324771], [113.9478658, 22.5324758]]]]}}, {"type": "Feature", "id": "way/916419690", "properties": {"tags": {"amenity": "exhibition_centre", "building": "yes", "building:levels": "4", "name": "深圳湾创新广场展示中心", "name:en": "Shenzhen Bay Innovation Plaza Exhibition Center", "name:zh": "深圳湾创新广场展示中心"}, "heightStatus": "levels_only_unverified", "source": "OpenStreetMap", "license": "ODbL-1.0"}, "geometry": {"type": "MultiPolygon", "coordinates": [[[[113.9490746, 22.5324809], [113.9490755, 22.5322435], [113.9494573, 22.5322447], [113.9494563, 22.5324823], [113.9490746, 22.5324809]]]]}}, {"type": "Feature", "id": "way/916419691", "properties": {"tags": {"building:levels": "5", "building:part": "yes"}, "heightStatus": "levels_only_unverified", "source": "OpenStreetMap", "license": "ODbL-1.0"}, "geometry": {"type": "MultiPolygon", "coordinates": [[[[113.9486597, 22.5315518], [113.9486656, 22.5310139], [113.9487183, 22.5310144], [113.9487161, 22.5311948], [113.9488518, 22.5311962], [113.9488503, 22.531362], [113.9487136, 22.5313606], [113.9487113, 22.5315523], [113.9486597, 22.5315518]]]]}}, {"type": "Feature", "id": "way/916419692", "properties": {"tags": {"building:levels": "2", "building:part": "yes"}, "heightStatus": "levels_only_unverified", "source": "OpenStreetMap", "license": "ODbL-1.0"}, "geometry": {"type": "MultiPolygon", "coordinates": [[[[113.9488503, 22.531362], [113.9488518, 22.5311962], [113.9491542, 22.5311993], [113.9491522, 22.5313651], [113.9488503, 22.531362]]]]}}, {"type": "Feature", "id": "way/916419693", "properties": {"tags": {"building:levels": "5", "building:part": "yes"}, "heightStatus": "levels_only_unverified", "source": "OpenStreetMap", "license": "ODbL-1.0"}, "geometry": {"type": "MultiPolygon", "coordinates": [[[[113.9480764, 22.5313535], [113.948078, 22.5311881], [113.9482107, 22.5311892], [113.9482123, 22.5310143], [113.9482723, 22.5310148], [113.9482675, 22.5315485], [113.9482073, 22.5315481], [113.9482091, 22.5313546], [113.9480764, 22.5313535]]]]}}, {"type": "Feature", "id": "way/916419694", "properties": {"tags": {"building:levels": "2", "building:part": "yes"}, "heightStatus": "levels_only_unverified", "source": "OpenStreetMap", "license": "ODbL-1.0"}, "geometry": {"type": "MultiPolygon", "coordinates": [[[[113.9478179, 22.5313515], [113.9478194, 22.5311861], [113.948078, 22.5311881], [113.9480764, 22.5313535], [113.9478179, 22.5313515]]]]}}, {"type": "Feature", "id": "relation/12437134", "properties": {"tags": {"building": "yes", "building:levels": "2", "name": "科技生态园1栋", "name:en": "Building 1"}, "heightStatus": "levels_only_unverified", "source": "OpenStreetMap", "license": "ODbL-1.0"}, "geometry": {"type": "MultiPolygon", "coordinates": [[[[113.9476328, 22.5308772], [113.9476367, 22.5305962], [113.9476398, 22.530374], [113.9479896, 22.5303782], [113.9486239, 22.5303857], [113.9489761, 22.53039], [113.9493733, 22.5303947], [113.9493722, 22.5304748], [113.9493677, 22.5308006], [113.9493663, 22.5308977], [113.9476328, 22.5308772]], [[113.9483571, 22.5307774], [113.9486168, 22.5307804], [113.9486191, 22.53061], [113.9486211, 22.5304539], [113.9483614, 22.530451], [113.9483571, 22.5307774]]]]}}, {"type": "Feature", "id": "relation/12437135", "properties": {"tags": {"building": "commercial", "name": "科技生态园9栋B座", "name:en": "Building 9 Block B"}, "heightStatus": "unknown", "source": "OpenStreetMap", "license": "ODbL-1.0"}, "geometry": {"type": "MultiPolygon", "coordinates": [[[[113.947544, 22.5353573], [113.9475481, 22.534997], [113.9476672, 22.5349981], [113.9478127, 22.5349996], [113.9478117, 22.5350938], [113.9482256, 22.5350979], [113.9483936, 22.5350994], [113.9486087, 22.5351016], [113.9486112, 22.5348595], [113.9486139, 22.5346034], [113.9488798, 22.5346059], [113.9490208, 22.5346087], [113.9496278, 22.5346159], [113.9498117, 22.5352778], [113.9495332, 22.5353438], [113.9493953, 22.5353759], [113.9491889, 22.5353729], [113.9486059, 22.5353678], [113.947544, 22.5353573]], [[113.9488745, 22.5351069], [113.9491916, 22.5351097], [113.9494685, 22.5351109], [113.9494014, 22.5348694], [113.9490173, 22.5348649], [113.948877, 22.5348645], [113.9488745, 22.5351069]]]]}}, {"type": "Feature", "id": "way/916419706", "properties": {"tags": {"building": "yes", "building:levels": "5", "building:material": "glass"}, "heightStatus": "levels_only_unverified", "source": "OpenStreetMap", "license": "ODbL-1.0"}, "geometry": {"type": "MultiPolygon", "coordinates": [[[[113.9482256, 22.5350979], [113.9482281, 22.5348581], [113.9482309, 22.5346], [113.9486139, 22.5346034], [113.9486112, 22.5348595], [113.9483961, 22.5348576], [113.9483936, 22.5350994], [113.9482256, 22.5350979]]]]}}, {"type": "Feature", "id": "way/916419707", "properties": {"tags": {"building:levels": "10", "building:material": "glass", "building:part": "yes"}, "heightStatus": "levels_only_unverified", "source": "OpenStreetMap", "license": "ODbL-1.0"}, "geometry": {"type": "MultiPolygon", "coordinates": [[[[113.947544, 22.5353573], [113.9475481, 22.534997], [113.9476672, 22.5349981], [113.9478127, 22.5349996], [113.9478117, 22.5350938], [113.9482256, 22.5350979], [113.9483936, 22.5350994], [113.9486087, 22.5351016], [113.9486059, 22.5353678], [113.947544, 22.5353573]]]]}}, {"type": "Feature", "id": "way/916419708", "properties": {"tags": {"building:levels": "2", "building:material": "glass", "building:part": "yes"}, "heightStatus": "levels_only_unverified", "source": "OpenStreetMap", "license": "ODbL-1.0"}, "geometry": {"type": "MultiPolygon", "coordinates": [[[[113.9491889, 22.5353729], [113.9491916, 22.5351097], [113.9494685, 22.5351109], [113.9495332, 22.5353438], [113.9493953, 22.5353759], [113.9491889, 22.5353729]]]]}}, {"type": "Feature", "id": "way/916419709", "properties": {"tags": {"building": "yes", "building:levels": "5", "building:material": "glass"}, "heightStatus": "levels_only_unverified", "source": "OpenStreetMap", "license": "ODbL-1.0"}, "geometry": {"type": "MultiPolygon", "coordinates": [[[[113.9475481, 22.534997], [113.9475496, 22.534852], [113.9476687, 22.5348531], [113.9476672, 22.5349981], [113.9475481, 22.534997]]]]}}, {"type": "Feature", "id": "way/1023578626", "properties": {"tags": {"building": "residential", "building:levels": "30", "name": "5栋"}, "heightStatus": "levels_only_unverified", "source": "OpenStreetMap", "license": "ODbL-1.0"}, "geometry": {"type": "MultiPolygon", "coordinates": [[[[113.9488898, 22.5296852], [113.9488969, 22.5296596], [113.9489154, 22.529638], [113.9489403, 22.5296234], [113.9489705, 22.5296155], [113.9490003, 22.5296163], [113.9490275, 22.5296253], [113.9490498, 22.5295987], [113.9490387, 22.5294895], [113.9491633, 22.5294787], [113.9491814, 22.5296573], [113.949228, 22.5296058], [113.9493215, 22.5296779], [113.9491483, 22.5298693], [113.9490548, 22.5297972], [113.9490987, 22.5297487], [113.9490561, 22.5297186], [113.9490471, 22.5297306], [113.9490276, 22.5297459], [113.9490031, 22.5297556], [113.9489777, 22.5297594], [113.9489505, 22.529757], [113.9489236, 22.5297462], [113.9489048, 22.5297298], [113.9488925, 22.5297083], [113.9488898, 22.5296852]]]]}}, {"type": "Feature", "id": "way/1023578627", "properties": {"tags": {"building": "residential", "building:levels": "30", "name": "6栋"}, "heightStatus": "levels_only_unverified", "source": "OpenStreetMap", "license": "ODbL-1.0"}, "geometry": {"type": "MultiPolygon", "coordinates": [[[[113.9488502, 22.5292928], [113.9488582, 22.5292697], [113.9488736, 22.5292505], [113.9488981, 22.5292355], [113.9489244, 22.5292287], [113.9489501, 22.5292284], [113.9489761, 22.5292339], [113.9489982, 22.5292459], [113.9490094, 22.5292562], [113.9490455, 22.5292197], [113.9489932, 22.529179], [113.9490715, 22.5290929], [113.9492783, 22.5292533], [113.9491999, 22.5293395], [113.9491443, 22.5292963], [113.9491633, 22.5294787], [113.9490387, 22.5294895], [113.9490259, 22.5293753], [113.9489988, 22.5293528], [113.9489738, 22.529366], [113.9489446, 22.5293716], [113.9489133, 22.5293687], [113.9488861, 22.5293584], [113.9488638, 22.5293401], [113.9488519, 22.5293161], [113.9488502, 22.5292928]]]]}}, {"type": "Feature", "id": "way/1023578628", "properties": {"tags": {"building": "residential", "building:levels": "30", "name": "8栋"}, "heightStatus": "levels_only_unverified", "source": "OpenStreetMap", "license": "ODbL-1.0"}, "geometry": {"type": "MultiPolygon", "coordinates": [[[[113.9486927, 22.5279563], [113.9487007, 22.5279332], [113.9487161, 22.527914], [113.9487406, 22.527899], [113.9487669, 22.5278922], [113.9487927, 22.5278919], [113.9488186, 22.5278975], [113.9488407, 22.5279094], [113.9488519, 22.5279197], [113.9488881, 22.5278832], [113.9488357, 22.5278425], [113.948914, 22.5277564], [113.9491208, 22.5279169], [113.9490425, 22.528003], [113.9489868, 22.5279598], [113.9490058, 22.5281422], [113.9488813, 22.528153], [113.9488684, 22.5280388], [113.9488414, 22.5280163], [113.9488163, 22.5280295], [113.9487871, 22.5280351], [113.9487559, 22.5280322], [113.9487286, 22.5280219], [113.9487063, 22.5280036], [113.9486944, 22.5279796], [113.9486927, 22.5279563]]]]}}, {"type": "Feature", "id": "way/1023578629", "properties": {"tags": {"building": "residential", "building:levels": "30", "name": "7栋"}, "heightStatus": "levels_only_unverified", "source": "OpenStreetMap", "license": "ODbL-1.0"}, "geometry": {"type": "MultiPolygon", "coordinates": [[[[113.9487323, 22.5283487], [113.9487395, 22.5283231], [113.948758, 22.5283015], [113.9487828, 22.5282869], [113.948813, 22.528279], [113.9488429, 22.5282798], [113.94887, 22.5282888], [113.9488924, 22.5282622], [113.9488813, 22.528153], [113.9490058, 22.5281422], [113.9490239, 22.5283208], [113.9490705, 22.5282693], [113.949164, 22.5283415], [113.9489908, 22.5285329], [113.9488974, 22.5284608], [113.9489412, 22.5284123], [113.9488987, 22.5283821], [113.9488896, 22.5283941], [113.9488702, 22.5284095], [113.9488457, 22.5284192], [113.9488203, 22.528423], [113.9487931, 22.5284205], [113.9487661, 22.5284098], [113.9487473, 22.5283933], [113.948735, 22.5283719], [113.9487323, 22.5283487]]]]}}, {"type": "Feature", "id": "way/1023578630", "properties": {"tags": {"building": "residential", "building:levels": "31", "name": "13栋"}, "heightStatus": "levels_only_unverified", "source": "OpenStreetMap", "license": "ODbL-1.0"}, "geometry": {"type": "MultiPolygon", "coordinates": [[[[113.9477977, 22.5290646], [113.947798, 22.5290392], [113.9478045, 22.5290151], [113.9478189, 22.528991], [113.9478318, 22.528979], [113.9478491, 22.5289671], [113.9478635, 22.5289617], [113.9478227, 22.5289361], [113.947872, 22.5288689], [113.9479154, 22.5288967], [113.9479156, 22.5288014], [113.9479521, 22.5288015], [113.9479521, 22.5287909], [113.9480109, 22.528791], [113.9480107, 22.528868], [113.9480225, 22.5288586], [113.9481459, 22.5289933], [113.9480542, 22.529065], [113.9479896, 22.5289944], [113.9479565, 22.5290191], [113.9479562, 22.5290334], [113.9479515, 22.5290533], [113.9479441, 22.5290691], [113.9479273, 22.5290901], [113.9479065, 22.5291059], [113.947881, 22.529115], [113.9478558, 22.5291158], [113.9478292, 22.5291076], [113.9478078, 22.5290891], [113.9477977, 22.5290646]]]]}}, {"type": "Feature", "id": "way/1023578631", "properties": {"tags": {"building": "residential", "building:levels": "31", "name": "12栋"}, "heightStatus": "levels_only_unverified", "source": "OpenStreetMap", "license": "ODbL-1.0"}, "geometry": {"type": "MultiPolygon", "coordinates": [[[[113.9478018, 22.5285414], [113.947802, 22.528516], [113.9478124, 22.5284916], [113.9478341, 22.5284735], [113.947861, 22.5284656], [113.9478861, 22.5284668], [113.9479114, 22.5284762], [113.947932, 22.5284923], [113.9479484, 22.5285135], [113.9479556, 22.5285294], [113.94796, 22.5285494], [113.94796, 22.5285637], [113.9479927, 22.5285889], [113.9480585, 22.5285192], [113.948149, 22.5285921], [113.9480234, 22.5287251], [113.9480113, 22.5287155], [113.9480109, 22.528791], [113.9479521, 22.5287909], [113.947952, 22.5287812], [113.9479154, 22.5287809], [113.9479162, 22.5286849], [113.9478731, 22.5287127], [113.9478248, 22.5286448], [113.947866, 22.5286198], [113.9478518, 22.5286141], [113.9478347, 22.528602], [113.9478219, 22.5285898], [113.9478079, 22.5285655], [113.9478018, 22.5285414]]]]}}, {"type": "Feature", "id": "way/1023578632", "properties": {"tags": {"building": "residential", "building:levels": "22", "name": "11栋"}, "heightStatus": "levels_only_unverified", "source": "OpenStreetMap", "license": "ODbL-1.0"}, "geometry": {"type": "MultiPolygon", "coordinates": [[[[113.9477319, 22.5282172], [113.9477796, 22.5281573], [113.9477565, 22.5281416], [113.9477704, 22.5281243], [113.9477642, 22.5281154], [113.9477619, 22.5281094], [113.9477613, 22.5281022], [113.9477621, 22.5280966], [113.9477647, 22.5280907], [113.9477943, 22.5280536], [113.9478456, 22.5280885], [113.9478949, 22.5280267], [113.9479293, 22.5280501], [113.9479371, 22.528041], [113.9479598, 22.5280691], [113.9479726, 22.5280854], [113.9479609, 22.5281001], [113.9479939, 22.5281225], [113.9478752, 22.5282713], [113.9478323, 22.5282421], [113.9478099, 22.5282702], [113.9477319, 22.5282172]]]]}}, {"type": "Feature", "id": "way/1023578633", "properties": {"tags": {"building": "residential", "building:levels": "22", "name": "10栋"}, "heightStatus": "levels_only_unverified", "source": "OpenStreetMap", "license": "ODbL-1.0"}, "geometry": {"type": "MultiPolygon", "coordinates": [[[[113.9479371, 22.528041], [113.9479703, 22.5280409], [113.94797, 22.5279861], [113.948098, 22.5279855], [113.9482017, 22.5279493], [113.9482968, 22.5278329], [113.9483405, 22.5278634], [113.9483476, 22.5278542], [113.9483635, 22.5278787], [113.9483547, 22.5278897], [113.9483856, 22.5279113], [113.9483117, 22.5280468], [113.9482801, 22.5280854], [113.9482389, 22.5280567], [113.9482576, 22.5280339], [113.9482402, 22.5280218], [113.9482202, 22.5280462], [113.94822, 22.5281112], [113.9481505, 22.5281115], [113.9480154, 22.5280991], [113.9480152, 22.5280807], [113.9479833, 22.5280809], [113.9479833, 22.528069], [113.9479598, 22.5280691], [113.9479371, 22.528041]]]]}}, {"type": "Feature", "id": "way/1023578634", "properties": {"tags": {"building": "residential", "building:levels": "18", "name": "9栋"}, "heightStatus": "levels_only_unverified", "source": "OpenStreetMap", "license": "ODbL-1.0"}, "geometry": {"type": "MultiPolygon", "coordinates": [[[[113.9483286, 22.5278248], [113.9483548, 22.5278243], [113.9483539, 22.5277837], [113.9484553, 22.5277817], [113.9484549, 22.5277649], [113.9485157, 22.5277637], [113.948516, 22.5277755], [113.9486157, 22.5277736], [113.9486165, 22.5278055], [113.948626, 22.5278053], [113.9486272, 22.527858], [113.948603, 22.5278585], [113.9486034, 22.5278745], [113.9485762, 22.5278751], [113.948577, 22.527908], [113.9484006, 22.5279114], [113.9483999, 22.527878], [113.9483635, 22.5278787], [113.9483476, 22.5278542], [113.9483286, 22.5278248]]]]}}, {"type": "Feature", "id": "way/1023578635", "properties": {"tags": {"building": "residential", "building:levels": "22", "name": "2栋"}, "heightStatus": "levels_only_unverified", "source": "OpenStreetMap", "license": "ODbL-1.0"}, "geometry": {"type": "MultiPolygon", "coordinates": [[[[113.9480996, 22.5295832], [113.9481202, 22.5295538], [113.9481437, 22.5295525], [113.9481429, 22.5295406], [113.9481747, 22.5295388], [113.9481735, 22.5295205], [113.9483074, 22.5294998], [113.9483769, 22.5294959], [113.9483817, 22.5295607], [113.9484034, 22.5295839], [113.9484199, 22.5295707], [113.9483997, 22.5295491], [113.9484386, 22.5295179], [113.9484729, 22.5295545], [113.9485564, 22.5296852], [113.9485271, 22.5297087], [113.9485367, 22.5297191], [113.9485227, 22.5297444], [113.9485148, 22.5297357], [113.9484734, 22.5297688], [113.9483702, 22.5296585], [113.9482641, 22.5296288], [113.9481363, 22.529636], [113.9481327, 22.5295813], [113.9480996, 22.5295832]]]]}}, {"type": "Feature", "id": "way/1023578636", "properties": {"tags": {"building": "residential", "building:levels": "22", "name": "1栋"}, "heightStatus": "levels_only_unverified", "source": "OpenStreetMap", "license": "ODbL-1.0"}, "geometry": {"type": "MultiPolygon", "coordinates": [[[[113.9478822, 22.52942], [113.9479562, 22.5293623], [113.9479806, 22.529389], [113.9480213, 22.5293572], [113.9481504, 22.5294984], [113.9481191, 22.5295229], [113.9481318, 22.5295368], [113.9481202, 22.5295538], [113.9480996, 22.5295832], [113.9480912, 22.5295747], [113.9480586, 22.5296001], [113.9480049, 22.5295415], [113.9479562, 22.5295795], [113.947924, 22.5295442], [113.947921, 22.5295385], [113.9479198, 22.529533], [113.9479198, 22.5295257], [113.9479218, 22.5295197], [113.9479272, 22.5295104], [113.9479122, 22.5294939], [113.9479341, 22.5294768], [113.9478822, 22.52942]]]]}}, {"type": "Feature", "id": "way/1023578637", "properties": {"tags": {"building": "residential", "building:levels": "18", "name": "3栋"}, "heightStatus": "levels_only_unverified", "source": "OpenStreetMap", "license": "ODbL-1.0"}, "geometry": {"type": "MultiPolygon", "coordinates": [[[[113.9485057, 22.529775], [113.9485227, 22.5297444], [113.9485367, 22.5297191], [113.9485731, 22.5297175], [113.9485714, 22.5296842], [113.9487476, 22.5296767], [113.9487493, 22.5297096], [113.9487764, 22.5297085], [113.9487772, 22.5297245], [113.9488014, 22.5297235], [113.948804, 22.5297762], [113.9487944, 22.5297766], [113.948796, 22.5298085], [113.9486963, 22.5298126], [113.9486968, 22.5298245], [113.9486361, 22.529827], [113.9486353, 22.5298102], [113.9485339, 22.5298144], [113.948532, 22.5297739], [113.9485057, 22.529775]]]]}}, {"type": "Feature", "id": "way/1023578638", "properties": {"tags": {"building": "retail", "building:levels": "2"}, "heightStatus": "levels_only_unverified", "source": "OpenStreetMap", "license": "ODbL-1.0"}, "geometry": {"type": "MultiPolygon", "coordinates": [[[[113.9477427, 22.5279738], [113.9477441, 22.5277679], [113.9477562, 22.527768], [113.9477597, 22.527746], [113.9477708, 22.527726], [113.9477883, 22.5277104], [113.9478103, 22.5277008], [113.9478348, 22.5276984], [113.9478587, 22.5277004], [113.9478592, 22.5276829], [113.9481766, 22.5276848], [113.9481762, 22.527747], [113.94823, 22.5277473], [113.9482297, 22.5277931], [113.9481515, 22.5277927], [113.9481513, 22.5278209], [113.9481022, 22.5278521], [113.9480452, 22.5278814], [113.9479916, 22.5279052], [113.9479408, 22.5279237], [113.9478922, 22.5279397], [113.9478359, 22.5279547], [113.9478358, 22.5279743], [113.9477427, 22.5279738]]]]}}, {"type": "Feature", "id": "way/1023578639", "properties": {"tags": {"building": "yes", "building:levels": "2"}, "heightStatus": "levels_only_unverified", "source": "OpenStreetMap", "license": "ODbL-1.0"}, "geometry": {"type": "MultiPolygon", "coordinates": [[[[113.9487166, 22.5289651], [113.9489598, 22.5288648], [113.9489543, 22.5288569], [113.948951, 22.528848], [113.94895, 22.5288386], [113.948952, 22.5288276], [113.9489572, 22.5288176], [113.9489663, 22.5288086], [113.9489779, 22.5288026], [113.9489336, 22.5287286], [113.9489044, 22.5287207], [113.9488753, 22.5287084], [113.9488456, 22.5286909], [113.9488135, 22.5286686], [113.9487875, 22.5286455], [113.9487638, 22.5286193], [113.9487445, 22.5285904], [113.9487334, 22.528565], [113.9487689, 22.5285761], [113.9487838, 22.5285352], [113.9490612, 22.5286164], [113.9490531, 22.5286385], [113.949141, 22.5287833], [113.9491486, 22.5288019], [113.9491538, 22.5288246], [113.9491552, 22.5288501], [113.9491528, 22.5288738], [113.9491485, 22.5288912], [113.9491397, 22.5289094], [113.9491257, 22.5289272], [113.9491124, 22.5289416], [113.9490931, 22.5289575], [113.9490712, 22.5289713], [113.949085, 22.5289997], [113.9487918, 22.5291207], [113.9487166, 22.5289651]]]]}}, {"type": "Feature", "id": "way/1269014664", "properties": {"tags": {"building": "retail", "building:levels": "2", "height": "10"}, "heightStatus": "height_tag_unverified", "source": "OpenStreetMap", "license": "ODbL-1.0"}, "geometry": {"type": "MultiPolygon", "coordinates": [[[[113.9465404, 22.5276787], [113.9465408, 22.527654], [113.94723, 22.5276635], [113.9473526, 22.5277648], [113.9473467, 22.5281309], [113.9472021, 22.5281289], [113.9472075, 22.52779], [113.9471622, 22.5277893], [113.9471639, 22.5276872], [113.9465404, 22.5276787]]]]}}, {"type": "Feature", "id": "way/1270022656", "properties": {"tags": {"addr:city": "深圳市", "addr:district": "南山区", "addr:housenumber": "1801", "addr:province": "广东省", "addr:street": "沙河西路", "building": "commercial", "building:levels": "23", "building:material": "glass", "name": "国实大厦"}, "heightStatus": "levels_only_unverified", "source": "OpenStreetMap", "license": "ODbL-1.0"}, "geometry": {"type": "MultiPolygon", "coordinates": [[[[113.9486153, 22.5271965], [113.9486192, 22.5268603], [113.9489556, 22.5268636], [113.9489516, 22.5271999], [113.9486153, 22.5271965]]]]}}, {"type": "Feature", "id": "way/1270022662", "properties": {"tags": {"building": "apartments", "building:levels": "31", "name": "1栋"}, "heightStatus": "levels_only_unverified", "source": "OpenStreetMap", "license": "ODbL-1.0"}, "geometry": {"type": "MultiPolygon", "coordinates": [[[[113.9477898, 22.5270606], [113.9478697, 22.5269868], [113.9479796, 22.5270884], [113.9480064, 22.5270889], [113.9480075, 22.5270285], [113.9481496, 22.5270307], [113.9481486, 22.5270818], [113.9481953, 22.5270825], [113.9481946, 22.5271213], [113.94831, 22.5271231], [113.9483088, 22.5271947], [113.9479286, 22.5271889], [113.9477898, 22.5270606]]]]}}]}