{"type": "FeatureCollection", "features": [{"type": "Feature", "id": "way/555611463", "properties": {"tags": {"amenity": "shelter", "bench": "yes", "bin": "yes", "building": "hut", "shelter_type": "pavilion"}, "heightStatus": "unknown", "source": "OpenStreetMap", "license": "ODbL-1.0"}, "geometry": {"type": "MultiPolygon", "coordinates": [[[[113.9495293, 22.5103389], [113.94955, 22.5102845], [113.9496545, 22.51031], [113.9497578, 22.5103546], [113.9497309, 22.5104142], [113.9496295, 22.5103673], [113.9495293, 22.5103389]]]]}}, {"type": "Feature", "id": "way/555611464", "properties": {"tags": {"amenity": "shelter", "bench": "yes", "bin": "yes", "building": "hut", "shelter_type": "pavilion"}, "heightStatus": "unknown", "source": "OpenStreetMap", "license": "ODbL-1.0"}, "geometry": {"type": "MultiPolygon", "coordinates": [[[[113.9496131, 22.5099749], [113.9496215, 22.5099129], [113.9497287, 22.5099257], [113.9498416, 22.5099183], [113.9498401, 22.5099845], [113.949728, 22.5099892], [113.9496131, 22.5099749]]]]}}, {"type": "Feature", "id": "way/555625956", "properties": {"tags": {"access": "yes", "amenity": "toilets", "building": "yes", "toilets:disposal": "flush", "unisex": "yes"}, "heightStatus": "unknown", "source": "OpenStreetMap", "license": "ODbL-1.0"}, "geometry": {"type": "MultiPolygon", "coordinates": [[[[113.9497138, 22.5096874], [113.949718, 22.5096598], [113.9497323, 22.5096474], [113.9497493, 22.5096367], [113.9497683, 22.5096293], [113.9497904, 22.509626], [113.9498085, 22.5096335], [113.9498226, 22.5096466], [113.9498379, 22.5096796], [113.9498427, 22.5096907], [113.9498401, 22.5097087], [113.9498325, 22.5097222], [113.949823, 22.5097324], [113.94981, 22.509741], [113.9497923, 22.5097451], [113.9497746, 22.5097467], [113.9497556, 22.5097426], [113.949737, 22.5097299], [113.9497286, 22.5097136], [113.9497138, 22.5096874]]]]}}, {"type": "Feature", "id": "way/1436698506", "properties": {"tags": {"building": "yes"}, "heightStatus": "unknown", "source": "OpenStreetMap", "license": "ODbL-1.0"}, "geometry": {"type": "MultiPolygon", "coordinates": [[[[113.9495139, 22.5105879], [113.9495201, 22.5105679], [113.9495697, 22.5105335], [113.9495852, 22.5105306], [113.9496056, 22.5105395], [113.9496367, 22.5105518], [113.9496453, 22.5105769], [113.9496443, 22.5106024], [113.9496429, 22.5106285], [113.9496377, 22.5106378], [113.9495935, 22.5106594], [113.9495731, 22.510662], [113.9495513, 22.5106517], [113.9495168, 22.5106069], [113.9495139, 22.5105879]]]]}}]}