{"type": "FeatureCollection", "features": [{"type": "Feature", "id": "way/1484052082", "properties": {"tags": {"building": "yes"}, "heightStatus": "unknown", "source": "OpenStreetMap", "license": "ODbL-1.0"}, "geometry": {"type": "MultiPolygon", "coordinates": [[[[113.9483593, 22.6249258], [113.948417, 22.624864], [113.9484666, 22.6249033], [113.948409, 22.6249652], [113.9483593, 22.6249258]]]]}}, {"type": "Feature", "id": "way/1484052083", "properties": {"tags": {"building": "yes"}, "heightStatus": "unknown", "source": "OpenStreetMap", "license": "ODbL-1.0"}, "geometry": {"type": "MultiPolygon", "coordinates": [[[[113.9482842, 22.6250199], [113.9483486, 22.6249667], [113.9484035, 22.6250232], [113.9483391, 22.6250765], [113.9482842, 22.6250199]]]]}}, {"type": "Feature", "id": "way/1484052084", "properties": {"tags": {"building": "yes"}, "heightStatus": "unknown", "source": "OpenStreetMap", "license": "ODbL-1.0"}, "geometry": {"type": "MultiPolygon", "coordinates": [[[[113.947788, 22.6250224], [113.9478072, 22.624946], [113.9479172, 22.6249695], [113.947898, 22.6250459], [113.947788, 22.6250224]]]]}}, {"type": "Feature", "id": "way/1484052085", "properties": {"tags": {"building": "roof"}, "heightStatus": "unknown", "source": "OpenStreetMap", "license": "ODbL-1.0"}, "geometry": {"type": "MultiPolygon", "coordinates": [[[[113.9478323, 22.6245384], [113.9479714, 22.6244525], [113.9480934, 22.6246208], [113.9479543, 22.6247067], [113.9478323, 22.6245384]]]]}}, {"type": "Feature", "id": "way/1484052093", "properties": {"tags": {"building": "yes"}, "heightStatus": "unknown", "source": "OpenStreetMap", "license": "ODbL-1.0"}, "geometry": {"type": "MultiPolygon", "coordinates": [[[[113.9529768, 22.6257936], [113.953134, 22.6257379], [113.9531715, 22.6258283], [113.9530143, 22.625884], [113.9529768, 22.6257936]]]]}}]}