{"type": "FeatureCollection", "features": [{"type": "Feature", "id": "way/232498499", "properties": {"tags": {"building": "yes"}, "heightStatus": "unknown", "source": "OpenStreetMap", "license": "ODbL-1.0"}, "geometry": {"type": "MultiPolygon", "coordinates": [[[[113.9415374, 22.4999268], [113.9415448, 22.4996119], [113.9417004, 22.499615], [113.9416931, 22.4999298], [113.9415374, 22.4999268]]]]}}, {"type": "Feature", "id": "way/232498501", "properties": {"tags": {"building": "yes", "building:levels": "1", "name": "深圳湾口岸（5号楼）"}, "heightStatus": "levels_only_unverified", "source": "OpenStreetMap", "license": "ODbL-1.0"}, "geometry": {"type": "MultiPolygon", "coordinates": [[[[113.9429906, 22.5001625], [113.9430085, 22.4990536], [113.9432565, 22.499057], [113.9432386, 22.5001659], [113.9430901, 22.5001634], [113.9430139, 22.5001622], [113.9429906, 22.5001625]]]]}}, {"type": "Feature", "id": "way/232498503", "properties": {"tags": {"building": "yes", "building:levels": "2", "name": "深圳湾口岸（11号楼）"}, "heightStatus": "levels_only_unverified", "source": "OpenStreetMap", "license": "ODbL-1.0"}, "geometry": {"type": "MultiPolygon", "coordinates": [[[[113.9417849, 22.4989471], [113.9417882, 22.4987587], [113.942699, 22.4987669], [113.9427455, 22.4987681], [113.9427437, 22.4989553], [113.941919, 22.4989482], [113.9417849, 22.4989471]]]]}}, {"type": "Feature", "id": "way/232498509", "properties": {"tags": {"building": "yes"}, "heightStatus": "unknown", "source": "OpenStreetMap", "license": "ODbL-1.0"}, "geometry": {"type": "MultiPolygon", "coordinates": [[[[113.9441354, 22.4968684], [113.9442977, 22.4968684], [113.9442977, 22.4970459], [113.9442977, 22.4971372], [113.94416, 22.4971372], [113.9441354, 22.4971372], [113.9441354, 22.4968684]]]]}}, {"type": "Feature", "id": "way/246096301", "properties": {"tags": {"building": "yes"}, "heightStatus": "unknown", "source": "OpenStreetMap", "license": "ODbL-1.0"}, "geometry": {"type": "MultiPolygon", "coordinates": [[[[113.9418531, 22.4979615], [113.9418589, 22.4976894], [113.9420171, 22.497692], [113.9420145, 22.4979646], [113.9418531, 22.4979615]]]]}}, {"type": "Feature", "id": "way/246096303", "properties": {"tags": {"building": "yes"}, "heightStatus": "unknown", "source": "OpenStreetMap", "license": "ODbL-1.0"}, "geometry": {"type": "MultiPolygon", "coordinates": [[[[113.9422704, 22.4951532], [113.9422736, 22.4950142], [113.942516, 22.4950189], [113.9425128, 22.4951579], [113.9422704, 22.4951532]]]]}}, {"type": "Feature", "id": "way/246096304", "properties": {"tags": {"building": "roof", "layer": "1"}, "heightStatus": "unknown", "source": "OpenStreetMap", "license": "ODbL-1.0"}, "geometry": {"type": "MultiPolygon", "coordinates": [[[[113.9402793, 22.4978899], [113.9402832, 22.4976708], [113.9407029, 22.4976772], [113.9413935, 22.4976877], [113.9415045, 22.4976893], [113.9416084, 22.4976909], [113.9417714, 22.4976934], [113.9417675, 22.4979125], [113.9416086, 22.4979101], [113.9415008, 22.4979085], [113.9413898, 22.4979068], [113.9406994, 22.4978963], [113.9402793, 22.4978899]]]]}}, {"type": "Feature", "id": "way/246096308", "properties": {"tags": {"building": "roof", "layer": "1"}, "heightStatus": "unknown", "source": "OpenStreetMap", "license": "ODbL-1.0"}, "geometry": {"type": "MultiPolygon", "coordinates": [[[[113.9441852, 22.4990578], [113.944189, 22.4988437], [113.944979, 22.4988557], [113.9456151, 22.4988653], [113.9456112, 22.4990795], [113.9449758, 22.4990698], [113.9441852, 22.4990578]]]]}}, {"type": "Feature", "id": "way/246096311", "properties": {"tags": {"building": "yes"}, "heightStatus": "unknown", "source": "OpenStreetMap", "license": "ODbL-1.0"}, "geometry": {"type": "MultiPolygon", "coordinates": [[[[113.941761, 22.4956081], [113.9417611, 22.495561], [113.9417614, 22.4953444], [113.9419253, 22.4953447], [113.941925, 22.4955647], [113.9419249, 22.4956083], [113.941761, 22.4956081]]]]}}, {"type": "Feature", "id": "way/246096313", "properties": {"tags": {"building": "roof", "layer": "1"}, "heightStatus": "unknown", "source": "OpenStreetMap", "license": "ODbL-1.0"}, "geometry": {"type": "MultiPolygon", "coordinates": [[[[113.9444233, 22.4971192], [113.9444246, 22.4970459], [113.944427, 22.4969024], [113.945013, 22.4969109], [113.9456447, 22.4969201], [113.945641, 22.4971369], [113.9450118, 22.4971278], [113.9444233, 22.4971192]]]]}}, {"type": "Feature", "id": "way/246096323", "properties": {"tags": {"building": "yes", "name": "深圳湾口岸（4号楼）", "name:zh": "深圳湾口岸（4号楼）", "name:zh-Hans": "深圳湾口岸（4号楼）", "name:zh-Hant": "深圳灣口岸（4號樓）"}, "heightStatus": "unknown", "source": "OpenStreetMap", "license": "ODbL-1.0"}, "geometry": {"type": "MultiPolygon", "coordinates": [[[[113.9440139, 22.4991282], [113.9440176, 22.4988412], [113.944189, 22.4988437], [113.9441852, 22.4990578], [113.9441832, 22.4991303], [113.9440139, 22.4991282]]]]}}, {"type": "Feature", "id": "way/246096325", "properties": {"tags": {"building": "roof", "layer": "1"}, "heightStatus": "unknown", "source": "OpenStreetMap", "license": "ODbL-1.0"}, "geometry": {"type": "MultiPolygon", "coordinates": [[[[113.9403211, 22.4957053], [113.9403244, 22.4954885], [113.9407374, 22.495494], [113.9415506, 22.4955048], [113.9415497, 22.495561], [113.9415472, 22.4957216], [113.940734, 22.4957108], [113.9403211, 22.4957053]]]]}}, {"type": "Feature", "id": "way/247359120", "properties": {"tags": {"building": "yes"}, "heightStatus": "unknown", "source": "OpenStreetMap", "license": "ODbL-1.0"}, "geometry": {"type": "MultiPolygon", "coordinates": [[[[113.943026, 22.4952437], [113.9432075, 22.4952454], [113.943206, 22.495487], [113.9432058, 22.49553], [113.9430532, 22.4955302], [113.9430264, 22.4955302], [113.943026, 22.4952437]]]]}}, {"type": "Feature", "id": "way/247441977", "properties": {"tags": {"building": "yes"}, "heightStatus": "unknown", "source": "OpenStreetMap", "license": "ODbL-1.0"}, "geometry": {"type": "MultiPolygon", "coordinates": [[[[113.9415367, 22.4963812], [113.9415378, 22.4963297], [113.9416398, 22.4963315], [113.9416387, 22.4963831], [113.9415367, 22.4963812]]]]}}, {"type": "Feature", "id": "way/247441978", "properties": {"tags": {"building": "yes"}, "heightStatus": "unknown", "source": "OpenStreetMap", "license": "ODbL-1.0"}, "geometry": {"type": "MultiPolygon", "coordinates": [[[[113.9417194, 22.4963315], [113.9417214, 22.4962068], [113.9417898, 22.4962078], [113.9417877, 22.4963325], [113.9417194, 22.4963315]]]]}}, {"type": "Feature", "id": "way/247441979", "properties": {"tags": {"building": "yes"}, "heightStatus": "unknown", "source": "OpenStreetMap", "license": "ODbL-1.0"}, "geometry": {"type": "MultiPolygon", "coordinates": [[[[113.9416895, 22.4960815], [113.9416904, 22.4959387], [113.9417615, 22.4959391], [113.9417606, 22.4960819], [113.9416895, 22.4960815]]]]}}, {"type": "Feature", "id": "way/325410485", "properties": {"tags": {"building": "depot", "depot": "subway", "layer": "1", "name": "深圳地铁后海停车场", "operator": "Shenzhen Metro Corporation"}, "heightStatus": "unknown", "source": "OpenStreetMap", "license": "ODbL-1.0"}, "geometry": {"type": "MultiPolygon", "coordinates": [[[[113.9392214, 22.5011055], [113.9392668, 22.4987797], [113.9394423, 22.498782], [113.9394443, 22.4985792], [113.9393879, 22.498357], [113.9394048, 22.4975412], [113.9394341, 22.4960297], [113.9394655, 22.4945262], [113.9397728, 22.4945281], [113.9399018, 22.4945288], [113.9399859, 22.4945294], [113.9399788, 22.4946994], [113.9400109, 22.4950066], [113.9400913, 22.495007], [113.9400686, 22.4961127], [113.9399518, 22.4962862], [113.9399408, 22.4969281], [113.9399665, 22.4970628], [113.9400725, 22.4970649], [113.9400214, 22.4996815], [113.9399348, 22.4996795], [113.9398599, 22.5038286], [113.939375, 22.5038248], [113.9393766, 22.5037288], [113.9393769, 22.5037119], [113.9394133, 22.5014629], [113.9394185, 22.5011087], [113.9392214, 22.5011055]]]]}}, {"type": "Feature", "id": "way/328437011", "properties": {"tags": {"building": "roof", "layer": "1"}, "heightStatus": "unknown", "source": "OpenStreetMap", "license": "ODbL-1.0"}, "geometry": {"type": "MultiPolygon", "coordinates": [[[[113.9430407, 22.4963152], [113.9430532, 22.4955302], [113.9432058, 22.49553], [113.9432252, 22.4955309], [113.943215, 22.4963154], [113.9430407, 22.4963152]]]]}}, {"type": "Feature", "id": "relation/10088583", "properties": {"tags": {"building": "school"}, "heightStatus": "unknown", "source": "OpenStreetMap", "license": "ODbL-1.0"}, "geometry": {"type": "MultiPolygon", "coordinates": [[[[113.9382125, 22.4983511], [113.9382151, 22.4978876], [113.9387398, 22.4978901], [113.9387372, 22.4983536], [113.93868, 22.4983533], [113.9386237, 22.4983531], [113.9383065, 22.4983515], [113.9382527, 22.4983513], [113.9382125, 22.4983511]], [[113.9383186, 22.4982433], [113.9386468, 22.4982455], [113.9386488, 22.4979921], [113.9383206, 22.4979899], [113.9383186, 22.4982433]]]]}}, {"type": "Feature", "id": "relation/10088584", "properties": {"tags": {"building": "school"}, "heightStatus": "unknown", "source": "OpenStreetMap", "license": "ODbL-1.0"}, "geometry": {"type": "MultiPolygon", "coordinates": [[[[113.9380497, 22.5000842], [113.9382186, 22.4997183], [113.938272, 22.4997194], [113.9383202, 22.4997202], [113.9386055, 22.4997263], [113.9386551, 22.4997266], [113.9387044, 22.4997279], [113.9386961, 22.5001574], [113.9386502, 22.5001567], [113.9386306, 22.5002016], [113.9386834, 22.5002224], [113.93864, 22.5003165], [113.9380497, 22.5000842]], [[113.9381751, 22.5000208], [113.9385887, 22.5001835], [113.9386023, 22.5001551], [113.9386085, 22.4998262], [113.9382673, 22.4998206], [113.9381751, 22.5000208]]]]}}, {"type": "Feature", "id": "relation/10088585", "properties": {"tags": {"building": "school"}, "heightStatus": "unknown", "source": "OpenStreetMap", "license": "ODbL-1.0"}, "geometry": {"type": "MultiPolygon", "coordinates": [[[[113.9381951, 22.4993988], [113.9382042, 22.4986639], [113.9382478, 22.4986644], [113.9383017, 22.4986649], [113.9386187, 22.4986683], [113.9386749, 22.4986689], [113.938721, 22.4986694], [113.9387118, 22.4994042], [113.9386572, 22.4994036], [113.9386076, 22.4994033], [113.9383243, 22.4994003], [113.9382761, 22.4993995], [113.9381951, 22.4993988]], [[113.9383157, 22.499294], [113.938621, 22.4992974], [113.9386224, 22.499188], [113.9384902, 22.4991867], [113.938494, 22.4988793], [113.9386264, 22.4988807], [113.9386279, 22.4987636], [113.9383227, 22.4987602], [113.9383157, 22.499294]]]]}}, {"type": "Feature", "id": "way/729188509", "properties": {"tags": {"building": "school"}, "heightStatus": "unknown", "source": "OpenStreetMap", "license": "ODbL-1.0"}, "geometry": {"type": "MultiPolygon", "coordinates": [[[[113.9382478, 22.4986644], [113.9382527, 22.4983513], [113.9383065, 22.4983515], [113.9383017, 22.4986649], [113.9382478, 22.4986644]]]]}}, {"type": "Feature", "id": "way/729188510", "properties": {"tags": {"building": "school"}, "heightStatus": "unknown", "source": "OpenStreetMap", "license": "ODbL-1.0"}, "geometry": {"type": "MultiPolygon", "coordinates": [[[[113.9386187, 22.4986683], [113.9386237, 22.4983531], [113.93868, 22.4983533], [113.9386749, 22.4986689], [113.9386187, 22.4986683]]]]}}, {"type": "Feature", "id": "way/729188511", "properties": {"tags": {"building": "school"}, "heightStatus": "unknown", "source": "OpenStreetMap", "license": "ODbL-1.0"}, "geometry": {"type": "MultiPolygon", "coordinates": [[[[113.938272, 22.4997194], [113.9382761, 22.4993995], [113.9383243, 22.4994003], [113.9383202, 22.4997202], [113.938272, 22.4997194]]]]}}, {"type": "Feature", "id": "way/729188512", "properties": {"tags": {"building": "school"}, "heightStatus": "unknown", "source": "OpenStreetMap", "license": "ODbL-1.0"}, "geometry": {"type": "MultiPolygon", "coordinates": [[[[113.9386055, 22.4997263], [113.9386076, 22.4994033], [113.9386572, 22.4994036], [113.9386551, 22.4997266], [113.9386055, 22.4997263]]]]}}, {"type": "Feature", "id": "way/729188517", "properties": {"tags": {"building": "school"}, "heightStatus": "unknown", "source": "OpenStreetMap", "license": "ODbL-1.0"}, "geometry": {"type": "MultiPolygon", "coordinates": [[[[113.9380643, 22.4958434], [113.9380732, 22.4954252], [113.9388326, 22.4954391], [113.9388201, 22.496025], [113.9388181, 22.4961172], [113.9380723, 22.4961037], [113.9380748, 22.4959878], [113.9382255, 22.4959906], [113.9382285, 22.4958464], [113.9380643, 22.4958434]]]]}}, {"type": "Feature", "id": "way/729188524", "properties": {"tags": {"building": "school", "leisure": "sports_hall", "name": "南馆", "name:en": "South Building", "name:zh": "南馆"}, "heightStatus": "unknown", "source": "OpenStreetMap", "license": "ODbL-1.0"}, "geometry": {"type": "MultiPolygon", "coordinates": [[[[113.9380774, 22.4975223], [113.9380848, 22.4969341], [113.9380963, 22.4969157], [113.9381126, 22.4969006], [113.9381325, 22.49689], [113.9387464, 22.4968957], [113.9387664, 22.4969064], [113.9387827, 22.4969215], [113.9387943, 22.49694], [113.938787, 22.4975295], [113.9387753, 22.4975469], [113.9387589, 22.4975619], [113.9387389, 22.4975726], [113.9381249, 22.4975665], [113.938105, 22.4975558], [113.9380888, 22.4975407], [113.9380774, 22.4975223]]]]}}, {"type": "Feature", "id": "way/1164685143", "properties": {"tags": {"building": "yes"}, "heightStatus": "unknown", "source": "OpenStreetMap", "license": "ODbL-1.0"}, "geometry": {"type": "MultiPolygon", "coordinates": [[[[113.9426737, 22.4977709], [113.9426838, 22.4972948], [113.9428412, 22.4972976], [113.9428311, 22.4977737], [113.9426737, 22.4977709]]]]}}, {"type": "Feature", "id": "way/1281823752", "properties": {"tags": {"building": "grandstand", "layer": "2"}, "heightStatus": "unknown", "source": "OpenStreetMap", "license": "ODbL-1.0"}, "geometry": {"type": "MultiPolygon", "coordinates": [[[[113.9395268, 22.4942662], [113.9395996, 22.4938245], [113.9396523, 22.4941503], [113.9396839, 22.4941892], [113.9397702, 22.4942494], [113.9397932, 22.4942618], [113.9398047, 22.4942777], [113.9398056, 22.4943114], [113.9397889, 22.4947598], [113.9397764, 22.4950991], [113.9397175, 22.4950568], [113.9397042, 22.495044], [113.9396965, 22.4950293], [113.9396908, 22.4950103], [113.9396898, 22.4949889], [113.9396935, 22.4947337], [113.9395268, 22.4942662]]]]}}, {"type": "Feature", "id": "way/1281836551", "properties": {"tags": {"building": "grandstand", "layer": "2"}, "heightStatus": "unknown", "source": "OpenStreetMap", "license": "ODbL-1.0"}, "geometry": {"type": "MultiPolygon", "coordinates": [[[[113.9398763, 22.4994019], [113.9398857, 22.4987209], [113.9400015, 22.4987206], [113.9399919, 22.499279], [113.9399861, 22.4993129], [113.9399721, 22.4993471], [113.9399562, 22.499375], [113.9399324, 22.4994049], [113.9398763, 22.4994019]]]]}}, {"type": "Feature", "id": "way/1281836563", "properties": {"tags": {"building": "depot", "depot": "subway", "layer": "1"}, "heightStatus": "unknown", "source": "OpenStreetMap", "license": "ODbL-1.0"}, "geometry": {"type": "MultiPolygon", "coordinates": [[[[113.9394665, 22.4943867], [113.9394902, 22.4931065], [113.939491, 22.493062], [113.9400139, 22.4930654], [113.9399869, 22.4943899], [113.9399043, 22.4943894], [113.9397738, 22.4943886], [113.9394665, 22.4943867]]]]}}, {"type": "Feature", "id": "way/1282945771", "properties": {"tags": {"addr:housename": "鸿威海怡湾", "addr:housename:en": "Hongwei Haiyi Bay", "addr:housename:zh": "鸿威海怡湾", "building": "apartments", "building:levels": "24", "name": "I栋", "name:en": "Block I", "name:zh": "I栋"}, "heightStatus": "levels_only_unverified", "source": "OpenStreetMap", "license": "ODbL-1.0"}, "geometry": {"type": "MultiPolygon", "coordinates": [[[[113.9377658, 22.495129], [113.937851, 22.4950682], [113.9377796, 22.4949829], [113.9378794, 22.4949117], [113.9379434, 22.4949882], [113.9380482, 22.4949135], [113.9381265, 22.4950073], [113.9380191, 22.4950838], [113.938086, 22.495164], [113.9380089, 22.495219], [113.9379345, 22.4951301], [113.9378294, 22.4952051], [113.9377658, 22.495129]]]]}}, {"type": "Feature", "id": "way/1282945772", "properties": {"tags": {"addr:housename": "鸿威海怡湾", "addr:housename:en": "Hongwei Haiyi Bay", "addr:housename:zh": "鸿威海怡湾", "building": "apartments", "building:levels": "24", "name": "H栋", "name:en": "Block H", "name:zh": "H栋"}, "heightStatus": "levels_only_unverified", "source": "OpenStreetMap", "license": "ODbL-1.0"}, "geometry": {"type": "MultiPolygon", "coordinates": [[[[113.9378522, 22.4946807], [113.9379269, 22.4946269], [113.9378548, 22.4945414], [113.9379556, 22.4944687], [113.9380184, 22.494543], [113.9381242, 22.4944668], [113.9382004, 22.494557], [113.9380984, 22.4946305], [113.9381701, 22.4947154], [113.9380961, 22.4947688], [113.9380216, 22.4946807], [113.9379163, 22.4947566], [113.9378522, 22.4946807]]]]}}, {"type": "Feature", "id": "way/1282945773", "properties": {"tags": {"addr:housename": "鸿威海怡湾", "addr:housename:en": "Hongwei Haiyi Bay", "addr:housename:zh": "鸿威海怡湾", "building": "apartments", "building:levels": "24", "name": "G栋", "name:en": "Block G", "name:zh": "G栋"}, "heightStatus": "levels_only_unverified", "source": "OpenStreetMap", "license": "ODbL-1.0"}, "geometry": {"type": "MultiPolygon", "coordinates": [[[[113.9380113, 22.4942224], [113.9380952, 22.4941615], [113.9380225, 22.494076], [113.9381239, 22.4940024], [113.9381874, 22.4940771], [113.938286, 22.4940056], [113.9383651, 22.4940987], [113.9382565, 22.4941775], [113.9383236, 22.4942564], [113.9382537, 22.4943071], [113.9381792, 22.4942195], [113.9380738, 22.494296], [113.9380113, 22.4942224]]]]}}, {"type": "Feature", "id": "way/1282945774", "properties": {"tags": {"addr:housename": "鸿威海怡湾", "addr:housename:en": "Hongwei Haiyi Bay", "addr:housename:zh": "鸿威海怡湾", "building": "apartments", "building:levels": "24", "name": "F栋", "name:en": "Block F", "name:zh": "F栋"}, "heightStatus": "levels_only_unverified", "source": "OpenStreetMap", "license": "ODbL-1.0"}, "geometry": {"type": "MultiPolygon", "coordinates": [[[[113.9380649, 22.4937681], [113.9381485, 22.4937072], [113.9380755, 22.4936216], [113.9381777, 22.4935471], [113.9382455, 22.4936266], [113.9383451, 22.493554], [113.9384185, 22.4936401], [113.9383073, 22.4937212], [113.9383762, 22.4938019], [113.9383075, 22.493852], [113.9382329, 22.4937647], [113.9381276, 22.4938415], [113.9380649, 22.4937681]]]]}}, {"type": "Feature", "id": "way/1282945775", "properties": {"tags": {"addr:housename": "鸿威海怡湾", "addr:housename:en": "Hongwei Haiyi Bay", "addr:housename:zh": "鸿威海怡湾", "building": "apartments", "name": "E栋", "name:en": "Block E", "name:zh": "E栋"}, "heightStatus": "unknown", "source": "OpenStreetMap", "license": "ODbL-1.0"}, "geometry": {"type": "MultiPolygon", "coordinates": [[[[113.9378734, 22.4930804], [113.9379504, 22.4930262], [113.9380123, 22.4931013], [113.9381295, 22.4930189], [113.9381922, 22.4930949], [113.9380746, 22.4931776], [113.9381527, 22.4932723], [113.9380761, 22.4933262], [113.9378734, 22.4930804]]]]}}, {"type": "Feature", "id": "way/1282945776", "properties": {"tags": {"addr:housename": "鸿威海怡湾", "addr:housename:en": "Hongwei Haiyi Bay", "addr:housename:zh": "鸿威海怡湾", "building": "apartments", "building:levels": "24", "name": "D栋", "name:en": "Block D", "name:zh": "D栋"}, "heightStatus": "levels_only_unverified", "source": "OpenStreetMap", "license": "ODbL-1.0"}, "geometry": {"type": "MultiPolygon", "coordinates": [[[[113.937659, 22.4928217], [113.9377372, 22.4927665], [113.9377997, 22.4928421], [113.9379235, 22.4927546], [113.9379966, 22.4928431], [113.9378722, 22.4929309], [113.9379504, 22.4930262], [113.9378734, 22.4930804], [113.937659, 22.4928217]]]]}}, {"type": "Feature", "id": "way/1282945777", "properties": {"tags": {"addr:housename": "鸿威海怡湾", "addr:housename:en": "Hongwei Haiyi Bay", "addr:housename:zh": "鸿威海怡湾", "building": "apartments", "building:levels": "24", "name": "C栋", "name:en": "Block C", "name:zh": "C栋"}, "heightStatus": "levels_only_unverified", "source": "OpenStreetMap", "license": "ODbL-1.0"}, "geometry": {"type": "MultiPolygon", "coordinates": [[[[113.9375545, 22.4923311], [113.9376472, 22.4922697], [113.9377426, 22.4923926], [113.9378465, 22.4923237], [113.9379099, 22.4924054], [113.9376299, 22.4925908], [113.9375619, 22.4925032], [113.9376453, 22.492448], [113.9375545, 22.4923311]]]]}}, {"type": "Feature", "id": "way/1282945778", "properties": {"tags": {"addr:housename": "鸿威海怡湾", "addr:housename:en": "Hongwei Haiyi Bay", "addr:housename:zh": "鸿威海怡湾", "building": "apartments", "building:levels": "18", "name": "B栋", "name:en": "Block B", "name:zh": "B栋"}, "heightStatus": "levels_only_unverified", "source": "OpenStreetMap", "license": "ODbL-1.0"}, "geometry": {"type": "MultiPolygon", "coordinates": [[[[113.9378186, 22.491846], [113.9379227, 22.4917715], [113.9379922, 22.4918545], [113.9380929, 22.4917824], [113.9381651, 22.4918686], [113.9380513, 22.4919501], [113.9381321, 22.4920464], [113.9380404, 22.4921114], [113.9378186, 22.491846]]]]}}, {"type": "Feature", "id": "way/1282945779", "properties": {"tags": {"addr:housename": "鸿威海怡湾", "addr:housename:en": "Hongwei Haiyi Bay", "addr:housename:zh": "鸿威海怡湾", "building": "apartments", "building:levels": "18", "name": "A栋", "name:en": "Block A", "name:zh": "A栋"}, "heightStatus": "levels_only_unverified", "source": "OpenStreetMap", "license": "ODbL-1.0"}, "geometry": {"type": "MultiPolygon", "coordinates": [[[[113.9380404, 22.4921114], [113.9381321, 22.4920464], [113.9382019, 22.4921305], [113.9383058, 22.4920568], [113.9383633, 22.4921261], [113.9382509, 22.4922058], [113.9383329, 22.4923046], [113.9382498, 22.4923635], [113.9380404, 22.4921114]]]]}}, {"type": "Feature", "id": "way/1282945780", "properties": {"tags": {"addr:housename": "鸿威海怡湾", "addr:housename:en": "Hongwei Haiyi Bay", "addr:housename:zh": "鸿威海怡湾", "building": "terrace", "name": "TE栋", "name:en": "Block TE", "name:zh": "TE栋"}, "heightStatus": "unknown", "source": "OpenStreetMap", "license": "ODbL-1.0"}, "geometry": {"type": "MultiPolygon", "coordinates": [[[[113.9384246, 22.4924918], [113.9385352, 22.4924152], [113.9387968, 22.4927679], [113.9386835, 22.4928448], [113.9384246, 22.4924918]]]]}}, {"type": "Feature", "id": "way/1282945781", "properties": {"tags": {"addr:housename": "鸿威海怡湾", "addr:housename:en": "Hongwei Haiyi Bay", "addr:housename:zh": "鸿威海怡湾", "building": "terrace", "name": "TD栋", "name:en": "Block TD", "name:zh": "TD栋"}, "heightStatus": "unknown", "source": "OpenStreetMap", "license": "ODbL-1.0"}, "geometry": {"type": "MultiPolygon", "coordinates": [[[[113.9386201, 22.4933905], [113.9386627, 22.4933622], [113.9386203, 22.4933077], [113.938663, 22.4932794], [113.9386206, 22.493225], [113.9386633, 22.4931966], [113.9386209, 22.4931422], [113.9386635, 22.4931138], [113.9386212, 22.4930594], [113.9386638, 22.4930311], [113.9386214, 22.4929766], [113.9387742, 22.4928751], [113.9388166, 22.4929296], [113.9387739, 22.4929579], [113.9388163, 22.4930123], [113.9387736, 22.4930407], [113.938816, 22.4930951], [113.9387734, 22.4931234], [113.9388157, 22.4931779], [113.9387731, 22.4932062], [113.9388155, 22.4932606], [113.9387728, 22.493289], [113.9388152, 22.4933434], [113.9386625, 22.4934449], [113.9386201, 22.4933905]]]]}}, {"type": "Feature", "id": "way/1282945782", "properties": {"tags": {"addr:housename": "鸿威海怡湾", "addr:housename:en": "Hongwei Haiyi Bay", "addr:housename:zh": "鸿威海怡湾", "building": "terrace", "name": "TC栋", "name:en": "Block TC", "name:zh": "TC栋"}, "heightStatus": "unknown", "source": "OpenStreetMap", "license": "ODbL-1.0"}, "geometry": {"type": "MultiPolygon", "coordinates": [[[[113.9386561, 22.4939723], [113.9386988, 22.4939439], [113.9386564, 22.4938895], [113.938699, 22.4938612], [113.9386567, 22.4938067], [113.9386993, 22.4937784], [113.9386569, 22.493724], [113.9386996, 22.4936956], [113.9386572, 22.4936412], [113.9386998, 22.4936128], [113.9386575, 22.4935584], [113.9388102, 22.4934569], [113.9388526, 22.4935113], [113.9388099, 22.4935397], [113.9388523, 22.4935941], [113.9388097, 22.4936224], [113.9388521, 22.4936769], [113.9388094, 22.4937052], [113.9388518, 22.4937596], [113.9388091, 22.493788], [113.9388515, 22.4938424], [113.9388089, 22.4938707], [113.9388512, 22.4939252], [113.9386985, 22.4940267], [113.9386561, 22.4939723]]]]}}, {"type": "Feature", "id": "way/1282945783", "properties": {"tags": {"addr:housename": "鸿威海怡湾", "addr:housename:en": "Hongwei Haiyi Bay", "addr:housename:zh": "鸿威海怡湾", "building": "terrace", "name": "TB栋", "name:en": "Block TB", "name:zh": "TB栋"}, "heightStatus": "unknown", "source": "OpenStreetMap", "license": "ODbL-1.0"}, "geometry": {"type": "MultiPolygon", "coordinates": [[[[113.9386433, 22.4945716], [113.9386859, 22.4945432], [113.9386435, 22.4944888], [113.9386862, 22.4944604], [113.9386438, 22.494406], [113.9386865, 22.4943777], [113.9386441, 22.4943232], [113.9386867, 22.4942949], [113.9386444, 22.4942405], [113.938687, 22.4942121], [113.9386446, 22.4941577], [113.9387974, 22.4940562], [113.9388398, 22.4941106], [113.9387971, 22.494139], [113.9388395, 22.4941934], [113.9387968, 22.4942217], [113.9388392, 22.4942762], [113.9387966, 22.4943045], [113.9388389, 22.4943589], [113.9387963, 22.4943873], [113.9388387, 22.4944417], [113.938796, 22.49447], [113.9388384, 22.4945245], [113.9386857, 22.494626], [113.9386433, 22.4945716]]]]}}, {"type": "Feature", "id": "way/1282945784", "properties": {"tags": {"addr:housename": "鸿威海怡湾", "addr:housename:en": "Hongwei Haiyi Bay", "addr:housename:zh": "鸿威海怡湾", "building": "terrace", "name": "TA栋", "name:en": "Block TA", "name:zh": "TA栋"}, "heightStatus": "unknown", "source": "OpenStreetMap", "license": "ODbL-1.0"}, "geometry": {"type": "MultiPolygon", "coordinates": [[[[113.9386443, 22.4952072], [113.9386869, 22.4951789], [113.9386446, 22.4951244], [113.9386872, 22.4950961], [113.9386448, 22.4950417], [113.9386875, 22.4950133], [113.9386451, 22.4949589], [113.9386877, 22.4949305], [113.9386454, 22.4948761], [113.938688, 22.4948478], [113.9386456, 22.4947933], [113.9387984, 22.4946918], [113.9388408, 22.4947463], [113.9387981, 22.4947746], [113.9388405, 22.494829], [113.9387978, 22.4948574], [113.9388402, 22.4949118], [113.9387976, 22.4949401], [113.93884, 22.4949946], [113.9387973, 22.4950229], [113.9388397, 22.4950773], [113.938797, 22.4951057], [113.9388394, 22.4951601], [113.9386867, 22.4952616], [113.9386443, 22.4952072]]]]}}, {"type": "Feature", "id": "way/1343990882", "properties": {"tags": {"building": "yes"}, "heightStatus": "unknown", "source": "OpenStreetMap", "license": "ODbL-1.0"}, "geometry": {"type": "MultiPolygon", "coordinates": [[[[113.9443059, 22.4961961], [113.9443156, 22.4956075], [113.9445416, 22.4956107], [113.9445362, 22.4959307], [113.9445347, 22.4960188], [113.9445317, 22.4961993], [113.9443059, 22.4961961]]]]}}, {"type": "Feature", "id": "way/1351253391", "properties": {"tags": {"building": "house"}, "heightStatus": "unknown", "source": "OpenStreetMap", "license": "ODbL-1.0"}, "geometry": {"type": "MultiPolygon", "coordinates": [[[[113.9374121, 22.4979872], [113.9375808, 22.4978796], [113.9377487, 22.4981044], [113.93758, 22.4982119], [113.9374121, 22.4979872]]]]}}, {"type": "Feature", "id": "way/1351253400", "properties": {"tags": {"building": "house"}, "heightStatus": "unknown", "source": "OpenStreetMap", "license": "ODbL-1.0"}, "geometry": {"type": "MultiPolygon", "coordinates": [[[[113.9373306, 22.4976186], [113.9374995, 22.4975096], [113.9377066, 22.4977836], [113.9375377, 22.4978926], [113.9373306, 22.4976186]]]]}}, {"type": "Feature", "id": "way/1351253405", "properties": {"tags": {"building": "house"}, "heightStatus": "unknown", "source": "OpenStreetMap", "license": "ODbL-1.0"}, "geometry": {"type": "MultiPolygon", "coordinates": [[[[113.9373186, 22.4985815], [113.9374214, 22.4985171], [113.9375866, 22.4984135], [113.9376578, 22.4985105], [113.9375404, 22.498584], [113.9373902, 22.4986789], [113.9373186, 22.4985815]]]]}}, {"type": "Feature", "id": "way/1351253406", "properties": {"tags": {"building": "house"}, "heightStatus": "unknown", "source": "OpenStreetMap", "license": "ODbL-1.0"}, "geometry": {"type": "MultiPolygon", "coordinates": [[[[113.93734, 22.4984066], [113.9376535, 22.4982096], [113.937735, 22.4983203], [113.9375866, 22.4984135], [113.9374214, 22.4985171], [113.93734, 22.4984066]]]]}}, {"type": "Feature", "id": "way/1351253446", "properties": {"tags": {"addr:housename": "皇庭港湾", "addr:housename:en": "Huangting Gangwan", "addr:housename:zh": "皇庭港湾", "building": "apartments", "building:levels": "19", "name": "E栋", "name:en": "Block E", "name:zh": "E栋"}, "heightStatus": "levels_only_unverified", "source": "OpenStreetMap", "license": "ODbL-1.0"}, "geometry": {"type": "MultiPolygon", "coordinates": [[[[113.9374557, 22.4938664], [113.9374572, 22.4936817], [113.9374907, 22.4936819], [113.9374913, 22.4936156], [113.9375918, 22.4936164], [113.9375914, 22.4936666], [113.937642, 22.493667], [113.9376402, 22.4938929], [113.9375894, 22.4938925], [113.9375889, 22.493946], [113.9374884, 22.4939452], [113.9374891, 22.4938667], [113.9374557, 22.4938664]]]]}}]}