{"type": "FeatureCollection", "features": [{"type": "Feature", "id": "way/215916353", "properties": {"tags": {"addr:city": "深圳市", "addr:district": "南山区", "addr:housenumber": "16号", "addr:postcode": "518057", "addr:province": "广东省", "addr:street": "高新南一道", "building": "commercial", "name": "联想研发中心", "name:en": "Lenovo Research Center", "name:zh": "联想研发中心"}, "heightStatus": "unknown", "source": "OpenStreetMap", "license": "ODbL-1.0"}, "geometry": {"type": "MultiPolygon", "coordinates": [[[[113.9422428, 22.5422305], [113.9422591, 22.5418839], [113.942346, 22.5418874], [113.9424333, 22.5418909], [113.9425193, 22.5418943], [113.9426051, 22.5418978], [113.9426905, 22.5419012], [113.9427757, 22.5419046], [113.9433062, 22.5419259], [113.9433933, 22.5419294], [113.9434804, 22.5419329], [113.9435664, 22.5419363], [113.9436519, 22.5419397], [113.9437374, 22.5419432], [113.9438228, 22.5419466], [113.9438065, 22.5422932], [113.9437211, 22.5422898], [113.9436356, 22.5422863], [113.9435501, 22.5422829], [113.9434641, 22.5422795], [113.943377, 22.542276], [113.94329, 22.5422725], [113.9427594, 22.5422512], [113.9426742, 22.5422478], [113.9425888, 22.5422444], [113.942503, 22.542241], [113.942417, 22.5422375], [113.9423298, 22.542234], [113.9422428, 22.5422305]]]]}}, {"type": "Feature", "id": "way/215917083", "properties": {"tags": {"building": "commercial", "building:levels": "16", "name": "创维大厦", "name:en": "SkyWorth Building", "name:zh": "创维大厦"}, "heightStatus": "levels_only_unverified", "source": "OpenStreetMap", "license": "ODbL-1.0"}, "geometry": {"type": "MultiPolygon", "coordinates": [[[[113.9454058, 22.542346], [113.9454235, 22.5419632], [113.9467041, 22.5420135], [113.9466863, 22.5424001], [113.9463779, 22.542388], [113.9463828, 22.5422823], [113.9463144, 22.5422793], [113.9462846, 22.5423002], [113.9462524, 22.5423098], [113.9462187, 22.5423088], [113.9461873, 22.5422975], [113.9461597, 22.5422732], [113.9460778, 22.5422703], [113.9460731, 22.5423723], [113.9454058, 22.542346]]]]}}, {"type": "Feature", "id": "way/220654595", "properties": {"tags": {"building": "commercial", "building:levels": "15", "name": "长城科技大厦2号楼"}, "heightStatus": "levels_only_unverified", "source": "OpenStreetMap", "license": "ODbL-1.0"}, "geometry": {"type": "MultiPolygon", "coordinates": [[[[113.9411399, 22.544152], [113.9411448, 22.5438759], [113.9415439, 22.5438819], [113.9415802, 22.5439146], [113.9415804, 22.5439433], [113.9415765, 22.5441214], [113.9415752, 22.5441841], [113.9411672, 22.5441781], [113.9411399, 22.544152]]]]}}, {"type": "Feature", "id": "way/220654602", "properties": {"tags": {"building": "industrial", "building:levels": "5", "name": "长城科技大厦1号楼"}, "heightStatus": "levels_only_unverified", "source": "OpenStreetMap", "license": "ODbL-1.0"}, "geometry": {"type": "MultiPolygon", "coordinates": [[[[113.9416906, 22.5444747], [113.9416971, 22.5441237], [113.941701, 22.5439456], [113.9417022, 22.5438355], [113.9418064, 22.5438371], [113.9418071, 22.5437979], [113.9432028, 22.5438194], [113.943202, 22.5438674], [113.943454, 22.5438712], [113.943444, 22.5444304], [113.9432009, 22.5444266], [113.9431979, 22.5445911], [113.9418406, 22.5445702], [113.9418423, 22.544477], [113.9416906, 22.5444747]]]]}}, {"type": "Feature", "id": "way/220657161", "properties": {"tags": {"building": "industrial", "building:levels": "7"}, "heightStatus": "levels_only_unverified", "source": "OpenStreetMap", "license": "ODbL-1.0"}, "geometry": {"type": "MultiPolygon", "coordinates": [[[[113.9428982, 22.5414327], [113.9429027, 22.5412082], [113.9432372, 22.541214], [113.9433376, 22.5412155], [113.9434288, 22.5412172], [113.9434243, 22.5414417], [113.9428982, 22.5414327]]]]}}, {"type": "Feature", "id": "way/220657163", "properties": {"tags": {"building": "yes", "building:levels": "7", "building:min_level": "1", "layer": "1"}, "heightStatus": "levels_only_unverified", "source": "OpenStreetMap", "license": "ODbL-1.0"}, "geometry": {"type": "MultiPolygon", "coordinates": [[[[113.9432372, 22.541214], [113.9432433, 22.5408643], [113.9433437, 22.5408652], [113.9433376, 22.5412155], [113.9432372, 22.541214]]]]}}, {"type": "Feature", "id": "way/220657165", "properties": {"tags": {"building": "industrial", "building:levels": "7"}, "heightStatus": "levels_only_unverified", "source": "OpenStreetMap", "license": "ODbL-1.0"}, "geometry": {"type": "MultiPolygon", "coordinates": [[[[113.9428966, 22.540861], [113.9428991, 22.5406279], [113.9434438, 22.540633], [113.9434412, 22.5408661], [113.9433437, 22.5408652], [113.9432433, 22.5408643], [113.9428966, 22.540861]]]]}}, {"type": "Feature", "id": "way/232501006", "properties": {"tags": {"building": "yes"}, "heightStatus": "unknown", "source": "OpenStreetMap", "license": "ODbL-1.0"}, "geometry": {"type": "MultiPolygon", "coordinates": [[[[113.9411988, 22.5388218], [113.9412065, 22.5384285], [113.9412735, 22.5383616], [113.9418767, 22.5383717], [113.9418672, 22.538958], [113.9413356, 22.5389506], [113.9411988, 22.5388218]]]]}}, {"type": "Feature", "id": "way/232501631", "properties": {"tags": {"building": "commercial", "name": "软件园T3栋", "name:en": "Software Park T3", "name:zh": "软件园T3栋", "name:zh-Hans": "软件园T3栋", "name:zh-Hant": "軟件園T3棟"}, "heightStatus": "unknown", "source": "OpenStreetMap", "license": "ODbL-1.0"}, "geometry": {"type": "MultiPolygon", "coordinates": [[[[113.9412855, 22.536626], [113.9412914, 22.5361771], [113.9419941, 22.5361849], [113.9419882, 22.5366338], [113.9412855, 22.536626]]]]}}, {"type": "Feature", "id": "way/232501635", "properties": {"tags": {"building": "yes", "name": "深圳微软技术中心", "name:zh": "深圳微软技术中心", "name:zh-Hans": "深圳微软技术中心", "name:zh-Hant": "深圳微軟技術中心"}, "heightStatus": "unknown", "source": "OpenStreetMap", "license": "ODbL-1.0"}, "geometry": {"type": "MultiPolygon", "coordinates": [[[[113.9422178, 22.5366943], [113.9422216, 22.536184], [113.942628, 22.5361866], [113.9426241, 22.5366969], [113.9422178, 22.5366943]]]]}}, {"type": "Feature", "id": "way/237757339", "properties": {"tags": {"building:part": "yes"}, "heightStatus": "unknown", "source": "OpenStreetMap", "license": "ODbL-1.0"}, "geometry": {"type": "MultiPolygon", "coordinates": [[[[113.9373321, 22.538866], [113.9378037, 22.5385377], [113.937865, 22.5386128], [113.9379315, 22.5386943], [113.9379787, 22.5387521], [113.9377292, 22.5389257], [113.9375071, 22.5390804], [113.9373321, 22.538866]]]]}}, {"type": "Feature", "id": "way/237757340", "properties": {"tags": {"building:part": "yes"}, "heightStatus": "unknown", "source": "OpenStreetMap", "license": "ODbL-1.0"}, "geometry": {"type": "MultiPolygon", "coordinates": [[[[113.9377292, 22.5389257], [113.9379787, 22.5387521], [113.9380339, 22.5388155], [113.9380717, 22.5388588], [113.9381292, 22.5388595], [113.9381988, 22.5388602], [113.9382843, 22.5388611], [113.9382847, 22.5390895], [113.9378598, 22.5390868], [113.9377292, 22.5389257]]]]}}, {"type": "Feature", "id": "way/237757393", "properties": {"tags": {"building:part": "yes"}, "heightStatus": "unknown", "source": "OpenStreetMap", "license": "ODbL-1.0"}, "geometry": {"type": "MultiPolygon", "coordinates": [[[[113.937865, 22.5386128], [113.9379349, 22.538564], [113.9381731, 22.5385648], [113.9381975, 22.5385753], [113.9382191, 22.5385906], [113.9382409, 22.5386088], [113.938257, 22.5386286], [113.9382674, 22.5386497], [113.9382739, 22.5386733], [113.9382757, 22.5387032], [113.9382754, 22.5387751], [113.9382012, 22.5387755], [113.9381988, 22.5388602], [113.9381292, 22.5388595], [113.9381302, 22.5387741], [113.9380954, 22.5387736], [113.9380339, 22.5388155], [113.9379787, 22.5387521], [113.9380425, 22.5387076], [113.9379955, 22.5386505], [113.9379315, 22.5386943], [113.937865, 22.5386128]]]]}}, {"type": "Feature", "id": "way/237757420", "properties": {"tags": {"building": "commercial", "name": "深圳虚拟大学园孵化器", "name:zh": "深圳虚拟大学园孵化器", "name:zh-Hans": "深圳虚拟大学园孵化器", "name:zh-Hant": "深圳虛擬大學園孵化器"}, "heightStatus": "unknown", "source": "OpenStreetMap", "license": "ODbL-1.0"}, "geometry": {"type": "MultiPolygon", "coordinates": [[[[113.9387477, 22.5372167], [113.9387527, 22.5369393], [113.9394388, 22.53695], [113.9394345, 22.5371894], [113.9394338, 22.5372273], [113.939316, 22.5372255], [113.9387477, 22.5372167]]]]}}, {"type": "Feature", "id": "way/237757421", "properties": {"tags": {"building": "yes"}, "heightStatus": "unknown", "source": "OpenStreetMap", "license": "ODbL-1.0"}, "geometry": {"type": "MultiPolygon", "coordinates": [[[[113.939308, 22.5374175], [113.939316, 22.5372255], [113.9394338, 22.5372273], [113.9394345, 22.5371894], [113.939461, 22.5372199], [113.9394758, 22.5372491], [113.9394823, 22.5372785], [113.9394846, 22.5373087], [113.9394842, 22.537344], [113.9394774, 22.53738], [113.9394669, 22.5374095], [113.9394483, 22.537434], [113.9394222, 22.5374569], [113.9394229, 22.5374192], [113.939308, 22.5374175]]]]}}, {"type": "Feature", "id": "way/237757422", "properties": {"tags": {"building": "commercial", "name": "香港理工大学深圳研究院", "name:en": "Hong Kong Polytechnic University Shenzhen Research Institute", "name:zh": "香港理工大学深圳研究院", "name:zh-Hans": "香港理工大学深圳研究院", "name:zh-Hant": "香港理工大學深圳研究院"}, "heightStatus": "unknown", "source": "OpenStreetMap", "license": "ODbL-1.0"}, "geometry": {"type": "MultiPolygon", "coordinates": [[[[113.9387346, 22.5376834], [113.9387396, 22.5374087], [113.939308, 22.5374175], [113.9394229, 22.5374192], [113.9394222, 22.5374569], [113.9394179, 22.5376939], [113.9392208, 22.5376909], [113.9390653, 22.5376885], [113.9388694, 22.5376855], [113.938789, 22.5376842], [113.9387346, 22.5376834]]]]}}, {"type": "Feature", "id": "way/237757460", "properties": {"tags": {"building": "commercial", "name": "深圳市高新技术产业园区R3B座", "name:zh": "深圳市高新技术产业园区R3B座", "name:zh-Hans": "深圳市高新技术产业园区R3B座", "name:zh-Hant": "深圳市高新技術產業園區R3B座"}, "heightStatus": "unknown", "source": "OpenStreetMap", "license": "ODbL-1.0"}, "geometry": {"type": "MultiPolygon", "coordinates": [[[[113.9398714, 22.5376963], [113.9398724, 22.5376585], [113.9404403, 22.5376651], [113.940438, 22.5378241], [113.940087, 22.5378205], [113.9400574, 22.5377859], [113.9400254, 22.5377563], [113.9399849, 22.5377323], [113.9399469, 22.5377146], [113.939909, 22.5377038], [113.9398714, 22.5376963]]]]}}, {"type": "Feature", "id": "way/237757461", "properties": {"tags": {"building": "yes"}, "heightStatus": "unknown", "source": "OpenStreetMap", "license": "ODbL-1.0"}, "geometry": {"type": "MultiPolygon", "coordinates": [[[[113.9387857, 22.5378424], [113.938789, 22.5376842], [113.9388694, 22.5376855], [113.9388686, 22.5377516], [113.9390639, 22.5377525], [113.9390653, 22.5376885], [113.9392208, 22.5376909], [113.9392185, 22.5377324], [113.9392139, 22.5377525], [113.9392073, 22.5377694], [113.9391953, 22.5377897], [113.9391786, 22.5378103], [113.9391591, 22.5378288], [113.9391362, 22.5378411], [113.9391095, 22.5378468], [113.9387857, 22.5378424]]]]}}, {"type": "Feature", "id": "way/237757462", "properties": {"tags": {"building": "commercial", "name": "深圳市高新技术产业园区R3B座", "name:zh": "深圳市高新技术产业园区R3B座", "name:zh-Hans": "深圳市高新技术产业园区R3B座", "name:zh-Hant": "深圳市高新技術產業園區R3B座"}, "heightStatus": "unknown", "source": "OpenStreetMap", "license": "ODbL-1.0"}, "geometry": {"type": "MultiPolygon", "coordinates": [[[[113.9397946, 22.5376576], [113.939798, 22.537407], [113.9400043, 22.5374094], [113.9401058, 22.5374106], [113.9403182, 22.537413], [113.9404437, 22.5374144], [113.9404403, 22.5376651], [113.9398724, 22.5376585], [113.9397946, 22.5376576]]]]}}, {"type": "Feature", "id": "way/237757463", "properties": {"tags": {"building": "commercial", "name": "深圳市高新技术产业园区R3A座", "name:zh": "深圳市高新技术产业园区R3A座", "name:zh-Hans": "深圳市高新技术产业园区R3A座", "name:zh-Hant": "深圳市高新技術產業園區R3A座"}, "heightStatus": "unknown", "source": "OpenStreetMap", "license": "ODbL-1.0"}, "geometry": {"type": "MultiPolygon", "coordinates": [[[[113.9400043, 22.5374094], [113.9400138, 22.5369854], [113.9404147, 22.5369931], [113.9404334, 22.5369997], [113.940448, 22.5370144], [113.9404548, 22.5370369], [113.9404437, 22.5374144], [113.9403182, 22.537413], [113.9403239, 22.5371559], [113.9401116, 22.5371518], [113.9401058, 22.5374106], [113.9400043, 22.5374094]]]]}}, {"type": "Feature", "id": "way/237757615", "properties": {"tags": {"building": "commercial", "building:levels": "8", "name": "英唐大厦"}, "heightStatus": "levels_only_unverified", "source": "OpenStreetMap", "license": "ODbL-1.0"}, "geometry": {"type": "MultiPolygon", "coordinates": [[[[113.9412778, 22.5379215], [113.9412842, 22.5376911], [113.9419708, 22.5377075], [113.9419644, 22.5379379], [113.9412778, 22.5379215]]]]}}, {"type": "Feature", "id": "way/237757617", "properties": {"tags": {"building": "commercial", "building:levels": "7", "name": "德维森大厦"}, "heightStatus": "levels_only_unverified", "source": "OpenStreetMap", "license": "ODbL-1.0"}, "geometry": {"type": "MultiPolygon", "coordinates": [[[[113.9412431, 22.5374223], [113.9412486, 22.5371177], [113.9419489, 22.5371285], [113.9419434, 22.5374331], [113.9412431, 22.5374223]]]]}}, {"type": "Feature", "id": "way/238266500", "properties": {"tags": {"addr:city": "Shenzhen", "addr:housename": "Modern Building", "addr:housenumber": "R1", "addr:postcode": "518000", "building": "commercial", "building:levels": "7", "name": "现代大厦", "name:en": "Modern Building", "name:zh": "现代大厦", "name:zh-Hans": "现代大厦", "name:zh-Hant": "現代大廈"}, "heightStatus": "levels_only_unverified", "source": "OpenStreetMap", "license": "ODbL-1.0"}, "geometry": {"type": "MultiPolygon", "coordinates": [[[[113.9386481, 22.5391344], [113.9386535, 22.5384408], [113.9392758, 22.5384507], [113.9392811, 22.5385102], [113.9393294, 22.5385746], [113.9394152, 22.5385894], [113.9394099, 22.5391394], [113.9386481, 22.5391344]]]]}}, {"type": "Feature", "id": "way/239834466", "properties": {"tags": {"building": "yes", "name": "深圳市高新技术产业园区W1B座", "name:zh": "深圳市高新技术产业园区W1B座", "name:zh-Hans": "深圳市高新技术产业园区W1B座", "name:zh-Hant": "深圳市高新技術產業園區W1B座"}, "heightStatus": "unknown", "source": "OpenStreetMap", "license": "ODbL-1.0"}, "geometry": {"type": "MultiPolygon", "coordinates": [[[[113.9389004, 22.5399158], [113.9389014, 22.5398407], [113.9389937, 22.5398418], [113.9389953, 22.5396495], [113.9391446, 22.5396506], [113.9391419, 22.5399118], [113.9391556, 22.5399141], [113.9391666, 22.5399211], [113.9391752, 22.5399313], [113.9391797, 22.5399478], [113.9391787, 22.5399636], [113.9391728, 22.5399763], [113.9391607, 22.5399861], [113.9389932, 22.5399846], [113.9389943, 22.5399167], [113.9389004, 22.5399158]]]]}}, {"type": "Feature", "id": "way/239834468", "properties": {"tags": {"building:part": "yes"}, "heightStatus": "unknown", "source": "OpenStreetMap", "license": "ODbL-1.0"}, "geometry": {"type": "MultiPolygon", "coordinates": [[[[113.938608, 22.5400753], [113.9386088, 22.5400257], [113.9386109, 22.539892], [113.9386139, 22.539601], [113.9386166, 22.539523], [113.9386188, 22.5393841], [113.9391786, 22.5393884], [113.9391726, 22.5396509], [113.9391446, 22.5396506], [113.9389953, 22.5396495], [113.9389019, 22.5396486], [113.9389014, 22.5398407], [113.9389004, 22.5399158], [113.9388997, 22.540077], [113.938608, 22.5400753]]]]}}, {"type": "Feature", "id": "way/239834479", "properties": {"tags": {"building:part": "yes"}, "heightStatus": "unknown", "source": "OpenStreetMap", "license": "ODbL-1.0"}, "geometry": {"type": "MultiPolygon", "coordinates": [[[[113.9379482, 22.5396442], [113.9379529, 22.5393832], [113.9383374, 22.5393871], [113.9383385, 22.5395184], [113.9386166, 22.539523], [113.9386139, 22.539601], [113.9384226, 22.5395974], [113.9384208, 22.5398894], [113.9386109, 22.539892], [113.9386088, 22.5400257], [113.9383264, 22.5400233], [113.9382808, 22.5400505], [113.9379482, 22.5396442]]]]}}, {"type": "Feature", "id": "way/239836461", "properties": {"tags": {"building": "commercial", "name": "高新区综合服务楼", "name:zh": "高新区综合服务楼", "name:zh-Hans": "高新区综合服务楼", "name:zh-Hant": "高新區綜合服務樓"}, "heightStatus": "unknown", "source": "OpenStreetMap", "license": "ODbL-1.0"}, "geometry": {"type": "MultiPolygon", "coordinates": [[[[113.9397477, 22.5397285], [113.9397525, 22.5394932], [113.9403119, 22.5395039], [113.9403109, 22.5396034], [113.9403433, 22.5396467], [113.9403637, 22.5396933], [113.9403765, 22.5397503], [113.9403782, 22.5398057], [113.9403673, 22.5398609], [113.9403492, 22.5399086], [113.9403287, 22.5399468], [113.9403078, 22.5399851], [113.9403048, 22.5400896], [113.9400723, 22.5400852], [113.9400748, 22.5398536], [113.9399642, 22.5397351], [113.9397477, 22.5397285]]]]}}, {"type": "Feature", "id": "way/239837953", "properties": {"tags": {"building": "commercial", "building:levels": "6", "height": "30", "name": "思创科技大厦", "name:zh": "思创科技大厦"}, "heightStatus": "height_tag_unverified", "source": "OpenStreetMap", "license": "ODbL-1.0"}, "geometry": {"type": "MultiPolygon", "coordinates": [[[[113.9411686, 22.5413075], [113.9411777, 22.5410798], [113.9418703, 22.5411033], [113.9418613, 22.541331], [113.9411686, 22.5413075]]]]}}, {"type": "Feature", "id": "way/487790226", "properties": {"tags": {"building": "house", "building:levels": "27", "internet_access": "wlan", "internet_access:fee": "no", "name": "深圳丽雅查尔顿酒店", "name:en": "Shenzhen Lia Charlton Hotel", "name:zh": "深圳丽雅查尔顿酒店", "rooms": "300", "tourism": "hotel"}, "heightStatus": "levels_only_unverified", "source": "OpenStreetMap", "license": "ODbL-1.0"}, "geometry": {"type": "MultiPolygon", "coordinates": [[[[113.9438403, 22.5389346], [113.9438458, 22.5387376], [113.9440139, 22.5387382], [113.9444086, 22.5384943], [113.9446618, 22.538497], [113.9447098, 22.5386949], [113.94447, 22.5386937], [113.9440665, 22.5389381], [113.9438403, 22.5389346]]]]}}, {"type": "Feature", "id": "way/487811128", "properties": {"tags": {"building": "yes", "building:levels": "24", "building:material": "glass", "height": "99.3", "name": "国家工程实验室大楼A座", "name:en": "Engineering Laboratory Building", "office": "research"}, "heightStatus": "height_tag_unverified", "source": "OpenStreetMap", "license": "ODbL-1.0"}, "geometry": {"type": "MultiPolygon", "coordinates": [[[[113.9434253, 22.5381398], [113.9434304, 22.5378458], [113.9438361, 22.5378517], [113.9440174, 22.5378532], [113.9440138, 22.5381459], [113.9434253, 22.5381398]]]]}}, {"type": "Feature", "id": "way/487811133", "properties": {"tags": {"building": "commercial", "building:levels": "7", "name": "国微大厦", "name:en": "Guowei Mansion", "name:zh": "国微大厦"}, "heightStatus": "levels_only_unverified", "source": "OpenStreetMap", "license": "ODbL-1.0"}, "geometry": {"type": "MultiPolygon", "coordinates": [[[[113.9452739, 22.5415505], [113.9452783, 22.5411756], [113.9459121, 22.541182], [113.9459077, 22.5415569], [113.9452739, 22.5415505]]]]}}, {"type": "Feature", "id": "way/487811134", "properties": {"tags": {"building": "commercial", "name": "赋安科技大厦"}, "heightStatus": "unknown", "source": "OpenStreetMap", "license": "ODbL-1.0"}, "geometry": {"type": "MultiPolygon", "coordinates": [[[[113.9462764, 22.5415743], [113.9462882, 22.5407964], [113.9470433, 22.5408062], [113.9470316, 22.541584], [113.9462764, 22.5415743]]]]}}, {"type": "Feature", "id": "way/488271998", "properties": {"tags": {"building": "commercial", "building:levels": "9", "name": "金证科技大楼"}, "heightStatus": "levels_only_unverified", "source": "OpenStreetMap", "license": "ODbL-1.0"}, "geometry": {"type": "MultiPolygon", "coordinates": [[[[113.9422726, 22.5380671], [113.9422796, 22.5376835], [113.9424686, 22.5376864], [113.9424676, 22.5377417], [113.9430376, 22.5377506], [113.9430387, 22.5376919], [113.9432321, 22.5376949], [113.9432252, 22.5380752], [113.9430303, 22.5380722], [113.9430313, 22.5380155], [113.9424631, 22.5380067], [113.942462, 22.53807], [113.9422726, 22.5380671]]]]}}, {"type": "Feature", "id": "way/488271999", "properties": {"tags": {"building": "commercial", "name": "惠恒大楼"}, "heightStatus": "unknown", "source": "OpenStreetMap", "license": "ODbL-1.0"}, "geometry": {"type": "MultiPolygon", "coordinates": [[[[113.9423938, 22.5375017], [113.942395, 22.5373605], [113.9427034, 22.5373628], [113.942704, 22.5372964], [113.9423989, 22.5372941], [113.9424004, 22.5371203], [113.9431211, 22.5371257], [113.9431196, 22.5373023], [113.9427937, 22.5372998], [113.9427932, 22.5373616], [113.9431129, 22.537364], [113.9431117, 22.5375071], [113.9423938, 22.5375017]]]]}}, {"type": "Feature", "id": "way/488272000", "properties": {"tags": {"building": "commercial", "name": "深圳市数字技术园B2栋"}, "heightStatus": "unknown", "source": "OpenStreetMap", "license": "ODbL-1.0"}, "geometry": {"type": "MultiPolygon", "coordinates": [[[[113.944124, 22.5378358], [113.9443023, 22.5376571], [113.9448007, 22.5376661], [113.9447959, 22.5378887], [113.9444123, 22.5378817], [113.9445992, 22.5380458], [113.9444848, 22.538157], [113.9443023, 22.5379969], [113.9443033, 22.5381589], [113.9441259, 22.5381598], [113.944124, 22.5378358]]]]}}, {"type": "Feature", "id": "way/488272001", "properties": {"tags": {"building": "commercial", "name": "深圳市数字技术园B1栋"}, "heightStatus": "unknown", "source": "OpenStreetMap", "license": "ODbL-1.0"}, "geometry": {"type": "MultiPolygon", "coordinates": [[[[113.9441229, 22.5373938], [113.9441249, 22.5370383], [113.9443436, 22.5370393], [113.9443429, 22.5371766], [113.944487, 22.5370471], [113.9445975, 22.5371521], [113.9444415, 22.5372922], [113.9448121, 22.5372967], [113.9448088, 22.5375334], [113.9442822, 22.537527], [113.9441229, 22.5373938]]]]}}, {"type": "Feature", "id": "way/489106861", "properties": {"tags": {"building": "yes", "building:levels": "2"}, "heightStatus": "levels_only_unverified", "source": "OpenStreetMap", "license": "ODbL-1.0"}, "geometry": {"type": "MultiPolygon", "coordinates": [[[[113.9452372, 22.5408965], [113.9452388, 22.5408619], [113.945249, 22.5408238], [113.9452678, 22.5407872], [113.9453, 22.5407523], [113.945339, 22.5407236], [113.9453803, 22.5407065], [113.9454284, 22.5406965], [113.9454733, 22.5406969], [113.9455148, 22.5407075], [113.9455471, 22.5407262], [113.945581, 22.5407511], [113.9456058, 22.5407838], [113.945624, 22.540824], [113.9455767, 22.5408429], [113.9455787, 22.5408806], [113.9455706, 22.5409111], [113.9455567, 22.5409352], [113.9455347, 22.5409579], [113.9455072, 22.5409747], [113.945476, 22.5409845], [113.945442, 22.5409866], [113.9454121, 22.5409815], [113.9453858, 22.5409709], [113.9453594, 22.5409523], [113.9453438, 22.5409351], [113.9452714, 22.5409935], [113.9452424, 22.5409311], [113.9452372, 22.5408965]]]]}}, {"type": "Feature", "id": "way/489106864", "properties": {"tags": {"building": "yes", "name": "深圳国家高技术产业创新中心"}, "heightStatus": "unknown", "source": "OpenStreetMap", "license": "ODbL-1.0"}, "geometry": {"type": "MultiPolygon", "coordinates": [[[[113.9441314, 22.5367716], [113.9441339, 22.5361661], [113.9448595, 22.5361686], [113.9448588, 22.5363518], [113.9444239, 22.5363528], [113.9443948, 22.5363866], [113.9443665, 22.5364089], [113.944359, 22.5367724], [113.9441314, 22.5367716]]]]}}, {"type": "Feature", "id": "way/489106865", "properties": {"tags": {"addr:city": "深圳市", "addr:district": "南山区", "addr:housenumber": "3099", "addr:province": "广东省", "addr:street": "科苑南路", "building": "commercial", "building:colour": "#96b1be", "building:levels": "58", "building:material": "mirror", "height": "288.6", "name": "中国储能大厦", "name:en": "China Chuneng Tower", "name:zh": "中国储能大厦", "name:zh-Hans": "中国储能大厦", "name:zh-Hant": "中國儲能大廈", "wikidata": "Q15794060"}, "heightStatus": "height_tag_unverified", "source": "OpenStreetMap", "license": "ODbL-1.0"}, "geometry": {"type": "MultiPolygon", "coordinates": [[[[113.9398139, 22.54088], [113.9398173, 22.5405134], [113.9398205, 22.5404964], [113.9398296, 22.5404848], [113.9398461, 22.5404772], [113.9402265, 22.5404802], [113.9402416, 22.5404859], [113.9402504, 22.5404952], [113.9402545, 22.5405105], [113.9402511, 22.5408832], [113.9402471, 22.5409], [113.9402371, 22.5409107], [113.9402204, 22.5409153], [113.9398497, 22.5409124], [113.9398303, 22.5409072], [113.9398192, 22.5408947], [113.9398139, 22.54088]]]]}}, {"type": "Feature", "id": "way/489349775", "properties": {"tags": {"building": "commercial", "name": "桑达科技大厦"}, "heightStatus": "unknown", "source": "OpenStreetMap", "license": "ODbL-1.0"}, "geometry": {"type": "MultiPolygon", "coordinates": [[[[113.9438459, 22.5441596], [113.9438475, 22.5438338], [113.9445817, 22.5438368], [113.9445782, 22.5445669], [113.9442908, 22.5445657], [113.9442928, 22.5441615], [113.9438459, 22.5441596]]]]}}, {"type": "Feature", "id": "way/489349776", "properties": {"tags": {"building": "residential"}, "heightStatus": "unknown", "source": "OpenStreetMap", "license": "ODbL-1.0"}, "geometry": {"type": "MultiPolygon", "coordinates": [[[[113.9452522, 22.5439674], [113.9452526, 22.5439171], [113.9452966, 22.5439174], [113.9452973, 22.5438402], [113.9455594, 22.5438422], [113.9455596, 22.5438226], [113.9455944, 22.5438229], [113.9455953, 22.5437291], [113.9457311, 22.5437301], [113.9457303, 22.54382], [113.945849, 22.543821], [113.9458497, 22.5437395], [113.945992, 22.5437406], [113.9459913, 22.5438229], [113.9460881, 22.5438236], [113.9460887, 22.5437555], [113.9462402, 22.5437566], [113.9462396, 22.5438315], [113.9462949, 22.5438319], [113.9462933, 22.5440149], [113.9460107, 22.5440127], [113.9460108, 22.5439975], [113.9457595, 22.5439956], [113.9457596, 22.5439841], [113.9455382, 22.5439824], [113.9455384, 22.5439696], [113.9452522, 22.5439674]]]]}}, {"type": "Feature", "id": "way/533679787", "properties": {"tags": {"building": "commercial", "name": "深圳虚拟大学园", "name:en": "Shenzhen Virtual University Park", "name:zh": "深圳虚拟大学园", "name:zh-Hans": "深圳虚拟大学园", "name:zh-Hant": "深圳虛擬大學園"}, "heightStatus": "unknown", "source": "OpenStreetMap", "license": "ODbL-1.0"}, "geometry": {"type": "MultiPolygon", "coordinates": [[[[113.9396462, 22.5390901], [113.9396487, 22.5387941], [113.939765, 22.538797], [113.9397662, 22.5387144], [113.9397351, 22.5386782], [113.9397184, 22.5386368], [113.9397189, 22.5385997], [113.9397367, 22.5385601], [113.9397773, 22.5385395], [113.9398244, 22.5385431], [113.9398591, 22.5385582], [113.9399, 22.5385817], [113.9400314, 22.5385827], [113.940034, 22.5382788], [113.9403, 22.5382808], [113.9402931, 22.5390949], [113.9396462, 22.5390901]]]]}}, {"type": "Feature", "id": "way/533679788", "properties": {"tags": {"building": "yes", "building:levels": "16", "building:material": "glass", "height": "70.25", "name": "国家工程实验室大楼B座", "office": "research"}, "heightStatus": "height_tag_unverified", "source": "OpenStreetMap", "license": "ODbL-1.0"}, "geometry": {"type": "MultiPolygon", "coordinates": [[[[113.9434362, 22.5375054], [113.9434429, 22.5370129], [113.9437959, 22.5370171], [113.943789, 22.5375095], [113.9437367, 22.5375098], [113.9434362, 22.5375054]]]]}}, {"type": "Feature", "id": "way/533679797", "properties": {"tags": {"building": "commercial", "building:levels": "35", "building:material": "glass", "height": "153.2", "name": "大冲商务中心A座", "name:zh": "大冲商务中心A座", "name:zh-Hans": "大冲商务中心A座", "name:zh-Hant": "大衝商務中心A座"}, "heightStatus": "height_tag_unverified", "source": "OpenStreetMap", "license": "ODbL-1.0"}, "geometry": {"type": "MultiPolygon", "coordinates": [[[[113.9464931, 22.5441478], [113.9465173, 22.5437568], [113.9469338, 22.5437788], [113.9469097, 22.5441697], [113.9464931, 22.5441478]]]]}}, {"type": "Feature", "id": "way/533679808", "properties": {"tags": {"building": "apartments", "building:levels": "40"}, "heightStatus": "levels_only_unverified", "source": "OpenStreetMap", "license": "ODbL-1.0"}, "geometry": {"type": "MultiPolygon", "coordinates": [[[[113.9451581, 22.5447149], [113.9455525, 22.5446553], [113.945545, 22.5448655], [113.9451581, 22.544862], [113.9451581, 22.5447149]]]]}}, {"type": "Feature", "id": "way/533679809", "properties": {"tags": {"building": "apartments", "building:levels": "40"}, "heightStatus": "levels_only_unverified", "source": "OpenStreetMap", "license": "ODbL-1.0"}, "geometry": {"type": "MultiPolygon", "coordinates": [[[[113.9457881, 22.5448945], [113.9457912, 22.544723], [113.9462197, 22.5447294], [113.9462167, 22.544901], [113.9457881, 22.5448945]]]]}}, {"type": "Feature", "id": "way/533679810", "properties": {"tags": {"building": "apartments", "building:levels": "40"}, "heightStatus": "levels_only_unverified", "source": "OpenStreetMap", "license": "ODbL-1.0"}, "geometry": {"type": "MultiPolygon", "coordinates": [[[[113.9459565, 22.5445067], [113.9459585, 22.5442028], [113.9461313, 22.5442019], [113.9461489, 22.5445059], [113.9459565, 22.5445067]]]]}}, {"type": "Feature", "id": "way/533679811", "properties": {"tags": {"building": "apartments", "building:levels": "40"}, "heightStatus": "levels_only_unverified", "source": "OpenStreetMap", "license": "ODbL-1.0"}, "geometry": {"type": "MultiPolygon", "coordinates": [[[[113.946384, 22.5446621], [113.9463881, 22.5444684], [113.9467276, 22.5444763], [113.9467257, 22.5445528], [113.9467235, 22.5446453], [113.946384, 22.5446621]]]]}}, {"type": "Feature", "id": "way/533679812", "properties": {"tags": {"building": "apartments", "building:levels": "40"}, "heightStatus": "levels_only_unverified", "source": "OpenStreetMap", "license": "ODbL-1.0"}, "geometry": {"type": "MultiPolygon", "coordinates": [[[[113.9469654, 22.544649], [113.946968, 22.5445573], [113.9469695, 22.5444951], [113.9472418, 22.5444988], [113.9472471, 22.5445935], [113.9472622, 22.5448649], [113.9471029, 22.5448641], [113.9470528, 22.5448636], [113.9470528, 22.5446509], [113.9469654, 22.544649]]]]}}, {"type": "Feature", "id": "way/533679813", "properties": {"tags": {"building": "residential"}, "heightStatus": "unknown", "source": "OpenStreetMap", "license": "ODbL-1.0"}, "geometry": {"type": "MultiPolygon", "coordinates": [[[[113.9452281, 22.5444698], [113.9452291, 22.5443967], [113.9452671, 22.5443971], [113.945268, 22.5443261], [113.9454765, 22.5443285], [113.9454761, 22.5443585], [113.9455385, 22.5443592], [113.9455394, 22.5442931], [113.9457485, 22.5442954], [113.9457476, 22.5443581], [113.9457848, 22.5443585], [113.9457834, 22.544464], [113.9454943, 22.5444607], [113.9454941, 22.5444728], [113.9452281, 22.5444698]]]]}}, {"type": "Feature", "id": "way/533912159", "properties": {"tags": {"building": "yes", "building:levels": "5", "building:min_level": "3"}, "heightStatus": "levels_only_unverified", "source": "OpenStreetMap", "license": "ODbL-1.0"}, "geometry": {"type": "MultiPolygon", "coordinates": [[[[113.9415765, 22.5441214], [113.9415804, 22.5439433], [113.941701, 22.5439456], [113.9416971, 22.5441237], [113.9415765, 22.5441214]]]]}}, {"type": "Feature", "id": "way/533912183", "properties": {"tags": {"building:levels": "36", "building:material": "glass", "building:part": "yes", "height": "153.8", "roof:colour": "grey"}, "heightStatus": "height_tag_unverified", "source": "OpenStreetMap", "license": "ODbL-1.0"}, "geometry": {"type": "MultiPolygon", "coordinates": [[[[113.9438718, 22.5411604], [113.9438719, 22.5411506], [113.9438734, 22.5411424], [113.9438774, 22.5411276], [113.9438834, 22.5411037], [113.943887, 22.5410839], [113.9438909, 22.5410564], [113.9438934, 22.5410217], [113.9438941, 22.5409819], [113.943892, 22.5409479], [113.9438891, 22.5409192], [113.9438844, 22.5408929], [113.9438814, 22.5408779], [113.9438798, 22.5408655], [113.9438796, 22.5408506], [113.9438819, 22.5408356], [113.9438884, 22.5408206], [113.9438971, 22.5408099], [113.9439107, 22.5408012], [113.9439227, 22.5407958], [113.9439385, 22.540792], [113.9439564, 22.5407924], [113.9439691, 22.5407948], [113.9439795, 22.5407991], [113.943991, 22.540806], [113.9440012, 22.5408144], [113.9440197, 22.5408333], [113.9440443, 22.5408548], [113.9440725, 22.5408761], [113.9441008, 22.5408931], [113.9441319, 22.54091], [113.9441691, 22.5409241], [113.9442039, 22.5409352], [113.9442385, 22.5409445], [113.9442539, 22.5409502], [113.9442645, 22.5409554], [113.9442743, 22.5409631], [113.9442821, 22.5409745], [113.9442881, 22.5409873], [113.944291, 22.5409996], [113.9442919, 22.5410144], [113.9442906, 22.5410275], [113.944284, 22.5410433], [113.9442742, 22.541057], [113.9442635, 22.5410671], [113.9442494, 22.5410736], [113.9442328, 22.5410775], [113.9442067, 22.5410806], [113.9441794, 22.5410849], [113.9441453, 22.5410926], [113.9441076, 22.541107], [113.944071, 22.5411258], [113.9440408, 22.541147], [113.9440107, 22.541173], [113.9439854, 22.5411948], [113.9439745, 22.5412021], [113.9439631, 22.5412072], [113.9439494, 22.5412102], [113.9439378, 22.5412111], [113.9439261, 22.5412099], [113.9439139, 22.5412068], [113.9439025, 22.5412013], [113.9438925, 22.5411944], [113.9438857, 22.5411878], [113.94388, 22.5411798], [113.9438749, 22.5411705], [113.9438718, 22.5411604]]]]}}, {"type": "Feature", "id": "way/533912184", "properties": {"tags": {"building": "commercial", "name": "中兴通讯研发大楼"}, "heightStatus": "unknown", "source": "OpenStreetMap", "license": "ODbL-1.0"}, "geometry": {"type": "MultiPolygon", "coordinates": [[[[113.9438492, 22.5410282], [113.9438497, 22.5409792], [113.9438522, 22.5409417], [113.943859, 22.5409012], [113.9438711, 22.5408613], [113.9438819, 22.5408356], [113.9438884, 22.5408206], [113.9438971, 22.5408099], [113.9439107, 22.5408012], [113.9439227, 22.5407958], [113.9439385, 22.540792], [113.9439564, 22.5407924], [113.9439691, 22.5407948], [113.9440042, 22.5408039], [113.9440459, 22.5408172], [113.9440844, 22.5408317], [113.9441273, 22.5408503], [113.9441687, 22.5408723], [113.9442057, 22.5408971], [113.9442453, 22.5409319], [113.9442743, 22.5409631], [113.9442821, 22.5409745], [113.9442881, 22.5409873], [113.944291, 22.5409996], [113.9442919, 22.5410144], [113.9442906, 22.5410275], [113.944284, 22.5410433], [113.9442742, 22.541057], [113.9442635, 22.5410671], [113.9442308, 22.5410944], [113.9441943, 22.5411211], [113.9441543, 22.5411454], [113.9441143, 22.5411663], [113.9440693, 22.5411849], [113.944028, 22.5411969], [113.9439825, 22.5412057], [113.9439494, 22.5412102], [113.9439378, 22.5412111], [113.9439261, 22.5412099], [113.9439139, 22.5412068], [113.9439025, 22.5412013], [113.9438925, 22.5411944], [113.9438857, 22.5411878], [113.94388, 22.5411798], [113.9438749, 22.5411705], [113.9438718, 22.5411604], [113.9438579, 22.5411064], [113.9438528, 22.5410717], [113.9438492, 22.5410282]]]]}}, {"type": "Feature", "id": "way/555328000", "properties": {"tags": {"amenity": "fast_food", "building": "yes", "cuisine": "cantonese;pork;rice;breakfast;chinese", "outdoor_seating": "yes", "takeaway": "yes"}, "heightStatus": "unknown", "source": "OpenStreetMap", "license": "ODbL-1.0"}, "geometry": {"type": "MultiPolygon", "coordinates": [[[[113.9470946, 22.5382504], [113.9470952, 22.5382013], [113.9471293, 22.538201], [113.9471286, 22.5382505], [113.9470946, 22.5382504]]]]}}, {"type": "Feature", "id": "way/747970500", "properties": {"tags": {"building": "commercial", "building:levels": "38", "height": "148.5", "name": "深投控创智天地大厦", "name:zh": "深投控创智天地大厦", "name:zh-Hans": "深投控创智天地大厦", "name:zh-Hant": "深投控創智天地大廈"}, "heightStatus": "height_tag_unverified", "source": "OpenStreetMap", "license": "ODbL-1.0"}, "geometry": {"type": "MultiPolygon", "coordinates": [[[[113.9388386, 22.5406184], [113.9388409, 22.5404168], [113.9391253, 22.5404195], [113.9391246, 22.5404786], [113.9392149, 22.5404795], [113.9392133, 22.540619], [113.9392956, 22.54062], [113.9392935, 22.5407729], [113.9393886, 22.540774], [113.9393871, 22.5408855], [113.9394904, 22.5408869], [113.9394888, 22.5409867], [113.9395594, 22.5409877], [113.9395538, 22.541345], [113.939339, 22.5413421], [113.9393406, 22.5412375], [113.9392678, 22.5412365], [113.9392701, 22.5410958], [113.9392235, 22.5410952], [113.9392244, 22.5410296], [113.939172, 22.541029], [113.9391735, 22.5409232], [113.9391062, 22.5409224], [113.939108, 22.5407902], [113.9390296, 22.5407893], [113.9390313, 22.5406607], [113.9389289, 22.5406598], [113.9389293, 22.5406193], [113.9388386, 22.5406184]]]]}}, {"type": "Feature", "id": "way/747970501", "properties": {"tags": {"building:levels": "38", "building:material": "glass", "building:min_level": "9", "building:part": "apartments", "height": "134.5", "min_height": "38.5"}, "heightStatus": "height_tag_unverified", "source": "OpenStreetMap", "license": "ODbL-1.0"}, "geometry": {"type": "MultiPolygon", "coordinates": [[[[113.9388386, 22.5406184], [113.9388409, 22.5404168], [113.9391253, 22.5404195], [113.9391246, 22.5404786], [113.9392149, 22.5404795], [113.9392133, 22.540619], [113.9392128, 22.5406625], [113.9390313, 22.5406607], [113.9389289, 22.5406598], [113.9389293, 22.5406193], [113.9388386, 22.5406184]]]]}}, {"type": "Feature", "id": "way/747970502", "properties": {"tags": {"building:levels": "36", "building:material": "glass", "building:min_level": "9", "building:part": "yes", "height": "148.5", "min_height": "38.5"}, "heightStatus": "height_tag_unverified", "source": "OpenStreetMap", "license": "ODbL-1.0"}, "geometry": {"type": "MultiPolygon", "coordinates": [[[[113.9392678, 22.5412365], [113.9392701, 22.5410958], [113.9392735, 22.540884], [113.9393871, 22.5408855], [113.9394904, 22.5408869], [113.9394888, 22.5409867], [113.9395594, 22.5409877], [113.9395538, 22.541345], [113.939339, 22.5413421], [113.9393406, 22.5412375], [113.9392678, 22.5412365]]]]}}, {"type": "Feature", "id": "way/747970504", "properties": {"tags": {"building": "commercial", "building:colour": "#a0acb5", "building:levels": "51", "building:material": "glass", "height": "249"}, "heightStatus": "height_tag_unverified", "source": "OpenStreetMap", "license": "ODbL-1.0"}, "geometry": {"type": "MultiPolygon", "coordinates": [[[[113.9391151, 22.5421357], [113.939132, 22.5416104], [113.9391382, 22.5415984], [113.9391522, 22.5415946], [113.9393027, 22.5415974], [113.9393166, 22.541601], [113.9393241, 22.5416082], [113.9393571, 22.5416436], [113.9393665, 22.5416444], [113.9394602, 22.541607], [113.9394701, 22.5416057], [113.9399936, 22.5416686], [113.9403341, 22.5416728], [113.9403541, 22.541685], [113.940372, 22.541703], [113.9403801, 22.5417234], [113.940366, 22.5421976], [113.94035, 22.5422117], [113.9403264, 22.5422139], [113.9400155, 22.5421993], [113.9399559, 22.5421976], [113.9397637, 22.5421857], [113.9397504, 22.5421806], [113.9396841, 22.5421076], [113.9396673, 22.5420969], [113.9394716, 22.5420401], [113.9394482, 22.5420403], [113.9392796, 22.5421515], [113.9392646, 22.5421532], [113.9391293, 22.5421492], [113.9391192, 22.5421445], [113.9391151, 22.5421357]]]]}}, {"type": "Feature", "id": "way/764380663", "properties": {"tags": {"building": "apartments", "name": "深港产学研基地", "name:zh": "深港产学研基地", "name:zh-Hans": "深港产学研基地", "name:zh-Hant": "深港產學研基地"}, "heightStatus": "unknown", "source": "OpenStreetMap", "license": "ODbL-1.0"}, "geometry": {"type": "MultiPolygon", "coordinates": [[[[113.9392823, 22.5361676], [113.9394057, 22.5361626], [113.9394379, 22.536123], [113.939513, 22.5361056], [113.9395935, 22.5361205], [113.9396605, 22.5361527], [113.9397061, 22.5361973], [113.9397356, 22.5362642], [113.9397329, 22.536341], [113.9397061, 22.5364104], [113.9396551, 22.5364773], [113.9395666, 22.5365194], [113.9394567, 22.5365318], [113.9393494, 22.5364971], [113.9394191, 22.5364178], [113.9393333, 22.5364178], [113.9393333, 22.5363732], [113.9392823, 22.5363732], [113.9392823, 22.5361676]]]]}}, {"type": "Feature", "id": "way/782886847", "properties": {"tags": {"building": "yes", "building:levels": "3", "building:min_level": "1", "layer": "1"}, "heightStatus": "levels_only_unverified", "source": "OpenStreetMap", "license": "ODbL-1.0"}, "geometry": {"type": "MultiPolygon", "coordinates": [[[[113.9438819, 22.5408356], [113.9438867, 22.5401993], [113.943933, 22.5402303], [113.9439752, 22.5402534], [113.9440156, 22.5402704], [113.9440042, 22.5408039], [113.9439691, 22.5407948], [113.9439564, 22.5407924], [113.9439385, 22.540792], [113.9439227, 22.5407958], [113.9439107, 22.5408012], [113.9438971, 22.5408099], [113.9438884, 22.5408206], [113.9438819, 22.5408356]]]]}}, {"type": "Feature", "id": "way/782886848", "properties": {"tags": {"building:levels": "29", "building:material": "glass", "building:part": "yes", "height": "124", "roof:colour": "grey"}, "heightStatus": "height_tag_unverified", "source": "OpenStreetMap", "license": "ODbL-1.0"}, "geometry": {"type": "MultiPolygon", "coordinates": [[[[113.9439691, 22.5407948], [113.9440042, 22.5408039], [113.9440459, 22.5408172], [113.9440844, 22.5408317], [113.9441273, 22.5408503], [113.9441687, 22.5408723], [113.9442057, 22.5408971], [113.9442453, 22.5409319], [113.9442743, 22.5409631], [113.9442645, 22.5409554], [113.9442539, 22.5409502], [113.9442385, 22.5409445], [113.9442039, 22.5409352], [113.9441691, 22.5409241], [113.9441319, 22.54091], [113.9441008, 22.5408931], [113.9440725, 22.5408761], [113.9440443, 22.5408548], [113.9440197, 22.5408333], [113.9440012, 22.5408144], [113.943991, 22.540806], [113.9439795, 22.5407991], [113.9439691, 22.5407948]]]]}}, {"type": "Feature", "id": "way/782886849", "properties": {"tags": {"building:levels": "29", "building:material": "glass", "building:part": "yes", "height": "124", "roof:colour": "grey"}, "heightStatus": "height_tag_unverified", "source": "OpenStreetMap", "license": "ODbL-1.0"}, "geometry": {"type": "MultiPolygon", "coordinates": [[[[113.9439494, 22.5412102], [113.9439631, 22.5412072], [113.9439745, 22.5412021], [113.9439854, 22.5411948], [113.9440107, 22.541173], [113.9440408, 22.541147], [113.944071, 22.5411258], [113.9441076, 22.541107], [113.9441453, 22.5410926], [113.9441794, 22.5410849], [113.9442067, 22.5410806], [113.9442328, 22.5410775], [113.9442494, 22.5410736], [113.9442635, 22.5410671], [113.9442308, 22.5410944], [113.9441943, 22.5411211], [113.9441543, 22.5411454], [113.9441143, 22.5411663], [113.9440693, 22.5411849], [113.944028, 22.5411969], [113.9439825, 22.5412057], [113.9439494, 22.5412102]]]]}}, {"type": "Feature", "id": "way/782886850", "properties": {"tags": {"building:levels": "29", "building:material": "glass", "building:part": "yes", "height": "124", "roof:colour": "grey"}, "heightStatus": "height_tag_unverified", "source": "OpenStreetMap", "license": "ODbL-1.0"}, "geometry": {"type": "MultiPolygon", "coordinates": [[[[113.9438492, 22.5410282], [113.9438497, 22.5409792], [113.9438522, 22.5409417], [113.943859, 22.5409012], [113.9438711, 22.5408613], [113.9438819, 22.5408356], [113.9438796, 22.5408506], [113.9438798, 22.5408655], [113.9438814, 22.5408779], [113.9438844, 22.5408929], [113.9438891, 22.5409192], [113.943892, 22.5409479], [113.9438941, 22.5409819], [113.9438934, 22.5410217], [113.9438909, 22.5410564], [113.943887, 22.5410839], [113.9438834, 22.5411037], [113.9438774, 22.5411276], [113.9438734, 22.5411424], [113.9438719, 22.5411506], [113.9438718, 22.5411604], [113.9438579, 22.5411064], [113.9438528, 22.5410717], [113.9438492, 22.5410282]]]]}}, {"type": "Feature", "id": "relation/10865767", "properties": {"tags": {"building:material": "plastic", "building:part": "yes", "height": "165", "min_height": "153.8"}, "heightStatus": "height_tag_unverified", "source": "OpenStreetMap", "license": "ODbL-1.0"}, "geometry": {"type": "MultiPolygon", "coordinates": [[[[113.9439221, 22.5411819], [113.9439267, 22.5408184], [113.9442506, 22.5410036], [113.9439221, 22.5411819]], [[113.9439264, 22.541175], [113.9442442, 22.5410036], [113.9439299, 22.5408247], [113.9439264, 22.541175]]]]}}, {"type": "Feature", "id": "way/782886853", "properties": {"tags": {"building": "industrial", "building:levels": "4"}, "heightStatus": "levels_only_unverified", "source": "OpenStreetMap", "license": "ODbL-1.0"}, "geometry": {"type": "MultiPolygon", "coordinates": [[[[113.9412766, 22.5405775], [113.9412915, 22.5398086], [113.9412916, 22.5398059], [113.9414174, 22.5398079], [113.9414249, 22.5397843], [113.9414384, 22.5397644], [113.9414589, 22.5397461], [113.9414854, 22.5397354], [113.9415142, 22.539732], [113.9415148, 22.5397018], [113.9421333, 22.539712], [113.9432667, 22.5397309], [113.9432668, 22.5397606], [113.9432864, 22.5397625], [113.9433076, 22.5397698], [113.9433243, 22.5397814], [113.9433353, 22.5397983], [113.9433434, 22.5398187], [113.9433462, 22.5398411], [113.9434971, 22.5398437], [113.9434959, 22.5399048], [113.9434916, 22.5401279], [113.9434894, 22.5402367], [113.9433452, 22.5402343], [113.9433461, 22.540186], [113.9427095, 22.5401755], [113.9427087, 22.5402173], [113.9424361, 22.5402129], [113.942437, 22.5401683], [113.9421253, 22.5401631], [113.9420068, 22.5401612], [113.9420057, 22.5402138], [113.9417486, 22.5402094], [113.9417496, 22.5401569], [113.9416549, 22.5401553], [113.9416466, 22.5405836], [113.9412766, 22.5405775]]]]}}, {"type": "Feature", "id": "way/782886857", "properties": {"tags": {"building": "industrial", "building:levels": "8"}, "heightStatus": "levels_only_unverified", "source": "OpenStreetMap", "license": "ODbL-1.0"}, "geometry": {"type": "MultiPolygon", "coordinates": [[[[113.9422188, 22.5413884], [113.9422351, 22.5405704], [113.9424293, 22.5405737], [113.9427018, 22.5405784], [113.9427812, 22.5405797], [113.9427764, 22.5408173], [113.9426516, 22.5408152], [113.942646, 22.5410987], [113.9427708, 22.5411008], [113.9427648, 22.5413977], [113.9422188, 22.5413884]]]]}}, {"type": "Feature", "id": "way/782886858", "properties": {"tags": {"building": "yes", "building:levels": "4", "building:min_level": "1", "layer": "1"}, "heightStatus": "levels_only_unverified", "source": "OpenStreetMap", "license": "ODbL-1.0"}, "geometry": {"type": "MultiPolygon", "coordinates": [[[[113.9424293, 22.5405737], [113.9424361, 22.5402129], [113.9427087, 22.5402173], [113.9427018, 22.5405784], [113.9424293, 22.5405737]]]]}}, {"type": "Feature", "id": "way/782886859", "properties": {"tags": {"building": "yes", "building:levels": "6"}, "heightStatus": "levels_only_unverified", "source": "OpenStreetMap", "license": "ODbL-1.0"}, "geometry": {"type": "MultiPolygon", "coordinates": [[[[113.9437111, 22.5399061], [113.9437131, 22.5397659], [113.9439316, 22.5397685], [113.9439294, 22.5398981], [113.9439548, 22.5398979], [113.9439801, 22.5399009], [113.9440046, 22.5399071], [113.9440281, 22.5399163], [113.9440499, 22.5399284], [113.9440698, 22.5399431], [113.9440873, 22.5399601], [113.9441022, 22.5399792], [113.9441141, 22.54], [113.9441229, 22.540022], [113.9441283, 22.540045], [113.9441303, 22.5400685], [113.9441289, 22.5400919], [113.9441839, 22.5400976], [113.9445964, 22.5401023], [113.9445937, 22.540304], [113.9441649, 22.5402995], [113.9441094, 22.5402942], [113.944057, 22.5402828], [113.9440156, 22.5402704], [113.9439752, 22.5402534], [113.943933, 22.5402303], [113.9438867, 22.5401993], [113.9438435, 22.5401654], [113.9438127, 22.5401356], [113.9437941, 22.5401131], [113.9437694, 22.5400809], [113.9437499, 22.5400503], [113.9437343, 22.540018], [113.9437211, 22.5399804], [113.9437137, 22.5399392], [113.9437111, 22.5399061]]]]}}, {"type": "Feature", "id": "way/782886860", "properties": {"tags": {"building": "industrial", "building:levels": "3", "building:min_level": "1", "layer": "1"}, "heightStatus": "levels_only_unverified", "source": "OpenStreetMap", "license": "ODbL-1.0"}, "geometry": {"type": "MultiPolygon", "coordinates": [[[[113.9434916, 22.5401279], [113.9434959, 22.5399048], [113.9437111, 22.5399061], [113.9437137, 22.5399392], [113.9437211, 22.5399804], [113.9437343, 22.540018], [113.9437499, 22.5400503], [113.9437694, 22.5400809], [113.9437941, 22.5401131], [113.9438127, 22.5401356], [113.9434916, 22.5401279]]]]}}, {"type": "Feature", "id": "way/782886861", "properties": {"tags": {"building:levels": "14", "building:part": "yes"}, "heightStatus": "levels_only_unverified", "source": "OpenStreetMap", "license": "ODbL-1.0"}, "geometry": {"type": "MultiPolygon", "coordinates": [[[[113.9427594, 22.5422512], [113.9427757, 22.5419046], [113.9433062, 22.5419259], [113.94329, 22.5422725], [113.9427594, 22.5422512]]]]}}, {"type": "Feature", "id": "way/782886862", "properties": {"tags": {"building:levels": "12", "building:part": "yes"}, "heightStatus": "levels_only_unverified", "source": "OpenStreetMap", "license": "ODbL-1.0"}, "geometry": {"type": "MultiPolygon", "coordinates": [[[[113.94329, 22.5422725], [113.9433062, 22.5419259], [113.9433933, 22.5419294], [113.943377, 22.542276], [113.94329, 22.5422725]]]]}}, {"type": "Feature", "id": "way/782886863", "properties": {"tags": {"building:levels": "10", "building:part": "yes"}, "heightStatus": "levels_only_unverified", "source": "OpenStreetMap", "license": "ODbL-1.0"}, "geometry": {"type": "MultiPolygon", "coordinates": [[[[113.943377, 22.542276], [113.9433933, 22.5419294], [113.9434804, 22.5419329], [113.9434641, 22.5422795], [113.943377, 22.542276]]]]}}, {"type": "Feature", "id": "way/782886864", "properties": {"tags": {"building:levels": "8", "building:part": "yes"}, "heightStatus": "levels_only_unverified", "source": "OpenStreetMap", "license": "ODbL-1.0"}, "geometry": {"type": "MultiPolygon", "coordinates": [[[[113.9434641, 22.5422795], [113.9434804, 22.5419329], [113.9435664, 22.5419363], [113.9435501, 22.5422829], [113.9434641, 22.5422795]]]]}}, {"type": "Feature", "id": "way/782886865", "properties": {"tags": {"building:levels": "6", "building:part": "yes"}, "heightStatus": "levels_only_unverified", "source": "OpenStreetMap", "license": "ODbL-1.0"}, "geometry": {"type": "MultiPolygon", "coordinates": [[[[113.9435501, 22.5422829], [113.9435664, 22.5419363], [113.9436519, 22.5419397], [113.9436356, 22.5422863], [113.9435501, 22.5422829]]]]}}, {"type": "Feature", "id": "way/782886866", "properties": {"tags": {"building:levels": "4", "building:part": "yes"}, "heightStatus": "levels_only_unverified", "source": "OpenStreetMap", "license": "ODbL-1.0"}, "geometry": {"type": "MultiPolygon", "coordinates": [[[[113.9436356, 22.5422863], [113.9436519, 22.5419397], [113.9437374, 22.5419432], [113.9437211, 22.5422898], [113.9436356, 22.5422863]]]]}}, {"type": "Feature", "id": "way/782886867", "properties": {"tags": {"building:levels": "2", "building:part": "yes"}, "heightStatus": "levels_only_unverified", "source": "OpenStreetMap", "license": "ODbL-1.0"}, "geometry": {"type": "MultiPolygon", "coordinates": [[[[113.9437211, 22.5422898], [113.9437374, 22.5419432], [113.9438228, 22.5419466], [113.9438065, 22.5422932], [113.9437211, 22.5422898]]]]}}, {"type": "Feature", "id": "way/782886868", "properties": {"tags": {"building:levels": "2", "building:part": "yes"}, "heightStatus": "levels_only_unverified", "source": "OpenStreetMap", "license": "ODbL-1.0"}, "geometry": {"type": "MultiPolygon", "coordinates": [[[[113.9422428, 22.5422305], [113.9422591, 22.5418839], [113.942346, 22.5418874], [113.9423298, 22.542234], [113.9422428, 22.5422305]]]]}}, {"type": "Feature", "id": "way/782886869", "properties": {"tags": {"building:levels": "4", "building:part": "yes"}, "heightStatus": "levels_only_unverified", "source": "OpenStreetMap", "license": "ODbL-1.0"}, "geometry": {"type": "MultiPolygon", "coordinates": [[[[113.9423298, 22.542234], [113.942346, 22.5418874], [113.9424333, 22.5418909], [113.942417, 22.5422375], [113.9423298, 22.542234]]]]}}, {"type": "Feature", "id": "way/782886870", "properties": {"tags": {"building:levels": "6", "building:part": "yes"}, "heightStatus": "levels_only_unverified", "source": "OpenStreetMap", "license": "ODbL-1.0"}, "geometry": {"type": "MultiPolygon", "coordinates": [[[[113.942417, 22.5422375], [113.9424333, 22.5418909], [113.9425193, 22.5418943], [113.942503, 22.542241], [113.942417, 22.5422375]]]]}}, {"type": "Feature", "id": "way/782886871", "properties": {"tags": {"building:levels": "8", "building:part": "yes"}, "heightStatus": "levels_only_unverified", "source": "OpenStreetMap", "license": "ODbL-1.0"}, "geometry": {"type": "MultiPolygon", "coordinates": [[[[113.942503, 22.542241], [113.9425193, 22.5418943], [113.9426051, 22.5418978], [113.9425888, 22.5422444], [113.942503, 22.542241]]]]}}, {"type": "Feature", "id": "way/782886872", "properties": {"tags": {"building:levels": "12", "building:part": "yes"}, "heightStatus": "levels_only_unverified", "source": "OpenStreetMap", "license": "ODbL-1.0"}, "geometry": {"type": "MultiPolygon", "coordinates": [[[[113.9426742, 22.5422478], [113.9426905, 22.5419012], [113.9427757, 22.5419046], [113.9427594, 22.5422512], [113.9426742, 22.5422478]]]]}}, {"type": "Feature", "id": "way/782886873", "properties": {"tags": {"building:levels": "10", "building:part": "yes"}, "heightStatus": "levels_only_unverified", "source": "OpenStreetMap", "license": "ODbL-1.0"}, "geometry": {"type": "MultiPolygon", "coordinates": [[[[113.9425888, 22.5422444], [113.9426051, 22.5418978], [113.9426905, 22.5419012], [113.9426742, 22.5422478], [113.9425888, 22.5422444]]]]}}, {"type": "Feature", "id": "way/783215135", "properties": {"tags": {"building": "yes", "building:levels": "2"}, "heightStatus": "levels_only_unverified", "source": "OpenStreetMap", "license": "ODbL-1.0"}, "geometry": {"type": "MultiPolygon", "coordinates": [[[[113.9451493, 22.5446478], [113.945956, 22.5446362], [113.9459565, 22.5445067], [113.9459585, 22.5442028], [113.9461313, 22.5442019], [113.9462561, 22.5442071], [113.946255, 22.5444666], [113.9463881, 22.5444684], [113.9467276, 22.5444763], [113.9467257, 22.5445528], [113.9467235, 22.5446453], [113.9467366, 22.544753], [113.9467328, 22.5449092], [113.9465303, 22.5449059], [113.9462981, 22.5449023], [113.9462167, 22.544901], [113.9457881, 22.5448945], [113.9457007, 22.5448938], [113.9454857, 22.5448921], [113.9451522, 22.5448894], [113.9451493, 22.5446478]]]]}}, {"type": "Feature", "id": "way/783215136", "properties": {"tags": {"building": "yes", "building:levels": "2"}, "heightStatus": "levels_only_unverified", "source": "OpenStreetMap", "license": "ODbL-1.0"}, "geometry": {"type": "MultiPolygon", "coordinates": [[[[113.9469319, 22.5448607], [113.9469343, 22.544756], [113.9469654, 22.544649], [113.946968, 22.5445573], [113.9469695, 22.5444951], [113.9469695, 22.5444494], [113.9473105, 22.5444529], [113.94734, 22.5444982], [113.9473337, 22.5445939], [113.9472471, 22.5445935], [113.9472622, 22.5448649], [113.9471029, 22.5448641], [113.9470528, 22.5448636], [113.9469792, 22.5448627], [113.9469319, 22.5448607]]]]}}, {"type": "Feature", "id": "way/783215137", "properties": {"tags": {"building": "yes", "building:levels": "2", "building:min_level": "1", "layer": "1"}, "heightStatus": "levels_only_unverified", "source": "OpenStreetMap", "license": "ODbL-1.0"}, "geometry": {"type": "MultiPolygon", "coordinates": [[[[113.9467235, 22.5446453], [113.9467257, 22.5445528], [113.946968, 22.5445573], [113.9469654, 22.544649], [113.9469343, 22.544756], [113.9467366, 22.544753], [113.9467235, 22.5446453]]]]}}, {"type": "Feature", "id": "way/783215145", "properties": {"tags": {"building": "yes", "building:levels": "2", "building:min_level": "1"}, "heightStatus": "levels_only_unverified", "source": "OpenStreetMap", "license": "ODbL-1.0"}, "geometry": {"type": "MultiPolygon", "coordinates": [[[[113.9469097, 22.5441697], [113.9469338, 22.5437788], [113.9470915, 22.5437873], [113.9470674, 22.5441782], [113.9469097, 22.5441697]]]]}}, {"type": "Feature", "id": "way/801982576", "properties": {"tags": {"building": "kindergarten", "name": "深圳大学幼儿园"}, "heightStatus": "unknown", "source": "OpenStreetMap", "license": "ODbL-1.0"}, "geometry": {"type": "MultiPolygon", "coordinates": [[[[113.9371854, 22.5412232], [113.9374128, 22.5409207], [113.9376499, 22.5409412], [113.9376843, 22.5406019], [113.9375078, 22.5405866], [113.937513, 22.5405357], [113.9376348, 22.5404582], [113.9378676, 22.5405807], [113.9377968, 22.5412763], [113.9371854, 22.5412232]]]]}}, {"type": "Feature", "id": "way/915131581", "properties": {"tags": {"building:levels": "18", "building:material": "glass", "building:part": "yes"}, "heightStatus": "levels_only_unverified", "source": "OpenStreetMap", "license": "ODbL-1.0"}, "geometry": {"type": "MultiPolygon", "coordinates": [[[[113.9469903, 22.5424579], [113.9470098, 22.5419976], [113.9472939, 22.5420078], [113.9472928, 22.5420336], [113.9472754, 22.5424465], [113.9472745, 22.5424681], [113.9469903, 22.5424579]]]]}}, {"type": "Feature", "id": "way/915131584", "properties": {"tags": {"building": "commercial", "building:levels": "46", "building:material": "glass", "height": "226.4", "name": "A塔", "name:en": "Tower A", "name:zh": "A塔", "source": "深圳市规划和自然资源局南山管理局关于光启未来中心项目工程规划许可变更的公示"}, "heightStatus": "height_tag_unverified", "source": "OpenStreetMap", "license": "ODbL-1.0"}, "geometry": {"type": "MultiPolygon", "coordinates": [[[[113.9454671, 22.5402398], [113.945473, 22.5399024], [113.9454827, 22.5398782], [113.9454999, 22.5398631], [113.945525, 22.5398584], [113.9455676, 22.539859], [113.9458913, 22.5398637], [113.9459176, 22.5398675], [113.9459337, 22.5398832], [113.9459393, 22.5399092], [113.9459329, 22.5402422], [113.9459258, 22.540271], [113.9459081, 22.5402854], [113.9458789, 22.5402891], [113.945517, 22.5402838], [113.9454947, 22.5402795], [113.9454753, 22.5402658], [113.9454671, 22.5402398]]]]}}, {"type": "Feature", "id": "way/915131585", "properties": {"tags": {"building": "commercial", "building:levels": "16", "building:material": "glass", "height": "85.65", "name": "B塔", "name:en": "Tower B", "name:zh": "B塔", "source": "深圳市规划和自然资源局南山管理局关于光启未来中心项目工程规划许可变更的公示"}, "heightStatus": "height_tag_unverified", "source": "OpenStreetMap", "license": "ODbL-1.0"}, "geometry": {"type": "MultiPolygon", "coordinates": [[[[113.9464316, 22.5401356], [113.9464319, 22.5401155], [113.9464363, 22.5398276], [113.9464435, 22.5398071], [113.9464569, 22.5397969], [113.9464752, 22.5397896], [113.946815, 22.5397954], [113.9468348, 22.5398035], [113.9468474, 22.5398174], [113.9468498, 22.5398378], [113.9468443, 22.5401422], [113.9468387, 22.540159], [113.9468246, 22.5401731], [113.9468062, 22.5401809], [113.9466987, 22.5401795], [113.9464672, 22.5401765], [113.946449, 22.5401692], [113.9464368, 22.540155], [113.9464316, 22.5401356]]]]}}, {"type": "Feature", "id": "way/915131586", "properties": {"tags": {"building": "yes", "building:levels": "6", "building:material": "glass", "height": "29.1", "layer": "1", "source": "深圳市规划和自然资源局南山管理局关于光启未来中心项目工程规划许可变更的公示"}, "heightStatus": "height_tag_unverified", "source": "OpenStreetMap", "license": "ODbL-1.0"}, "geometry": {"type": "MultiPolygon", "coordinates": [[[[113.9455669, 22.5398121], [113.9464363, 22.5398276], [113.9464319, 22.5401155], [113.9461407, 22.5401117], [113.9461412, 22.5402929], [113.9458789, 22.5402891], [113.9459081, 22.5402854], [113.9459258, 22.540271], [113.9459329, 22.5402422], [113.9459393, 22.5399092], [113.9459337, 22.5398832], [113.9459176, 22.5398675], [113.9458913, 22.5398637], [113.9455676, 22.539859], [113.9455669, 22.5398121]]]]}}, {"type": "Feature", "id": "way/915131587", "properties": {"tags": {"building": "yes", "building:levels": "6", "building:material": "glass", "height": "29.1", "source": "深圳市规划和自然资源局南山管理局关于光启未来中心项目工程规划许可变更的公示"}, "heightStatus": "height_tag_unverified", "source": "OpenStreetMap", "license": "ODbL-1.0"}, "geometry": {"type": "MultiPolygon", "coordinates": [[[[113.9464296, 22.5402948], [113.9464316, 22.5401356], [113.9464368, 22.540155], [113.946449, 22.5401692], [113.9464672, 22.5401765], [113.9466987, 22.5401795], [113.9466972, 22.5402982], [113.9464296, 22.5402948]]]]}}, {"type": "Feature", "id": "relation/12422056", "properties": {"tags": {"building": "yes", "building:levels": "2", "building:material": "glass"}, "heightStatus": "levels_only_unverified", "source": "OpenStreetMap", "license": "ODbL-1.0"}, "geometry": {"type": "MultiPolygon", "coordinates": [[[[113.9434304, 22.5378458], [113.9434362, 22.5375054], [113.9437367, 22.5375098], [113.943789, 22.5375095], [113.9438402, 22.5375088], [113.9438361, 22.5378517], [113.9434304, 22.5378458]], [[113.9435387, 22.53778], [113.9437561, 22.5377831], [113.9437595, 22.5375758], [113.943542, 22.5375728], [113.9435387, 22.53778]]]]}}, {"type": "Feature", "id": "relation/12528131", "properties": {"tags": {"building": "commercial", "name": "深圳市高新技术产业园区W1B座"}, "heightStatus": "unknown", "source": "OpenStreetMap", "license": "ODbL-1.0"}, "geometry": {"type": "MultiPolygon", "coordinates": [[[[113.9379482, 22.5396442], [113.9379529, 22.5393832], [113.9383374, 22.5393871], [113.9383385, 22.5395184], [113.9386166, 22.539523], [113.9386188, 22.5393841], [113.9391786, 22.5393884], [113.9391726, 22.5396509], [113.9391446, 22.5396506], [113.9389953, 22.5396495], [113.9389019, 22.5396486], [113.9389014, 22.5398407], [113.9389004, 22.5399158], [113.9388997, 22.540077], [113.938608, 22.5400753], [113.9386088, 22.5400257], [113.9383264, 22.5400233], [113.9382808, 22.5400505], [113.9379482, 22.5396442]], [[113.9384208, 22.5398894], [113.9386109, 22.539892], [113.9386139, 22.539601], [113.9384226, 22.5395974], [113.9384208, 22.5398894]]]]}}, {"type": "Feature", "id": "relation/12528132", "properties": {"tags": {"building": "commercial", "name": "深圳市高新技术产业园区W2A座", "name:zh": "深圳市高新技术产业园区W2A座", "name:zh-Hans": "深圳市高新技术产业园区W2A座", "name:zh-Hant": "深圳市高新技術產業園區W2A座"}, "heightStatus": "unknown", "source": "OpenStreetMap", "license": "ODbL-1.0"}, "geometry": {"type": "MultiPolygon", "coordinates": [[[[113.9373321, 22.538866], [113.9378037, 22.5385377], [113.937865, 22.5386128], [113.9379349, 22.538564], [113.9381731, 22.5385648], [113.9381975, 22.5385753], [113.9382191, 22.5385906], [113.9382409, 22.5386088], [113.938257, 22.5386286], [113.9382674, 22.5386497], [113.9382739, 22.5386733], [113.9382757, 22.5387032], [113.9382754, 22.5387751], [113.9382012, 22.5387755], [113.9381988, 22.5388602], [113.9382843, 22.5388611], [113.9382847, 22.5390895], [113.9378598, 22.5390868], [113.9377292, 22.5389257], [113.9375071, 22.5390804], [113.9373321, 22.538866]], [[113.9379315, 22.5386943], [113.9379787, 22.5387521], [113.9380425, 22.5387076], [113.9379955, 22.5386505], [113.9379315, 22.5386943]], [[113.9380339, 22.5388155], [113.9380717, 22.5388588], [113.9381292, 22.5388595], [113.9381302, 22.5387741], [113.9380954, 22.5387736], [113.9380339, 22.5388155]]]]}}, {"type": "Feature", "id": "way/1023940397", "properties": {"tags": {"building:colour": "white", "building:levels": "9", "building:material": "limestone", "building:part": "yes", "height": "38.5"}, "heightStatus": "height_tag_unverified", "source": "OpenStreetMap", "license": "ODbL-1.0"}, "geometry": {"type": "MultiPolygon", "coordinates": [[[[113.9388386, 22.5406184], [113.9388409, 22.5404168], [113.9391253, 22.5404195], [113.9391246, 22.5404786], [113.9392149, 22.5404795], [113.9392133, 22.540619], [113.9392956, 22.54062], [113.9392935, 22.5407729], [113.9393886, 22.540774], [113.9393871, 22.5408855], [113.9394904, 22.5408869], [113.9394888, 22.5409867], [113.9395594, 22.5409877], [113.9395538, 22.541345], [113.939339, 22.5413421], [113.9393406, 22.5412375], [113.9392678, 22.5412365], [113.9392701, 22.5410958], [113.9392235, 22.5410952], [113.9392244, 22.5410296], [113.939172, 22.541029], [113.9391735, 22.5409232], [113.9391062, 22.5409224], [113.939108, 22.5407902], [113.9390296, 22.5407893], [113.9390313, 22.5406607], [113.9389289, 22.5406598], [113.9389293, 22.5406193], [113.9388386, 22.5406184]]]]}}, {"type": "Feature", "id": "way/1212730070", "properties": {"tags": {"building": "train_station", "building:levels": "0", "building:levels:underground": "2", "layer": "-1", "location": "underground", "name": "深大站", "name:en": "Shenzhen University Station", "name:zh": "深大站", "public_transport": "station", "start_date": "2009-09-28", "wikidata": "Q5963375", "wikipedia": "zh:深大站"}, "heightStatus": "levels_only_unverified", "source": "OpenStreetMap", "license": "ODbL-1.0"}, "geometry": {"type": "MultiPolygon", "coordinates": [[[[113.9380258, 22.5401659], [113.9381861, 22.5400554], [113.9389207, 22.5409646], [113.9389687, 22.5409315], [113.938724, 22.540629], [113.9387542, 22.5406082], [113.9387843, 22.5405874], [113.9390932, 22.5409693], [113.9389849, 22.541044], [113.939235, 22.5413551], [113.9393573, 22.5413561], [113.9393891, 22.5413959], [113.9397343, 22.5414073], [113.9397333, 22.5413343], [113.9399994, 22.5413352], [113.9399994, 22.5413865], [113.9403848, 22.5413974], [113.9404433, 22.5413453], [113.9405327, 22.5413434], [113.9405343, 22.5407605], [113.940476, 22.5407607], [113.9404777, 22.5411367], [113.9404023, 22.541137], [113.9404, 22.5406374], [113.9404751, 22.5406371], [113.9404754, 22.5406971], [113.940534, 22.5406969], [113.9405336, 22.5402064], [113.9401052, 22.5402088], [113.9401049, 22.5401487], [113.94035, 22.5401473], [113.9403498, 22.5401163], [113.940533, 22.5401153], [113.940531, 22.5395836], [113.9404802, 22.5395839], [113.9404805, 22.539615], [113.9404443, 22.5396152], [113.9404445, 22.5396329], [113.9403915, 22.5396333], [113.9403914, 22.5396164], [113.9403776, 22.5396165], [113.9403765, 22.5394635], [113.9404777, 22.5394629], [113.940478, 22.5395011], [113.9405304, 22.5395008], [113.9405296, 22.5391612], [113.9403017, 22.5391616], [113.9403011, 22.5388664], [113.9403627, 22.5388663], [113.9403624, 22.5387584], [113.9405085, 22.5387581], [113.940509, 22.5390135], [113.9410043, 22.5390095], [113.9410029, 22.5385969], [113.941053, 22.5385968], [113.941054, 22.5388969], [113.9410621, 22.5388969], [113.9410621, 22.5388739], [113.9410773, 22.5388739], [113.9410771, 22.53883], [113.9410976, 22.53883], [113.9410979, 22.5388965], [113.9411293, 22.5388964], [113.9411294, 22.5389263], [113.941244, 22.538926], [113.9412443, 22.5390233], [113.9410862, 22.5390237], [113.9410864, 22.5390806], [113.9407843, 22.5390837], [113.9407837, 22.5391493], [113.9407609, 22.5391504], [113.9407615, 22.5396461], [113.9409523, 22.5396455], [113.9409511, 22.5395748], [113.9409922, 22.5395745], [113.9409918, 22.53954], [113.9410622, 22.5395388], [113.9410666, 22.5398833], [113.9407609, 22.5398833], [113.9407621, 22.5401714], [113.9409548, 22.5401702], [113.941032, 22.5400778], [113.941032, 22.5400562], [113.9410925, 22.5400522], [113.9410937, 22.5402758], [113.9410697, 22.5402952], [113.9410715, 22.5407589], [113.9408599, 22.5407592], [113.940843, 22.5415975], [113.9414461, 22.5416045], [113.9414451, 22.5416711], [113.9410993, 22.5416671], [113.9410993, 22.541685], [113.9411851, 22.5416854], [113.9411892, 22.5420484], [113.9411022, 22.5420482], [113.9411011, 22.5421104], [113.9411458, 22.5421098], [113.9411459, 22.542115], [113.9411966, 22.5421144], [113.9411968, 22.5421324], [113.9411461, 22.5421331], [113.9411463, 22.5421494], [113.9410525, 22.5421507], [113.9410521, 22.5424446], [113.9408525, 22.5424474], [113.9408492, 22.5420925], [113.9405148, 22.542093], [113.9405137, 22.5419654], [113.9404726, 22.5419654], [113.9404721, 22.5417803], [113.9403529, 22.5417808], [113.940354, 22.5416731], [113.9404752, 22.5416731], [113.9404762, 22.5416024], [113.9403894, 22.5415246], [113.9393542, 22.5415013], [113.9396059, 22.5418126], [113.9398753, 22.542146], [113.9397326, 22.5422444], [113.9394607, 22.5422353], [113.9394132, 22.543298], [113.9398296, 22.5433155], [113.9398277, 22.5433577], [113.9398261, 22.5433948], [113.9389784, 22.5433627], [113.9389803, 22.5433209], [113.9389821, 22.5432801], [113.9393082, 22.5432941], [113.9393444, 22.5424829], [113.9390562, 22.542473], [113.9390579, 22.5424408], [113.9390601, 22.5423992], [113.9393476, 22.5424101], [113.9393555, 22.5422318], [113.9390698, 22.5422217], [113.9390722, 22.5421598], [113.9393587, 22.5421699], [113.9393676, 22.5419452], [113.9392766, 22.5419421], [113.9392851, 22.5417237], [113.9380258, 22.5401659]]]]}}, {"type": "Feature", "id": "way/1258728406", "properties": {"tags": {"addr:housename": "科苑西住宅小区", "addr:housename:en": "Keyuan West Residential Community", "addr:housename:zh": "科苑西住宅小区", "building": "apartments", "building:levels": "7", "name": "30栋", "name:en": "Block 30", "name:zh": "30栋"}, "heightStatus": "levels_only_unverified", "source": "OpenStreetMap", "license": "ODbL-1.0"}, "geometry": {"type": "MultiPolygon", "coordinates": [[[[113.9380621, 22.5446964], [113.9381454, 22.5446234], [113.9384731, 22.5449427], [113.9383899, 22.5450156], [113.9380621, 22.5446964]]]]}}, {"type": "Feature", "id": "way/1258728407", "properties": {"tags": {"addr:housename": "科苑西住宅小区", "addr:housename:en": "Keyuan West Residential Community", "addr:housename:zh": "科苑西住宅小区", "building": "apartments", "building:levels": "7", "name": "29栋", "name:en": "Block 29", "name:zh": "29栋"}, "heightStatus": "levels_only_unverified", "source": "OpenStreetMap", "license": "ODbL-1.0"}, "geometry": {"type": "MultiPolygon", "coordinates": [[[[113.9383022, 22.5444716], [113.9383961, 22.5444107], [113.9386697, 22.5447708], [113.9385758, 22.5448317], [113.9383022, 22.5444716]]]]}}, {"type": "Feature", "id": "way/1258728409", "properties": {"tags": {"addr:housename": "科苑西住宅小区", "addr:housename:en": "Keyuan West Residential Community", "addr:housename:zh": "科苑西住宅小区", "building": "apartments", "building:levels": "7", "name": "16栋", "name:en": "Block 16", "name:zh": "16栋"}, "heightStatus": "levels_only_unverified", "source": "OpenStreetMap", "license": "ODbL-1.0"}, "geometry": {"type": "MultiPolygon", "coordinates": [[[[113.9389487, 22.5448847], [113.9391434, 22.5448848], [113.9391928, 22.5448682], [113.9393276, 22.5447536], [113.9393975, 22.5448237], [113.9392646, 22.5449367], [113.9393255, 22.5451081], [113.9391924, 22.5451484], [113.9391293, 22.5449709], [113.9389487, 22.5449708], [113.9389487, 22.5448847]]]]}}, {"type": "Feature", "id": "way/1258728412", "properties": {"tags": {"addr:housename": "科苑西住宅小区", "addr:housename:en": "Keyuan West Residential Community", "addr:housename:zh": "科苑西住宅小区", "building": "apartments", "building:levels": "7", "name": "15栋", "name:en": "Block 15", "name:zh": "15栋"}, "heightStatus": "levels_only_unverified", "source": "OpenStreetMap", "license": "ODbL-1.0"}, "geometry": {"type": "MultiPolygon", "coordinates": [[[[113.939476, 22.5449342], [113.9394786, 22.5448314], [113.9397256, 22.5448367], [113.9397248, 22.5448699], [113.9398791, 22.5448732], [113.9398764, 22.5449816], [113.9396944, 22.5449777], [113.9396954, 22.5449389], [113.939476, 22.5449342]]]]}}, {"type": "Feature", "id": "way/1258728414", "properties": {"tags": {"addr:housename": "汇景豪苑", "addr:housename:en": "Huijing Haoyuan", "addr:housename:zh": "汇景豪苑", "building": "apartments", "building:levels": "33", "layer": "1", "name": "3栋", "name:en": "Block 3", "name:zh": "3栋"}, "heightStatus": "levels_only_unverified", "source": "OpenStreetMap", "license": "ODbL-1.0"}, "geometry": {"type": "MultiPolygon", "coordinates": [[[[113.9380096, 22.5440663], [113.9380142, 22.5439403], [113.9381051, 22.5439431], [113.9381068, 22.5438956], [113.9381743, 22.5438977], [113.9381765, 22.5438383], [113.9382705, 22.5438412], [113.9383282, 22.5438734], [113.9383832, 22.5439655], [113.9383316, 22.5439917], [113.9383604, 22.5440399], [113.9383173, 22.5440618], [113.9383614, 22.5441359], [113.9382376, 22.5441989], [113.9381613, 22.544071], [113.9380096, 22.5440663]]]]}}, {"type": "Feature", "id": "way/1258728415", "properties": {"tags": {"addr:housename": "汇景豪苑", "addr:housename:en": "Huijing Haoyuan", "addr:housename:zh": "汇景豪苑", "building": "apartments", "building:levels": "33", "layer": "1", "name": "2栋", "name:en": "Block 2", "name:zh": "2栋"}, "heightStatus": "levels_only_unverified", "source": "OpenStreetMap", "license": "ODbL-1.0"}, "geometry": {"type": "MultiPolygon", "coordinates": [[[[113.9384038, 22.5441792], [113.9384849, 22.5441412], [113.9384617, 22.5440988], [113.9385219, 22.5440707], [113.9384927, 22.5440176], [113.9385767, 22.5439783], [113.9386441, 22.5439808], [113.9387402, 22.544037], [113.9387088, 22.544083], [113.9387591, 22.5441124], [113.9387328, 22.5441508], [113.9388101, 22.544196], [113.9387345, 22.5443064], [113.9386009, 22.5442283], [113.9384655, 22.5442916], [113.9384038, 22.5441792]]]]}}, {"type": "Feature", "id": "way/1258728416", "properties": {"tags": {"addr:housename": "汇景豪苑", "addr:housename:en": "Huijing Haoyuan", "addr:housename:zh": "汇景豪苑", "building": "apartments", "building:levels": "33", "layer": "1", "name": "1栋", "name:en": "Block 1", "name:zh": "1栋"}, "heightStatus": "levels_only_unverified", "source": "OpenStreetMap", "license": "ODbL-1.0"}, "geometry": {"type": "MultiPolygon", "coordinates": [[[[113.9388572, 22.5440175], [113.9389061, 22.5439431], [113.9389648, 22.5439125], [113.9390786, 22.5439133], [113.9390781, 22.5439677], [113.9391377, 22.5439682], [113.9391373, 22.5440136], [113.9392288, 22.5440143], [113.9392276, 22.5441449], [113.9390695, 22.5441437], [113.9389907, 22.5442635], [113.9388741, 22.5441981], [113.9389213, 22.5441263], [113.9388773, 22.5441016], [113.9389123, 22.5440484], [113.9388572, 22.5440175]]]]}}, {"type": "Feature", "id": "way/1258728417", "properties": {"tags": {"addr:housename": "汇景豪苑", "addr:housename:en": "Huijing Haoyuan", "addr:housename:zh": "汇景豪苑", "building": "apartments", "building:levels": "33", "layer": "1", "name": "4栋", "name:en": "Block 4", "name:zh": "4栋"}, "heightStatus": "levels_only_unverified", "source": "OpenStreetMap", "license": "ODbL-1.0"}, "geometry": {"type": "MultiPolygon", "coordinates": [[[[113.9377269, 22.5437023], [113.9377318, 22.5435739], [113.9377839, 22.5435747], [113.9377847, 22.5435317], [113.9378511, 22.5435328], [113.9378522, 22.5434723], [113.9379448, 22.5434738], [113.9380025, 22.543506], [113.9380574, 22.5435981], [113.9380058, 22.5436243], [113.9380346, 22.5436725], [113.9379915, 22.5436944], [113.9380357, 22.5437685], [113.9379906, 22.5437915], [113.9379119, 22.5438315], [113.9378356, 22.5437036], [113.9377269, 22.5437023]]]]}}, {"type": "Feature", "id": "way/1258728418", "properties": {"tags": {"addr:housename": "深南花园", "addr:housename:en": "Shennan Garden", "addr:housename:zh": "深南花园", "building": "apartments", "building:levels": "34", "layer": "1", "name": "C栋", "name:en": "Block C", "name:zh": "C栋"}, "heightStatus": "levels_only_unverified", "source": "OpenStreetMap", "license": "ODbL-1.0"}, "geometry": {"type": "MultiPolygon", "coordinates": [[[[113.9391991, 22.5438628], [113.939249, 22.5438011], [113.9392079, 22.5437728], [113.9392354, 22.5437388], [113.9392094, 22.5437209], [113.9392316, 22.5436934], [113.9392005, 22.5436719], [113.9392658, 22.5435911], [113.9392624, 22.5435844], [113.9392709, 22.5435848], [113.9392759, 22.5435785], [113.9392794, 22.5435852], [113.9393885, 22.54359], [113.9393866, 22.5436259], [113.9394236, 22.5436275], [113.9394221, 22.5436575], [113.939468, 22.5436595], [113.9394656, 22.5437067], [113.9395623, 22.543711], [113.9395574, 22.5438049], [113.9393971, 22.5437978], [113.9393987, 22.5437667], [113.939379, 22.5437579], [113.9393467, 22.5437719], [113.9393416, 22.5437916], [113.9393686, 22.5438102], [113.9392726, 22.543929], [113.9392313, 22.5439005], [113.9392394, 22.5438906], [113.9391991, 22.5438628]]]]}}, {"type": "Feature", "id": "way/1258728419", "properties": {"tags": {"addr:housename": "深南花园", "addr:housename:en": "Shennan Garden", "addr:housename:zh": "深南花园", "building": "apartments", "building:levels": "34", "layer": "1", "name": "A栋", "name:en": "Block A", "name:zh": "A栋"}, "heightStatus": "levels_only_unverified", "source": "OpenStreetMap", "license": "ODbL-1.0"}, "geometry": {"type": "MultiPolygon", "coordinates": [[[[113.9399219, 22.5441259], [113.9399265, 22.5440309], [113.9400166, 22.5440346], [113.9400189, 22.5439876], [113.9400649, 22.5439895], [113.9400663, 22.5439595], [113.9401034, 22.5439611], [113.9401052, 22.5439254], [113.9402312, 22.5439307], [113.9402593, 22.5439754], [113.9402956, 22.5440332], [113.9402546, 22.5440552], [113.9402673, 22.5440755], [113.9402356, 22.5440925], [113.9403075, 22.5442071], [113.9402556, 22.5442349], [113.9401857, 22.5442723], [113.9401152, 22.5441599], [113.9401529, 22.5441397], [113.9401529, 22.5441229], [113.9400971, 22.5440932], [113.9400767, 22.5441001], [113.9400752, 22.5441323], [113.9399219, 22.5441259]]]]}}, {"type": "Feature", "id": "way/1269039300", "properties": {"tags": {"building": "apartments", "building:levels": "61", "height": "190"}, "heightStatus": "height_tag_unverified", "source": "OpenStreetMap", "license": "ODbL-1.0"}, "geometry": {"type": "MultiPolygon", "coordinates": [[[[113.9465803, 22.5382776], [113.9465814, 22.5380905], [113.9470123, 22.5380928], [113.9470112, 22.5382799], [113.9465803, 22.5382776]]]]}}, {"type": "Feature", "id": "way/1269039301", "properties": {"tags": {"building": "apartments", "building:levels": "61", "height": "190"}, "heightStatus": "height_tag_unverified", "source": "OpenStreetMap", "license": "ODbL-1.0"}, "geometry": {"type": "MultiPolygon", "coordinates": [[[[113.9462981, 22.5378411], [113.9462992, 22.537654], [113.9467302, 22.5376563], [113.946729, 22.5378434], [113.9462981, 22.5378411]]]]}}, {"type": "Feature", "id": "way/1269039302", "properties": {"tags": {"building": "apartments", "building:levels": "61", "height": "190"}, "heightStatus": "height_tag_unverified", "source": "OpenStreetMap", "license": "ODbL-1.0"}, "geometry": {"type": "MultiPolygon", "coordinates": [[[[113.9462954, 22.5372641], [113.9462965, 22.537077], [113.9467274, 22.5370793], [113.9467263, 22.5372664], [113.9462954, 22.5372641]]]]}}, {"type": "Feature", "id": "way/1269039303", "properties": {"tags": {"building": "apartments", "building:levels": "43", "height": "140"}, "heightStatus": "height_tag_unverified", "source": "OpenStreetMap", "license": "ODbL-1.0"}, "geometry": {"type": "MultiPolygon", "coordinates": [[[[113.9453915, 22.5366868], [113.9453922, 22.5364994], [113.9458616, 22.5365008], [113.9458609, 22.5366883], [113.9453915, 22.5366868]]]]}}, {"type": "Feature", "id": "way/1269039304", "properties": {"tags": {"building": "apartments", "building:levels": "43", "height": "140"}, "heightStatus": "height_tag_unverified", "source": "OpenStreetMap", "license": "ODbL-1.0"}, "geometry": {"type": "MultiPolygon", "coordinates": [[[[113.9459591, 22.5364073], [113.9459598, 22.5362198], [113.9464292, 22.5362213], [113.9464285, 22.5364088], [113.9459591, 22.5364073]]]]}}, {"type": "Feature", "id": "way/1269039305", "properties": {"tags": {"building": "apartments", "building:levels": "43", "height": "140"}, "heightStatus": "height_tag_unverified", "source": "OpenStreetMap", "license": "ODbL-1.0"}, "geometry": {"type": "MultiPolygon", "coordinates": [[[[113.9465592, 22.5364257], [113.9467064, 22.5362966], [113.9470297, 22.5366108], [113.9468825, 22.53674], [113.9465592, 22.5364257]]]]}}, {"type": "Feature", "id": "way/1272218771", "properties": {"tags": {"building": "yes"}, "heightStatus": "unknown", "source": "OpenStreetMap", "license": "ODbL-1.0"}, "geometry": {"type": "MultiPolygon", "coordinates": [[[[113.9387083, 22.5360263], [113.9390927, 22.5360253], [113.9390932, 22.5361908], [113.9390633, 22.5361909], [113.9390642, 22.5364687], [113.939092, 22.5364686], [113.9390921, 22.5365215], [113.9391906, 22.5365212], [113.9391909, 22.5366325], [113.9387101, 22.5366337], [113.9387083, 22.5360263]]]]}}, {"type": "Feature", "id": "way/1276361909", "properties": {"tags": {"building:levels": "7", "building:part": "yes"}, "heightStatus": "levels_only_unverified", "source": "OpenStreetMap", "license": "ODbL-1.0"}, "geometry": {"type": "MultiPolygon", "coordinates": [[[[113.9399854, 22.5449762], [113.9399877, 22.5447677], [113.9403816, 22.5447714], [113.9403787, 22.5450383], [113.9402464, 22.5450371], [113.9401742, 22.5450364], [113.9401748, 22.544978], [113.9399854, 22.5449762]]]]}}, {"type": "Feature", "id": "way/1276361915", "properties": {"tags": {"building": "yes"}, "heightStatus": "unknown", "source": "OpenStreetMap", "license": "ODbL-1.0"}, "geometry": {"type": "MultiPolygon", "coordinates": [[[[113.9373305, 22.5448291], [113.937334, 22.544709], [113.9376584, 22.544717], [113.9376549, 22.5448371], [113.9373305, 22.5448291]]]]}}, {"type": "Feature", "id": "way/1303241054", "properties": {"tags": {"addr:city": "深圳市", "addr:country": "CN", "addr:district": "南山区", "addr:housenumber": "10", "addr:province": "广东省", "addr:street": "科兴路", "addr:subdistrict": "粤海街道", "building": "retail", "building:levels": "3", "name": "科技园文化广场", "name:en": "Kejiyuan Cultural Plaza", "name:zh": "科技园文化广场", "name:zh-Hans": "科技园文化广场", "name:zh-Hant": "科技園文化廣場", "shop": "mall"}, "heightStatus": "levels_only_unverified", "source": "OpenStreetMap", "license": "ODbL-1.0"}, "geometry": {"type": "MultiPolygon", "coordinates": [[[[113.9373647, 22.5436252], [113.9373682, 22.5435835], [113.9374483, 22.5434691], [113.9375003, 22.5434515], [113.9387367, 22.543512], [113.9387617, 22.543558], [113.9387595, 22.5437226], [113.9392283, 22.5439669], [113.9392288, 22.5440143], [113.9392276, 22.5441449], [113.9390695, 22.5441437], [113.9389907, 22.5442635], [113.9388741, 22.5441981], [113.9389213, 22.5441263], [113.9388773, 22.5441016], [113.9387591, 22.5441124], [113.9387328, 22.5441508], [113.9388101, 22.544196], [113.9387345, 22.5443064], [113.9386009, 22.5442283], [113.9384655, 22.5442916], [113.9384038, 22.5441792], [113.9384849, 22.5441412], [113.9384617, 22.5440988], [113.9383604, 22.5440399], [113.9383173, 22.5440618], [113.9383614, 22.5441359], [113.9382376, 22.5441989], [113.9381613, 22.544071], [113.9380096, 22.5440663], [113.9380142, 22.5439403], [113.9381051, 22.5439431], [113.9381068, 22.5438956], [113.9379906, 22.5437915], [113.9379119, 22.5438315], [113.9378356, 22.5437036], [113.9377269, 22.5437023], [113.9376182, 22.5437009], [113.9375394, 22.5438208], [113.9374227, 22.5437553], [113.9374699, 22.5436835], [113.937426, 22.5436589], [113.9373647, 22.5436252]]]]}}, {"type": "Feature", "id": "way/1303241055", "properties": {"tags": {"building": "retail", "building:levels": "5"}, "heightStatus": "levels_only_unverified", "source": "OpenStreetMap", "license": "ODbL-1.0"}, "geometry": {"type": "MultiPolygon", "coordinates": [[[[113.9387968, 22.5436571], [113.9389083, 22.5435102], [113.9394542, 22.543545], [113.9394494, 22.5436094], [113.9396656, 22.543623], [113.9396704, 22.5435583], [113.9401019, 22.5435856], [113.9401284, 22.5435889], [113.9401501, 22.5435971], [113.9401658, 22.543609], [113.9402785, 22.5438101], [113.9402087, 22.5438435], [113.9402777, 22.5439666], [113.9402593, 22.5439754], [113.9402956, 22.5440332], [113.9402546, 22.5440552], [113.9402673, 22.5440755], [113.9402356, 22.5440925], [113.9403075, 22.5442071], [113.9402556, 22.5442349], [113.9402744, 22.5442643], [113.939951, 22.5444405], [113.939895, 22.5443527], [113.9398849, 22.5440874], [113.9398672, 22.5440054], [113.939828, 22.5439536], [113.9397448, 22.5438269], [113.9397736, 22.5438108], [113.9397705, 22.5437908], [113.9397398, 22.5437739], [113.9397193, 22.5437809], [113.9397177, 22.543812], [113.9395574, 22.5438049], [113.9393971, 22.5437978], [113.9393987, 22.5437667], [113.939379, 22.5437579], [113.9393467, 22.5437719], [113.9393416, 22.5437916], [113.9393686, 22.5438102], [113.9392726, 22.543929], [113.9392313, 22.5439005], [113.9387968, 22.5436571]]]]}}, {"type": "Feature", "id": "way/1433583771", "properties": {"tags": {"addr:housename": "深南花园", "addr:housename:en": "Shennan Garden", "addr:housename:zh": "深南花园", "building": "apartments", "building:levels": "34", "layer": "1", "name": "B栋", "name:en": "Block B", "name:zh": "B栋"}, "heightStatus": "levels_only_unverified", "source": "OpenStreetMap", "license": "ODbL-1.0"}, "geometry": {"type": "MultiPolygon", "coordinates": [[[[113.9395574, 22.5438049], [113.9395623, 22.543711], [113.939659, 22.5437153], [113.9396614, 22.5436681], [113.9397074, 22.5436701], [113.9397089, 22.5436402], [113.939746, 22.5436418], [113.9397478, 22.543606], [113.9398569, 22.5436108], [113.939861, 22.5436045], [113.9398654, 22.5436112], [113.9398739, 22.5436115], [113.9398699, 22.5436179], [113.9399265, 22.5437042], [113.9398932, 22.5437228], [113.9399125, 22.5437521], [113.9398847, 22.5437676], [113.9399085, 22.5438039], [113.9398648, 22.5438285], [113.939908, 22.5438943], [113.939865, 22.5439183], [113.939872, 22.543929], [113.939828, 22.5439536], [113.9397448, 22.5438269], [113.9397736, 22.5438108], [113.9397705, 22.5437908], [113.9397398, 22.5437739], [113.9397193, 22.5437809], [113.9397177, 22.543812], [113.9395574, 22.5438049]]]]}}, {"type": "Feature", "id": "way/1433583772", "properties": {"tags": {"addr:housename": "汇景豪苑", "addr:housename:en": "Huijing Haoyuan", "addr:housename:zh": "汇景豪苑", "building": "apartments", "building:levels": "33", "layer": "1", "name": "5栋", "name:en": "Block 5", "name:zh": "5栋"}, "heightStatus": "levels_only_unverified", "source": "OpenStreetMap", "license": "ODbL-1.0"}, "geometry": {"type": "MultiPolygon", "coordinates": [[[[113.9374059, 22.5435747], [113.9374548, 22.5435004], [113.9375135, 22.5434697], [113.9376262, 22.5434715], [113.9376252, 22.5435264], [113.9376842, 22.5435273], [113.9376834, 22.5435731], [113.9377318, 22.5435739], [113.9377269, 22.5437023], [113.9376182, 22.5437009], [113.9375394, 22.5438208], [113.9374227, 22.5437553], [113.9374699, 22.5436835], [113.937426, 22.5436589], [113.937461, 22.5436056], [113.9374059, 22.5435747]]]]}}, {"type": "Feature", "id": "way/1476884316", "properties": {"tags": {"building": "kindergarten"}, "heightStatus": "unknown", "source": "OpenStreetMap", "license": "ODbL-1.0"}, "geometry": {"type": "MultiPolygon", "coordinates": [[[[113.9462531, 22.5386334], [113.9462555, 22.5384839], [113.9467491, 22.5384907], [113.9467467, 22.5386401], [113.9462531, 22.5386334]]]]}}, {"type": "Feature", "id": "way/1476884317", "properties": {"tags": {"building": "school"}, "heightStatus": "unknown", "source": "OpenStreetMap", "license": "ODbL-1.0"}, "geometry": {"type": "MultiPolygon", "coordinates": [[[[113.9452872, 22.5372623], [113.9452902, 22.5370241], [113.9460969, 22.5370329], [113.9460938, 22.537271], [113.9452872, 22.5372623]]]]}}, {"type": "Feature", "id": "way/1476884318", "properties": {"tags": {"building": "yes"}, "heightStatus": "unknown", "source": "OpenStreetMap", "license": "ODbL-1.0"}, "geometry": {"type": "MultiPolygon", "coordinates": [[[[113.9453591, 22.5379296], [113.9453601, 22.5377699], [113.945482, 22.5377705], [113.9454823, 22.5377208], [113.9458499, 22.5377227], [113.9458486, 22.5379322], [113.9453591, 22.5379296]]]]}}, {"type": "Feature", "id": "way/1476884319", "properties": {"tags": {"access": "no", "amenity": "parking", "building": "yes", "bus": "yes", "parking": "multi-storey"}, "heightStatus": "unknown", "source": "OpenStreetMap", "license": "ODbL-1.0"}, "geometry": {"type": "MultiPolygon", "coordinates": [[[[113.9461564, 22.5390351], [113.9461625, 22.5386872], [113.9463387, 22.5386898], [113.9463329, 22.5390186], [113.9462497, 22.5390174], [113.9462494, 22.5390365], [113.9461564, 22.5390351]]]]}}, {"type": "Feature", "id": "way/1476884321", "properties": {"tags": {"building": "yes"}, "heightStatus": "unknown", "source": "OpenStreetMap", "license": "ODbL-1.0"}, "geometry": {"type": "MultiPolygon", "coordinates": [[[[113.94688, 22.5388521], [113.9468817, 22.5387112], [113.9470521, 22.5387129], [113.9470505, 22.5388538], [113.94688, 22.5388521]]]]}}, {"type": "Feature", "id": "way/1476884322", "properties": {"tags": {"building": "yes"}, "heightStatus": "unknown", "source": "OpenStreetMap", "license": "ODbL-1.0"}, "geometry": {"type": "MultiPolygon", "coordinates": [[[[113.9465533, 22.5390506], [113.9465537, 22.5389762], [113.9465819, 22.5389763], [113.946582, 22.5389483], [113.9469376, 22.53895], [113.9469373, 22.5389974], [113.9469018, 22.5389973], [113.9469015, 22.5390522], [113.9465533, 22.5390506]]]]}}]}