{"type": "FeatureCollection", "features": [{"type": "Feature", "id": "way/358458100", "properties": {"tags": {"building": "yes", "building:levels": "3", "layer": "1", "leisure": "sports_centre", "name": "新文体馆", "sport": "swimming;badminton;basketball;table_tennis"}, "heightStatus": "levels_only_unverified", "source": "OpenStreetMap", "license": "ODbL-1.0"}, "geometry": {"type": "MultiPolygon", "coordinates": [[[[113.9378891, 22.5909748], [113.9380477, 22.590935], [113.9381692, 22.5909045], [113.9383674, 22.5915779], [113.9380873, 22.5916481], [113.9378891, 22.5909748]]]]}}, {"type": "Feature", "id": "way/456324034", "properties": {"tags": {"building": "grandstand", "name": "看台"}, "heightStatus": "unknown", "source": "OpenStreetMap", "license": "ODbL-1.0"}, "geometry": {"type": "MultiPolygon", "coordinates": [[[[113.937963, 22.5901786], [113.9380728, 22.5901507], [113.9385189, 22.5916468], [113.9384091, 22.5916747], [113.937963, 22.5901786]]]]}}, {"type": "Feature", "id": "way/1094480235", "properties": {"tags": {"building": "dormitory", "name": "柳园A栋", "name:zh": "柳园A栋", "name:zh-Hans": "柳园A栋", "name:zh-Hant": "柳園A棟"}, "heightStatus": "unknown", "source": "OpenStreetMap", "license": "ODbL-1.0"}, "geometry": {"type": "MultiPolygon", "coordinates": [[[[113.9450871, 22.5932812], [113.9450958, 22.5930783], [113.945489, 22.5930926], [113.945486, 22.5931639], [113.9455325, 22.5931655], [113.945528, 22.5932725], [113.9454468, 22.5932695], [113.9454457, 22.5932943], [113.9450871, 22.5932812]]]]}}, {"type": "Feature", "id": "way/1094480236", "properties": {"tags": {"building": "dormitory", "name": "柳园B栋", "name:zh": "柳园B栋", "name:zh-Hans": "柳园B栋", "name:zh-Hant": "柳園B棟"}, "heightStatus": "unknown", "source": "OpenStreetMap", "license": "ODbL-1.0"}, "geometry": {"type": "MultiPolygon", "coordinates": [[[[113.945643, 22.5931494], [113.9456896, 22.5931236], [113.9456521, 22.5930644], [113.9459596, 22.5928972], [113.9460031, 22.5929688], [113.9461182, 22.5929091], [113.9461175, 22.5928461], [113.9460193, 22.5928442], [113.9460213, 22.5927703], [113.9462196, 22.5927753], [113.9462132, 22.5929918], [113.946175, 22.5929918], [113.9457177, 22.5932545], [113.945643, 22.5931494]]]]}}, {"type": "Feature", "id": "relation/14579388", "properties": {"tags": {"building": "dormitory", "name": "柳园D栋", "name:zh": "柳园D栋", "name:zh-Hans": "柳园D栋", "name:zh-Hant": "柳園D棟"}, "heightStatus": "unknown", "source": "OpenStreetMap", "license": "ODbL-1.0"}, "geometry": {"type": "MultiPolygon", "coordinates": [[[[113.9451942, 22.5928491], [113.9451955, 22.5928183], [113.9452694, 22.592821], [113.9452707, 22.5927905], [113.9452339, 22.5927892], [113.945235, 22.5927614], [113.9452157, 22.5927607], [113.9452168, 22.5927339], [113.9452362, 22.5927346], [113.9452382, 22.5926868], [113.9452714, 22.592688], [113.9452699, 22.5927233], [113.9453338, 22.5927256], [113.9453352, 22.5926917], [113.9453697, 22.592693], [113.9453678, 22.5927394], [113.9453883, 22.5927401], [113.9453872, 22.5927669], [113.9453666, 22.5927662], [113.9453655, 22.592794], [113.9453294, 22.5927927], [113.9453281, 22.5928231], [113.9454038, 22.5928259], [113.9454795, 22.5928286], [113.9454808, 22.5927982], [113.9454448, 22.5927969], [113.945446, 22.592769], [113.9454254, 22.5927683], [113.9454265, 22.5927415], [113.9454471, 22.5927422], [113.9454491, 22.5926959], [113.9454836, 22.5926971], [113.9454822, 22.592731], [113.9455461, 22.5927333], [113.9455476, 22.592698], [113.9455807, 22.5926992], [113.9455787, 22.592747], [113.9455981, 22.5927477], [113.9455969, 22.5927745], [113.9455776, 22.5927738], [113.9455764, 22.5928016], [113.9455396, 22.5928003], [113.9455383, 22.5928307], [113.9456121, 22.5928334], [113.9456108, 22.5928641], [113.9455725, 22.5928628], [113.9455703, 22.5929152], [113.9454373, 22.5929104], [113.9454395, 22.5928579], [113.9454025, 22.5928566], [113.9453655, 22.5928553], [113.9453633, 22.5929077], [113.9452303, 22.5929029], [113.9452325, 22.5928504], [113.9451942, 22.5928491]]]]}}, {"type": "Feature", "id": "relation/14579387", "properties": {"tags": {"building": "dormitory", "name": "柳园C栋", "name:zh": "柳园C栋", "name:zh-Hans": "柳园C栋", "name:zh-Hant": "柳園C棟"}, "heightStatus": "unknown", "source": "OpenStreetMap", "license": "ODbL-1.0"}, "geometry": {"type": "MultiPolygon", "coordinates": [[[[113.9458, 22.5925011], [113.9458013, 22.5924704], [113.9458752, 22.592473], [113.9458765, 22.5924426], [113.9458397, 22.5924412], [113.9458408, 22.5924134], [113.9458215, 22.5924127], [113.9458226, 22.5923859], [113.945842, 22.5923866], [113.945844, 22.5923388], [113.9458772, 22.59234], [113.9458757, 22.5923753], [113.9459396, 22.5923776], [113.945941, 22.5923438], [113.9459755, 22.592345], [113.9459736, 22.5923914], [113.9459941, 22.5923921], [113.945993, 22.5924189], [113.9459724, 22.5924182], [113.9459713, 22.592446], [113.9459352, 22.5924447], [113.9459339, 22.5924752], [113.9460096, 22.5924779], [113.9460853, 22.5924806], [113.9460866, 22.5924502], [113.9460506, 22.5924489], [113.9460518, 22.5924211], [113.9460312, 22.5924203], [113.9460323, 22.5923935], [113.9460529, 22.5923943], [113.9460549, 22.5923479], [113.9460894, 22.5923491], [113.946088, 22.592383], [113.9461519, 22.5923853], [113.9461534, 22.59235], [113.9461865, 22.5923512], [113.9461845, 22.592399], [113.9462039, 22.5923997], [113.9462027, 22.5924265], [113.9461834, 22.5924258], [113.9461822, 22.5924536], [113.9461454, 22.5924523], [113.9461441, 22.5924828], [113.9462179, 22.5924854], [113.9462166, 22.5925162], [113.9461783, 22.5925148], [113.9461761, 22.5925672], [113.9460431, 22.5925624], [113.9460453, 22.59251], [113.9460083, 22.5925086], [113.9459713, 22.5925073], [113.9459691, 22.5925597], [113.9458361, 22.5925549], [113.9458383, 22.5925025], [113.9458, 22.5925011]]]]}}, {"type": "Feature", "id": "relation/14579389", "properties": {"tags": {"building": "dormitory", "name": "柳园E栋", "name:zh": "柳园E栋", "name:zh-Hans": "柳园E栋", "name:zh-Hant": "柳園E棟"}, "heightStatus": "unknown", "source": "OpenStreetMap", "license": "ODbL-1.0"}, "geometry": {"type": "MultiPolygon", "coordinates": [[[[113.944509, 22.5924544], [113.9445105, 22.5924253], [113.9445846, 22.5924287], [113.9445859, 22.5924035], [113.9445475, 22.5924018], [113.9445492, 22.5923692], [113.9445321, 22.5923684], [113.9445335, 22.5923416], [113.944555, 22.5923426], [113.9445574, 22.5922972], [113.9445888, 22.5922986], [113.9445869, 22.5923342], [113.9446507, 22.5923371], [113.9446525, 22.5923036], [113.9446854, 22.5923051], [113.9446828, 22.5923538], [113.9447046, 22.5923548], [113.9447031, 22.5923816], [113.9446839, 22.5923807], [113.9446826, 22.5924037], [113.9446449, 22.592402], [113.944643, 22.5924378], [113.9447184, 22.5924412], [113.9447172, 22.5924631], [113.94468, 22.5924613], [113.9446775, 22.592507], [113.9445446, 22.5925009], [113.944547, 22.5924561], [113.944509, 22.5924544]]], [[[113.9447323, 22.5924669], [113.9447339, 22.5924378], [113.9448079, 22.5924412], [113.9448093, 22.592416], [113.9447709, 22.5924143], [113.9447726, 22.5923816], [113.9447554, 22.5923809], [113.9447569, 22.5923541], [113.9447784, 22.5923551], [113.9447808, 22.5923096], [113.9448121, 22.592311], [113.9448102, 22.5923467], [113.9448741, 22.5923496], [113.9448759, 22.5923161], [113.9449088, 22.5923176], [113.9449062, 22.5923663], [113.9449279, 22.5923672], [113.9449265, 22.5923941], [113.9449072, 22.5923932], [113.944906, 22.5924162], [113.9448683, 22.5924145], [113.9448664, 22.5924502], [113.9449418, 22.5924537], [113.9449406, 22.5924755], [113.9449033, 22.5924738], [113.9449009, 22.5925195], [113.9447679, 22.5925134], [113.9447703, 22.5924686], [113.9447323, 22.5924669]]]]}}, {"type": "Feature", "id": "way/1094480243", "properties": {"tags": {"building": "dormitory", "name": "柳园F栋", "name:zh": "柳园F栋", "name:zh-Hans": "柳园F栋", "name:zh-Hant": "柳園F棟"}, "heightStatus": "unknown", "source": "OpenStreetMap", "license": "ODbL-1.0"}, "geometry": {"type": "MultiPolygon", "coordinates": [[[[113.9445075, 22.5929033], [113.9445144, 22.5927159], [113.9448541, 22.5927266], [113.9448487, 22.592873], [113.9445448, 22.5928635], [113.9445433, 22.5929044], [113.9445075, 22.5929033]]]]}}, {"type": "Feature", "id": "way/1094480244", "properties": {"tags": {"building": "dormitory", "name": "柳园G栋", "name:zh": "柳园G栋", "name:zh-Hans": "柳园G栋", "name:zh-Hant": "柳園G棟"}, "heightStatus": "unknown", "source": "OpenStreetMap", "license": "ODbL-1.0"}, "geometry": {"type": "MultiPolygon", "coordinates": [[[[113.9444971, 22.5932304], [113.9445075, 22.5929033], [113.9445433, 22.5929044], [113.9445412, 22.5929588], [113.9445671, 22.59296], [113.9446491, 22.5930397], [113.9446485, 22.5930693], [113.9449495, 22.593089], [113.9449395, 22.5932459], [113.9446204, 22.5932322], [113.9444971, 22.5932304]]]]}}, {"type": "Feature", "id": "way/1094480245", "properties": {"tags": {"building": "yes", "leisure": "sports_hall", "name": "西丽湖园区体育馆", "name:zh": "西丽湖园区体育馆", "name:zh-Hans": "西丽湖园区体育馆", "name:zh-Hant": "西麗湖園區體育館"}, "heightStatus": "unknown", "source": "OpenStreetMap", "license": "ODbL-1.0"}, "geometry": {"type": "MultiPolygon", "coordinates": [[[[113.9436037, 22.5939755], [113.9436213, 22.5935446], [113.9437042, 22.5935475], [113.9437109, 22.5933851], [113.9442288, 22.5934032], [113.9442227, 22.5935535], [113.9443198, 22.5935569], [113.9443, 22.5940442], [113.9441966, 22.5940406], [113.9441921, 22.5941504], [113.9436871, 22.594133], [113.9436934, 22.5939786], [113.9436037, 22.5939755]]]]}}, {"type": "Feature", "id": "way/1094480248", "properties": {"tags": {"building": "yes"}, "heightStatus": "unknown", "source": "OpenStreetMap", "license": "ODbL-1.0"}, "geometry": {"type": "MultiPolygon", "coordinates": [[[[113.9420539, 22.5931772], [113.9420582, 22.5929866], [113.9421199, 22.5929864], [113.9421224, 22.5929153], [113.9422913, 22.5929208], [113.9423095, 22.592859], [113.9423357, 22.5928016], [113.9423586, 22.5927548], [113.9423963, 22.5927109], [113.9424437, 22.592646], [113.9424846, 22.5925976], [113.9425173, 22.5925508], [113.942497, 22.5930066], [113.9424672, 22.5930054], [113.9424658, 22.5931034], [113.942494, 22.5931036], [113.9424797, 22.59356], [113.9424175, 22.5935041], [113.9423881, 22.5934754], [113.9423488, 22.5934301], [113.9423079, 22.5933681], [113.9422784, 22.5933047], [113.9422621, 22.5932382], [113.9421113, 22.5932324], [113.9421131, 22.5931803], [113.9420539, 22.5931772]]]]}}, {"type": "Feature", "id": "way/1118551544", "properties": {"tags": {"amenity": "food_court", "building": "yes", "name": "均园餐厅", "name:zh": "均园餐厅", "name:zh-Hans": "均园餐厅", "name:zh-Hant": "均園餐廳"}, "heightStatus": "unknown", "source": "OpenStreetMap", "license": "ODbL-1.0"}, "geometry": {"type": "MultiPolygon", "coordinates": [[[[113.9454394, 22.5901273], [113.9455149, 22.5898366], [113.9456053, 22.5898566], [113.9456329, 22.589875], [113.9459255, 22.5899316], [113.9459684, 22.5900136], [113.9459546, 22.5900942], [113.9459255, 22.5901367], [113.9458719, 22.5901791], [113.9455931, 22.5901324], [113.9455456, 22.5901508], [113.9454394, 22.5901273]]]]}}, {"type": "Feature", "id": "way/1118551549", "properties": {"tags": {"amenity": "food_court", "building": "yes", "name": "柳园餐厅", "name:zh": "柳园餐厅", "name:zh-Hans": "柳园餐厅", "name:zh-Hant": "均園餐廳"}, "heightStatus": "unknown", "source": "OpenStreetMap", "license": "ODbL-1.0"}, "geometry": {"type": "MultiPolygon", "coordinates": [[[[113.9458858, 22.5920307], [113.9459054, 22.5919814], [113.946158, 22.5916085], [113.9462915, 22.5916857], [113.9463538, 22.5916036], [113.9463929, 22.5916594], [113.9464107, 22.5916906], [113.9464196, 22.5917284], [113.9464196, 22.5917547], [113.9464089, 22.5917876], [113.9464694, 22.5918221], [113.9463467, 22.5920422], [113.9462363, 22.5921852], [113.9461491, 22.5922755], [113.9459534, 22.5921474], [113.9459107, 22.5921063], [113.9458911, 22.5920669], [113.9458858, 22.5920307]]]]}}, {"type": "Feature", "id": "relation/14994487", "properties": {"tags": {"building": "dormitory", "name": "均园E栋"}, "heightStatus": "unknown", "source": "OpenStreetMap", "license": "ODbL-1.0"}, "geometry": {"type": "MultiPolygon", "coordinates": [[[[113.9434319, 22.5918083], [113.9434686, 22.591741], [113.9435207, 22.5917652], [113.9435671, 22.5916802], [113.9436019, 22.5916963], [113.943614, 22.5916742], [113.9437171, 22.5917221], [113.943705, 22.5917443], [113.9437398, 22.5917605], [113.9436934, 22.5918455], [113.9437455, 22.5918697], [113.9437977, 22.591894], [113.9438441, 22.591809], [113.9438788, 22.5918251], [113.9438909, 22.5918029], [113.9439941, 22.5918509], [113.943982, 22.5918731], [113.9440167, 22.5918892], [113.9439703, 22.5919743], [113.9440225, 22.5919985], [113.9439857, 22.5920659], [113.9437088, 22.5919371], [113.9434319, 22.5918083]]]]}}, {"type": "Feature", "id": "relation/14994488", "properties": {"tags": {"building": "dormitory", "name": "均园D栋"}, "heightStatus": "unknown", "source": "OpenStreetMap", "license": "ODbL-1.0"}, "geometry": {"type": "MultiPolygon", "coordinates": [[[[113.9437473, 22.5914973], [113.943784, 22.59143], [113.9438362, 22.5914542], [113.9438825, 22.5913692], [113.9439173, 22.5913853], [113.9439294, 22.5913632], [113.9440325, 22.5914111], [113.9440204, 22.5914333], [113.9440552, 22.5914495], [113.9440088, 22.5915345], [113.944061, 22.5915587], [113.9441131, 22.591583], [113.9441595, 22.591498], [113.9441942, 22.5915141], [113.9442063, 22.5914919], [113.9443095, 22.5915399], [113.9442974, 22.5915621], [113.9443321, 22.5915782], [113.9442858, 22.5916633], [113.9443379, 22.5916875], [113.9443012, 22.5917549], [113.9440242, 22.5916261], [113.9437473, 22.5914973]]]]}}, {"type": "Feature", "id": "way/1120956861", "properties": {"tags": {"building": "dormitory", "name": "均园C栋"}, "heightStatus": "unknown", "source": "OpenStreetMap", "license": "ODbL-1.0"}, "geometry": {"type": "MultiPolygon", "coordinates": [[[[113.9440498, 22.5912176], [113.9440674, 22.5911852], [113.9440824, 22.5911922], [113.9440971, 22.591165], [113.9441334, 22.5911818], [113.9441452, 22.5911599], [113.9442256, 22.591197], [113.9442139, 22.5912187], [113.9442442, 22.5912327], [113.9442559, 22.591211], [113.9443526, 22.5912557], [113.9443409, 22.5912773], [113.9443712, 22.5912913], [113.9443829, 22.5912697], [113.9444633, 22.5913068], [113.9444514, 22.5913287], [113.9444877, 22.5913455], [113.944473, 22.5913726], [113.944488, 22.5913796], [113.9444705, 22.591412], [113.9444553, 22.591405], [113.9444492, 22.5914161], [113.9443936, 22.5913905], [113.9443872, 22.5914023], [113.9443403, 22.5913805], [113.9443467, 22.5913688], [113.9441614, 22.5912832], [113.9441551, 22.5912949], [113.9441081, 22.5912734], [113.9441145, 22.5912615], [113.9440589, 22.5912358], [113.944065, 22.5912246], [113.9440498, 22.5912176]]]]}}, {"type": "Feature", "id": "way/1120956862", "properties": {"tags": {"building": "dormitory", "name": "均园B栋"}, "heightStatus": "unknown", "source": "OpenStreetMap", "license": "ODbL-1.0"}, "geometry": {"type": "MultiPolygon", "coordinates": [[[[113.9442435, 22.5909986], [113.9442684, 22.5909913], [113.9442604, 22.5909683], [113.9443913, 22.5909298], [113.9444393, 22.5909527], [113.9444547, 22.5909251], [113.944546, 22.5909686], [113.9445306, 22.5909962], [113.9445786, 22.5910191], [113.9446203, 22.5911399], [113.9445954, 22.5911472], [113.9446034, 22.5911701], [113.9445466, 22.5911869], [113.9445387, 22.5911639], [113.9445179, 22.59117], [113.9445082, 22.5911417], [113.944487, 22.591148], [113.9444709, 22.5911015], [113.9444921, 22.5910953], [113.9444762, 22.5910492], [113.9444239, 22.5910243], [113.944374, 22.591039], [113.9443808, 22.5910585], [113.9443304, 22.5910734], [113.9443237, 22.5910538], [113.9442931, 22.5910628], [113.9442865, 22.5910437], [113.9442616, 22.591051], [113.9442435, 22.5909986]]]]}}, {"type": "Feature", "id": "way/1120956863", "properties": {"tags": {"building": "dormitory", "name": "均园A栋"}, "heightStatus": "unknown", "source": "OpenStreetMap", "license": "ODbL-1.0"}, "geometry": {"type": "MultiPolygon", "coordinates": [[[[113.944637, 22.5908169], [113.9446728, 22.5906821], [113.9452291, 22.5908081], [113.9451933, 22.590943], [113.944637, 22.5908169]]]]}}, {"type": "Feature", "id": "way/1120956901", "properties": {"tags": {"building": "yes", "name": "物联网研究院", "name:zh": "物联网研究院", "name:zh-Hans": "物联网研究院", "name:zh-Hant": "物聯網研究院", "office": "research"}, "heightStatus": "unknown", "source": "OpenStreetMap", "license": "ODbL-1.0"}, "geometry": {"type": "MultiPolygon", "coordinates": [[[[113.9444156, 22.5940117], [113.9444323, 22.5936732], [113.9444505, 22.5936088], [113.9444951, 22.5935355], [113.9445369, 22.5934917], [113.9445843, 22.5934569], [113.9446526, 22.5934209], [113.9447321, 22.5934067], [113.9451043, 22.5934183], [113.9452131, 22.5935882], [113.9444156, 22.5940117]]]]}}, {"type": "Feature", "id": "way/1120956902", "properties": {"tags": {"building": "school", "name": "学术交流中心"}, "heightStatus": "unknown", "source": "OpenStreetMap", "license": "ODbL-1.0"}, "geometry": {"type": "MultiPolygon", "coordinates": [[[[113.9449589, 22.5905156], [113.9449877, 22.5903764], [113.9452548, 22.5904236], [113.9452491, 22.5904513], [113.9453012, 22.5904605], [113.9453255, 22.5904824], [113.9453188, 22.5905147], [113.9454053, 22.5905299], [113.9453816, 22.5906447], [113.9452589, 22.5906231], [113.9452698, 22.5905704], [113.9449589, 22.5905156]]]]}}, {"type": "Feature", "id": "way/1123091667", "properties": {"tags": {"building": "school", "name": "崇德楼A座"}, "heightStatus": "unknown", "source": "OpenStreetMap", "license": "ODbL-1.0"}, "geometry": {"type": "MultiPolygon", "coordinates": [[[[113.9387197, 22.5942233], [113.9387319, 22.594042], [113.9390407, 22.5940596], [113.9396577, 22.5940948], [113.93979, 22.5941024], [113.9397778, 22.5942839], [113.9387197, 22.5942233]]]]}}, {"type": "Feature", "id": "way/1123091668", "properties": {"tags": {"building": "school", "name": "崇德楼B座"}, "heightStatus": "unknown", "source": "OpenStreetMap", "license": "ODbL-1.0"}, "geometry": {"type": "MultiPolygon", "coordinates": [[[[113.9387129, 22.5936124], [113.9387976, 22.5935882], [113.9389221, 22.5935434], [113.9390192, 22.5934963], [113.9391213, 22.5934354], [113.9391948, 22.5933767], [113.9392944, 22.5932905], [113.9393616, 22.5932204], [113.9394313, 22.593148], [113.9394562, 22.5931135], [113.9396031, 22.5932112], [113.9395845, 22.5932641], [113.9395446, 22.5933055], [113.9395023, 22.5933572], [113.9394525, 22.5934066], [113.9393965, 22.5934641], [113.9393504, 22.593502], [113.9393068, 22.5935331], [113.9392383, 22.5935836], [113.9391512, 22.59364], [113.9390902, 22.5936687], [113.939003, 22.5937089], [113.9389283, 22.5937411], [113.9387615, 22.5937883], [113.9387129, 22.5936124]]]]}}, {"type": "Feature", "id": "way/1123091669", "properties": {"tags": {"building": "school"}, "heightStatus": "unknown", "source": "OpenStreetMap", "license": "ODbL-1.0"}, "geometry": {"type": "MultiPolygon", "coordinates": [[[[113.9390407, 22.5940596], [113.939047, 22.5940019], [113.9391539, 22.5940057], [113.9391512, 22.59364], [113.9392383, 22.5935836], [113.9393068, 22.5935331], [113.9393504, 22.593502], [113.9393965, 22.5934641], [113.9394525, 22.5934066], [113.9395023, 22.5933572], [113.9395446, 22.5933055], [113.9395845, 22.5932641], [113.9396489, 22.593316], [113.9394937, 22.5934995], [113.9394841, 22.5936139], [113.939458, 22.5936178], [113.9394327, 22.5936285], [113.9394018, 22.593641], [113.9393748, 22.5936543], [113.9393564, 22.5936668], [113.9393396, 22.5936855], [113.9393232, 22.5937082], [113.9393164, 22.5937296], [113.939315, 22.5937505], [113.9393238, 22.5937731], [113.9393405, 22.5937933], [113.9393569, 22.5938075], [113.9393786, 22.5938218], [113.9394061, 22.5938316], [113.9394476, 22.5938425], [113.9394722, 22.5938443], [113.9394645, 22.5939451], [113.9394659, 22.5939585], [113.939477, 22.5939714], [113.9394949, 22.5939799], [113.9395132, 22.5939808], [113.9396627, 22.5939794], [113.9396577, 22.5940948], [113.9390407, 22.5940596]]]]}}, {"type": "Feature", "id": "way/1123091670", "properties": {"tags": {"building": "school", "name": "报告厅"}, "heightStatus": "unknown", "source": "OpenStreetMap", "license": "ODbL-1.0"}, "geometry": {"type": "MultiPolygon", "coordinates": [[[[113.939315, 22.5937505], [113.9393164, 22.5937296], [113.9393232, 22.5937082], [113.9393396, 22.5936855], [113.9393564, 22.5936668], [113.9393748, 22.5936543], [113.9394018, 22.593641], [113.9394327, 22.5936285], [113.939458, 22.5936178], [113.9394841, 22.5936139], [113.9395204, 22.5936151], [113.9395521, 22.5936213], [113.9395932, 22.5936335], [113.9396296, 22.5936524], [113.9396501, 22.5936671], [113.9396673, 22.5936842], [113.9396799, 22.5937062], [113.9396816, 22.5937265], [113.9396792, 22.5937453], [113.9396726, 22.5937611], [113.9396627, 22.5937783], [113.9396488, 22.5937941], [113.9396355, 22.5938076], [113.939615, 22.5938192], [113.9395918, 22.5938277], [113.9395555, 22.5938375], [113.9395138, 22.5938448], [113.9394722, 22.5938443], [113.9394476, 22.5938425], [113.9394061, 22.5938316], [113.9393786, 22.5938218], [113.9393569, 22.5938075], [113.9393405, 22.5937933], [113.9393238, 22.5937731], [113.939315, 22.5937505]]]]}}, {"type": "Feature", "id": "way/1123091671", "properties": {"tags": {"amenity": "food_court", "building": "yes", "name": "瀚园一餐厅"}, "heightStatus": "unknown", "source": "OpenStreetMap", "license": "ODbL-1.0"}, "geometry": {"type": "MultiPolygon", "coordinates": [[[[113.9392932, 22.5953671], [113.9392958, 22.5951043], [113.9395413, 22.5951064], [113.9395403, 22.5952015], [113.9397403, 22.5952033], [113.9397378, 22.5954532], [113.9394578, 22.5954508], [113.9394586, 22.5953684], [113.9392932, 22.5953671]]]]}}, {"type": "Feature", "id": "way/1123091672", "properties": {"tags": {"building": "dormitory", "name": "瀚园A栋"}, "heightStatus": "unknown", "source": "OpenStreetMap", "license": "ODbL-1.0"}, "geometry": {"type": "MultiPolygon", "coordinates": [[[[113.9397201, 22.5956341], [113.9401934, 22.5955338], [113.9402912, 22.5959275], [113.9398265, 22.5960259], [113.9398028, 22.5959302], [113.9402338, 22.595839], [113.9401852, 22.5956433], [113.9397455, 22.5957364], [113.9397201, 22.5956341]]]]}}, {"type": "Feature", "id": "way/1123091673", "properties": {"tags": {"building": "dormitory", "name": "瀚园B栋"}, "heightStatus": "unknown", "source": "OpenStreetMap", "license": "ODbL-1.0"}, "geometry": {"type": "MultiPolygon", "coordinates": [[[[113.9386656, 22.5952386], [113.9387374, 22.5951616], [113.9393343, 22.5956357], [113.9395519, 22.5956417], [113.9395486, 22.5957448], [113.9392939, 22.5957377], [113.9386656, 22.5952386]]]]}}, {"type": "Feature", "id": "way/1123091674", "properties": {"tags": {"building": "dormitory", "name": "瀚园C栋"}, "heightStatus": "unknown", "source": "OpenStreetMap", "license": "ODbL-1.0"}, "geometry": {"type": "MultiPolygon", "coordinates": [[[[113.9389289, 22.5958187], [113.9389984, 22.5957525], [113.9391983, 22.5959316], [113.939631, 22.5959518], [113.9396257, 22.5960477], [113.939371, 22.5960357], [113.9392497, 22.59603], [113.93916, 22.5960258], [113.9389289, 22.5958187]]]]}}, {"type": "Feature", "id": "way/1123091675", "properties": {"tags": {"building": "dormitory", "name": "瀚园D栋"}, "heightStatus": "unknown", "source": "OpenStreetMap", "license": "ODbL-1.0"}, "geometry": {"type": "MultiPolygon", "coordinates": [[[[113.9392346, 22.596345], [113.9392497, 22.59603], [113.939371, 22.5960357], [113.9393605, 22.5962571], [113.939724, 22.5962719], [113.9397195, 22.5963647], [113.9392346, 22.596345]]]]}}, {"type": "Feature", "id": "way/1123286424", "properties": {"tags": {"building": "yes"}, "heightStatus": "unknown", "source": "OpenStreetMap", "license": "ODbL-1.0"}, "geometry": {"type": "MultiPolygon", "coordinates": [[[[113.9465415, 22.5925979], [113.9466921, 22.5925261], [113.9467307, 22.5925951], [113.9465801, 22.5926669], [113.9465415, 22.5925979]]]]}}, {"type": "Feature", "id": "way/1181112190", "properties": {"tags": {"building": "university", "name": "格物园E栋"}, "heightStatus": "unknown", "source": "OpenStreetMap", "license": "ODbL-1.0"}, "geometry": {"type": "MultiPolygon", "coordinates": [[[[113.9413076, 22.5935732], [113.9416253, 22.593316], [113.9417529, 22.5934504], [113.941533, 22.5936285], [113.9416557, 22.5937577], [113.9420964, 22.5937621], [113.9420941, 22.5939623], [113.9415424, 22.5939568], [113.941544, 22.593822], [113.9413076, 22.5935732]]]]}}, {"type": "Feature", "id": "way/1209134367", "properties": {"tags": {"building": "dormitory", "name": "瀚园E栋"}, "heightStatus": "unknown", "source": "OpenStreetMap", "license": "ODbL-1.0"}, "geometry": {"type": "MultiPolygon", "coordinates": [[[[113.9380498, 22.5942549], [113.9380616, 22.5940753], [113.9384544, 22.5940973], [113.9384741, 22.593798], [113.9386035, 22.5938052], [113.9385719, 22.5942842], [113.9380498, 22.5942549]]]]}}, {"type": "Feature", "id": "way/1210044224", "properties": {"tags": {"building": "yes"}, "heightStatus": "unknown", "source": "OpenStreetMap", "license": "ODbL-1.0"}, "geometry": {"type": "MultiPolygon", "coordinates": [[[[113.9409105, 22.5937721], [113.9410746, 22.593736], [113.9411166, 22.593736], [113.9411492, 22.5937406], [113.9411796, 22.5937534], [113.941216, 22.5937727], [113.9412348, 22.5937911], [113.9412547, 22.5938135], [113.9412646, 22.5938523], [113.9412591, 22.5938849], [113.9412469, 22.5939257], [113.9412304, 22.5939512], [113.9411972, 22.5939828], [113.9411829, 22.593992], [113.9411994, 22.5940216], [113.9411544, 22.5940309], [113.9411726, 22.5941056], [113.9410056, 22.5941407], [113.9409105, 22.5937721]]]]}}, {"type": "Feature", "id": "way/1210044225", "properties": {"tags": {"building": "yes"}, "heightStatus": "unknown", "source": "OpenStreetMap", "license": "ODbL-1.0"}, "geometry": {"type": "MultiPolygon", "coordinates": [[[[113.9412192, 22.594182], [113.9412222, 22.5941359], [113.9412358, 22.594059], [113.9412873, 22.5939596], [113.9413737, 22.5938365], [113.9414355, 22.5938596], [113.9414308, 22.5939094], [113.9414624, 22.5939201], [113.9413127, 22.5942732], [113.9412282, 22.5942436], [113.9412192, 22.594182]]]]}}, {"type": "Feature", "id": "way/1434800201", "properties": {"tags": {"building": "industrial"}, "heightStatus": "unknown", "source": "OpenStreetMap", "license": "ODbL-1.0"}, "geometry": {"type": "MultiPolygon", "coordinates": [[[[113.9436315, 22.590379], [113.9438388, 22.5899743], [113.9439886, 22.5900397], [113.943969, 22.5900779], [113.9440772, 22.5901251], [113.9440483, 22.5901814], [113.9440763, 22.5901936], [113.9440092, 22.5903245], [113.9439543, 22.5903005], [113.9438625, 22.5904799], [113.9436315, 22.590379]]]]}}, {"type": "Feature", "id": "way/1434800202", "properties": {"tags": {"building": "industrial"}, "heightStatus": "unknown", "source": "OpenStreetMap", "license": "ODbL-1.0"}, "geometry": {"type": "MultiPolygon", "coordinates": [[[[113.9430205, 22.5903353], [113.9431017, 22.5900718], [113.9433366, 22.5901336], [113.9432555, 22.590397], [113.9430205, 22.5903353]]]]}}, {"type": "Feature", "id": "way/1434800203", "properties": {"tags": {"building": "industrial"}, "heightStatus": "unknown", "source": "OpenStreetMap", "license": "ODbL-1.0"}, "geometry": {"type": "MultiPolygon", "coordinates": [[[[113.9433103, 22.5904612], [113.9434854, 22.5900366], [113.9435569, 22.5900618], [113.9435884, 22.5899853], [113.9437337, 22.5900364], [113.9435272, 22.5905374], [113.9433103, 22.5904612]]]]}}, {"type": "Feature", "id": "way/1434800210", "properties": {"tags": {"addr:housename": "旺棠工业区", "addr:housename:en": "Wangtang Industrial Area", "addr:housename:zh": "旺棠工业区", "building": "industrial", "name": "18栋", "name:en": "Block 18", "name:zh": "18栋"}, "heightStatus": "unknown", "source": "OpenStreetMap", "license": "ODbL-1.0"}, "geometry": {"type": "MultiPolygon", "coordinates": [[[[113.9438219, 22.590618], [113.9442571, 22.5902582], [113.944133, 22.5901302], [113.9443771, 22.5899284], [113.9446077, 22.5901661], [113.9439283, 22.5907278], [113.9438219, 22.590618]]]]}}, {"type": "Feature", "id": "way/1434800212", "properties": {"tags": {"addr:housename": "旺棠工业区", "addr:housename:en": "Wangtang Industrial Area", "addr:housename:zh": "旺棠工业区", "building": "industrial", "name": "19栋", "name:en": "Block 19", "name:zh": "19栋"}, "heightStatus": "unknown", "source": "OpenStreetMap", "license": "ODbL-1.0"}, "geometry": {"type": "MultiPolygon", "coordinates": [[[[113.9445348, 22.5899938], [113.9447449, 22.5899321], [113.9448051, 22.5899927], [113.9446576, 22.5901175], [113.9445348, 22.5899938]]]]}}, {"type": "Feature", "id": "way/1434800225", "properties": {"tags": {"addr:housename": "官龙名苑", "addr:housename:en": "Guanlong Mingyuan", "addr:housename:zh": "官龙名苑", "building": "apartments", "building:levels": "32", "name": "3栋", "name:en": "Block 3", "name:zh": "3栋"}, "heightStatus": "levels_only_unverified", "source": "OpenStreetMap", "license": "ODbL-1.0"}, "geometry": {"type": "MultiPolygon", "coordinates": [[[[113.9415212, 22.592492], [113.9415384, 22.592472], [113.9415216, 22.5924596], [113.9416618, 22.5922974], [113.9416787, 22.5923099], [113.94171, 22.5922737], [113.9418012, 22.5923409], [113.9417214, 22.5924333], [113.9417381, 22.5924456], [113.941695, 22.5924954], [113.9416783, 22.5924831], [113.9416054, 22.5925674], [113.9415212, 22.592492]]]]}}, {"type": "Feature", "id": "way/1434800226", "properties": {"tags": {"addr:housename": "官龙名苑", "addr:housename:en": "Guanlong Mingyuan", "addr:housename:zh": "官龙名苑", "building": "apartments", "building:levels": "32", "name": "1栋", "name:en": "Block 1", "name:zh": "1栋"}, "heightStatus": "levels_only_unverified", "source": "OpenStreetMap", "license": "ODbL-1.0"}, "geometry": {"type": "MultiPolygon", "coordinates": [[[[113.9410357, 22.5928036], [113.9410696, 22.5927859], [113.941059, 22.5927686], [113.9412548, 22.5926667], [113.9412654, 22.592684], [113.9412993, 22.5926664], [113.9413664, 22.5927552], [113.9412549, 22.5928132], [113.9412654, 22.5928304], [113.9412053, 22.5928617], [113.9411948, 22.5928445], [113.9410931, 22.5928975], [113.9410357, 22.5928036]]]]}}, {"type": "Feature", "id": "way/1434800227", "properties": {"tags": {"addr:housename": "官龙名苑", "addr:housename:en": "Guanlong Mingyuan", "addr:housename:zh": "官龙名苑", "building": "apartments", "building:levels": "32", "name": "2栋", "name:en": "Block 2", "name:zh": "2栋"}, "heightStatus": "levels_only_unverified", "source": "OpenStreetMap", "license": "ODbL-1.0"}, "geometry": {"type": "MultiPolygon", "coordinates": [[[[113.9412993, 22.5926664], [113.9413289, 22.5926431], [113.941315, 22.5926279], [113.9414861, 22.5924934], [113.9415001, 22.5925086], [113.9415212, 22.592492], [113.9416054, 22.5925674], [113.9415165, 22.5926372], [113.9415303, 22.5926523], [113.9414777, 22.5926936], [113.9414639, 22.5926786], [113.9413664, 22.5927552], [113.9412993, 22.5926664]]]]}}, {"type": "Feature", "id": "way/1434800228", "properties": {"tags": {"addr:housename": "官龙名苑", "addr:housename:en": "Guanlong Mingyuan", "addr:housename:zh": "官龙名苑", "building": "apartments", "building:levels": "32", "name": "4栋", "name:en": "Block 4", "name:zh": "4栋"}, "heightStatus": "levels_only_unverified", "source": "OpenStreetMap", "license": "ODbL-1.0"}, "geometry": {"type": "MultiPolygon", "coordinates": [[[[113.9405925, 22.5924499], [113.9407521, 22.5924018], [113.9409686, 22.593014], [113.940809, 22.5930621], [113.9405925, 22.5924499]]]]}}, {"type": "Feature", "id": "way/1434800229", "properties": {"tags": {"addr:housename": "学子荔园", "addr:housename:en": "Xuezi Liyuan", "addr:housename:zh": "学子荔园", "building": "apartments", "building:levels": "7", "name": "C栋", "name:en": "Block C", "name:zh": "C栋"}, "heightStatus": "levels_only_unverified", "source": "OpenStreetMap", "license": "ODbL-1.0"}, "geometry": {"type": "MultiPolygon", "coordinates": [[[[113.9399542, 22.5902379], [113.9400854, 22.5901995], [113.9401079, 22.5902649], [113.9401449, 22.590254], [113.9401225, 22.5901886], [113.9402536, 22.5901501], [113.9402761, 22.5902155], [113.9403132, 22.5902047], [113.9402907, 22.5901393], [113.9404219, 22.5901008], [113.9404444, 22.5901662], [113.9404815, 22.5901553], [113.940459, 22.5900899], [113.9405901, 22.5900515], [113.9406126, 22.5901169], [113.9406497, 22.590106], [113.9406272, 22.5900406], [113.9407584, 22.5900022], [113.9407809, 22.5900676], [113.940818, 22.5900567], [113.9407955, 22.5899913], [113.9409266, 22.5899528], [113.9409491, 22.5900182], [113.9409677, 22.5900128], [113.9409913, 22.5900815], [113.9409171, 22.5901033], [113.9409119, 22.590088], [113.940892, 22.5900938], [113.9408972, 22.5901091], [113.9407489, 22.5901526], [113.9407436, 22.5901373], [113.9407237, 22.5901432], [113.940729, 22.5901584], [113.9405806, 22.5902019], [113.9405754, 22.5901867], [113.9405555, 22.5901925], [113.9405607, 22.5902078], [113.9404124, 22.5902513], [113.9404071, 22.590236], [113.9403872, 22.5902418], [113.9403925, 22.5902571], [113.9402441, 22.5903006], [113.9402389, 22.5902853], [113.940219, 22.5902911], [113.9402242, 22.5903064], [113.9400758, 22.5903499], [113.9400706, 22.5903346], [113.9400507, 22.5903405], [113.940056, 22.5903557], [113.9399818, 22.5903775], [113.9399581, 22.5903088], [113.9399767, 22.5903033], [113.9399542, 22.5902379]]]]}}, {"type": "Feature", "id": "way/1434800232", "properties": {"tags": {"addr:housename": "学子荔园", "addr:housename:en": "Xuezi Liyuan", "addr:housename:zh": "学子荔园", "building": "apartments", "building:levels": "7", "name": "E栋", "name:en": "Block E", "name:zh": "E栋"}, "heightStatus": "levels_only_unverified", "source": "OpenStreetMap", "license": "ODbL-1.0"}, "geometry": {"type": "MultiPolygon", "coordinates": [[[[113.9399116, 22.5900636], [113.9399301, 22.590058], [113.9399216, 22.5900339], [113.9399585, 22.5900227], [113.9399483, 22.5899939], [113.9399298, 22.5899995], [113.9399156, 22.5899594], [113.9399341, 22.5899539], [113.9399219, 22.5899193], [113.9400195, 22.5898898], [113.9400318, 22.5899243], [113.9400503, 22.5899188], [113.9400645, 22.5899588], [113.940046, 22.5899644], [113.9400562, 22.5899932], [113.9400932, 22.589982], [113.9401017, 22.5900062], [113.9401387, 22.589995], [113.9401302, 22.5899709], [113.9401672, 22.5899597], [113.940157, 22.5899309], [113.9401385, 22.5899365], [113.9401243, 22.5898964], [113.9401428, 22.5898908], [113.9401305, 22.5898562], [113.9402282, 22.5898267], [113.9402404, 22.5898613], [113.9402589, 22.5898557], [113.9402731, 22.5898958], [113.9402546, 22.5899014], [113.9402648, 22.5899302], [113.9403018, 22.589919], [113.9403104, 22.5899431], [113.9403289, 22.5899375], [113.9403411, 22.5899721], [113.9399239, 22.5900982], [113.9399116, 22.5900636]]]]}}, {"type": "Feature", "id": "way/1434800234", "properties": {"tags": {"building": "apartments"}, "heightStatus": "unknown", "source": "OpenStreetMap", "license": "ODbL-1.0"}, "geometry": {"type": "MultiPolygon", "coordinates": [[[[113.9415801, 22.5903509], [113.9417813, 22.5903033], [113.9418187, 22.590438], [113.9416174, 22.5904856], [113.9415801, 22.5903509]]]]}}, {"type": "Feature", "id": "way/1434800235", "properties": {"tags": {"building": "apartments"}, "heightStatus": "unknown", "source": "OpenStreetMap", "license": "ODbL-1.0"}, "geometry": {"type": "MultiPolygon", "coordinates": [[[[113.941869, 22.5900655], [113.9421149, 22.5900073], [113.942212, 22.5903573], [113.9419661, 22.5904154], [113.941869, 22.5900655]]]]}}, {"type": "Feature", "id": "way/1434800236", "properties": {"tags": {"building": "apartments"}, "heightStatus": "unknown", "source": "OpenStreetMap", "license": "ODbL-1.0"}, "geometry": {"type": "MultiPolygon", "coordinates": [[[[113.9414378, 22.5898383], [113.941639, 22.5897907], [113.9417726, 22.590272], [113.9415714, 22.5903196], [113.9414378, 22.5898383]]]]}}, {"type": "Feature", "id": "way/1434800250", "properties": {"tags": {"addr:housename": "官龙村第一工业区", "addr:housename:en": "Guanlong Village First Industrial Area", "addr:housename:zh": "官龙村第一工业区", "building": "industrial", "name": "A栋", "name:en": "Block A", "name:zh": "A栋"}, "heightStatus": "unknown", "source": "OpenStreetMap", "license": "ODbL-1.0"}, "geometry": {"type": "MultiPolygon", "coordinates": [[[[113.9423387, 22.5899693], [113.9428234, 22.5898545], [113.9428627, 22.589996], [113.942378, 22.5901108], [113.9423387, 22.5899693]]]]}}]}